<?xml version="1.0" encoding="UTF-8"?>
<kml xmlns="http://www.opengis.net/kml/2.2">
  <Document>
    <name><![CDATA[延边朝鲜族自治州]]></name>
    <Placemark>
      <name><![CDATA[延边朝鲜族自治州]]></name>
      <description><![CDATA[省级目录：吉林省]]></description>
      <ExtendedData>
        <Data name="adcode"><value>222400</value></Data>
      </ExtendedData>
      <MultiGeometry>
      <Polygon>
        <outerBoundaryIs><LinearRing><coordinates>128.064558,42.011538,0 128.090784,42.02276,0 128.129689,42.021141,0 128.149044,42.024937,0 128.290628,42.0265,0 128.405793,42.01902,0 128.440051,42.023095,0 128.447987,42.016507,0 128.466181,42.020806,0 128.472278,42.015447,0 128.496763,42.001879,0 128.506247,42.000203,0 128.522699,42.003163,0 128.538086,42.000762,0 128.549409,42.004782,0 128.569152,41.996406,0 128.598378,42.007351,0 128.600798,42.023597,0 128.606604,42.030072,0 128.621605,42.029961,0 128.637863,42.035207,0 128.654412,42.030854,0 128.658283,42.018685,0 128.679574,42.014386,0 128.702123,42.020415,0 128.723994,42.035542,0 128.738027,42.050219,0 128.750414,42.050498,0 128.766479,42.036937,0 128.779254,42.033533,0 128.795028,42.042406,0 128.816029,42.040007,0 128.830449,42.031523,0 128.839933,42.029067,0 128.85503,42.030463,0 128.874095,42.023597,0 128.891031,42.026109,0 128.898096,42.016731,0 128.914838,42.012264,0 128.930516,42.014107,0 128.955581,42.030742,0 128.961775,42.055798,0 128.953645,42.065562,0 128.95471,42.083745,0 128.971259,42.096961,0 128.979195,42.092221,0 128.990711,42.095177,0 129.009486,42.092277,0 129.015389,42.102425,0 129.027776,42.101421,0 129.039293,42.107721,0 129.038906,42.115024,0 129.046358,42.119539,0 129.032131,42.121044,0 129.041228,42.124053,0 129.041809,42.131688,0 129.057777,42.141106,0 129.076745,42.142833,0 129.069584,42.153697,0 129.077616,42.160047,0 129.084778,42.156872,0 129.091165,42.142889,0 129.108682,42.145173,0 129.113714,42.140771,0 129.133166,42.156371,0 129.132876,42.166007,0 129.138199,42.16907,0 129.160457,42.167121,0 129.167135,42.172746,0 129.163651,42.18032,0 129.166651,42.188226,0 129.178555,42.190342,0 129.192006,42.198748,0 129.19549,42.206486,0 129.21591,42.208211,0 129.222104,42.217951,0 129.203716,42.2204,0 129.200523,42.228913,0 129.20933,42.237649,0 129.199362,42.243935,0 129.190071,42.23865,0 129.181651,42.242043,0 129.1832,42.262067,0 129.19191,42.266293,0 129.215814,42.265348,0 129.225201,42.269852,0 129.229169,42.285086,0 129.219007,42.283641,0 129.206523,42.287644,0 129.208652,42.293258,0 129.222104,42.296704,0 129.240588,42.306486,0 129.241556,42.312376,0 129.220556,42.310709,0 129.206233,42.312765,0 129.204491,42.319044,0 129.217556,42.323822,0 129.229459,42.320933,0 129.248814,42.320655,0 129.256653,42.323211,0 129.260234,42.335655,0 129.240105,42.347041,0 129.231104,42.356148,0 129.244556,42.378911,0 129.261686,42.374026,0 129.272234,42.380577,0 129.275331,42.387515,0 129.294299,42.380521,0 129.302622,42.387959,0 129.321107,42.385572,0 129.324591,42.392232,0 129.308719,42.403719,0 129.318397,42.409711,0 129.312203,42.421639,0 129.327881,42.421972,0 129.331268,42.429515,0 129.341236,42.409656,0 129.354785,42.409489,0 129.349172,42.414205,0 129.358753,42.419087,0 129.355075,42.430236,0 129.342107,42.441494,0 129.351204,42.454303,0 129.36785,42.459126,0 129.37656,42.451309,0 129.373463,42.444322,0 129.361269,42.433453,0 129.368334,42.425522,0 129.382463,42.424523,0 129.392721,42.428184,0 129.393205,42.444045,0 129.400947,42.449036,0 129.426206,42.436004,0 129.433368,42.434895,0 129.452336,42.440995,0 129.469369,42.422748,0 129.478756,42.417423,0 129.498885,42.412041,0 129.509337,42.396838,0 129.521822,42.39201,0 129.530725,42.382741,0 129.538177,42.368419,0 129.546209,42.361535,0 129.55821,42.362478,0 129.55608,42.374803,0 129.578049,42.380299,0 129.565274,42.388625,0 129.569242,42.399002,0 129.584726,42.409545,0 129.600404,42.411209,0 129.603695,42.429903,0 129.61434,42.441716,0 129.610759,42.444877,0 129.598565,42.443047,0 129.590823,42.448537,0 129.594307,42.453693,0 129.606308,42.454913,0 129.616082,42.463949,0 129.627502,42.46284,0 129.631663,42.454746,0 129.646857,42.437834,0 129.65218,42.42652,0 129.673761,42.431623,0 129.704536,42.427241,0 129.721472,42.437224,0 129.748569,42.471044,0 129.749924,42.479746,0 129.739376,42.499251,0 129.744408,42.514651,0 129.742182,42.527998,0 129.749827,42.546823,0 129.740537,42.563263,0 129.739763,42.573833,0 129.74615,42.584402,0 129.759312,42.587832,0 129.76415,42.603708,0 129.786312,42.607137,0 129.786603,42.61582,0 129.761247,42.617589,0 129.759312,42.625496,0 129.77286,42.634287,0 129.769086,42.63987,0 129.754473,42.64595,0 129.756989,42.653246,0 129.770344,42.658109,0 129.780215,42.645895,0 129.787957,42.643961,0 129.792603,42.649046,0 129.783699,42.65308,0 129.776344,42.669105,0 129.796861,42.681867,0 129.768989,42.705892,0 129.764828,42.722511,0 129.781377,42.746299,0 129.783699,42.762742,0 129.792409,42.773775,0 129.806055,42.785578,0 129.811184,42.795228,0 129.80741,42.813917,0 129.814184,42.832491,0 129.812926,42.842409,0 129.816313,42.851004,0 129.833055,42.85833,0 129.845636,42.901556,0 129.846798,42.918452,0 129.851443,42.922524,0 129.870605,42.919058,0 129.874766,42.9239,0 129.859282,42.944806,0 129.856282,42.953716,0 129.860153,42.967409,0 129.869153,42.973787,0 129.88425,42.973347,0 129.908832,42.969114,0 129.91638,42.974447,0 129.912509,42.97879,0 129.88996,42.981869,0 129.888508,42.994566,0 129.897122,43.001711,0 129.939703,43.012261,0 129.954123,43.010998,0 129.958188,42.985497,0 129.961865,42.97967,0 129.97822,42.976426,0 130.002221,42.981264,0 130.016254,42.969664,0 130.027286,42.967519,0 130.066481,42.969993,0 130.083126,42.975766,0 130.108482,42.989729,0 130.115353,42.98841,0 130.143999,42.976426,0 130.144289,42.971368,0 130.120869,42.954376,0 130.119902,42.945906,0 130.127644,42.932593,0 130.104514,42.928302,0 130.102191,42.922909,0 130.116418,42.913279,0 130.136063,42.903482,0 130.146031,42.902987,0 130.170613,42.912289,0 130.190065,42.909262,0 130.209807,42.902271,0 130.229356,42.901776,0 130.257808,42.906069,0 130.267196,42.902877,0 130.277067,42.893904,0 130.272906,42.87254,0 130.258002,42.860534,0 130.254034,42.828799,0 130.247937,42.821965,0 130.245421,42.799032,0 130.257324,42.791974,0 130.251905,42.781882,0 130.243776,42.780393,0 130.25055,42.766935,0 130.25026,42.755239,0 130.242034,42.738739,0 130.25297,42.725768,0 130.254808,42.714671,0 130.262163,42.708211,0 130.290035,42.703076,0 130.306197,42.685126,0 130.318681,42.662475,0 130.333488,42.649654,0 130.365618,42.636443,0 130.373069,42.630915,0 130.382844,42.609405,0 130.387876,42.603044,0 130.42078,42.616981,0 130.446813,42.607248,0 130.444297,42.600721,0 130.4262,42.585398,0 130.42378,42.574663,0 130.43549,42.553411,0 130.441781,42.549813,0 130.460556,42.552857,0 130.475556,42.561603,0 130.476427,42.569849,0 130.459685,42.588164,0 130.46433,42.604759,0 130.482524,42.626657,0 130.496169,42.629477,0 130.513492,42.627487,0 130.522783,42.6224,0 130.528977,42.606639,0 130.520267,42.593253,0 130.520557,42.583074,0 130.529267,42.572007,0 130.531396,42.554463,0 130.535461,42.54483,0 130.556074,42.523568,0 130.558881,42.496037,0 130.563236,42.492269,0 130.585978,42.485343,0 130.588881,42.480245,0 130.583559,42.472707,0 130.574365,42.450255,0 130.581139,42.435616,0 130.611334,42.433675,0 130.640173,42.422693,0 130.645689,42.426409,0 130.615689,42.443158,0 130.601559,42.448869,0 130.598172,42.467164,0 130.602817,42.470656,0 130.600011,42.486063,0 130.565558,42.506452,0 130.5703,42.520632,0 130.566913,42.528773,0 130.576494,42.541066,0 130.5703,42.554352,0 130.581817,42.561215,0 130.600785,42.559721,0 130.610463,42.554684,0 130.611527,42.5652,0 130.623528,42.573778,0 130.627592,42.586725,0 130.633496,42.590819,0 130.634754,42.600445,0 130.623721,42.614216,0 130.623044,42.631523,0 130.612592,42.633292,0 130.603108,42.642302,0 130.601559,42.654075,0 130.592075,42.671702,0 130.574946,42.680376,0 130.569816,42.68717,0 130.547848,42.693743,0 130.542525,42.699486,0 130.528783,42.703794,0 130.493653,42.690981,0 130.476717,42.692417,0 130.466265,42.688109,0 130.45891,42.694626,0 130.455233,42.70407,0 130.442168,42.706003,0 130.437136,42.710254,0 130.425232,42.706997,0 130.414103,42.716604,0 130.408877,42.72643,0 130.402102,42.729411,0 130.429103,42.732116,0 130.425813,42.741112,0 130.434716,42.751762,0 130.464233,42.762411,0 130.466265,42.772341,0 130.493653,42.775098,0 130.50817,42.783978,0 130.532364,42.787177,0 130.547267,42.798315,0 130.55259,42.808074,0 130.563332,42.815626,0 130.578817,42.818106,0 130.588494,42.813421,0 130.592849,42.818272,0 130.603398,42.819484,0 130.633592,42.835632,0 130.645593,42.834034,0 130.65169,42.841417,0 130.667077,42.848194,0 130.687207,42.850453,0 130.698336,42.846046,0 130.708981,42.846376,0 130.715465,42.842024,0 130.718175,42.832381,0 130.726885,42.831334,0 130.73995,42.843566,0 130.753692,42.84577,0 130.769757,42.837671,0 130.78379,42.841638,0 130.781951,42.851775,0 130.789403,42.863453,0 130.784467,42.866262,0 130.801887,42.879479,0 130.826178,42.882562,0 130.844759,42.881076,0 130.85734,42.869511,0 130.859856,42.862131,0 130.876405,42.864224,0 130.878728,42.859102,0 130.890728,42.852932,0 130.908051,42.859432,0 130.912987,42.870888,0 130.923535,42.869456,0 130.930019,42.875129,0 130.949665,42.877001,0 130.964472,42.865601,0 130.970956,42.866207,0 130.980924,42.85778,0 130.996892,42.860644,0 131.00415,42.858716,0 131.016538,42.864169,0 131.024473,42.861525,0 131.043345,42.863178,0 131.045861,42.866647,0 131.038119,42.877166,0 131.037732,42.885315,0 131.024667,42.894895,0 131.024861,42.905519,0 131.017602,42.912674,0 131.033764,42.928687,0 131.044022,42.922634,0 131.049248,42.925991,0 131.063281,42.918287,0 131.072088,42.926321,0 131.090282,42.916746,0 131.102669,42.918892,0 131.115056,42.91504,0 131.128218,42.931218,0 131.145638,42.936609,0 131.146993,42.946566,0 131.143509,42.957181,0 131.151154,42.968399,0 131.128702,42.966969,0 131.115153,42.975437,0 131.119605,42.980275,0 131.113314,42.993522,0 131.118444,43.000117,0 131.114282,43.015009,0 131.102475,43.021437,0 131.108766,43.037202,0 131.120089,43.050547,0 131.125121,43.052029,0 131.120476,43.068116,0 131.132767,43.072343,0 131.160348,43.075581,0 131.171768,43.069927,0 131.169929,43.091881,0 131.165187,43.095558,0 131.173413,43.110975,0 131.1948,43.117886,0 131.212123,43.143387,0 131.218511,43.14706,0 131.209414,43.168055,0 131.22064,43.181864,0 131.218898,43.191343,0 131.210962,43.19956,0 131.201478,43.202682,0 131.200026,43.211172,0 131.205736,43.221741,0 131.20293,43.228367,0 131.206123,43.237126,0 131.228092,43.249114,0 131.232543,43.25393,0 131.255189,43.265149,0 131.254028,43.281125,0 131.257125,43.288838,0 131.265835,43.292448,0 131.269415,43.299175,0 131.265641,43.313775,0 131.264964,43.331596,0 131.271835,43.345861,0 131.272802,43.358428,0 131.280351,43.378148,0 131.289448,43.383282,0 131.299513,43.380988,0 131.304158,43.390436,0 131.31761,43.397425,0 131.312771,43.405232,0 131.314029,43.417515,0 131.301448,43.423245,0 131.30019,43.437434,0 131.296126,43.44158,0 131.303577,43.455274,0 131.314416,43.461219,0 131.315578,43.483632,0 131.320707,43.489574,0 131.319546,43.498733,0 131.304352,43.502221,0 131.2969,43.494644,0 131.306578,43.486467,0 131.306094,43.479379,0 131.290996,43.477743,0 131.294093,43.470381,0 131.269609,43.468582,0 131.255286,43.475562,0 131.235737,43.475835,0 131.236511,43.464928,0 131.227414,43.457292,0 131.204962,43.454728,0 131.200897,43.442181,0 131.192091,43.439398,0 131.177574,43.445509,0 131.158703,43.430722,0 131.146993,43.430285,0 131.142638,43.425974,0 131.125605,43.433723,0 131.120766,43.447691,0 131.106734,43.450691,0 131.092024,43.457728,0 131.074894,43.472617,0 131.068507,43.482487,0 131.0477,43.491537,0 131.026699,43.508761,0 131.001344,43.507562,0 130.999699,43.50293,0 130.98315,43.492791,0 130.960601,43.486303,0 130.955085,43.47638,0 130.944633,43.476543,0 130.921309,43.455383,0 130.908051,43.434542,0 130.892373,43.433669,0 130.859759,43.439071,0 130.851533,43.449437,0 130.840791,43.454674,0 130.836146,43.472999,0 130.824242,43.491919,0 130.823468,43.502875,0 130.808274,43.50511,0 130.795596,43.515791,0 130.792596,43.52767,0 130.77508,43.521349,0 130.759305,43.542651,0 130.735788,43.545102,0 130.727659,43.560187,0 130.702207,43.560133,0 130.699691,43.568137,0 130.68111,43.569117,0 130.671142,43.56487,0 130.667271,43.583597,0 130.656141,43.581093,0 130.648399,43.587408,0 130.630786,43.583325,0 130.623818,43.589421,0 130.634947,43.614452,0 130.623915,43.62419,0 130.607366,43.620219,0 130.59672,43.621905,0 130.591011,43.613854,0 130.585494,43.613963,0 130.571075,43.62642,0 130.5583,43.630119,0 130.546977,43.62332,0 130.533622,43.631261,0 130.503234,43.639854,0 130.48833,43.656112,0 130.468394,43.656438,0 130.455717,43.647521,0 130.443039,43.652251,0 130.437039,43.646379,0 130.42649,43.651218,0 130.412845,43.652686,0 130.408296,43.664646,0 130.410135,43.66981,0 130.399877,43.67443,0 130.394457,43.703337,0 130.409167,43.717949,0 130.415941,43.73652,0 130.423393,43.744663,0 130.413329,43.756117,0 130.391844,43.767351,0 130.379747,43.781784,0 130.384102,43.788782,0 130.37965,43.825766,0 130.368037,43.833193,0 130.363779,43.845984,0 130.373553,43.852216,0 130.386328,43.854004,0 130.380618,43.86457,0 130.371231,43.870962,0 130.372586,43.876054,0 130.366198,43.890678,0 130.374327,43.901995,0 130.383328,43.905784,0 130.378392,43.912227,0 130.368521,43.91515,0 130.369489,43.920942,0 130.355843,43.940478,0 130.337649,43.947025,0 130.340552,43.953841,0 130.33852,43.964119,0 130.345004,43.963686,0 130.350133,43.975962,0 130.363295,43.990831,0 130.359908,43.999211,0 130.36736,44.014668,0 130.358359,44.023908,0 130.365714,44.033309,0 130.365521,44.044005,0 130.345198,44.050972,0 130.343069,44.046166,0 130.327294,44.039684,0 130.319358,44.039792,0 130.308035,44.021531,0 130.307648,44.002778,0 130.272228,43.980991,0 130.274551,43.967796,0 130.260034,43.956221,0 130.26197,43.949405,0 130.23884,43.940478,0 130.228388,43.949026,0 130.218904,43.94432,0 130.207775,43.948485,0 130.204968,43.943346,0 130.189678,43.940965,0 130.189774,43.93485,0 130.170129,43.927382,0 130.164903,43.918777,0 130.153773,43.915637,0 130.151838,43.904756,0 130.154548,43.891923,0 130.145547,43.887374,0 130.144096,43.879088,0 130.116224,43.878058,0 130.110224,43.869933,0 130.110805,43.852379,0 130.095417,43.842516,0 130.085159,43.841865,0 130.079836,43.835253,0 130.066674,43.83444,0 130.051771,43.842299,0 130.048093,43.851512,0 130.035125,43.854763,0 130.027093,43.851837,0 130.017125,43.867333,0 130.009092,43.888782,0 130.014318,43.906001,0 130.024093,43.91699,0 130.01906,43.938043,0 130.025544,43.943833,0 130.013641,43.956546,0 130.017996,43.961468,0 130.003189,43.964497,0 130.005995,43.969527,0 129.988963,43.982235,0 130.003189,43.989155,0 129.996027,43.993805,0 129.996221,44.001697,0 129.985285,43.998832,0 129.98064,44.014452,0 129.96051,44.020018,0 129.95122,44.027204,0 129.935735,44.027366,0 129.924509,44.015263,0 129.918122,44.023044,0 129.908541,44.024341,0 129.900799,44.01175,0 129.892476,44.012074,0 129.880379,44.000075,0 129.870121,44.002075,0 129.867121,44.011966,0 129.852798,43.99721,0 129.840507,43.996616,0 129.823281,43.982613,0 129.817765,43.973962,0 129.803151,43.964984,0 129.785151,43.964605,0 129.78128,43.95541,0 129.794248,43.939991,0 129.790667,43.932848,0 129.778086,43.929439,0 129.786893,43.917261,0 129.786119,43.901616,0 129.780215,43.892844,0 129.766376,43.89241,0 129.752634,43.896634,0 129.739763,43.895768,0 129.739472,43.8825,0 129.724956,43.878058,0 129.698536,43.883637,0 129.684019,43.877408,0 129.668148,43.876813,0 129.658761,43.872046,0 129.650438,43.873238,0 129.649664,43.880658,0 129.642212,43.878221,0 129.619856,43.879358,0 129.609211,43.882229,0 129.594791,43.874375,0 129.56779,43.871017,0 129.550951,43.874429,0 129.529467,43.870637,0 129.509821,43.873888,0 129.498111,43.880279,0 129.493079,43.875404,0 129.468014,43.874592,0 129.468401,43.866791,0 129.451175,43.851783,0 129.430658,43.844358,0 129.417883,43.843599,0 129.407238,43.829019,0 129.406851,43.819423,0 129.38856,43.817525,0 129.38827,43.81091,0 129.376366,43.808036,0 129.370947,43.801637,0 129.347914,43.798545,0 129.320429,43.811127,0 129.310461,43.812212,0 129.311139,43.801583,0 129.302138,43.79643,0 129.290332,43.797027,0 129.278041,43.813892,0 129.254911,43.819531,0 129.241459,43.807602,0 129.225491,43.798111,0 129.212136,43.784984,0 129.213007,43.769304,0 129.218717,43.75172,0 129.211362,43.747975,0 129.221136,43.742438,0 129.216491,43.723651,0 129.230911,43.714853,0 129.231878,43.708552,0 129.214265,43.695243,0 129.219781,43.682256,0 129.213781,43.666223,0 129.218136,43.648445,0 129.224523,43.64888,0 129.232266,43.635503,0 129.23033,43.594483,0 129.225394,43.588061,0 129.210297,43.584632,0 129.205749,43.574942,0 129.192877,43.576031,0 129.185329,43.568736,0 129.169458,43.561494,0 129.166748,43.570859,0 129.148457,43.570913,0 129.141199,43.564489,0 129.121553,43.555504,0 129.110714,43.559207,0 129.098327,43.556375,0 129.095617,43.548587,0 129.073068,43.547444,0 129.038519,43.540526,0 129.014324,43.523311,0 128.983259,43.536604,0 128.963226,43.539001,0 128.949581,43.554034,0 128.934871,43.55594,0 128.925774,43.553598,0 128.913677,43.543686,0 128.877966,43.540145,0 128.866643,43.558118,0 128.854449,43.557247,0 128.850965,43.575759,0 128.8349,43.587408,0 128.820965,43.637243,0 128.813222,43.638929,0 128.814674,43.645509,0 128.80848,43.653502,0 128.806642,43.666766,0 128.787383,43.686929,0 128.789319,43.695134,0 128.783318,43.704261,0 128.784286,43.715613,0 128.771512,43.720501,0 128.768125,43.732448,0 128.753124,43.727669,0 128.741801,43.734674,0 128.743543,43.739343,0 128.72864,43.737877,0 128.729027,43.745912,0 128.73764,43.753077,0 128.750414,43.757256,0 128.767447,43.758559,0 128.759318,43.760893,0 128.750318,43.784171,0 128.743156,43.793121,0 128.742575,43.801745,0 128.731833,43.811561,0 128.718768,43.817905,0 128.726414,43.831783,0 128.746543,43.849669,0 128.760866,43.857689,0 128.72351,43.894685,0 128.707833,43.897446,0 128.696316,43.903294,0 128.692735,43.895118,0 128.678993,43.89241,0 128.669316,43.897338,0 128.661767,43.890244,0 128.648218,43.894685,0 128.636411,43.891382,0 128.63496,43.903348,0 128.64096,43.907246,0 128.633798,43.910873,0 128.631379,43.925759,0 128.645218,43.935879,0 128.640282,43.947512,0 128.624218,43.950325,0 128.603991,43.967418,0 128.594604,43.981856,0 128.584539,43.990831,0 128.585023,44.002508,0 128.578829,44.012993,0 128.575055,44.031581,0 128.574958,44.047516,0 128.566248,44.050594,0 128.558603,44.069278,0 128.546409,44.083638,0 128.535377,44.091842,0 128.537893,44.099721,0 128.531796,44.10215,0 128.528893,44.112293,0 128.519699,44.119253,0 128.50286,44.12346,0 128.50015,44.132737,0 128.492698,44.136567,0 128.48273,44.151881,0 128.471891,44.157703,0 128.468601,44.174844,0 128.4626,44.186861,0 128.465697,44.196452,0 128.460278,44.20227,0 128.450116,44.203725,0 128.458342,44.212127,0 128.457278,44.226399,0 128.471214,44.236467,0 128.471794,44.247772,0 128.465891,44.253908,0 128.453891,44.257999,0 128.456407,44.267416,0 128.470149,44.288775,0 128.468214,44.297488,0 128.475472,44.310502,0 128.472278,44.319804,0 128.455342,44.330555,0 128.446536,44.339853,0 128.453697,44.343185,0 128.469955,44.343561,0 128.475665,44.347162,0 128.475665,44.36269,0 128.481665,44.375636,0 128.470633,44.392445,0 128.461342,44.399854,0 128.456987,44.410913,0 128.457375,44.421701,0 128.462794,44.433024,0 128.4536,44.438014,0 128.436664,44.452821,0 128.427761,44.473468,0 128.388373,44.48982,0 128.381695,44.505042,0 128.372985,44.514259,0 128.346662,44.509383,0 128.338823,44.505578,0 128.329339,44.495395,0 128.296919,44.482422,0 128.29208,44.467302,0 128.271563,44.460169,0 128.259756,44.45856,0 128.25395,44.446652,0 128.228111,44.445471,0 128.211755,44.432112,0 128.210207,44.424224,0 128.197626,44.397438,0 128.198884,44.393035,0 128.1894,44.373809,0 128.187948,44.363227,0 128.171786,44.346517,0 128.162786,44.344744,0 128.154076,44.356189,0 128.138979,44.357855,0 128.125624,44.348989,0 128.110914,44.357264,0 128.097365,44.354147,0 128.075107,44.369405,0 128.072203,44.374884,0 128.063009,44.356995,0 128.050332,44.35044,0 128.055848,44.343185,0 128.064074,44.341734,0 128.056332,44.32905,0 128.062913,44.324104,0 128.065139,44.307329,0 128.079752,44.307491,0 128.086139,44.29496,0 128.097946,44.295821,0 128.101527,44.290388,0 128.08972,44.275864,0 128.074139,44.269622,0 128.06388,44.26155,0 128.064461,44.251056,0 128.080816,44.246265,0 128.092333,44.247987,0 128.094172,44.241743,0 128.087978,44.238944,0 128.103946,44.23006,0 128.105107,44.214982,0 128.09243,44.21579,0 128.09243,44.181581,0 128.070461,44.181149,0 128.060493,44.168592,0 128.075687,44.158997,0 128.087881,44.158781,0 128.084978,44.147621,0 128.091462,44.139533,0 128.100752,44.13538,0 128.09001,44.132252,0 128.052558,44.107006,0 128.042493,44.103984,0 128.024589,44.107761,0 128.007266,44.094271,0 127.981523,44.090223,0 127.96662,44.090979,0 127.962555,44.087632,0 127.94949,44.088118,0 127.93449,44.07797,0 127.918135,44.070034,0 127.912812,44.064797,0 127.889586,44.069602,0 127.865004,44.062259,0 127.870133,44.055779,0 127.860456,44.049082,0 127.852423,44.048272,0 127.84981,44.041574,0 127.835584,44.037415,0 127.835778,44.031797,0 127.820971,44.02045,0 127.807809,44.017911,0 127.800551,44.008183,0 127.788938,44.00267,0 127.783422,43.995913,0 127.785744,43.989318,0 127.782744,43.978828,0 127.792325,43.973421,0 127.779841,43.97169,0 127.786131,43.956113,0 127.778679,43.949513,0 127.775873,43.936744,0 127.762518,43.937231,0 127.781196,43.929709,0 127.795228,43.916774,0 127.836068,43.901074,0 127.839552,43.896634,0 127.851262,43.896147,0 127.850972,43.888836,0 127.861036,43.882175,0 127.854456,43.857635,0 127.83752,43.86717,0 127.816519,43.853571,0 127.811003,43.840944,0 127.816713,43.836066,0 127.807809,43.827935,0 127.817971,43.81861,0 127.813422,43.812103,0 127.826874,43.809771,0 127.835584,43.801528,0 127.844197,43.800389,0 127.84052,43.79502,0 127.839358,43.779234,0 127.857262,43.754868,0 127.856972,43.746998,0 127.877101,43.735,0 127.893457,43.729733,0 127.906522,43.732339,0 127.915909,43.730602,0 127.920554,43.721316,0 127.917457,43.716374,0 127.924716,43.7079,0 127.910296,43.70312,0 127.913489,43.694591,0 127.90265,43.689864,0 127.909909,43.68443,0 127.905651,43.670082,0 127.913296,43.666223,0 127.916393,43.657851,0 127.913006,43.651871,0 127.899457,43.645618,0 127.896554,43.625006,0 127.884263,43.620382,0 127.865682,43.624897,0 127.854649,43.616411,0 127.853585,43.610644,0 127.840907,43.595136,0 127.82939,43.598564,0 127.816519,43.590728,0 127.819326,43.583053,0 127.8111,43.581148,0 127.797938,43.572166,0 127.798809,43.564761,0 127.791744,43.563509,0 127.791164,43.554578,0 127.777034,43.555014,0 127.770841,43.54984,0 127.769873,43.531974,0 127.774518,43.525763,0 127.761356,43.523257,0 127.745001,43.503693,0 127.733775,43.504456,0 127.719839,43.510396,0 127.71771,43.502439,0 127.698161,43.484232,0 127.704258,43.480851,0 127.706678,43.464655,0 127.697097,43.451346,0 127.696323,43.43727,0 127.701742,43.430285,0 127.710162,43.430231,0 127.70571,43.409272,0 127.698645,43.401957,0 127.703484,43.395023,0 127.694968,43.378039,0 127.688096,43.375144,0 127.686064,43.367278,0 127.678999,43.364219,0 127.682193,43.35433,0 127.671741,43.349522,0 127.647934,43.346298,0 127.639902,43.340068,0 127.625192,43.341216,0 127.617449,43.334821,0 127.633902,43.323288,0 127.630514,43.312955,0 127.61532,43.305464,0 127.618417,43.300159,0 127.643482,43.292721,0 127.654128,43.283258,0 127.659451,43.27352,0 127.657225,43.260169,0 127.644547,43.249333,0 127.636224,43.236688,0 127.634192,43.223822,0 127.611933,43.206243,0 127.595965,43.197533,0 127.585997,43.195068,0 127.581352,43.187508,0 127.5679,43.186631,0 127.562287,43.178796,0 127.561513,43.168986,0 127.54748,43.161039,0 127.548544,43.157695,0 127.532189,43.146238,0 127.510608,43.140865,0 127.480027,43.139768,0 127.488833,43.129239,0 127.503447,43.120574,0 127.492898,43.091552,0 127.501801,43.070586,0 127.501124,43.065591,0 127.484769,43.060869,0 127.483414,43.053018,0 127.469962,43.038026,0 127.469768,43.028688,0 127.479543,43.021986,0 127.497253,43.023359,0 127.504705,43.011822,0 127.516802,43.003195,0 127.531221,42.984452,0 127.548351,42.978076,0 127.557932,42.979175,0 127.575448,42.966749,0 127.5859,42.955916,0 127.596643,42.957346,0 127.608449,42.954596,0 127.616579,42.945631,0 127.636321,42.937765,0 127.640966,42.921699,0 127.655096,42.917902,0 127.674838,42.902712,0 127.696129,42.900345,0 127.711613,42.891317,0 127.728356,42.892803,0 127.744324,42.890271,0 127.754098,42.901831,0 127.759421,42.902436,0 127.774034,42.895445,0 127.776938,42.887958,0 127.794744,42.874192,0 127.807325,42.878598,0 127.819035,42.875789,0 127.825036,42.868134,0 127.819713,42.864004,0 127.815455,42.840866,0 127.829197,42.834254,0 127.835197,42.818878,0 127.841778,42.818933,0 127.85252,42.811106,0 127.843617,42.805593,0 127.847004,42.801017,0 127.837617,42.788335,0 127.833165,42.775871,0 127.834423,42.762576,0 127.85223,42.757997,0 127.855811,42.753142,0 127.869359,42.751431,0 127.865682,42.740671,0 127.874005,42.734655,0 127.86723,42.730349,0 127.857553,42.735814,0 127.846907,42.730736,0 127.850391,42.72494,0 127.862101,42.719088,0 127.875263,42.696118,0 127.890457,42.695952,0 127.89936,42.689932,0 127.895586,42.684298,0 127.885908,42.689269,0 127.882037,42.684795,0 127.886005,42.674796,0 127.904489,42.670155,0 127.923167,42.67336,0 127.938458,42.663027,0 127.960329,42.657833,0 127.965942,42.653191,0 127.964588,42.644348,0 127.953555,42.641473,0 127.959749,42.630583,0 127.959168,42.620962,0 127.973201,42.622179,0 127.967201,42.612004,0 127.981427,42.610511,0 127.994588,42.600832,0 127.987137,42.59884,0 127.995169,42.588551,0 127.995846,42.581967,0 128.008621,42.578537,0 128.015879,42.56996,0 128.012492,42.563983,0 128.021395,42.565588,0 128.027783,42.561215,0 128.020234,42.541619,0 128.028073,42.541564,0 128.024105,42.529825,0 128.03388,42.528662,0 128.034267,42.50058,0 128.03146,42.496813,0 128.043557,42.480134,0 128.035138,42.465501,0 128.018589,42.450754,0 128.014137,42.436836,0 128.016266,42.427851,0 128.007169,42.414205,0 127.998169,42.413706,0 127.983362,42.403663,0 127.959942,42.392954,0 127.9522,42.374526,0 127.943781,42.367697,0 127.92249,42.36903,0 127.903521,42.366865,0 127.903521,42.34904,0 127.890069,42.338321,0 127.887747,42.3301,0 127.858617,42.327655,0 127.845165,42.330711,0 127.840617,42.326711,0 127.817777,42.323489,0 127.80839,42.307041,0 127.810713,42.29676,0 127.828907,42.280806,0 127.854552,42.283363,0 127.862004,42.274245,0 127.868391,42.276525,0 127.877682,42.266905,0 127.880682,42.250554,0 127.885327,42.2431,0 127.900812,42.239985,0 127.907586,42.243601,0 127.912618,42.231083,0 127.910296,42.221067,0 127.915425,42.204092,0 127.927812,42.188672,0 127.943684,42.181433,0 127.952684,42.172412,0 127.960523,42.172412,0 127.968362,42.16467,0 127.96091,42.145619,0 127.963717,42.140326,0 127.987524,42.125224,0 127.991395,42.11547,0 128.015299,42.087426,0 128.024299,42.071307,0 128.036589,42.042853,0 128.039202,42.029905,0 128.064558,42.011538,0</coordinates></LinearRing></outerBoundaryIs>
      </Polygon>
    </MultiGeometry>
    </Placemark>
  </Document>
</kml>
