<?xml version="1.0" encoding="UTF-8"?>
<kml xmlns="http://www.opengis.net/kml/2.2">
  <Document>
    <name><![CDATA[松原市]]></name>
    <Placemark>
      <name><![CDATA[松原市]]></name>
      <description><![CDATA[省级目录：吉林省]]></description>
      <ExtendedData>
        <Data name="adcode"><value>220700</value></Data>
      </ExtendedData>
      <MultiGeometry>
      <Polygon>
        <outerBoundaryIs><LinearRing><coordinates>123.125462,44.509276,0 123.136107,44.502416,0 123.136785,44.485639,0 123.125946,44.477007,0 123.137075,44.461831,0 123.124107,44.45797,0 123.142108,44.428141,0 123.136204,44.406028,0 123.114526,44.402485,0 123.128365,44.36688,0 123.12343,44.364301,0 123.148688,44.361615,0 123.169495,44.35044,0 123.173754,44.345227,0 123.19698,44.345012,0 123.24082,44.295068,0 123.277111,44.252563,0 123.286692,44.214874,0 123.293079,44.214174,0 123.299757,44.195213,0 123.316693,44.189879,0 123.323661,44.179802,0 123.386372,44.161854,0 123.382307,44.15091,0 123.384533,44.141744,0 123.362468,44.1336,0 123.354242,44.106682,0 123.348435,44.097023,0 123.350661,44.092652,0 123.328403,44.083854,0 123.328499,44.070952,0 123.358694,44.075001,0 123.399243,44.066633,0 123.400114,44.07187,0 123.409502,44.076998,0 123.424986,44.075217,0 123.437083,44.077862,0 123.449664,44.07689,0 123.478503,44.083638,0 123.503085,44.080399,0 123.547989,44.077916,0 123.55186,44.081425,0 123.571796,44.087956,0 123.589893,44.088334,0 123.6107,44.081425,0 123.635669,44.078132,0 123.641862,44.079374,0 123.652411,44.089467,0 123.660444,44.092544,0 123.66354,44.107815,0 123.683186,44.109865,0 123.687928,44.098588,0 123.699445,44.090223,0 123.695574,44.083422,0 123.718703,44.062907,0 123.721219,44.050702,0 123.732639,44.039522,0 123.745607,44.042601,0 123.756736,44.040926,0 123.773576,44.022882,0 123.766221,44.016614,0 123.76864,44.003643,0 123.818577,43.986236,0 123.857578,43.999859,0 123.872675,43.9984,0 123.901321,44.000454,0 123.951741,43.998616,0 124.015711,44.004508,0 124.06226,44.009102,0 124.0761,44.021045,0 124.110939,44.012885,0 124.125262,44.01202,0 124.134069,44.00667,0 124.13794,44.009858,0 124.157586,44.013695,0 124.165521,44.00494,0 124.164747,43.997697,0 124.181005,43.995048,0 124.191264,43.98829,0 124.198329,43.993805,0 124.212555,43.998238,0 124.218555,43.992183,0 124.229297,43.994508,0 124.231233,43.990129,0 124.251072,43.992291,0 124.253588,43.999211,0 124.266459,44.000184,0 124.270137,43.995751,0 124.28717,43.991859,0 124.300815,43.993859,0 124.308073,43.990994,0 124.317848,44.003265,0 124.314073,44.008291,0 124.326364,44.008615,0 124.352397,44.014884,0 124.3523,44.017694,0 124.397592,44.028177,0 124.397689,44.03936,0 124.402721,44.030068,0 124.41956,44.038279,0 124.424496,44.036929,0 124.435625,44.051296,0 124.436496,44.060693,0 124.44598,44.061233,0 124.461948,44.073057,0 124.469497,44.070628,0 124.471432,44.07878,0 124.486239,44.091302,0 124.505788,44.100585,0 124.50124,44.10911,0 124.516434,44.116609,0 124.551176,44.120655,0 124.562015,44.116286,0 124.583693,44.121626,0 124.626953,44.125402,0 124.655308,44.122004,0 124.65376,44.12756,0 124.686761,44.142337,0 124.721794,44.151018,0 124.731762,44.148699,0 124.736117,44.159159,0 124.729729,44.176245,0 124.724697,44.17797,0 124.735052,44.183682,0 124.749182,44.199792,0 124.757698,44.202863,0 124.762827,44.213905,0 124.761569,44.225322,0 124.751794,44.220475,0 124.751891,44.210134,0 124.734375,44.201408,0 124.727213,44.201031,0 124.717148,44.192411,0 124.712213,44.200977,0 124.698471,44.206849,0 124.687922,44.200546,0 124.679502,44.203832,0 124.67147,44.198984,0 124.669341,44.209488,0 124.658986,44.204209,0 124.655986,44.207334,0 124.63634,44.20394,0 124.625114,44.208195,0 124.622017,44.217944,0 124.617275,44.211589,0 124.605081,44.236683,0 124.600145,44.253262,0 124.604016,44.272205,0 124.620372,44.283234,0 124.61321,44.288882,0 124.627727,44.297434,0 124.628501,44.305931,0 124.618339,44.322008,0 124.620565,44.324104,0 124.607113,44.337596,0 124.607404,44.344314,0 124.622114,44.34915,0 124.624823,44.359251,0 124.611662,44.369781,0 124.605178,44.367686,0 124.601113,44.376119,0 124.60963,44.375367,0 124.599855,44.389599,0 124.590468,44.387504,0 124.584855,44.397062,0 124.573532,44.394216,0 124.56337,44.413167,0 124.555918,44.411503,0 124.550789,44.424063,0 124.562693,44.428248,0 124.568983,44.43619,0 124.577693,44.435117,0 124.585629,44.428409,0 124.600726,44.434366,0 124.60421,44.430931,0 124.612533,44.43796,0 124.617856,44.434044,0 124.625791,44.438336,0 124.635082,44.434366,0 124.643308,44.448636,0 124.621146,44.45856,0 124.603145,44.471216,0 124.595307,44.46698,0 124.581371,44.476685,0 124.580887,44.483923,0 124.592597,44.491268,0 124.564822,44.507079,0 124.559789,44.504292,0 124.545467,44.514367,0 124.552628,44.524332,0 124.561531,44.529422,0 124.574112,44.529422,0 124.570822,44.540188,0 124.57508,44.545062,0 124.569661,44.553202,0 124.552434,44.569371,0 124.57508,44.583983,0 124.582145,44.593616,0 124.595113,44.602659,0 124.601597,44.601535,0 124.628404,44.620258,0 124.618146,44.62951,0 124.634308,44.640686,0 124.667115,44.648599,0 124.689277,44.652608,0 124.699632,44.656831,0 124.721697,44.660145,0 124.746762,44.649668,0 124.766795,44.659878,0 124.778698,44.66907,0 124.781311,44.680292,0 124.80357,44.663833,0 124.819151,44.672276,0 124.826409,44.66597,0 124.825538,44.67591,0 124.8297,44.683284,0 124.807248,44.704117,0 124.868894,44.733057,0 124.877895,44.726757,0 124.886314,44.730014,0 124.897153,44.726063,0 124.95851,44.754886,0 124.963542,44.750083,0 124.985317,44.759582,0 124.994994,44.759902,0 125.01164,44.7782,0 125.02635,44.788014,0 125.031673,44.776173,0 125.03835,44.777934,0 125.042318,44.770785,0 125.0699,44.776813,0 125.074738,44.772279,0 125.0879,44.772546,0 125.107352,44.765344,0 125.125353,44.769985,0 125.136772,44.77916,0 125.133385,44.783321,0 125.153515,44.796653,0 125.156515,44.790254,0 125.171999,44.786521,0 125.189612,44.793987,0 125.215065,44.800545,0 125.222807,44.806144,0 125.229291,44.803638,0 125.239936,44.808703,0 125.243904,44.802838,0 125.262485,44.796013,0 125.288808,44.804064,0 125.313099,44.814247,0 125.303422,44.823522,0 125.292196,44.826773,0 125.285034,44.837537,0 125.274776,44.832262,0 125.253485,44.832155,0 125.231904,44.84505,0 125.232,44.853734,0 125.247194,44.860073,0 125.251646,44.857196,0 125.266743,44.858102,0 125.283099,44.850964,0 125.296357,44.852668,0 125.307293,44.86199,0 125.329745,44.867369,0 125.340294,44.879724,0 125.354133,44.880363,0 125.36952,44.884516,0 125.391489,44.881321,0 125.384037,44.873547,0 125.391392,44.871736,0 125.412586,44.874559,0 125.421005,44.890585,0 125.436877,44.897186,0 125.449748,44.884675,0 125.469297,44.884143,0 125.48091,44.872535,0 125.493104,44.874985,0 125.496104,44.880948,0 125.505588,44.883877,0 125.531331,44.884303,0 125.54488,44.890159,0 125.569751,44.891064,0 125.577203,44.893726,0 125.590558,44.885208,0 125.600623,44.885687,0 125.612914,44.900752,0 125.641753,44.917995,0 125.641076,44.930339,0 125.654044,44.93901,0 125.665657,44.935712,0 125.682206,44.937946,0 125.696625,44.936935,0 125.719949,44.93901,0 125.738143,44.923742,0 125.742304,44.912514,0 125.749175,44.905702,0 125.751982,44.893353,0 125.760595,44.887604,0 125.771144,44.887071,0 125.787305,44.87573,0 125.781789,44.863641,0 125.791563,44.857516,0 125.801144,44.85693,0 125.810822,44.848992,0 125.800757,44.840628,0 125.809274,44.830237,0 125.818661,44.832102,0 125.826209,44.840947,0 125.851468,44.837324,0 125.858049,44.839509,0 125.873436,44.836685,0 125.87634,44.820057,0 125.880888,44.814833,0 125.906631,44.807956,0 125.916018,44.795213,0 125.911083,44.789134,0 125.91505,44.775747,0 125.920664,44.771426,0 125.951439,44.760969,0 125.977665,44.773666,0 125.985214,44.772012,0 125.997407,44.775747,0 126.00873,44.783427,0 126.02644,44.781934,0 126.049667,44.786787,0 126.043957,44.800652,0 126.037763,44.804011,0 126.049667,44.826559,0 126.043473,44.829544,0 126.051409,44.833487,0 126.055957,44.847767,0 126.038247,44.84798,0 126.041151,44.862363,0 126.050441,44.862097,0 126.061764,44.883398,0 126.056828,44.881747,0 126.060893,44.902722,0 126.086636,44.897931,0 126.098152,44.891969,0 126.10812,44.924274,0 126.147411,44.926455,0 126.145185,44.902668,0 126.153315,44.905276,0 126.164347,44.902136,0 126.168218,44.912408,0 126.179154,44.908523,0 126.192509,44.917303,0 126.186993,44.933158,0 126.179832,44.938531,0 126.171606,44.938158,0 126.170541,44.950019,0 126.156895,44.953901,0 126.146831,44.962675,0 126.144605,44.9816,0 126.16096,44.985852,0 126.188154,45.000891,0 126.190187,45.032019,0 126.177122,45.038497,0 126.173735,45.048638,0 126.18138,45.071887,0 126.177606,45.07332,0 126.174412,45.088919,0 126.19638,45.103242,0 126.185445,45.115121,0 126.183896,45.123552,0 126.17538,45.123817,0 126.169864,45.134632,0 126.166089,45.133519,0 126.154282,45.142689,0 126.13425,45.148254,0 126.12854,45.144226,0 126.116249,45.150586,0 126.114023,45.142795,0 126.095345,45.147141,0 126.085377,45.162668,0 126.067377,45.166853,0 126.059538,45.165635,0 126.050731,45.170191,0 126.029924,45.169608,0 126.022957,45.162085,0 126.013569,45.165582,0 125.996246,45.16378,0 125.996246,45.179567,0 125.987343,45.175965,0 125.982214,45.186982,0 125.993246,45.189895,0 125.985988,45.195508,0 125.970987,45.191695,0 125.957535,45.201333,0 125.919793,45.196038,0 125.91147,45.197997,0 125.903244,45.209804,0 125.890372,45.214092,0 125.888437,45.221502,0 125.871888,45.221184,0 125.869082,45.227377,0 125.857178,45.22907,0 125.849629,45.238966,0 125.823693,45.238014,0 125.812467,45.249442,0 125.814887,45.267743,0 125.805209,45.269753,0 125.787789,45.279218,0 125.788757,45.287361,0 125.77424,45.29307,0 125.759917,45.290744,0 125.758272,45.282708,0 125.751885,45.287255,0 125.753143,45.297933,0 125.748885,45.307341,0 125.742594,45.309085,0 125.731272,45.322982,0 125.719562,45.32388,0 125.726239,45.336506,0 125.706787,45.341366,0 125.695754,45.350713,0 125.703206,45.35573,0 125.696335,45.365445,0 125.703497,45.37954,0 125.7124,45.389409,0 125.716755,45.403181,0 125.715981,45.421749,0 125.707174,45.424228,0 125.703787,45.437728,0 125.70669,45.446005,0 125.697109,45.453966,0 125.709013,45.455705,0 125.7124,45.463084,0 125.698948,45.464191,0 125.699626,45.472517,0 125.711432,45.477049,0 125.709787,45.484372,0 125.69169,45.487744,0 125.701948,45.501808,0 125.687916,45.514025,0 125.660044,45.507074,0 125.646882,45.511024,0 125.637301,45.519923,0 125.628301,45.521976,0 125.616688,45.517974,0 125.593171,45.496962,0 125.570042,45.48885,0 125.549815,45.486374,0 125.497362,45.469355,0 125.489136,45.471094,0 125.480426,45.48648,0 125.466297,45.488692,0 125.442393,45.484794,0 125.42507,45.485584,0 125.424102,45.474994,0 125.43349,45.467247,0 125.433683,45.458709,0 125.398553,45.416844,0 125.369907,45.394844,0 125.362262,45.392681,0 125.347939,45.395477,0 125.341358,45.400068,0 125.327616,45.417055,0 125.317164,45.422857,0 125.306615,45.417582,0 125.308454,45.409037,0 125.301583,45.401967,0 125.289099,45.406927,0 125.276131,45.416686,0 125.248936,45.417688,0 125.225323,45.41178,0 125.208871,45.404131,0 125.189419,45.399329,0 125.176547,45.40107,0 125.156999,45.410831,0 125.137643,45.409617,0 125.113159,45.389989,0 125.091674,45.382654,0 125.069706,45.384606,0 125.066125,45.399013,0 125.088674,45.411042,0 125.091094,45.417741,0 125.084222,45.423173,0 125.064383,45.421907,0 125.049867,45.4285,0 125.043673,45.445584,0 125.035737,45.459395,0 125.030415,45.48943,0 125.025576,45.493328,0 124.983091,45.49238,0 124.961219,45.495224,0 124.945348,45.502335,0 124.94167,45.509444,0 124.939445,45.52982,0 124.931025,45.538453,0 124.91496,45.539453,0 124.90896,45.533084,0 124.90867,45.519449,0 124.898992,45.505705,0 124.884572,45.495435,0 124.883314,45.478366,0 124.890088,45.456601,0 124.886411,45.442684,0 124.876249,45.438308,0 124.866281,45.440628,0 124.839861,45.455705,0 124.828635,45.455178,0 124.805409,45.440681,0 124.792925,45.437042,0 124.779086,45.441366,0 124.777247,45.449907,0 124.779957,45.461134,0 124.775989,45.468249,0 124.760601,45.468407,0 124.729633,45.444055,0 124.722181,45.443211,0 124.690438,45.452437,0 124.67447,45.448694,0 124.65676,45.437781,0 124.639243,45.434564,0 124.625211,45.437253,0 124.603049,45.449116,0 124.585145,45.453807,0 124.575467,45.451119,0 124.574693,45.443897,0 124.583306,45.432402,0 124.579629,45.424175,0 124.555047,45.411991,0 124.544208,45.411938,0 124.50724,45.42465,0 124.496498,45.435144,0 124.480723,45.456232,0 124.473852,45.458709,0 124.457013,45.457813,0 124.427496,45.450434,0 124.41385,45.43873,0 124.398753,45.440628,0 124.383849,45.448852,0 124.373785,45.458551,0 124.347171,45.445109,0 124.334784,45.436093,0 124.285621,45.420589,0 124.26162,45.402706,0 124.224652,45.382812,0 124.202393,45.374367,0 124.12623,45.336136,0 124.115294,45.332756,0 124.100681,45.332544,0 124.087035,45.32779,0 124.07368,45.314158,0 124.065357,45.285722,0 124.086842,45.263089,0 124.079874,45.249283,0 124.069422,45.236109,0 124.053744,45.231611,0 124.025001,45.230817,0 123.988033,45.225895,0 123.976323,45.225895,0 123.942161,45.219544,0 123.934515,45.213774,0 123.919321,45.209539,0 123.882449,45.178613,0 123.879159,45.17231,0 123.851965,45.151275,0 123.83619,45.142159,0 123.82748,45.130762,0 123.746865,45.064351,0 123.720348,45.048745,0 123.689573,45.033984,0 123.632282,45.009445,0 123.611571,44.995046,0 123.587377,44.971553,0 123.57228,44.963153,0 123.556796,44.960548,0 123.540924,44.952997,0 123.530666,44.951827,0 123.519924,44.96629,0 123.492536,44.959538,0 123.489729,44.952838,0 123.497955,44.930977,0 123.451987,44.892182,0 123.419663,44.855758,0 123.429825,44.849312,0 123.449857,44.812221,0 123.467955,44.793453,0 123.4786,44.77836,0 123.514795,44.734338,0 123.525537,44.727291,0 123.523795,44.707001,0 123.502117,44.707695,0 123.455954,44.696105,0 123.418405,44.671528,0 123.383856,44.663458,0 123.370307,44.662817,0 123.348145,44.652822,0 123.3315,44.649561,0 123.317951,44.639403,0 123.295015,44.638066,0 123.289789,44.635874,0 123.285821,44.624055,0 123.27324,44.620205,0 123.253594,44.605708,0 123.247691,44.606404,0 123.244981,44.596934,0 123.2204,44.590566,0 123.213238,44.574349,0 123.201335,44.576972,0 123.178979,44.569799,0 123.148592,44.554005,0 123.142301,44.545008,0 123.139398,44.522939,0 123.125462,44.509276,0</coordinates></LinearRing></outerBoundaryIs>
      </Polygon>
    </MultiGeometry>
    </Placemark>
  </Document>
</kml>
