<?xml version="1.0" encoding="UTF-8"?>
<kml xmlns="http://www.opengis.net/kml/2.2">
  <Document>
    <name><![CDATA[白山市]]></name>
    <Placemark>
      <name><![CDATA[白山市]]></name>
      <description><![CDATA[省级目录：吉林省]]></description>
      <ExtendedData>
        <Data name="adcode"><value>220600</value></Data>
      </ExtendedData>
      <MultiGeometry>
      <Polygon>
        <outerBoundaryIs><LinearRing><coordinates>126.551841,41.533953,0 126.558132,41.538397,0 126.560164,41.548239,0 126.577874,41.556056,0 126.582132,41.561397,0 126.580777,41.574272,0 126.575358,41.585458,0 126.568003,41.591752,0 126.564035,41.608835,0 126.570035,41.6217,0 126.584455,41.6258,0 126.592391,41.624452,0 126.596165,41.634675,0 126.605262,41.63928,0 126.609423,41.652644,0 126.606133,41.659999,0 126.608262,41.669317,0 126.615907,41.675997,0 126.625391,41.6774,0 126.641844,41.663423,0 126.660328,41.661908,0 126.670006,41.669542,0 126.6882,41.674481,0 126.688974,41.684696,0 126.703394,41.690476,0 126.724781,41.711347,0 126.720426,41.720882,0 126.698942,41.724528,0 126.690813,41.728341,0 126.685974,41.737033,0 126.696619,41.751667,0 126.719652,41.754694,0 126.738717,41.744098,0 126.753621,41.732043,0 126.777041,41.717068,0 126.777234,41.706074,0 126.781492,41.698163,0 126.796493,41.695862,0 126.80017,41.703044,0 126.794848,41.719929,0 126.796396,41.731258,0 126.808396,41.748079,0 126.816138,41.751274,0 126.821655,41.74735,0 126.827268,41.732435,0 126.835397,41.727332,0 126.847591,41.733108,0 126.856785,41.760692,0 126.874592,41.78182,0 126.886398,41.791345,0 126.908173,41.79846,0 126.931593,41.812911,0 126.946884,41.810111,0 126.953077,41.803277,0 126.948626,41.787871,0 126.938367,41.788264,0 126.9344,41.77829,0 126.9434,41.772518,0 126.978046,41.777225,0 126.98424,41.767025,0 127.01066,41.761533,0 127.006111,41.749088,0 127.015692,41.744827,0 127.050725,41.744659,0 127.054983,41.737874,0 127.05208,41.724864,0 127.055951,41.705793,0 127.063306,41.702932,0 127.077048,41.705456,0 127.083629,41.703381,0 127.077919,41.692608,0 127.06708,41.689354,0 127.056145,41.695133,0 127.049177,41.694235,0 127.047048,41.686716,0 127.038047,41.676839,0 127.040757,41.671001,0 127.072887,41.658371,0 127.078597,41.645738,0 127.089145,41.643941,0 127.104146,41.647534,0 127.109565,41.6381,0 127.093694,41.629957,0 127.093791,41.625126,0 127.104243,41.6217,0 127.119243,41.625688,0 127.126888,41.622879,0 127.129501,41.614172,0 127.126695,41.603385,0 127.138308,41.600294,0 127.160857,41.600912,0 127.180696,41.59917,0 127.185245,41.59164,0 127.180793,41.586863,0 127.154954,41.588774,0 127.145373,41.583547,0 127.146631,41.573991,0 127.141598,41.5691,0 127.127663,41.568369,0 127.122824,41.550601,0 127.104243,41.553919,0 127.105017,41.545765,0 127.120598,41.540197,0 127.139856,41.542896,0 127.145082,41.540365,0 127.142276,41.530072,0 127.164728,41.542559,0 127.174115,41.541096,0 127.180116,41.528834,0 127.194922,41.528722,0 127.203439,41.534459,0 127.214181,41.532603,0 127.212342,41.522758,0 127.217665,41.520395,0 127.230633,41.524052,0 127.241375,41.520395,0 127.234311,41.509311,0 127.249892,41.501432,0 127.265376,41.514263,0 127.278247,41.514938,0 127.288989,41.504528,0 127.280279,41.494341,0 127.256666,41.489613,0 127.255214,41.484096,0 127.267505,41.479818,0 127.278441,41.479931,0 127.294312,41.486517,0 127.324023,41.474582,0 127.351797,41.465179,0 127.359733,41.465461,0 127.360314,41.479424,0 127.389831,41.483252,0 127.405605,41.478185,0 127.409767,41.46349,0 127.420509,41.460618,0 127.429509,41.465179,0 127.457574,41.461519,0 127.467639,41.465686,0 127.465317,41.478411,0 127.47151,41.483477,0 127.480123,41.482239,0 127.478865,41.47537,0 127.486317,41.472274,0 127.499479,41.478354,0 127.513511,41.471091,0 127.527931,41.468726,0 127.539351,41.477059,0 127.54748,41.476947,0 127.545738,41.466418,0 127.547673,41.449805,0 127.558609,41.4373,0 127.568287,41.431497,0 127.593449,41.426708,0 127.61774,41.432737,0 127.622675,41.430539,0 127.636805,41.413691,0 127.653741,41.406872,0 127.665548,41.409634,0 127.655289,41.418256,0 127.654128,41.428173,0 127.667193,41.424285,0 127.677064,41.415608,0 127.684322,41.422933,0 127.692645,41.424173,0 127.706581,41.420735,0 127.724775,41.420454,0 127.742679,41.427102,0 127.755647,41.427722,0 127.769873,41.421975,0 127.779454,41.426595,0 127.787389,41.424229,0 127.790873,41.40845,0 127.795906,41.409916,0 127.795615,41.418876,0 127.807229,41.424905,0 127.8201,41.420848,0 127.827165,41.408394,0 127.834907,41.409127,0 127.833358,41.417411,0 127.838294,41.421355,0 127.854069,41.421074,0 127.862488,41.40597,0 127.872069,41.404618,0 127.872263,41.440342,0 127.87894,41.44727,0 127.886973,41.447552,0 127.886489,41.438088,0 127.891231,41.434258,0 127.900812,41.436905,0 127.908941,41.430089,0 127.915231,41.436962,0 127.931006,41.444566,0 127.931683,41.454367,0 127.94049,41.456169,0 127.941168,41.450086,0 127.951716,41.450312,0 127.947168,41.440398,0 127.966813,41.43899,0 127.983072,41.430934,0 127.981911,41.42113,0 127.991782,41.422088,0 127.999717,41.441412,0 128.010169,41.448228,0 128.017912,41.446031,0 128.014718,41.437919,0 128.00504,41.428905,0 128.01975,41.427441,0 128.018008,41.416847,0 128.029428,41.414424,0 128.035815,41.421919,0 128.046364,41.415889,0 128.041331,41.409183,0 128.040751,41.393288,0 128.059042,41.397685,0 128.073171,41.393401,0 128.077816,41.381054,0 128.085946,41.382858,0 128.082655,41.39233,0 128.101623,41.393232,0 128.101236,41.398812,0 128.111011,41.39295,0 128.108495,41.38579,0 128.094946,41.381843,0 128.090591,41.374795,0 128.103946,41.371807,0 128.114204,41.364475,0 128.124076,41.371976,0 128.131334,41.383084,0 128.144108,41.382407,0 128.160851,41.38844,0 128.170044,41.404561,0 128.189787,41.41403,0 128.207981,41.411663,0 128.212626,41.429131,0 128.226852,41.446087,0 128.240595,41.44789,0 128.244369,41.455155,0 128.233917,41.456619,0 128.233046,41.46287,0 128.243401,41.477679,0 128.243692,41.490345,0 128.238175,41.495973,0 128.242917,41.501883,0 128.258886,41.506947,0 128.283564,41.526415,0 128.28337,41.534122,0 128.300693,41.539409,0 128.292467,41.55032,0 128.299822,41.559204,0 128.296338,41.563084,0 128.317919,41.575565,0 128.313371,41.577532,0 128.317435,41.592651,0 128.312209,41.596698,0 128.315403,41.605183,0 128.302145,41.605801,0 128.306596,41.612037,0 128.293822,41.615015,0 128.305822,41.62097,0 128.303983,41.630125,0 128.289564,41.626362,0 128.281338,41.635686,0 128.280854,41.647029,0 128.273983,41.652083,0 128.278725,41.658539,0 128.269241,41.658202,0 128.269821,41.668026,0 128.259563,41.668475,0 128.26024,41.674257,0 128.247756,41.676109,0 128.248434,41.681553,0 128.238272,41.68391,0 128.223175,41.682732,0 128.219401,41.68969,0 128.20982,41.688624,0 128.200723,41.696592,0 128.201981,41.701698,0 128.190464,41.710842,0 128.170044,41.714881,0 128.152915,41.739164,0 128.146915,41.754189,0 128.150399,41.764447,0 128.144495,41.767081,0 128.147592,41.780867,0 128.141205,41.785462,0 128.133753,41.783221,0 128.112462,41.794595,0 128.109462,41.807871,0 128.112753,41.813303,0 128.108204,41.821256,0 128.103752,41.842924,0 128.107236,41.849641,0 128.112269,41.887637,0 128.115462,41.895748,0 128.107043,41.905815,0 128.104236,41.923261,0 128.106753,41.950037,0 128.096881,41.952943,0 128.070848,41.971717,0 128.047332,41.986185,0 128.034073,42.000315,0 128.064558,42.011538,0 128.039202,42.029905,0 128.036589,42.042853,0 128.024299,42.071307,0 128.015299,42.087426,0 127.991395,42.11547,0 127.987524,42.125224,0 127.963717,42.140326,0 127.96091,42.145619,0 127.968362,42.16467,0 127.960523,42.172412,0 127.952684,42.172412,0 127.943684,42.181433,0 127.927812,42.188672,0 127.915425,42.204092,0 127.910296,42.221067,0 127.912618,42.231083,0 127.907586,42.243601,0 127.900812,42.239985,0 127.885327,42.2431,0 127.880682,42.250554,0 127.877682,42.266905,0 127.868391,42.276525,0 127.862004,42.274245,0 127.854552,42.283363,0 127.828907,42.280806,0 127.810713,42.29676,0 127.80839,42.307041,0 127.817777,42.323489,0 127.840617,42.326711,0 127.845165,42.330711,0 127.858617,42.327655,0 127.887747,42.3301,0 127.890069,42.338321,0 127.903521,42.34904,0 127.903521,42.366865,0 127.92249,42.36903,0 127.943781,42.367697,0 127.9522,42.374526,0 127.959942,42.392954,0 127.983362,42.403663,0 127.998169,42.413706,0 128.007169,42.414205,0 128.016266,42.427851,0 128.014137,42.436836,0 128.018589,42.450754,0 128.035138,42.465501,0 128.043557,42.480134,0 128.03146,42.496813,0 128.034267,42.50058,0 128.03388,42.528662,0 128.024105,42.529825,0 128.028073,42.541564,0 128.020234,42.541619,0 128.027783,42.561215,0 128.021395,42.565588,0 128.012492,42.563983,0 128.015879,42.56996,0 128.008621,42.578537,0 127.995846,42.581967,0 127.995169,42.588551,0 127.987137,42.59884,0 127.994588,42.600832,0 127.981427,42.610511,0 127.967201,42.612004,0 127.973201,42.622179,0 127.959168,42.620962,0 127.959749,42.630583,0 127.953555,42.641473,0 127.964588,42.644348,0 127.965942,42.653191,0 127.960329,42.657833,0 127.938458,42.663027,0 127.923167,42.67336,0 127.904489,42.670155,0 127.886005,42.674796,0 127.882037,42.684795,0 127.885908,42.689269,0 127.895586,42.684298,0 127.89936,42.689932,0 127.890457,42.695952,0 127.875263,42.696118,0 127.862101,42.719088,0 127.850391,42.72494,0 127.846907,42.730736,0 127.857553,42.735814,0 127.86723,42.730349,0 127.874005,42.734655,0 127.865682,42.740671,0 127.869359,42.751431,0 127.855811,42.753142,0 127.85223,42.757997,0 127.834423,42.762576,0 127.833165,42.775871,0 127.837617,42.788335,0 127.820293,42.793022,0 127.809358,42.799749,0 127.808874,42.807026,0 127.800551,42.812649,0 127.777905,42.814909,0 127.759131,42.814634,0 127.738324,42.821799,0 127.725356,42.821854,0 127.717613,42.81728,0 127.710936,42.804215,0 127.716742,42.801182,0 127.727291,42.803663,0 127.726517,42.799087,0 127.709387,42.789107,0 127.714226,42.780173,0 127.705613,42.774437,0 127.69671,42.77576,0 127.693226,42.771182,0 127.677645,42.76539,0 127.67029,42.755404,0 127.656934,42.760921,0 127.64716,42.751045,0 127.650934,42.744975,0 127.641353,42.732226,0 127.652579,42.726596,0 127.643386,42.713954,0 127.620837,42.711359,0 127.598965,42.693301,0 127.597707,42.680818,0 127.58861,42.669713,0 127.573126,42.668608,0 127.567513,42.657501,0 127.558222,42.656728,0 127.552222,42.648327,0 127.541577,42.641363,0 127.534512,42.641639,0 127.510124,42.633789,0 127.486607,42.631025,0 127.485349,42.614492,0 127.498221,42.611561,0 127.497543,42.602215,0 127.48564,42.598343,0 127.467542,42.59779,0 127.463671,42.592036,0 127.470252,42.584734,0 127.468026,42.566805,0 127.458155,42.561492,0 127.432412,42.573446,0 127.40425,42.569628,0 127.405992,42.573501,0 127.384992,42.57743,0 127.370572,42.584014,0 127.351991,42.587943,0 127.352475,42.601993,0 127.338829,42.605644,0 127.319571,42.640312,0 127.305538,42.632297,0 127.287925,42.63202,0 127.279602,42.626547,0 127.280957,42.617423,0 127.240214,42.599449,0 127.221923,42.605644,0 127.211568,42.602325,0 127.204213,42.608354,0 127.211665,42.622123,0 127.219213,42.627708,0 127.218246,42.642302,0 127.225214,42.656065,0 127.246988,42.678332,0 127.251246,42.690816,0 127.253569,42.708984,0 127.243311,42.71837,0 127.234988,42.720413,0 127.226762,42.738242,0 127.211374,42.748783,0 127.210987,42.754245,0 127.200729,42.764949,0 127.202471,42.784805,0 127.19289,42.803333,0 127.193761,42.823563,0 127.201697,42.835742,0 127.191729,42.843456,0 127.181374,42.831664,0 127.180987,42.825216,0 127.169373,42.813145,0 127.161728,42.810941,0 127.160083,42.804049,0 127.149631,42.805538,0 127.135792,42.801624,0 127.130566,42.807578,0 127.12505,42.804876,0 127.104049,42.803167,0 127.094759,42.799528,0 127.072693,42.813145,0 127.053145,42.804325,0 127.041338,42.80653,0 127.016853,42.788997,0 126.99953,42.793739,0 126.990046,42.804876,0 126.979981,42.803608,0 126.972142,42.808074,0 126.950271,42.811492,0 126.947368,42.805648,0 126.913593,42.804711,0 126.907883,42.809066,0 126.897334,42.802616,0 126.89927,42.787011,0 126.879237,42.780228,0 126.869075,42.783813,0 126.853785,42.78464,0 126.832978,42.777801,0 126.822139,42.77747,0 126.818655,42.768259,0 126.813042,42.766162,0 126.813138,42.753418,0 126.801719,42.740946,0 126.800461,42.733109,0 126.810816,42.722014,0 126.812461,42.709205,0 126.807235,42.702579,0 126.796977,42.701806,0 126.784492,42.691313,0 126.774234,42.671536,0 126.760008,42.667337,0 126.750427,42.67231,0 126.740265,42.665514,0 126.741233,42.656341,0 126.73291,42.644016,0 126.717426,42.626547,0 126.715394,42.613497,0 126.705135,42.606142,0 126.687135,42.607303,0 126.683458,42.596462,0 126.679199,42.599338,0 126.67136,42.593364,0 126.651134,42.594581,0 126.639134,42.583793,0 126.629746,42.584623,0 126.622779,42.576434,0 126.632553,42.564592,0 126.63323,42.541176,0 126.640489,42.532594,0 126.635069,42.522072,0 126.63865,42.506452,0 126.629553,42.488779,0 126.633134,42.480411,0 126.629069,42.470545,0 126.611649,42.46029,0 126.604294,42.464171,0 126.584649,42.463007,0 126.578261,42.465668,0 126.573519,42.456631,0 126.553874,42.443768,0 126.547099,42.435727,0 126.526099,42.423969,0 126.510905,42.410654,0 126.512743,42.401666,0 126.519421,42.397948,0 126.515647,42.382908,0 126.517776,42.372583,0 126.534421,42.357814,0 126.539938,42.346041,0 126.534518,42.328544,0 126.52755,42.323378,0 126.526195,42.315377,0 126.530454,42.30254,0 126.522615,42.294536,0 126.52155,42.281751,0 126.526195,42.268629,0 126.521744,42.262289,0 126.531615,42.24972,0 126.540712,42.24883,0 126.546035,42.242711,0 126.573229,42.235145,0 126.580003,42.228134,0 126.579519,42.214556,0 126.575551,42.20554,0 126.548164,42.192959,0 126.547486,42.184663,0 126.53297,42.183995,0 126.523389,42.1914,0 126.50655,42.196633,0 126.490485,42.19062,0 126.484291,42.178872,0 126.469968,42.176756,0 126.467549,42.158209,0 126.455839,42.150744,0 126.457097,42.144839,0 126.44829,42.140493,0 126.451968,42.126561,0 126.428161,42.120654,0 126.421096,42.111066,0 126.403676,42.105993,0 126.391385,42.097128,0 126.393708,42.08553,0 126.401741,42.079116,0 126.397386,42.063888,0 126.381127,42.062326,0 126.368643,42.063888,0 126.339126,42.04715,0 126.329835,42.045476,0 126.324706,42.038277,0 126.305544,42.038779,0 126.292576,42.03677,0 126.258124,42.01299,0 126.257059,42.001097,0 126.249317,41.997299,0 126.236736,41.99864,0 126.221349,41.982666,0 126.207026,41.978756,0 126.197542,41.971382,0 126.174218,41.977918,0 126.158541,41.973784,0 126.145185,41.964175,0 126.133476,41.966074,0 126.120798,41.953558,0 126.123024,41.948751,0 126.137347,41.943442,0 126.141314,41.935728,0 126.151476,41.93338,0 126.178283,41.915545,0 126.188348,41.900502,0 126.2078,41.90548,0 126.219026,41.890658,0 126.225704,41.893958,0 126.238962,41.888028,0 126.24293,41.881483,0 126.238769,41.87393,0 126.222994,41.864809,0 126.217671,41.854175,0 126.230155,41.842588,0 126.246317,41.848746,0 126.259479,41.844212,0 126.274382,41.842588,0 126.277963,41.832175,0 126.285996,41.829935,0 126.290351,41.835366,0 126.298673,41.828647,0 126.299641,41.820752,0 126.308835,41.815712,0 126.30777,41.807422,0 126.321222,41.800981,0 126.317351,41.794539,0 126.319771,41.786751,0 126.309028,41.776216,0 126.315029,41.771509,0 126.312996,41.760916,0 126.302738,41.756544,0 126.304964,41.746565,0 126.299157,41.740678,0 126.288318,41.74264,0 126.285899,41.73737,0 126.293931,41.729407,0 126.286286,41.716788,0 126.289383,41.712805,0 126.280963,41.696031,0 126.29606,41.694291,0 126.295867,41.684976,0 126.305157,41.675828,0 126.301383,41.670833,0 126.317158,41.665949,0 126.317642,41.654553,0 126.335158,41.663704,0 126.351997,41.664771,0 126.359933,41.661458,0 126.37745,41.6655,0 126.391869,41.665556,0 126.40387,41.671058,0 126.41587,41.666623,0 126.425451,41.658483,0 126.417128,41.653318,0 126.417709,41.643885,0 126.408225,41.626531,0 126.402128,41.607767,0 126.408031,41.600406,0 126.405031,41.584839,0 126.383837,41.574047,0 126.38045,41.567469,0 126.399611,41.540984,0 126.412676,41.533559,0 126.399321,41.516795,0 126.413354,41.515219,0 126.428451,41.509761,0 126.437161,41.512743,0 126.440548,41.520058,0 126.464645,41.520002,0 126.468129,41.517807,0 126.468516,41.500813,0 126.476162,41.503627,0 126.495614,41.504415,0 126.504614,41.50177,0 126.525324,41.536034,0 126.551841,41.533953,0</coordinates></LinearRing></outerBoundaryIs>
      </Polygon>
    </MultiGeometry>
    </Placemark>
  </Document>
</kml>
