<?xml version="1.0" encoding="UTF-8"?>
<kml xmlns="http://www.opengis.net/kml/2.2">
  <Document>
    <name><![CDATA[辽源市]]></name>
    <Placemark>
      <name><![CDATA[辽源市]]></name>
      <description><![CDATA[省级目录：吉林省]]></description>
      <ExtendedData>
        <Data name="adcode"><value>220400</value></Data>
      </ExtendedData>
      <MultiGeometry>
      <Polygon>
        <outerBoundaryIs><LinearRing><coordinates>124.891346,43.132914,0 124.895024,43.131159,0 124.893766,43.117941,0 124.881862,43.110865,0 124.879346,43.100276,0 124.883411,43.094735,0 124.887475,43.07377,0 124.877314,43.068006,0 124.869281,43.054994,0 124.858249,43.050986,0 124.857475,43.040058,0 124.861733,43.034071,0 124.84441,43.03517,0 124.840829,43.02671,0 124.856023,43.01391,0 124.861926,43.002535,0 124.860571,42.992423,0 124.869572,42.98808,0 124.868701,42.972908,0 124.874701,42.969169,0 124.867539,42.96169,0 124.869572,42.954871,0 124.864926,42.939415,0 124.869088,42.937324,0 124.866668,42.918562,0 124.861926,42.917131,0 124.859023,42.904033,0 124.850797,42.892142,0 124.856507,42.886251,0 124.849249,42.881571,0 124.850797,42.871549,0 124.856604,42.866647,0 124.854475,42.860258,0 124.859604,42.83205,0 124.857088,42.823839,0 124.867249,42.807467,0 124.873927,42.790155,0 124.887766,42.790816,0 124.897734,42.788004,0 124.906734,42.793573,0 124.91496,42.803884,0 124.915928,42.817776,0 124.930057,42.81954,0 124.949606,42.80631,0 124.955606,42.807357,0 124.975058,42.802671,0 124.9798,42.781717,0 124.987543,42.780559,0 124.992672,42.765831,0 124.9828,42.760811,0 124.97951,42.753252,0 124.988414,42.751707,0 124.996446,42.745306,0 124.986091,42.726982,0 124.978929,42.72908,0 124.96809,42.722621,0 124.977187,42.716493,0 124.978736,42.709813,0 124.989091,42.697056,0 124.985897,42.686673,0 124.96509,42.678,0 124.974187,42.673028,0 124.984639,42.677006,0 124.996446,42.675238,0 124.996156,42.670321,0 125.01435,42.666122,0 125.012801,42.660209,0 125.019672,42.653633,0 125.011059,42.63202,0 125.028576,42.623008,0 125.028769,42.6177,0 125.038447,42.615433,0 125.055093,42.624059,0 125.064093,42.620741,0 125.072222,42.625165,0 125.086255,42.625773,0 125.097384,42.622068,0 125.09961,42.613221,0 125.089932,42.607469,0 125.095545,42.599781,0 125.081609,42.588772,0 125.086739,42.586006,0 125.089642,42.568078,0 125.0819,42.563595,0 125.075803,42.548539,0 125.076964,42.539681,0 125.067093,42.536027,0 125.090707,42.515537,0 125.081126,42.513321,0 125.069125,42.499638,0 125.085287,42.500857,0 125.105029,42.490829,0 125.107642,42.479524,0 125.136482,42.471266,0 125.149644,42.459403,0 125.149256,42.451919,0 125.140063,42.445986,0 125.159708,42.437945,0 125.180902,42.432788,0 125.186128,42.427851,0 125.186612,42.415148,0 125.197548,42.407825,0 125.192709,42.396339,0 125.185935,42.3914,0 125.186322,42.38152,0 125.19929,42.377468,0 125.203451,42.366865,0 125.19329,42.360091,0 125.185935,42.36109,0 125.167547,42.351984,0 125.177128,42.346041,0 125.176451,42.337877,0 125.181967,42.328322,0 125.173838,42.319655,0 125.175386,42.30832,0 125.18187,42.308264,0 125.212742,42.300483,0 125.242162,42.312654,0 125.253872,42.307708,0 125.262872,42.313098,0 125.285615,42.315099,0 125.298002,42.325155,0 125.316487,42.328044,0 125.335358,42.340487,0 125.342713,42.358758,0 125.364972,42.365088,0 125.406392,42.384462,0 125.411908,42.381243,0 125.43949,42.38202,0 125.450135,42.386072,0 125.453232,42.392066,0 125.479265,42.39928,0 125.517589,42.420696,0 125.544589,42.432122,0 125.56288,42.435061,0 125.573816,42.451752,0 125.576913,42.470989,0 125.584171,42.482905,0 125.585816,42.507616,0 125.600139,42.518195,0 125.616494,42.518528,0 125.614075,42.524509,0 125.623656,42.526392,0 125.634495,42.538519,0 125.634495,42.547543,0 125.647076,42.551584,0 125.665657,42.540124,0 125.676496,42.552027,0 125.675528,42.557452,0 125.689851,42.571454,0 125.701368,42.573667,0 125.708723,42.59436,0 125.727594,42.605146,0 125.701561,42.609571,0 125.701948,42.603708,0 125.682786,42.606639,0 125.68027,42.610787,0 125.688012,42.619027,0 125.680754,42.622289,0 125.676012,42.633734,0 125.664979,42.640699,0 125.66585,42.648051,0 125.657721,42.65192,0 125.662173,42.65612,0 125.65927,42.675956,0 125.663915,42.684961,0 125.658786,42.691865,0 125.66856,42.70418,0 125.674754,42.705837,0 125.673883,42.716107,0 125.661496,42.718426,0 125.644269,42.732944,0 125.64756,42.73896,0 125.657237,42.73918,0 125.66827,42.732999,0 125.686367,42.734268,0 125.707271,42.742161,0 125.716852,42.738739,0 125.731368,42.743761,0 125.756433,42.742437,0 125.768627,42.748341,0 125.783918,42.747127,0 125.795628,42.753197,0 125.81208,42.748065,0 125.811499,42.7527,0 125.819919,42.762521,0 125.82979,42.75728,0 125.84421,42.766217,0 125.835984,42.7687,0 125.810919,42.790486,0 125.790112,42.800852,0 125.787015,42.80631,0 125.758853,42.820201,0 125.75353,42.82924,0 125.757304,42.839654,0 125.741627,42.847037,0 125.742401,42.855411,0 125.73611,42.874247,0 125.735239,42.886031,0 125.741046,42.893904,0 125.737659,42.897207,0 125.743852,42.909372,0 125.740756,42.916581,0 125.745401,42.933749,0 125.755466,42.936279,0 125.759821,42.943761,0 125.754401,42.952286,0 125.758272,42.957236,0 125.748982,42.967354,0 125.751595,42.972303,0 125.736594,42.991049,0 125.736788,43.006162,0 125.727013,43.010943,0 125.726239,43.02292,0 125.707755,43.033357,0 125.693625,43.036598,0 125.67456,43.044506,0 125.65985,43.058399,0 125.633624,43.070476,0 125.610785,43.067183,0 125.582429,43.072892,0 125.555041,43.093637,0 125.534621,43.098027,0 125.523976,43.096106,0 125.495814,43.100331,0 125.48991,43.125071,0 125.484394,43.129075,0 125.484394,43.142235,0 125.480136,43.148705,0 125.480136,43.163177,0 125.491652,43.181481,0 125.480233,43.201477,0 125.465619,43.203778,0 125.448587,43.223931,0 125.43949,43.222946,0 125.435038,43.230447,0 125.423328,43.234006,0 125.411812,43.226505,0 125.409683,43.219934,0 125.391005,43.218784,0 125.374553,43.224753,0 125.367198,43.218784,0 125.367875,43.210296,0 125.374649,43.204709,0 125.370294,43.182741,0 125.361391,43.175069,0 125.357423,43.160381,0 125.369617,43.149966,0 125.378424,43.151117,0 125.400005,43.148266,0 125.403682,43.135875,0 125.39023,43.120848,0 125.388392,43.107738,0 125.381617,43.105214,0 125.365939,43.110865,0 125.338939,43.128033,0 125.315422,43.134559,0 125.270034,43.155064,0 125.268485,43.160436,0 125.249807,43.174247,0 125.219323,43.205366,0 125.209935,43.21276,0 125.206935,43.223603,0 125.200548,43.228969,0 125.178289,43.226888,0 125.155837,43.227436,0 125.151385,43.223493,0 125.136869,43.22426,0 125.125353,43.221139,0 125.061286,43.213801,0 125.053351,43.220153,0 125.043383,43.222289,0 125.024608,43.214294,0 125.018511,43.203997,0 125.003995,43.196054,0 124.997027,43.198793,0 124.977865,43.195999,0 124.965381,43.187398,0 124.968671,43.176659,0 124.950574,43.168767,0 124.933251,43.156818,0 124.911573,43.144812,0 124.903056,43.143771,0 124.891346,43.132914,0</coordinates></LinearRing></outerBoundaryIs>
      </Polygon>
    </MultiGeometry>
    </Placemark>
  </Document>
</kml>
