<?xml version="1.0" encoding="UTF-8"?>
<kml xmlns="http://www.opengis.net/kml/2.2">
  <Document>
    <name><![CDATA[长春市]]></name>
    <Placemark>
      <name><![CDATA[长春市]]></name>
      <description><![CDATA[省级目录：吉林省]]></description>
      <ExtendedData>
        <Data name="adcode"><value>220100</value></Data>
      </ExtendedData>
      <MultiGeometry>
      <Polygon>
        <outerBoundaryIs><LinearRing><coordinates>125.69798,43.262741,0 125.716852,43.267283,0 125.718207,43.27445,0 125.730497,43.27456,0 125.781789,43.292776,0 125.788563,43.301472,0 125.80066,43.31033,0 125.815854,43.315743,0 125.832306,43.300542,0 125.844791,43.294745,0 125.857178,43.294964,0 125.891534,43.30169,0 125.900631,43.307541,0 125.915147,43.310275,0 125.913889,43.317001,0 125.928019,43.318094,0 125.94989,43.323561,0 125.956664,43.327934,0 125.957826,43.336953,0 125.969536,43.342527,0 125.979117,43.336406,0 126.006021,43.345041,0 126.018892,43.353074,0 126.020537,43.361597,0 126.013859,43.371266,0 126.000988,43.37427,0 125.996536,43.391692,0 125.988504,43.403267,0 125.975342,43.405232,0 125.969439,43.398353,0 125.957826,43.398572,0 125.950374,43.407744,0 125.93847,43.430504,0 125.934019,43.435142,0 125.912341,43.446654,0 125.914663,43.451128,0 125.901502,43.451401,0 125.882727,43.462583,0 125.873049,43.484886,0 125.866759,43.484232,0 125.868501,43.491482,0 125.855339,43.495353,0 125.852726,43.501621,0 125.866178,43.510996,0 125.867243,43.523583,0 125.872566,43.526526,0 125.857952,43.532845,0 125.856501,43.538838,0 125.86763,43.543794,0 125.865017,43.551202,0 125.870824,43.561821,0 125.878082,43.562202,0 125.886114,43.59187,0 125.89434,43.604006,0 125.885824,43.61924,0 125.893663,43.624843,0 125.886888,43.63447,0 125.887759,43.650838,0 125.878372,43.650947,0 125.878856,43.670897,0 125.867049,43.683397,0 125.871791,43.689972,0 125.863178,43.690679,0 125.849339,43.697524,0 125.848758,43.707411,0 125.838016,43.729624,0 125.834048,43.728212,0 125.830177,43.738692,0 125.832887,43.747649,0 125.824564,43.760187,0 125.815661,43.759482,0 125.818661,43.765886,0 125.811016,43.767893,0 125.821177,43.77473,0 125.816048,43.783411,0 125.803564,43.790897,0 125.806661,43.798762,0 125.801725,43.80321,0 125.805596,43.812103,0 125.813145,43.812808,0 125.806177,43.818339,0 125.80908,43.824899,0 125.802209,43.827772,0 125.810532,43.831838,0 125.821564,43.851674,0 125.825242,43.863757,0 125.844307,43.862782,0 125.844403,43.859639,0 125.860468,43.860506,0 125.86492,43.853842,0 125.87934,43.861644,0 125.89105,43.863865,0 125.892792,43.855955,0 125.899857,43.853842,0 125.917373,43.861644,0 125.935374,43.859206,0 125.95018,43.849615,0 125.972342,43.852162,0 125.984633,43.856226,0 125.986568,43.870421,0 125.994988,43.8773,0 126.002053,43.875513,0 126.042215,43.882066,0 126.044151,43.898638,0 126.036602,43.898096,0 126.044925,43.910765,0 126.045118,43.920942,0 126.035634,43.923864,0 126.02344,43.93274,0 126.036989,43.937664,0 126.03515,43.94854,0 126.029731,43.954761,0 126.02915,43.965092,0 126.021311,43.979153,0 126.000891,43.995751,0 126.007085,44.02742,0 126.018118,44.041088,0 126.029053,44.049784,0 126.036699,44.050324,0 126.042893,44.061773,0 126.051796,44.06755,0 126.063796,44.066525,0 126.065151,44.081047,0 126.077055,44.088928,0 126.078119,44.095782,0 126.089732,44.103229,0 126.092926,44.115153,0 126.106765,44.126049,0 126.120024,44.122975,0 126.133282,44.113588,0 126.140734,44.12017,0 126.133379,44.129717,0 126.150121,44.137268,0 126.162412,44.139694,0 126.15767,44.150317,0 126.162992,44.158027,0 126.177122,44.16428,0 126.209639,44.157164,0 126.22522,44.176461,0 126.244188,44.176892,0 126.249704,44.180611,0 126.263543,44.178994,0 126.272834,44.182012,0 126.273608,44.169239,0 126.278641,44.158781,0 126.287544,44.177593,0 126.297028,44.176245,0 126.296641,44.192303,0 126.331674,44.187346,0 126.338545,44.179802,0 126.349481,44.17479,0 126.36632,44.177269,0 126.376288,44.174359,0 126.390902,44.182173,0 126.402515,44.181904,0 126.40387,44.176084,0 126.413741,44.17991,0 126.425354,44.171071,0 126.433193,44.17479,0 126.445193,44.174305,0 126.462129,44.177647,0 126.468613,44.18282,0 126.467936,44.203078,0 126.48071,44.215574,0 126.500743,44.221552,0 126.503646,44.234152,0 126.494453,44.239913,0 126.470936,44.243035,0 126.463097,44.257514,0 126.473549,44.271667,0 126.474613,44.28232,0 126.481001,44.29098,0 126.494356,44.297918,0 126.489807,44.305609,0 126.474613,44.310394,0 126.470549,44.315664,0 126.472194,44.336306,0 126.468033,44.344368,0 126.455161,44.354201,0 126.461161,44.365054,0 126.474226,44.366235,0 126.484194,44.371016,0 126.493582,44.379986,0 126.491743,44.385517,0 126.479646,44.392606,0 126.484968,44.407853,0 126.484775,44.416441,0 126.467645,44.424653,0 126.434161,44.41832,0 126.424773,44.425565,0 126.441032,44.437317,0 126.440742,44.447617,0 126.422257,44.465478,0 126.425644,44.478723,0 126.42429,44.488427,0 126.442677,44.493626,0 126.445967,44.502792,0 126.422257,44.513563,0 126.415096,44.5201,0 126.41316,44.528511,0 126.424193,44.534189,0 126.442774,44.534778,0 126.438709,44.541045,0 126.452548,44.555718,0 126.464452,44.546294,0 126.476452,44.547793,0 126.507808,44.543241,0 126.512743,44.539063,0 126.528228,44.544526,0 126.531712,44.549239,0 126.546615,44.545758,0 126.546615,44.555451,0 126.560358,44.556629,0 126.554648,44.563107,0 126.58039,44.567604,0 126.58039,44.57087,0 126.594229,44.569478,0 126.598004,44.565516,0 126.620746,44.557914,0 126.608068,44.575045,0 126.627714,44.574938,0 126.635166,44.569424,0 126.630424,44.560591,0 126.646489,44.55695,0 126.641844,44.554487,0 126.646392,44.544419,0 126.655199,44.545437,0 126.703684,44.534778,0 126.709297,44.531993,0 126.7122,44.53285,0 126.709587,44.537349,0 126.720523,44.535475,0 126.730104,44.534403,0 126.733201,44.528189,0 126.726813,44.521225,0 126.733975,44.517582,0 126.738717,44.521654,0 126.759621,44.518867,0 126.770169,44.525618,0 126.797751,44.522886,0 126.811687,44.530761,0 126.834139,44.535742,0 126.856494,44.536546,0 126.860752,44.527547,0 126.878463,44.512223,0 126.89985,44.514849,0 126.902754,44.524332,0 126.91098,44.524493,0 126.92027,44.53285,0 126.949013,44.524707,0 126.959271,44.530118,0 126.991207,44.527761,0 126.999337,44.531511,0 127.010369,44.552077,0 127.035725,44.558128,0 127.050435,44.566962,0 127.04579,44.571833,0 127.041435,44.591101,0 127.02866,44.597308,0 127.033692,44.608543,0 127.041435,44.611753,0 127.041144,44.640686,0 127.044725,44.650095,0 127.036499,44.65961,0 127.030692,44.676284,0 127.035144,44.68291,0 127.036499,44.702835,0 127.041144,44.712234,0 127.036402,44.722433,0 127.018886,44.739889,0 127.019563,44.741918,0 126.997982,44.76449,0 126.997208,44.77452,0 126.989369,44.798733,0 126.98424,44.824961,0 126.993143,44.835726,0 126.994885,44.847714,0 127.003111,44.854746,0 127.001175,44.870032,0 127.011143,44.890425,0 127.021595,44.89873,0 127.033209,44.900433,0 127.045886,44.907139,0 127.072597,44.906926,0 127.076661,44.919485,0 127.084597,44.915707,0 127.088952,44.929966,0 127.085081,44.944169,0 127.093694,44.94486,0 127.086436,44.958049,0 127.076468,44.956826,0 127.079274,44.963207,0 127.071242,44.967832,0 127.071532,44.97453,0 127.057209,44.991804,0 127.038047,44.996534,0 127.050338,45.003919,0 127.036886,45.00886,0 127.035918,45.01651,0 127.018402,45.024371,0 127.009111,45.043754,0 126.987433,45.066315,0 126.974949,45.068915,0 126.968562,45.074487,0 126.967013,45.084357,0 126.97282,45.097513,0 126.967207,45.108545,0 126.969529,45.116924,0 126.957045,45.12106,0 126.964304,45.133095,0 126.95869,45.137919,0 126.944077,45.13882,0 126.931787,45.130179,0 126.925206,45.140834,0 126.914754,45.143537,0 126.902754,45.14041,0 126.888334,45.14253,0 126.872946,45.137707,0 126.856397,45.145551,0 126.838881,45.132724,0 126.832784,45.136116,0 126.8323,45.144756,0 126.822042,45.146399,0 126.812848,45.136594,0 126.802299,45.139191,0 126.792622,45.135374,0 126.78817,45.143696,0 126.787009,45.159012,0 126.772395,45.165899,0 126.758556,45.177607,0 126.739298,45.175753,0 126.731652,45.17909,0 126.732233,45.187194,0 126.712587,45.188359,0 126.705426,45.186293,0 126.68578,45.18767,0 126.677651,45.196514,0 126.67136,45.195455,0 126.649876,45.211233,0 126.640973,45.213245,0 126.644844,45.225207,0 126.630908,45.225895,0 126.622488,45.23595,0 126.607875,45.237696,0 126.600326,45.244257,0 126.574681,45.252298,0 126.557454,45.251135,0 126.548744,45.239971,0 126.540034,45.23886,0 126.519518,45.247908,0 126.51284,45.239865,0 126.497259,45.241929,0 126.494743,45.238807,0 126.473936,45.233674,0 126.460484,45.234574,0 126.452839,45.224466,0 126.439871,45.22399,0 126.432128,45.23468,0 126.420225,45.232616,0 126.416257,45.227112,0 126.398934,45.220179,0 126.379772,45.206098,0 126.377643,45.201385,0 126.36603,45.198526,0 126.359836,45.188041,0 126.346868,45.185499,0 126.338255,45.192437,0 126.323545,45.179567,0 126.316093,45.181474,0 126.304286,45.178031,0 126.297125,45.192172,0 126.289383,45.190159,0 126.293447,45.180202,0 126.28077,45.17231,0 126.292189,45.166005,0 126.285125,45.162509,0 126.264705,45.168178,0 126.258511,45.163197,0 126.262479,45.152229,0 126.250866,45.1526,0 126.25164,45.144544,0 126.235672,45.140198,0 126.225413,45.153872,0 126.217091,45.146664,0 126.206639,45.152812,0 126.193671,45.148943,0 126.192025,45.155143,0 126.182541,45.144915,0 126.170928,45.146346,0 126.169864,45.134632,0 126.17538,45.123817,0 126.183896,45.123552,0 126.185445,45.115121,0 126.19638,45.103242,0 126.174412,45.088919,0 126.177606,45.07332,0 126.18138,45.071887,0 126.173735,45.048638,0 126.177122,45.038497,0 126.190187,45.032019,0 126.188154,45.000891,0 126.16096,44.985852,0 126.144605,44.9816,0 126.146831,44.962675,0 126.156895,44.953901,0 126.170541,44.950019,0 126.171606,44.938158,0 126.179832,44.938531,0 126.186993,44.933158,0 126.192509,44.917303,0 126.179154,44.908523,0 126.168218,44.912408,0 126.164347,44.902136,0 126.153315,44.905276,0 126.145185,44.902668,0 126.147411,44.926455,0 126.10812,44.924274,0 126.098152,44.891969,0 126.086636,44.897931,0 126.060893,44.902722,0 126.056828,44.881747,0 126.061764,44.883398,0 126.050441,44.862097,0 126.041151,44.862363,0 126.038247,44.84798,0 126.055957,44.847767,0 126.051409,44.833487,0 126.043473,44.829544,0 126.049667,44.826559,0 126.037763,44.804011,0 126.043957,44.800652,0 126.049667,44.786787,0 126.02644,44.781934,0 126.00873,44.783427,0 125.997407,44.775747,0 125.985214,44.772012,0 125.977665,44.773666,0 125.951439,44.760969,0 125.920664,44.771426,0 125.91505,44.775747,0 125.911083,44.789134,0 125.916018,44.795213,0 125.906631,44.807956,0 125.880888,44.814833,0 125.87634,44.820057,0 125.873436,44.836685,0 125.858049,44.839509,0 125.851468,44.837324,0 125.826209,44.840947,0 125.818661,44.832102,0 125.809274,44.830237,0 125.800757,44.840628,0 125.810822,44.848992,0 125.801144,44.85693,0 125.791563,44.857516,0 125.781789,44.863641,0 125.787305,44.87573,0 125.771144,44.887071,0 125.760595,44.887604,0 125.751982,44.893353,0 125.749175,44.905702,0 125.742304,44.912514,0 125.738143,44.923742,0 125.719949,44.93901,0 125.696625,44.936935,0 125.682206,44.937946,0 125.665657,44.935712,0 125.654044,44.93901,0 125.641076,44.930339,0 125.641753,44.917995,0 125.612914,44.900752,0 125.600623,44.885687,0 125.590558,44.885208,0 125.577203,44.893726,0 125.569751,44.891064,0 125.54488,44.890159,0 125.531331,44.884303,0 125.505588,44.883877,0 125.496104,44.880948,0 125.493104,44.874985,0 125.48091,44.872535,0 125.469297,44.884143,0 125.449748,44.884675,0 125.436877,44.897186,0 125.421005,44.890585,0 125.412586,44.874559,0 125.391392,44.871736,0 125.384037,44.873547,0 125.391489,44.881321,0 125.36952,44.884516,0 125.354133,44.880363,0 125.340294,44.879724,0 125.329745,44.867369,0 125.307293,44.86199,0 125.296357,44.852668,0 125.283099,44.850964,0 125.266743,44.858102,0 125.251646,44.857196,0 125.247194,44.860073,0 125.232,44.853734,0 125.231904,44.84505,0 125.253485,44.832155,0 125.274776,44.832262,0 125.285034,44.837537,0 125.292196,44.826773,0 125.303422,44.823522,0 125.313099,44.814247,0 125.288808,44.804064,0 125.262485,44.796013,0 125.243904,44.802838,0 125.239936,44.808703,0 125.229291,44.803638,0 125.222807,44.806144,0 125.215065,44.800545,0 125.189612,44.793987,0 125.171999,44.786521,0 125.156515,44.790254,0 125.153515,44.796653,0 125.133385,44.783321,0 125.136772,44.77916,0 125.125353,44.769985,0 125.107352,44.765344,0 125.0879,44.772546,0 125.074738,44.772279,0 125.0699,44.776813,0 125.042318,44.770785,0 125.03835,44.777934,0 125.031673,44.776173,0 125.02635,44.788014,0 125.01164,44.7782,0 124.994994,44.759902,0 124.985317,44.759582,0 124.963542,44.750083,0 124.95851,44.754886,0 124.897153,44.726063,0 124.886314,44.730014,0 124.877895,44.726757,0 124.868894,44.733057,0 124.807248,44.704117,0 124.8297,44.683284,0 124.825538,44.67591,0 124.826409,44.66597,0 124.819151,44.672276,0 124.80357,44.663833,0 124.781311,44.680292,0 124.778698,44.66907,0 124.766795,44.659878,0 124.746762,44.649668,0 124.721697,44.660145,0 124.699632,44.656831,0 124.689277,44.652608,0 124.667115,44.648599,0 124.634308,44.640686,0 124.618146,44.62951,0 124.628404,44.620258,0 124.601597,44.601535,0 124.595113,44.602659,0 124.582145,44.593616,0 124.57508,44.583983,0 124.552434,44.569371,0 124.569661,44.553202,0 124.57508,44.545062,0 124.570822,44.540188,0 124.574112,44.529422,0 124.561531,44.529422,0 124.552628,44.524332,0 124.545467,44.514367,0 124.559789,44.504292,0 124.564822,44.507079,0 124.592597,44.491268,0 124.580887,44.483923,0 124.581371,44.476685,0 124.595307,44.46698,0 124.603145,44.471216,0 124.621146,44.45856,0 124.643308,44.448636,0 124.635082,44.434366,0 124.625791,44.438336,0 124.617856,44.434044,0 124.612533,44.43796,0 124.60421,44.430931,0 124.600726,44.434366,0 124.585629,44.428409,0 124.577693,44.435117,0 124.568983,44.43619,0 124.562693,44.428248,0 124.550789,44.424063,0 124.555918,44.411503,0 124.56337,44.413167,0 124.573532,44.394216,0 124.584855,44.397062,0 124.590468,44.387504,0 124.599855,44.389599,0 124.60963,44.375367,0 124.601113,44.376119,0 124.605178,44.367686,0 124.611662,44.369781,0 124.624823,44.359251,0 124.622114,44.34915,0 124.607404,44.344314,0 124.607113,44.337596,0 124.620565,44.324104,0 124.618339,44.322008,0 124.628501,44.305931,0 124.627727,44.297434,0 124.61321,44.288882,0 124.620372,44.283234,0 124.604016,44.272205,0 124.600145,44.253262,0 124.605081,44.236683,0 124.617275,44.211589,0 124.622017,44.217944,0 124.625114,44.208195,0 124.63634,44.20394,0 124.655986,44.207334,0 124.658986,44.204209,0 124.669341,44.209488,0 124.67147,44.198984,0 124.679502,44.203832,0 124.687922,44.200546,0 124.698471,44.206849,0 124.712213,44.200977,0 124.717148,44.192411,0 124.727213,44.201031,0 124.734375,44.201408,0 124.751891,44.210134,0 124.751794,44.220475,0 124.761569,44.225322,0 124.762827,44.213905,0 124.757698,44.202863,0 124.749182,44.199792,0 124.735052,44.183682,0 124.724697,44.17797,0 124.729729,44.176245,0 124.736117,44.159159,0 124.731762,44.148699,0 124.721794,44.151018,0 124.686761,44.142337,0 124.65376,44.12756,0 124.655308,44.122004,0 124.626953,44.125402,0 124.583693,44.121626,0 124.562015,44.116286,0 124.551176,44.120655,0 124.516434,44.116609,0 124.50124,44.10911,0 124.505788,44.100585,0 124.486239,44.091302,0 124.471432,44.07878,0 124.469497,44.070628,0 124.461948,44.073057,0 124.44598,44.061233,0 124.436496,44.060693,0 124.435625,44.051296,0 124.424496,44.036929,0 124.41956,44.038279,0 124.402721,44.030068,0 124.397689,44.03936,0 124.397592,44.028177,0 124.3523,44.017694,0 124.352397,44.014884,0 124.326364,44.008615,0 124.314073,44.008291,0 124.317848,44.003265,0 124.308073,43.990994,0 124.300815,43.993859,0 124.28717,43.991859,0 124.270137,43.995751,0 124.266459,44.000184,0 124.253588,43.999211,0 124.251072,43.992291,0 124.231233,43.990129,0 124.229297,43.994508,0 124.218555,43.992183,0 124.212555,43.998238,0 124.198329,43.993805,0 124.191264,43.98829,0 124.181005,43.995048,0 124.164747,43.997697,0 124.165521,44.00494,0 124.157586,44.013695,0 124.13794,44.009858,0 124.134069,44.00667,0 124.125262,44.01202,0 124.110939,44.012885,0 124.0761,44.021045,0 124.06226,44.009102,0 124.015711,44.004508,0 124.016679,43.99348,0 124.021227,43.995589,0 124.018808,43.981694,0 124.028872,43.949946,0 124.040389,43.927166,0 124.063809,43.8975,0 124.064486,43.892031,0 124.078422,43.880062,0 124.076777,43.871612,0 124.085293,43.862836,0 124.077648,43.843599,0 124.06439,43.852216,0 124.060518,43.849669,0 124.067099,43.84154,0 124.065841,43.834169,0 124.074358,43.820074,0 124.072519,43.812103,0 124.057228,43.810476,0 124.051131,43.799901,0 124.041647,43.803047,0 124.03855,43.793989,0 124.04755,43.790897,0 124.043099,43.784225,0 124.048905,43.781133,0 124.040195,43.769521,0 124.050841,43.772343,0 124.051421,43.768219,0 124.063228,43.771149,0 124.070777,43.751937,0 124.078519,43.748843,0 124.083261,43.741026,0 124.081035,43.724791,0 124.076583,43.717731,0 124.084809,43.715885,0 124.105036,43.705021,0 124.116649,43.704261,0 124.126617,43.709476,0 124.13223,43.703718,0 124.147134,43.703555,0 124.151101,43.708335,0 124.172779,43.707194,0 124.176941,43.711594,0 124.187683,43.711268,0 124.194167,43.716537,0 124.199393,43.729787,0 124.206555,43.734294,0 124.203554,43.740918,0 124.212071,43.743523,0 124.212264,43.754597,0 124.222523,43.758722,0 124.251072,43.759265,0 124.305751,43.763498,0 124.362268,43.771203,0 124.398366,43.762358,0 124.430496,43.75628,0 124.465819,43.760838,0 124.470271,43.756931,0 124.496304,43.7483,0 124.517401,43.751123,0 124.524272,43.755248,0 124.550692,43.740646,0 124.550015,43.735325,0 124.559306,43.727507,0 124.573725,43.723542,0 124.598984,43.690624,0 124.626759,43.681604,0 124.666147,43.659863,0 124.681535,43.627998,0 124.67776,43.617336,0 124.680857,43.592415,0 124.693825,43.576412,0 124.694503,43.552563,0 124.689761,43.545374,0 124.686857,43.528977,0 124.677567,43.516336,0 124.682406,43.497533,0 124.703406,43.456364,0 124.717245,43.43285,0 124.730697,43.422809,0 124.735246,43.40223,0 124.743375,43.389944,0 124.757601,43.383227,0 124.757311,43.366841,0 124.76273,43.356407,0 124.761569,43.348757,0 124.76844,43.344658,0 124.775021,43.326021,0 124.766311,43.314157,0 124.767956,43.307487,0 124.756149,43.296167,0 124.760021,43.280742,0 124.774827,43.272864,0 124.783924,43.257707,0 124.801344,43.242984,0 124.775989,43.228859,0 124.784021,43.219606,0 124.779473,43.211172,0 124.784311,43.201313,0 124.799312,43.195671,0 124.840539,43.161642,0 124.854378,43.169425,0 124.85883,43.176933,0 124.844023,43.187946,0 124.829409,43.212267,0 124.835506,43.221632,0 124.837248,43.232363,0 124.846539,43.237017,0 124.849152,43.245939,0 124.86483,43.26586,0 124.867152,43.2727,0 124.863088,43.285446,0 124.871314,43.289658,0 124.892314,43.293104,0 124.928702,43.317985,0 124.931702,43.323889,0 124.92667,43.332799,0 124.917573,43.332853,0 124.919218,43.348047,0 124.883798,43.358974,0 124.885927,43.369245,0 124.880508,43.374653,0 124.882056,43.382845,0 124.870539,43.393548,0 124.868507,43.404414,0 124.860378,43.406706,0 124.871604,43.420626,0 124.88525,43.4239,0 124.895508,43.421444,0 124.910895,43.431159,0 124.916121,43.439725,0 124.911476,43.450146,0 124.91496,43.460619,0 124.897637,43.470654,0 124.893669,43.481178,0 124.916799,43.49737,0 124.931702,43.502276,0 124.953477,43.5062,0 124.986768,43.518189,0 124.989478,43.523747,0 125.00593,43.541017,0 124.995672,43.552019,0 125.003124,43.554524,0 125.010479,43.549241,0 125.015511,43.558227,0 125.034092,43.580059,0 125.053544,43.591707,0 125.082093,43.603081,0 125.108223,43.611079,0 125.130772,43.613636,0 125.152644,43.621035,0 125.199967,43.632947,0 125.223387,43.637135,0 125.235194,43.642247,0 125.254066,43.645781,0 125.290067,43.649805,0 125.290067,43.638712,0 125.296647,43.636101,0 125.30226,43.615214,0 125.308938,43.611134,0 125.299938,43.601884,0 125.289873,43.598891,0 125.297325,43.591762,0 125.276808,43.578045,0 125.281937,43.577936,0 125.28455,43.567973,0 125.277582,43.563944,0 125.281744,43.543086,0 125.289292,43.536822,0 125.275937,43.532954,0 125.27284,43.536986,0 125.258808,43.533554,0 125.266163,43.521894,0 125.263646,43.514919,0 125.273421,43.514593,0 125.268001,43.509742,0 125.274389,43.496062,0 125.248259,43.487176,0 125.241291,43.480088,0 125.241968,43.4676,0 125.248646,43.460237,0 125.247678,43.452328,0 125.256098,43.44529,0 125.261614,43.449437,0 125.265292,43.443981,0 125.27526,43.448127,0 125.277098,43.441471,0 125.292196,43.452055,0 125.302938,43.445727,0 125.306035,43.453855,0 125.318132,43.453637,0 125.323938,43.462092,0 125.334197,43.46471,0 125.334681,43.469236,0 125.358681,43.480251,0 125.380456,43.473599,0 125.385101,43.485104,0 125.377843,43.489356,0 125.378327,43.49786,0 125.368456,43.504456,0 125.361681,43.51541,0 125.370875,43.525981,0 125.389553,43.530012,0 125.392166,43.53753,0 125.387327,43.543413,0 125.379004,43.540254,0 125.374359,43.552509,0 125.394198,43.554578,0 125.39536,43.56438,0 125.386553,43.579678,0 125.400779,43.581638,0 125.40465,43.586754,0 125.426328,43.587027,0 125.446167,43.601448,0 125.453038,43.599762,0 125.453038,43.57614,0 125.45991,43.560514,0 125.456329,43.556756,0 125.4572,43.545156,0 125.447909,43.530339,0 125.458748,43.522766,0 125.463103,43.503529,0 125.459039,43.50064,0 125.467265,43.493881,0 125.476555,43.491973,0 125.479942,43.482923,0 125.495814,43.473653,0 125.489717,43.466128,0 125.488846,43.456637,0 125.502491,43.452928,0 125.50462,43.445181,0 125.51275,43.443545,0 125.514492,43.435469,0 125.499491,43.428375,0 125.495233,43.421936,0 125.507233,43.41817,0 125.515169,43.409491,0 125.529686,43.412384,0 125.546525,43.411565,0 125.551073,43.404141,0 125.559686,43.407853,0 125.576622,43.4096,0 125.582622,43.405342,0 125.578364,43.378749,0 125.547686,43.367333,0 125.541589,43.361433,0 125.55417,43.345533,0 125.569945,43.338647,0 125.576913,43.329847,0 125.599655,43.313501,0 125.621914,43.305956,0 125.628785,43.296987,0 125.65356,43.286103,0 125.673689,43.280742,0 125.682786,43.275545,0 125.685399,43.268596,0 125.69798,43.262741,0</coordinates></LinearRing></outerBoundaryIs>
      </Polygon>
      <Polygon>
        <outerBoundaryIs><LinearRing><coordinates>126.716749,44.532957,0 126.719071,44.531618,0 126.720233,44.533975,0 126.715394,44.533332,0 126.715974,44.532957,0 126.716749,44.532957,0</coordinates></LinearRing></outerBoundaryIs>
      </Polygon>
      <Polygon>
        <outerBoundaryIs><LinearRing><coordinates>126.715974,44.532957,0 126.715394,44.533332,0 126.712781,44.532421,0 126.719071,44.531618,0 126.716749,44.532957,0 126.715974,44.532957,0</coordinates></LinearRing></outerBoundaryIs>
      </Polygon>
    </MultiGeometry>
    </Placemark>
  </Document>
</kml>
