<?xml version="1.0" encoding="UTF-8"?>
<kml xmlns="http://www.opengis.net/kml/2.2">
  <Document>
    <name><![CDATA[保山市]]></name>
    <Placemark>
      <name><![CDATA[保山市]]></name>
      <description><![CDATA[省级目录：云南省]]></description>
      <ExtendedData>
        <Data name="adcode"><value>530500</value></Data>
      </ExtendedData>
      <MultiGeometry>
      <Polygon>
        <outerBoundaryIs><LinearRing><coordinates>98.888014,25.634791,0 98.869027,25.632372,0 98.887754,25.609879,0 98.870328,25.550684,0 98.82091,25.558832,0 98.794207,25.550281,0 98.766897,25.555524,0 98.752851,25.581657,0 98.766463,25.630438,0 98.75762,25.659213,0 98.767937,25.682583,0 98.746869,25.703854,0 98.754672,25.719321,0 98.737072,25.740505,0 98.744268,25.771025,0 98.720946,25.782377,0 98.712277,25.807897,0 98.728749,25.833893,0 98.706208,25.856344,0 98.680805,25.833571,0 98.677771,25.816187,0 98.664506,25.816831,0 98.640751,25.7988,0 98.605724,25.811277,0 98.568097,25.841377,0 98.528996,25.840733,0 98.479058,25.784149,0 98.481139,25.759752,0 98.461285,25.735189,0 98.467267,25.702726,0 98.457904,25.682986,0 98.415768,25.671302,0 98.408052,25.652765,0 98.409613,25.619957,0 98.40233,25.594398,0 98.382303,25.595366,0 98.371379,25.583753,0 98.326729,25.566333,0 98.314591,25.543263,0 98.274797,25.590931,0 98.24766,25.607783,0 98.194774,25.613024,0 98.170586,25.620361,0 98.189572,25.568914,0 98.186365,25.554718,0 98.16365,25.524545,0 98.131571,25.510263,0 98.157841,25.457316,0 98.151685,25.407415,0 98.137207,25.381568,0 98.10114,25.388434,0 98.099666,25.35418,0 98.089436,25.33608,0 98.104782,25.323392,0 98.111024,25.294213,0 98.125242,25.28249,0 98.152552,25.279903,0 98.159488,25.262843,0 98.192607,25.245133,0 98.185844,25.222568,0 98.192347,25.208978,0 98.167725,25.171761,0 98.179515,25.140522,0 98.197896,25.135989,0 98.234222,25.100287,0 98.257717,25.105874,0 98.269595,25.084416,0 98.254076,25.067248,0 98.248874,25.04149,0 98.225032,25.006491,0 98.221304,24.961997,0 98.239944,24.947649,0 98.235783,24.930542,0 98.251562,24.918136,0 98.272803,24.936785,0 98.288409,24.936866,0 98.317799,24.957701,0 98.32933,24.945703,0 98.334185,24.908162,0 98.362796,24.89762,0 98.436663,24.900296,0 98.445333,24.874585,0 98.464753,24.88886,0 98.492063,24.890158,0 98.512004,24.901837,0 98.533678,24.891699,0 98.534805,24.859902,0 98.55596,24.827447,0 98.546076,24.799529,0 98.498392,24.809918,0 98.468308,24.781834,0 98.432068,24.776963,0 98.42097,24.762837,0 98.449581,24.725484,0 98.439264,24.703067,0 98.452008,24.674552,0 98.415422,24.648388,0 98.414815,24.63636,0 98.440564,24.634653,0 98.460591,24.612708,0 98.461458,24.596693,0 98.477758,24.586774,0 98.485994,24.56726,0 98.475677,24.553354,0 98.484867,24.541561,0 98.504547,24.55254,0 98.523794,24.546766,0 98.546856,24.553516,0 98.578935,24.573521,0 98.616302,24.58092,0 98.659737,24.564576,0 98.691122,24.563438,0 98.697971,24.545058,0 98.682886,24.538795,0 98.710976,24.495599,0 98.726929,24.488276,0 98.684793,24.444899,0 98.696151,24.422025,0 98.689822,24.412988,0 98.713317,24.390107,0 98.724848,24.365431,0 98.713404,24.33961,0 98.721987,24.330241,0 98.699705,24.283713,0 98.703087,24.252169,0 98.717652,24.238309,0 98.726235,24.206101,0 98.689822,24.185875,0 98.692249,24.164341,0 98.683233,24.133828,0 98.709502,24.121261,0 98.716525,24.127626,0 98.757707,24.124362,0 98.818482,24.133501,0 98.855329,24.130727,0 98.87683,24.151533,0 98.909255,24.181634,0 98.946015,24.188078,0 98.981301,24.205694,0 99.017108,24.213114,0 99.024824,24.230319,0 99.050053,24.227873,0 99.073462,24.237983,0 99.091148,24.236108,0 99.151143,24.281594,0 99.189464,24.329019,0 99.216427,24.345882,0 99.21478,24.374309,0 99.248072,24.410627,0 99.266366,24.442376,0 99.302605,24.448969,0 99.331389,24.417466,0 99.352977,24.35411,0 99.353324,24.333907,0 99.36971,24.31419,0 99.360867,24.288277,0 99.36104,24.242223,0 99.42381,24.230482,0 99.445658,24.245239,0 99.459703,24.241244,0 99.483545,24.260239,0 99.482678,24.282328,0 99.501925,24.317205,0 99.550563,24.326656,0 99.590097,24.35639,0 99.603795,24.407207,0 99.636307,24.451655,0 99.650699,24.456457,0 99.677316,24.448806,0 99.683471,24.472815,0 99.673154,24.490229,0 99.686852,24.494134,0 99.668125,24.569536,0 99.645237,24.579782,0 99.665091,24.596043,0 99.684251,24.597506,0 99.702371,24.630508,0 99.730115,24.631727,0 99.726127,24.670165,0 99.744247,24.670246,0 99.777192,24.695756,0 99.807103,24.699168,0 99.816293,24.736772,0 99.801467,24.766977,0 99.770343,24.778505,0 99.771123,24.786542,0 99.803808,24.805535,0 99.808924,24.819981,0 99.837967,24.829313,0 99.810224,24.850491,0 99.815859,24.869799,0 99.839095,24.872962,0 99.865798,24.904918,0 99.844383,24.93265,0 99.851839,24.949351,0 99.890073,24.971805,0 99.902384,24.991418,0 99.922325,24.993849,0 99.938711,25.009813,0 99.967321,25.01119,0 99.993764,25.032741,0 100.014919,25.035739,0 100.04665,25.052669,0 100.029224,25.084821,0 100.038847,25.099397,0 100.021681,25.108222,0 99.994545,25.107169,0 99.981193,25.098425,0 99.978505,25.118504,0 99.959432,25.151367,0 99.940878,25.162212,0 99.926747,25.186083,0 99.928567,25.204286,0 99.895622,25.190371,0 99.879149,25.190371,0 99.853486,25.17435,0 99.859295,25.154766,0 99.82557,25.109841,0 99.825223,25.087251,0 99.75491,25.085145,0 99.734536,25.07316,0 99.737658,25.060607,0 99.693615,25.05113,0 99.678096,25.066276,0 99.655207,25.067653,0 99.628071,25.093162,0 99.554464,25.117451,0 99.54328,25.131294,0 99.506346,25.118908,0 99.462304,25.157032,0 99.429965,25.197976,0 99.38809,25.235995,0 99.358959,25.287988,0 99.343527,25.287179,0 99.314743,25.323958,0 99.305033,25.345454,0 99.285179,25.365492,0 99.29567,25.375105,0 99.285786,25.423809,0 99.335377,25.407415,0 99.345261,25.412341,0 99.341099,25.438263,0 99.353064,25.459657,0 99.325927,25.496141,0 99.329915,25.514137,0 99.291942,25.52043,0 99.252407,25.54649,0 99.217988,25.539229,0 99.188684,25.514459,0 99.154871,25.520269,0 99.161287,25.498159,0 99.1234,25.475156,0 99.088461,25.466923,0 99.066353,25.496867,0 99.07875,25.522609,0 99.056296,25.564478,0 99.002543,25.561171,0 99.010952,25.629067,0 98.954165,25.638499,0 98.915064,25.627294,0 98.888014,25.634791,0</coordinates></LinearRing></outerBoundaryIs>
      </Polygon>
    </MultiGeometry>
    </Placemark>
  </Document>
</kml>
