<?xml version="1.0" encoding="UTF-8"?>
<kml xmlns="http://www.opengis.net/kml/2.2">
  <Document>
    <name><![CDATA[昭通市]]></name>
    <Placemark>
      <name><![CDATA[昭通市]]></name>
      <description><![CDATA[省级目录：云南省]]></description>
      <ExtendedData>
        <Data name="adcode"><value>530600</value></Data>
      </ExtendedData>
      <MultiGeometry>
      <Polygon>
        <outerBoundaryIs><LinearRing><coordinates>103.054562,26.541864,0 103.062278,26.534665,0 103.072595,26.610713,0 103.107968,26.621025,0 103.119672,26.63709,0 103.173858,26.610713,0 103.210445,26.626061,0 103.210272,26.640847,0 103.225184,26.654672,0 103.217381,26.668975,0 103.239836,26.694619,0 103.236801,26.720738,0 103.26862,26.728165,0 103.293415,26.724651,0 103.301305,26.735272,0 103.328008,26.714109,0 103.338759,26.713949,0 103.365115,26.735112,0 103.372658,26.715466,0 103.401181,26.707799,0 103.394332,26.731439,0 103.384795,26.734393,0 103.389477,26.757788,0 103.36867,26.774712,0 103.386269,26.815415,0 103.38861,26.845814,0 103.409851,26.875805,0 103.397453,26.90236,0 103.41514,26.899091,0 103.439415,26.949314,0 103.441669,26.976091,0 103.418174,26.996727,0 103.425284,27.004454,0 103.457275,26.986688,0 103.483718,27.006525,0 103.517877,26.992584,0 103.555071,27.004852,0 103.596166,26.987644,0 103.613332,26.992106,0 103.614373,27.00541,0 103.628158,27.016084,0 103.623649,27.035359,0 103.601454,27.062195,0 103.617927,27.07979,0 103.659802,27.065778,0 103.6533,27.092606,0 103.620441,27.096745,0 103.624516,27.112186,0 103.674715,27.131126,0 103.696216,27.12667,0 103.749622,27.211307,0 103.764534,27.212022,0 103.801381,27.250739,0 103.802334,27.267272,0 103.824876,27.264172,0 103.84551,27.287536,0 103.865451,27.281735,0 103.874034,27.330357,0 103.885738,27.330755,0 103.903338,27.349737,0 103.904899,27.384595,0 103.92588,27.413887,0 103.932469,27.443964,0 103.956484,27.425395,0 103.992637,27.419681,0 104.015266,27.429284,0 104.01752,27.384516,0 104.029831,27.368001,0 104.057834,27.355613,0 104.084364,27.330993,0 104.113841,27.337982,0 104.134216,27.322335,0 104.131528,27.306605,0 104.174184,27.263059,0 104.190483,27.287695,0 104.21918,27.279828,0 104.210857,27.29723,0 104.250391,27.291509,0 104.259928,27.308353,0 104.247877,27.336394,0 104.270419,27.360934,0 104.295821,27.374671,0 104.308826,27.407299,0 104.322438,27.407854,0 104.342638,27.436346,0 104.332755,27.444044,0 104.353129,27.466894,0 104.410176,27.457929,0 104.416592,27.435553,0 104.467137,27.414284,0 104.497655,27.411585,0 104.490892,27.401901,0 104.517249,27.400393,0 104.507625,27.387533,0 104.539357,27.329722,0 104.570221,27.331708,0 104.594757,27.311292,0 104.611316,27.307002,0 104.630824,27.317886,0 104.680242,27.319634,0 104.686137,27.334805,0 104.722637,27.34243,0 104.735642,27.334647,0 104.754369,27.345369,0 104.771015,27.317409,0 104.789135,27.321064,0 104.808989,27.35474,0 104.826068,27.352357,0 104.856499,27.332581,0 104.850517,27.304301,0 104.871238,27.290873,0 104.904097,27.306049,0 104.913547,27.327101,0 104.943804,27.346639,0 105.012123,27.380229,0 105.031456,27.400234,0 105.070384,27.419046,0 105.097174,27.411903,0 105.121449,27.41849,0 105.150927,27.404997,0 105.167226,27.408807,0 105.184739,27.392455,0 105.182658,27.367604,0 105.213263,27.401107,0 105.23277,27.436346,0 105.226094,27.441108,0 105.239012,27.469829,0 105.235891,27.490532,0 105.248029,27.494657,0 105.260167,27.519637,0 105.246728,27.545167,0 105.234764,27.540172,0 105.257912,27.583688,0 105.304296,27.611897,0 105.295019,27.632891,0 105.309845,27.654989,0 105.301348,27.682783,0 105.305683,27.707879,0 105.290511,27.71247,0 105.28791,27.742387,0 105.292939,27.771267,0 105.273865,27.795235,0 105.31418,27.819435,0 105.274385,27.817142,0 105.24118,27.830822,0 105.250196,27.844816,0 105.232683,27.892952,0 105.248202,27.912469,0 105.264155,27.9116,0 105.280887,27.929139,0 105.283402,27.959944,0 105.26875,27.98316,0 105.27083,27.995792,0 105.248809,28.008107,0 105.215604,27.990581,0 105.184392,27.996424,0 105.167573,28.023657,0 105.183785,28.04031,0 105.185519,28.056802,0 105.166359,28.07195,0 105.144251,28.066664,0 105.108098,28.081102,0 105.078274,28.08331,0 105.059113,28.09814,0 105.011082,28.066743,0 104.976316,28.060116,0 104.975016,28.019869,0 104.946926,27.994845,0 104.947099,27.980554,0 104.929239,27.984976,0 104.903056,27.960417,0 104.921089,27.941699,0 104.894733,27.934906,0 104.887017,27.913022,0 104.858407,27.902435,0 104.79529,27.900538,0 104.76668,27.884733,0 104.743705,27.90204,0 104.679114,27.882284,0 104.633598,27.850903,0 104.607935,27.858176,0 104.580885,27.842049,0 104.557997,27.852643,0 104.558344,27.867978,0 104.526699,27.889475,0 104.509533,27.8777,0 104.496181,27.896903,0 104.468177,27.907413,0 104.451965,27.926216,0 104.40116,27.952283,0 104.383473,27.968709,0 104.378792,27.993739,0 104.356163,28.018448,0 104.326599,28.025473,0 104.298769,28.043861,0 104.304058,28.050726,0 104.341425,28.057907,0 104.376451,28.052304,0 104.398125,28.068795,0 104.40064,28.091514,0 104.421447,28.097193,0 104.433758,28.113913,0 104.451011,28.116358,0 104.444682,28.162087,0 104.406362,28.173358,0 104.402287,28.202832,0 104.435839,28.209293,0 104.460808,28.24435,0 104.444075,28.259235,0 104.447283,28.271205,0 104.408269,28.269867,0 104.393617,28.289945,0 104.384774,28.330091,0 104.358244,28.338905,0 104.340991,28.332688,0 104.313941,28.306635,0 104.290012,28.314743,0 104.30189,28.328517,0 104.278395,28.346617,0 104.2549,28.410101,0 104.267644,28.420481,0 104.258368,28.453188,0 104.269812,28.468359,0 104.261142,28.482585,0 104.266691,28.502073,0 104.248657,28.509616,0 104.248311,28.528392,0 104.262009,28.536954,0 104.287758,28.532556,0 104.323478,28.541196,0 104.330934,28.559731,0 104.35677,28.555726,0 104.368388,28.585957,0 104.387721,28.598911,0 104.417286,28.598047,0 104.425262,28.626697,0 104.404888,28.640666,0 104.37411,28.649297,0 104.343939,28.64098,0 104.314895,28.615631,0 104.296428,28.634388,0 104.269638,28.635173,0 104.252645,28.660674,0 104.241461,28.660831,0 104.231058,28.635801,0 104.190396,28.634153,0 104.170369,28.64302,0 104.125199,28.637292,0 104.103351,28.60629,0 104.089653,28.604013,0 104.059568,28.627639,0 103.942526,28.603071,0 103.936717,28.622616,0 103.909927,28.631249,0 103.896315,28.619712,0 103.874641,28.626462,0 103.873687,28.65275,0 103.851146,28.667107,0 103.834846,28.622302,0 103.835453,28.582581,0 103.801381,28.561851,0 103.800687,28.533812,0 103.783694,28.526585,0 103.810397,28.495394,0 103.830251,28.458377,0 103.828951,28.439824,0 103.851232,28.406719,0 103.859815,28.383516,0 103.8534,28.356768,0 103.875595,28.32222,0 103.868919,28.300337,0 103.828951,28.284985,0 103.812998,28.265142,0 103.785862,28.254037,0 103.770776,28.233558,0 103.739998,28.236,0 103.721272,28.201965,0 103.702025,28.198971,0 103.694655,28.227335,0 103.649485,28.25703,0 103.632406,28.260023,0 103.618101,28.243641,0 103.573191,28.230959,0 103.552643,28.191248,0 103.533136,28.16855,0 103.47028,28.122193,0 103.455021,28.123691,0 103.453634,28.087728,0 103.432913,28.072187,0 103.430832,28.04465,0 103.459443,28.021368,0 103.47921,28.033996,0 103.496116,28.022473,0 103.49889,27.984107,0 103.515536,27.965551,0 103.541719,27.966419,0 103.563221,27.977632,0 103.556718,27.955205,0 103.541979,27.953625,0 103.502965,27.911758,0 103.499931,27.877542,0 103.508601,27.839124,0 103.489527,27.79745,0 103.459789,27.777595,0 103.448172,27.755126,0 103.420862,27.742941,0 103.393032,27.709383,0 103.370057,27.708671,0 103.349769,27.678428,0 103.31457,27.655305,0 103.280411,27.617998,0 103.298531,27.601201,0 103.295583,27.566966,0 103.278677,27.561893,0 103.236194,27.570453,0 103.218161,27.562131,0 103.204463,27.529152,0 103.190331,27.523522,0 103.144554,27.45055,0 103.142907,27.421903,0 103.111609,27.401028,0 103.079531,27.397297,0 103.055602,27.409521,0 103.025864,27.382531,0 102.98529,27.367366,0 102.962488,27.389914,0 102.955292,27.411426,0 102.944975,27.410474,0 102.911423,27.349101,0 102.900065,27.317648,0 102.882119,27.293337,0 102.882986,27.259324,0 102.900499,27.237305,0 102.902233,27.19588,0 102.913503,27.140038,0 102.898938,27.076287,0 102.885326,27.059567,0 102.872582,27.022695,0 102.894863,27.001586,0 102.888881,26.951625,0 102.896597,26.91137,0 102.909429,26.902679,0 102.947402,26.844298,0 102.962748,26.840548,0 102.991705,26.774632,0 102.983642,26.765612,0 103.010432,26.701329,0 103.00523,26.68048,0 103.027425,26.662583,0 103.024391,26.641246,0 103.029679,26.60168,0 103.019362,26.594324,0 103.036702,26.555382,0 103.054562,26.541864,0</coordinates></LinearRing></outerBoundaryIs>
      </Polygon>
    </MultiGeometry>
    </Placemark>
  </Document>
</kml>
