<?xml version="1.0" encoding="UTF-8"?>
<kml xmlns="http://www.opengis.net/kml/2.2">
  <Document>
    <name><![CDATA[红河哈尼族彝族自治州]]></name>
    <Placemark>
      <name><![CDATA[红河哈尼族彝族自治州]]></name>
      <description><![CDATA[省级目录：云南省]]></description>
      <ExtendedData>
        <Data name="adcode"><value>532500</value></Data>
      </ExtendedData>
      <MultiGeometry>
      <Polygon>
        <outerBoundaryIs><LinearRing><coordinates>103.109095,24.506989,0 103.107274,24.473222,0 103.088634,24.441236,0 103.062104,24.432445,0 103.067566,24.411685,0 103.099038,24.404113,0 103.089761,24.340343,0 103.098864,24.322583,0 103.112389,24.324864,0 103.121753,24.306287,0 103.138572,24.301397,0 103.125741,24.249641,0 103.149236,24.235048,0 103.151143,24.215316,0 103.134671,24.201127,0 103.137012,24.170949,0 103.100772,24.145577,0 103.081611,24.093839,0 103.052307,24.080698,0 103.033407,24.050165,0 103.037829,24.04053,0 103.053261,24.03661,0 103.035921,24.023054,0 103.03254,24.032364,0 103.015894,24.033262,0 102.96691,24.067636,0 102.9396,24.057268,0 102.915151,24.039876,0 102.899458,24.013009,0 102.87761,24.010395,0 102.884806,23.993814,0 102.856889,23.987524,0 102.84822,24.014316,0 102.834868,24.024361,0 102.841457,24.043143,0 102.829493,24.046735,0 102.784323,24.017827,0 102.747129,24.018154,0 102.732217,23.972166,0 102.711063,23.967754,0 102.689908,23.94602,0 102.689302,23.922402,0 102.674129,23.9242,0 102.658437,23.91006,0 102.643005,23.926733,0 102.636502,23.951658,0 102.650201,23.976087,0 102.634682,23.993487,0 102.646559,24.006638,0 102.635635,24.022972,0 102.6111,24.025912,0 102.625925,24.038733,0 102.612487,24.046817,0 102.59324,24.034242,0 102.565583,24.028852,0 102.54859,24.041101,0 102.516252,24.029016,0 102.491456,24.064942,0 102.469435,24.054084,0 102.428947,24.049185,0 102.411087,24.058574,0 102.418543,24.067146,0 102.377014,24.087065,0 102.318753,24.096125,0 102.295865,24.081024,0 102.304881,24.058492,0 102.32777,24.060452,0 102.331671,24.044776,0 102.311644,24.034814,0 102.271069,24.032527,0 102.230841,24.023381,0 102.224945,24.008027,0 102.252342,23.969225,0 102.264133,23.963015,0 102.265173,23.927551,0 102.283207,23.925916,0 102.264306,23.900006,0 102.251042,23.908589,0 102.223385,23.904338,0 102.201017,23.887498,0 102.160008,23.872618,0 102.136253,23.830668,0 102.186018,23.763748,0 102.159488,23.747217,0 102.148044,23.721353,0 102.159922,23.696875,0 102.202404,23.700068,0 102.225379,23.691963,0 102.249048,23.662812,0 102.292397,23.6262,0 102.296992,23.597608,0 102.321181,23.57532,0 102.317973,23.551143,0 102.355513,23.520485,0 102.360715,23.481292,0 102.334966,23.460132,0 102.319273,23.413782,0 102.289276,23.415177,0 102.275144,23.4233,0 102.223125,23.424038,0 102.216622,23.41009,0 102.187578,23.428304,0 102.157754,23.382928,0 102.151685,23.345418,0 102.130011,23.32358,0 102.095505,23.31463,0 102.068715,23.329902,0 102.055624,23.320788,0 102.027533,23.330723,0 102.013835,23.345993,0 101.987999,23.336141,0 101.968665,23.353299,0 101.906502,23.360522,0 101.874858,23.338112,0 101.873904,23.326946,0 101.874684,23.302806,0 101.892197,23.291063,0 101.876938,23.264041,0 101.851796,23.262973,0 101.823532,23.243339,0 101.842693,23.212692,0 101.827694,23.176367,0 101.83463,23.164366,0 101.883961,23.148746,0 101.918207,23.159351,0 101.939361,23.14554,0 101.950459,23.175052,0 101.971179,23.171846,0 102.002824,23.155734,0 101.997622,23.14332,0 102.037244,23.127698,0 102.043919,23.108127,0 102.069149,23.096449,0 102.044526,23.074982,0 102.058918,23.054498,0 102.056664,23.039524,0 102.015222,22.988666,0 101.967018,22.993687,0 101.96277,23.020681,0 101.910751,23.009736,0 101.903295,23.020105,0 101.879279,23.015908,0 101.870436,22.982492,0 101.851189,22.973767,0 101.861679,22.939518,0 101.848415,22.906742,0 101.838184,22.911025,0 101.800297,22.876513,0 101.823359,22.840508,0 101.874251,22.800951,0 101.894451,22.795675,0 101.922282,22.820731,0 101.968839,22.794851,0 101.99164,22.794109,0 102.012535,22.776716,0 102.031695,22.74687,0 102.058831,22.725182,0 102.058658,22.698211,0 102.078685,22.656219,0 102.154546,22.625026,0 102.181943,22.624449,0 102.198849,22.613802,0 102.212721,22.623623,0 102.248527,22.606373,0 102.276878,22.611986,0 102.29283,22.572527,0 102.322568,22.554032,0 102.356727,22.56361,0 102.347537,22.585241,0 102.376928,22.593744,0 102.404844,22.629978,0 102.41889,22.638066,0 102.403631,22.645245,0 102.384557,22.679733,0 102.407792,22.682043,0 102.436489,22.699531,0 102.456256,22.731202,0 102.459724,22.762865,0 102.498132,22.777787,0 102.511917,22.773171,0 102.565756,22.717842,0 102.570438,22.700273,0 102.607372,22.730707,0 102.657397,22.688148,0 102.692163,22.699614,0 102.737072,22.66513,0 102.750684,22.666863,0 102.758313,22.650526,0 102.787097,22.641532,0 102.801056,22.620487,0 102.823424,22.623128,0 102.85897,22.607281,0 102.880125,22.586892,0 102.874576,22.571124,0 102.892002,22.534956,0 102.924254,22.503654,0 102.928849,22.483662,0 102.985116,22.478375,0 102.993353,22.460941,0 103.009739,22.458875,0 103.030199,22.44144,0 103.071988,22.445324,0 103.081785,22.454248,0 103.072075,22.488206,0 103.083519,22.508444,0 103.118978,22.518273,0 103.139439,22.537847,0 103.157559,22.53859,0 103.183829,22.557665,0 103.164582,22.580205,0 103.166662,22.609015,0 103.19588,22.648381,0 103.216514,22.643595,0 103.248159,22.665625,0 103.282751,22.678496,0 103.290381,22.70547,0 103.287953,22.731202,0 103.321419,22.778035,0 103.323326,22.807874,0 103.375172,22.794933,0 103.390691,22.778859,0 103.415053,22.773418,0 103.441063,22.752971,0 103.432826,22.732769,0 103.435514,22.698789,0 103.460483,22.676763,0 103.458229,22.658365,0 103.508947,22.601008,0 103.533656,22.593496,0 103.554724,22.633939,0 103.573364,22.641944,0 103.58004,22.668265,0 103.567902,22.700933,0 103.584635,22.72848,0 103.612465,22.756682,0 103.620528,22.783888,0 103.643416,22.794604,0 103.664397,22.782239,0 103.685639,22.75025,0 103.708267,22.738376,0 103.741386,22.706872,0 103.75465,22.686663,0 103.769649,22.68724,0 103.826957,22.613967,0 103.863543,22.584085,0 103.878629,22.563528,0 103.889726,22.566583,0 103.930301,22.534956,0 103.9642,22.502827,0 104.008243,22.5172,0 104.015352,22.542141,0 104.009023,22.572692,0 104.030958,22.62676,0 104.036247,22.666533,0 104.031478,22.684765,0 104.04535,22.728151,0 104.067111,22.753961,0 104.093381,22.773995,0 104.117396,22.808945,0 104.13725,22.803011,0 104.168461,22.81966,0 104.224035,22.826335,0 104.261489,22.841992,0 104.274233,22.827901,0 104.282556,22.842074,0 104.276227,22.863167,0 104.257934,22.87297,0 104.240161,22.864897,0 104.21814,22.871076,0 104.190223,22.844134,0 104.175917,22.847348,0 104.179299,22.872888,0 104.157017,22.861354,0 104.137077,22.898918,0 104.118697,22.894635,0 104.100056,22.87503,0 104.080203,22.836388,0 104.067458,22.823451,0 104.048037,22.827077,0 104.043442,22.839602,0 104.022722,22.821885,0 104.039454,22.796994,0 104.013532,22.746457,0 104.00148,22.749013,0 104.001914,22.726666,0 103.989863,22.709099,0 103.96342,22.699861,0 103.934809,22.707284,0 103.923452,22.688148,0 103.896836,22.699201,0 103.889033,22.722872,0 103.905245,22.738211,0 103.89094,22.782816,0 103.897009,22.798972,0 103.885998,22.818835,0 103.907066,22.818341,0 103.917036,22.838119,0 103.917643,22.893234,0 103.907673,22.916049,0 103.937064,22.952033,0 103.947901,22.95335,0 103.958045,23.00595,0 103.934549,23.041581,0 103.946427,23.089458,0 103.937584,23.099739,0 103.938104,23.152446,0 103.908713,23.199462,0 103.912615,23.232084,0 103.936717,23.253115,0 103.913568,23.304695,0 103.882877,23.32711,0 103.856261,23.332283,0 103.830251,23.351329,0 103.815686,23.338358,0 103.808317,23.35806,0 103.815773,23.370946,0 103.803548,23.405495,0 103.819501,23.428468,0 103.798867,23.44586,0 103.806756,23.470712,0 103.788549,23.473583,0 103.80034,23.491296,0 103.767829,23.500726,0 103.731849,23.494248,0 103.73497,23.510647,0 103.719971,23.521551,0 103.737918,23.538602,0 103.724826,23.550323,0 103.70662,23.541963,0 103.694568,23.518271,0 103.67983,23.526388,0 103.65356,23.505891,0 103.632666,23.507449,0 103.622349,23.523026,0 103.595646,23.539995,0 103.587149,23.577041,0 103.614199,23.584006,0 103.649312,23.628903,0 103.662577,23.653066,0 103.648878,23.673949,0 103.650699,23.714395,0 103.630759,23.747872,0 103.644544,23.763748,0 103.652433,23.825106,0 103.665004,23.849968,0 103.660756,23.865995,0 103.707833,23.889378,0 103.688326,23.920113,0 103.701244,23.929185,0 103.695262,23.942669,0 103.678876,23.939319,0 103.65434,23.962198,0 103.634573,23.970287,0 103.640902,23.984093,0 103.622175,24.009497,0 103.581514,24.048532,0 103.574925,24.086248,0 103.59053,24.115794,0 103.62495,24.137418,0 103.639168,24.172091,0 103.670987,24.186854,0 103.692574,24.186202,0 103.697083,24.20496,0 103.728554,24.198272,0 103.773551,24.203899,0 103.785515,24.219149,0 103.786122,24.24744,0 103.810397,24.257386,0 103.81872,24.271243,0 103.818634,24.301316,0 103.840308,24.312805,0 103.863717,24.359567,0 103.906459,24.379602,0 103.945907,24.429921,0 103.968275,24.440666,0 103.988996,24.43505,0 104.010324,24.44905,0 104.020728,24.453934,0 104.009023,24.482824,0 104.03772,24.493565,0 104.038674,24.5257,0 104.027923,24.525944,0 104.013358,24.552866,0 104.000353,24.554573,0 103.986655,24.581489,0 103.97183,24.590677,0 103.994545,24.620999,0 103.969229,24.658952,0 103.954317,24.638554,0 103.92822,24.648225,0 103.929521,24.667077,0 103.892501,24.667971,0 103.869439,24.685033,0 103.838661,24.695512,0 103.813085,24.728732,0 103.794965,24.722479,0 103.789243,24.732712,0 103.760372,24.692019,0 103.719538,24.714601,0 103.730982,24.736528,0 103.740692,24.730113,0 103.753263,24.761456,0 103.733236,24.75147,0 103.708007,24.753987,0 103.693095,24.736528,0 103.675582,24.738234,0 103.666565,24.724184,0 103.633013,24.663502,0 103.640295,24.65757,0 103.619748,24.624981,0 103.631625,24.616609,0 103.617754,24.596286,0 103.562787,24.555631,0 103.543367,24.554899,0 103.535304,24.527408,0 103.474962,24.499097,0 103.4532,24.511301,0 103.483805,24.530987,0 103.472621,24.541805,0 103.491348,24.555875,0 103.460656,24.558233,0 103.448952,24.571081,0 103.419648,24.577099,0 103.385922,24.60466,0 103.323933,24.639367,0 103.305727,24.640992,0 103.288734,24.656839,0 103.269573,24.633353,0 103.284225,24.622949,0 103.278677,24.603766,0 103.260123,24.607342,0 103.25102,24.584172,0 103.263071,24.552703,0 103.237755,24.532126,0 103.247379,24.514148,0 103.237408,24.507559,0 103.176286,24.523991,0 103.167876,24.510813,0 103.152704,24.527327,0 103.139179,24.526106,0 103.109095,24.506989,0</coordinates></LinearRing></outerBoundaryIs>
      </Polygon>
      <Polygon>
        <outerBoundaryIs><LinearRing><coordinates>103.053261,24.03661,0 103.037829,24.04053,0 103.03254,24.032364,0 103.035921,24.023054,0 103.053261,24.03661,0</coordinates></LinearRing></outerBoundaryIs>
      </Polygon>
    </MultiGeometry>
    </Placemark>
  </Document>
</kml>
