<?xml version="1.0" encoding="UTF-8"?>
<kml xmlns="http://www.opengis.net/kml/2.2">
  <Document>
    <name><![CDATA[海东市]]></name>
    <Placemark>
      <name><![CDATA[海东市]]></name>
      <description><![CDATA[省级目录：青海省]]></description>
      <ExtendedData>
        <Data name="adcode"><value>630200</value></Data>
      </ExtendedData>
      <MultiGeometry>
      <Polygon>
        <outerBoundaryIs><LinearRing><coordinates>102.45064,35.448318,0 102.438066,35.455325,0 102.449683,35.478551,0 102.457473,35.473754,0 102.465536,35.501847,0 102.48262,35.512959,0 102.49861,35.545222,0 102.497926,35.571844,0 102.512823,35.568726,0 102.503256,35.584315,0 102.53018,35.581045,0 102.55191,35.559294,0 102.58717,35.541798,0 102.695273,35.528483,0 102.745703,35.495072,0 102.782877,35.528027,0 102.773583,35.53419,0 102.72944,35.523613,0 102.74625,35.545298,0 102.781783,35.549482,0 102.808707,35.560435,0 102.801737,35.574734,0 102.78028,35.587813,0 102.763197,35.611837,0 102.764563,35.653329,0 102.743927,35.657811,0 102.72698,35.691382,0 102.707983,35.704974,0 102.68598,35.772139,0 102.694863,35.79641,0 102.71509,35.815443,0 102.740373,35.821963,0 102.773993,35.857512,0 102.786977,35.862513,0 102.817317,35.850085,0 102.82989,35.856526,0 102.85326,35.846826,0 102.886334,35.849327,0 102.914077,35.845083,0 102.922824,35.833486,0 102.944827,35.829999,0 102.95617,35.862437,0 102.942367,35.926819,0 102.950157,35.963152,0 102.97175,35.995309,0 102.951797,36.021554,0 102.968607,36.044313,0 102.932664,36.048471,0 102.91845,36.065478,0 102.896037,36.065629,0 102.88196,36.083464,0 102.910114,36.088224,0 102.941137,36.10492,0 102.948517,36.148873,0 102.96642,36.152195,0 102.987467,36.193782,0 103.0189,36.204798,0 103.049104,36.199215,0 103.07097,36.206911,0 103.06359,36.219131,0 103.02136,36.233462,0 103.02505,36.256084,0 102.994164,36.263171,0 102.970384,36.283825,0 102.92378,36.297692,0 102.915717,36.315097,0 102.89672,36.33182,0 102.845334,36.332197,0 102.831257,36.354941,0 102.833307,36.369849,0 102.818547,36.391754,0 102.8262,36.407408,0 102.8098,36.407934,0 102.793537,36.427121,0 102.78807,36.447505,0 102.76675,36.465554,0 102.788753,36.481869,0 102.79299,36.499459,0 102.779187,36.502089,0 102.773173,36.520951,0 102.753083,36.52591,0 102.734497,36.562267,0 102.737777,36.571278,0 102.764563,36.575483,0 102.714817,36.600333,0 102.724247,36.613993,0 102.692677,36.616995,0 102.63063,36.650908,0 102.609037,36.678133,0 102.602203,36.709546,0 102.61341,36.738699,0 102.636643,36.733154,0 102.69254,36.775329,0 102.717277,36.767166,0 102.70484,36.791729,0 102.677233,36.80805,0 102.66794,36.824592,0 102.64744,36.834396,0 102.637463,36.853701,0 102.588673,36.868812,0 102.562297,36.900521,0 102.561613,36.918987,0 102.530726,36.927059,0 102.52444,36.938793,0 102.50148,36.942604,0 102.498063,36.956577,0 102.46704,36.954485,0 102.450366,36.96853,0 102.46745,36.976598,0 102.467176,36.988548,0 102.506126,37.019237,0 102.4941,37.043719,0 102.498883,37.058419,0 102.488496,37.078562,0 102.38791,37.106754,0 102.304406,37.086469,0 102.271879,37.087588,0 102.194116,37.077369,0 102.163776,37.055584,0 102.118266,37.061478,0 102.064693,37.084008,0 102.045286,37.096761,0 102.002782,37.100415,0 101.970802,37.121367,0 101.914496,37.148127,0 101.907526,37.129195,0 101.884566,37.122113,0 101.893039,37.086245,0 101.884566,37.04745,0 101.855729,37.034091,0 101.839876,37.009083,0 101.831266,36.981602,0 101.848349,36.966738,0 101.837552,36.933039,0 101.814592,36.925639,0 101.805162,36.906726,0 101.804342,36.821149,0 101.790129,36.806253,0 101.800516,36.792852,0 101.790676,36.746865,0 101.780152,36.73158,0 101.790949,36.705948,0 101.775642,36.676559,0 101.790129,36.66186,0 101.802429,36.671534,0 101.804889,36.648808,0 101.817599,36.653609,0 101.879509,36.613768,0 101.911762,36.573081,0 101.912309,36.550776,0 101.891946,36.533198,0 101.897412,36.496678,0 101.869122,36.471193,0 101.871036,36.45653,0 101.851902,36.442842,0 101.849989,36.403495,0 101.863519,36.381743,0 101.828669,36.32715,0 101.821562,36.294301,0 101.771406,36.288498,0 101.740929,36.299425,0 101.738605,36.280961,0 101.716192,36.278926,0 101.706079,36.250128,0 101.668359,36.231049,0 101.676422,36.211286,0 101.667265,36.202459,0 101.666855,36.160801,0 101.726989,36.167519,0 101.743252,36.149024,0 101.753502,36.169633,0 101.758149,36.149326,0 101.769629,36.156498,0 101.785346,36.145023,0 101.799969,36.117988,0 101.837416,36.117837,0 101.850672,36.124408,0 101.887572,36.109755,0 101.886752,36.096837,0 101.906979,36.089584,0 101.896319,36.075,0 101.934996,36.062832,0 101.955906,36.062303,0 101.944016,36.044842,0 101.956042,36.026242,0 101.975312,36.026998,0 101.983102,36.004235,0 102.017953,35.992358,0 102.041323,35.954373,0 102.083416,35.946729,0 102.040913,35.925986,0 102.053486,35.90698,0 102.077813,35.908873,0 102.094349,35.919323,0 102.110203,35.906525,0 102.115123,35.871681,0 102.078223,35.861528,0 102.079863,35.84622,0 102.100773,35.830151,0 102.082049,35.813775,0 102.102686,35.789357,0 102.129473,35.767815,0 102.141909,35.750212,0 102.124143,35.735338,0 102.170473,35.728583,0 102.152433,35.715906,0 102.162409,35.693737,0 102.180313,35.695863,0 102.197533,35.709681,0 102.212839,35.708011,0 102.225003,35.679308,0 102.226369,35.654089,0 102.269146,35.624074,0 102.303723,35.624378,0 102.349916,35.60872,0 102.354563,35.590398,0 102.38832,35.561728,0 102.40554,35.55435,0 102.40841,35.538527,0 102.426723,35.539668,0 102.42276,35.490885,0 102.404583,35.479008,0 102.41292,35.46355,0 102.45064,35.448318,0</coordinates></LinearRing></outerBoundaryIs>
      </Polygon>
      <Polygon>
        <outerBoundaryIs><LinearRing><coordinates>102.83891,36.345754,0 102.84793,36.355619,0 102.832077,36.366612,0 102.83891,36.345754,0</coordinates></LinearRing></outerBoundaryIs>
      </Polygon>
    </MultiGeometry>
    </Placemark>
  </Document>
</kml>
