<?xml version="1.0" encoding="UTF-8"?>
<kml xmlns="http://www.opengis.net/kml/2.2">
  <Document>
    <name><![CDATA[海北藏族自治州]]></name>
    <Placemark>
      <name><![CDATA[海北藏族自治州]]></name>
      <description><![CDATA[省级目录：青海省]]></description>
      <ExtendedData>
        <Data name="adcode"><value>632200</value></Data>
      </ExtendedData>
      <MultiGeometry>
      <Polygon>
        <outerBoundaryIs><LinearRing><coordinates>101.914496,37.148127,0 101.970802,37.121367,0 102.002782,37.100415,0 102.045286,37.096761,0 102.064693,37.084008,0 102.118266,37.061478,0 102.163776,37.055584,0 102.194116,37.077369,0 102.271879,37.087588,0 102.304406,37.086469,0 102.38791,37.106754,0 102.488496,37.078562,0 102.497926,37.090422,0 102.53182,37.087364,0 102.61177,37.104442,0 102.64211,37.09967,0 102.637327,37.121964,0 102.62735,37.127406,0 102.600837,37.174281,0 102.568447,37.180017,0 102.53305,37.217404,0 102.48959,37.223807,0 102.480296,37.240483,0 102.45761,37.248893,0 102.453373,37.271516,0 102.419206,37.295991,0 102.428363,37.308262,0 102.393103,37.324993,0 102.368366,37.32767,0 102.34117,37.348038,0 102.29894,37.370036,0 102.300033,37.391285,0 102.271196,37.392845,0 102.248783,37.411488,0 102.197396,37.420548,0 102.173206,37.461304,0 102.125236,37.485494,0 102.106513,37.481339,0 102.103369,37.492839,0 102.122366,37.516204,0 102.118129,37.531628,0 102.130839,37.547345,0 102.106923,37.564319,0 102.102139,37.582104,0 102.089566,37.578844,0 102.066333,37.590106,0 102.070296,37.601144,0 102.035309,37.627585,0 102.047336,37.654313,0 102.036813,37.661715,0 102.033396,37.688504,0 102.018636,37.694867,0 101.999092,37.725046,0 101.946339,37.728078,0 101.875546,37.685914,0 101.859829,37.660827,0 101.854362,37.664675,0 101.813499,37.655645,0 101.813636,37.681623,0 101.789036,37.69716,0 101.659202,37.733329,0 101.670409,37.754252,0 101.640752,37.775835,0 101.618065,37.810413,0 101.598385,37.827475,0 101.542625,37.838995,0 101.500395,37.857969,0 101.464725,37.856788,0 101.443132,37.868082,0 101.402952,37.831758,0 101.382588,37.822157,0 101.376985,37.802214,0 101.362362,37.791205,0 101.319995,37.811226,0 101.279132,37.836706,0 101.258495,37.832792,0 101.239225,37.84313,0 101.202735,37.84756,0 101.161051,37.867565,0 101.152168,37.891181,0 101.130711,37.913683,0 101.114311,37.920248,0 101.102968,37.946501,0 101.077138,37.941856,0 101.034498,37.976577,0 101.020968,37.975472,0 100.997598,37.988442,0 100.980378,38.006789,0 100.964115,38.011062,0 100.918468,37.999569,0 100.894824,38.013566,0 100.896874,38.029476,0 100.887308,38.049579,0 100.894688,38.062905,0 100.922704,38.085575,0 100.916144,38.115079,0 100.925028,38.14891,0 100.938011,38.16038,0 100.913274,38.178683,0 100.862981,38.149278,0 100.843848,38.149131,0 100.821981,38.161997,0 100.810091,38.181256,0 100.789181,38.193528,0 100.780298,38.213513,0 100.751871,38.23878,0 100.714834,38.253613,0 100.686271,38.249574,0 100.673834,38.256183,0 100.619031,38.265727,0 100.595114,38.242305,0 100.574477,38.25141,0 100.546597,38.246931,0 100.520631,38.271085,0 100.496577,38.273654,0 100.475531,38.288847,0 100.460087,38.265506,0 100.437127,38.268002,0 100.435351,38.301322,0 100.418677,38.307192,0 100.396674,38.29325,0 100.373714,38.309026,0 100.359774,38.307925,0 100.318227,38.328392,0 100.331484,38.34174,0 100.29718,38.388585,0 100.259597,38.366376,0 100.240054,38.441698,0 100.205204,38.45627,0 100.16475,38.460443,0 100.151357,38.478378,0 100.12621,38.485258,0 100.11227,38.497187,0 100.08685,38.493162,0 100.064027,38.518551,0 100.02576,38.507943,0 100.00116,38.466959,0 100.02986,38.443382,0 100.021933,38.432983,0 100.057877,38.416355,0 100.092043,38.408223,0 100.111313,38.377811,0 100.123887,38.34768,0 100.136187,38.334846,0 100.16434,38.328025,0 100.157917,38.310567,0 100.16639,38.269617,0 100.184157,38.235255,0 100.182927,38.222034,0 100.16024,38.217039,0 100.12785,38.230628,0 100.116097,38.254127,0 100.095323,38.263084,0 100.09915,38.270645,0 100.071407,38.284591,0 100.050087,38.28327,0 99.998563,38.316436,0 99.95975,38.32069,0 99.9372,38.341593,0 99.904947,38.3446,0 99.830736,38.368648,0 99.758303,38.410494,0 99.734933,38.412619,0 99.715253,38.425146,0 99.679036,38.436645,0 99.65963,38.449167,0 99.645963,38.468935,0 99.585419,38.498504,0 99.556856,38.519648,0 99.548656,38.534204,0 99.527473,38.547514,0 99.514079,38.568425,0 99.514216,38.59766,0 99.496039,38.612931,0 99.450803,38.604456,0 99.432216,38.623451,0 99.426203,38.647406,0 99.412399,38.665514,0 99.371536,38.69055,0 99.362106,38.718204,0 99.291039,38.765898,0 99.257692,38.781643,0 99.222159,38.788931,0 99.169269,38.827255,0 99.141252,38.852744,0 99.110639,38.86796,0 99.068819,38.897074,0 99.065402,38.9157,0 99.108999,38.946393,0 99.065539,38.96268,0 99.054469,38.976564,0 99.013879,38.984705,0 98.993242,38.977437,0 98.984085,38.984777,0 98.949645,38.988484,0 98.902905,39.012535,0 98.887189,39.039265,0 98.820085,39.063589,0 98.813252,39.087687,0 98.759815,39.0903,0 98.743825,39.086889,0 98.730568,39.0572,0 98.705422,39.043332,0 98.691892,39.020817,0 98.663328,38.994516,0 98.614538,38.980489,0 98.623968,38.959263,0 98.614812,38.947338,0 98.597728,38.947629,0 98.590075,38.933085,0 98.572992,38.93243,0 98.550578,38.949374,0 98.526388,38.955555,0 98.457508,38.952937,0 98.428261,38.975983,0 98.432771,38.993571,0 98.401065,39.001491,0 98.383981,39.029388,0 98.316878,39.0405,0 98.287085,39.035489,0 98.281071,39.027063,0 98.287495,38.99219,0 98.270138,38.954537,0 98.235424,38.919046,0 98.251551,38.907842,0 98.251278,38.891252,0 98.203444,38.856603,0 98.177068,38.846045,0 98.152331,38.820189,0 98.134974,38.815818,0 98.093291,38.786307,0 98.112014,38.759336,0 98.128551,38.757003,0 98.141944,38.737387,0 98.136614,38.710616,0 98.157251,38.696023,0 98.182534,38.667558,0 98.246494,38.663689,0 98.273965,38.643025,0 98.275058,38.66252,0 98.295695,38.66325,0 98.368128,38.615634,0 98.418148,38.598391,0 98.468851,38.58816,0 98.508758,38.586187,0 98.538962,38.579536,0 98.562332,38.553145,0 98.608525,38.52689,0 98.637772,38.522135,0 98.683008,38.530328,0 98.711572,38.520892,0 98.717312,38.502675,0 98.735625,38.485258,0 98.778402,38.477792,0 98.816395,38.482257,0 98.881859,38.475011,0 98.948142,38.444041,0 98.969462,38.422655,0 98.983539,38.396866,0 98.979849,38.389318,0 98.955249,38.390344,0 98.909192,38.363517,0 98.909739,38.350246,0 98.936389,38.341813,0 98.938712,38.324871,0 98.908235,38.298974,0 98.907825,38.2887,0 98.947459,38.271599,0 99.002945,38.278499,0 99.013059,38.267195,0 99.039982,38.25699,0 99.089319,38.26301,0 99.122939,38.273214,0 99.146719,38.290682,0 99.168176,38.28804,0 99.172686,38.308219,0 99.212456,38.316215,0 99.223662,38.328465,0 99.247442,38.328685,0 99.259742,38.315408,0 99.250312,38.301836,0 99.283932,38.274535,0 99.321379,38.265653,0 99.364019,38.247298,0 99.401603,38.256917,0 99.438639,38.258459,0 99.469116,38.2484,0 99.498499,38.250676,0 99.524193,38.209546,0 99.548656,38.202125,0 99.560136,38.207121,0 99.585009,38.200215,0 99.594713,38.162512,0 99.579269,38.109635,0 99.622593,38.095141,0 99.64733,38.07667,0 99.684503,38.071002,0 99.652933,38.051199,0 99.615623,38.053261,0 99.559589,38.029476,0 99.523919,38.034631,0 99.499456,38.032643,0 99.441373,38.017544,0 99.411716,38.025352,0 99.380693,38.007083,0 99.359646,37.979452,0 99.358963,37.967364,0 99.392309,37.947238,0 99.375226,37.924083,0 99.417456,37.902543,0 99.438366,37.897305,0 99.474036,37.873175,0 99.477453,37.846009,0 99.498089,37.838404,0 99.512439,37.857748,0 99.555079,37.845197,0 99.600453,37.83678,0 99.606466,37.829174,0 99.661543,37.812038,0 99.648423,37.793052,0 99.649516,37.756839,0 99.657716,37.735843,0 99.68915,37.719869,0 99.69735,37.682807,0 99.686143,37.667266,0 99.63585,37.654017,0 99.590749,37.610996,0 99.559589,37.610552,0 99.541549,37.596774,0 99.543053,37.563504,0 99.500959,37.544083,0 99.463649,37.482675,0 99.473353,37.460191,0 99.476086,37.411785,0 99.464879,37.398565,0 99.417046,37.370111,0 99.418276,37.330569,0 99.434539,37.31384,0 99.439323,37.280295,0 99.423196,37.242195,0 99.436999,37.216362,0 99.430713,37.182848,0 99.454356,37.17443,0 99.454356,37.156622,0 99.512986,37.143804,0 99.548929,37.117342,0 99.566559,37.116521,0 99.589246,37.101683,0 99.63134,37.08632,0 99.688193,37.042749,0 99.720856,37.03424,0 99.74081,37.036554,0 99.743543,37.015877,0 99.77197,37.018565,0 99.797526,36.991685,0 99.821716,36.984963,0 99.839756,36.966588,0 99.904537,36.951198,0 100.14261,36.899025,0 100.278184,36.867316,0 100.536621,36.814563,0 100.696384,36.776228,0 100.725631,36.753982,0 100.763078,36.758926,0 100.801071,36.757353,0 100.862708,36.780347,0 100.918604,36.749712,0 100.917374,36.741321,0 100.917648,36.772409,0 100.906988,36.798542,0 100.967395,36.821524,0 101.022881,36.783642,0 101.088618,36.803783,0 101.111441,36.827511,0 101.144515,36.853102,0 101.166928,36.862379,0 101.180048,36.886986,0 101.206151,36.894763,0 101.230068,36.915249,0 101.275442,36.899175,0 101.291432,36.902016,0 101.297718,36.925116,0 101.279678,36.96233,0 101.289518,36.999302,0 101.274895,37.02058,0 101.265192,37.049838,0 101.272025,37.05827,0 101.243325,37.075206,0 101.225012,37.108618,0 101.197678,37.110631,0 101.174445,37.124499,0 101.157908,37.147233,0 101.152851,37.174952,0 101.128935,37.21033,0 101.080555,37.228944,0 101.049121,37.220383,0 101.007438,37.249191,0 100.970128,37.252019,0 100.964935,37.242418,0 100.931998,37.261396,0 100.932271,37.2765,0 100.916691,37.28818,0 100.917238,37.304469,0 100.896328,37.337632,0 100.869268,37.353316,0 100.882114,37.376724,0 100.881431,37.415498,0 100.890861,37.434655,0 100.907124,37.429384,0 100.927488,37.451432,0 100.954138,37.470283,0 100.973408,37.463382,0 100.963705,37.449799,0 101.019601,37.413865,0 101.057048,37.398788,0 101.081511,37.396485,0 101.091898,37.384451,0 101.113491,37.386531,0 101.129755,37.377244,0 101.148888,37.383931,0 101.175128,37.374866,0 101.213668,37.377987,0 101.218042,37.370111,0 101.253302,37.365875,0 101.285282,37.383559,0 101.315895,37.369516,0 101.329562,37.352572,0 101.374935,37.345957,0 101.395708,37.35064,0 101.451195,37.339267,0 101.497662,37.337855,0 101.535245,37.322539,0 101.532102,37.297701,0 101.540302,37.277914,0 101.569549,37.282155,0 101.573102,37.273673,0 101.611779,37.264744,0 101.626539,37.250233,0 101.641435,37.25507,0 101.716602,37.235123,0 101.742159,37.247777,0 101.761292,37.232071,0 101.762249,37.220531,0 101.799969,37.219266,0 101.810766,37.203033,0 101.841516,37.185902,0 101.870899,37.179272,0 101.891399,37.158187,0 101.914496,37.148127,0</coordinates></LinearRing></outerBoundaryIs>
      </Polygon>
    </MultiGeometry>
    </Placemark>
  </Document>
</kml>
