<?xml version="1.0" encoding="UTF-8"?>
<kml xmlns="http://www.opengis.net/kml/2.2">
  <Document>
    <name><![CDATA[黄南藏族自治州]]></name>
    <Placemark>
      <name><![CDATA[黄南藏族自治州]]></name>
      <description><![CDATA[省级目录：青海省]]></description>
      <ExtendedData>
        <Data name="adcode"><value>632300</value></Data>
      </ExtendedData>
      <MultiGeometry>
      <Polygon>
        <outerBoundaryIs><LinearRing><coordinates>100.950585,34.383654,0 100.975458,34.369918,0 100.986938,34.374625,0 101.023975,34.343056,0 101.051445,34.337266,0 101.054588,34.322982,0 101.070715,34.32885,0 101.140415,34.324758,0 101.155995,34.329931,0 101.169115,34.319198,0 101.193851,34.336726,0 101.235262,34.325144,0 101.229112,34.298423,0 101.265738,34.292939,0 101.281728,34.273393,0 101.315212,34.265821,0 101.323275,34.248433,0 101.371655,34.247738,0 101.415662,34.228414,0 101.482355,34.218673,0 101.492469,34.195553,0 101.515565,34.199187,0 101.530325,34.210477,0 101.552602,34.204214,0 101.558479,34.191222,0 101.582395,34.195475,0 101.600299,34.179311,0 101.625035,34.176913,0 101.627632,34.165541,0 101.652232,34.148752,0 101.649635,34.126773,0 101.672869,34.110983,0 101.695829,34.120117,0 101.713185,34.109047,0 101.710999,34.086749,0 101.728355,34.099602,0 101.736145,34.080089,0 101.757466,34.100067,0 101.763752,34.122594,0 101.788352,34.131649,0 101.838099,34.124684,0 101.865979,34.150067,0 101.872539,34.133275,0 101.895636,34.133971,0 101.955086,34.109667,0 101.967522,34.155638,0 101.965472,34.167398,0 102.003192,34.161905,0 102.018363,34.190294,0 102.030799,34.190526,0 102.015219,34.224316,0 102.064966,34.233206,0 102.060593,34.279497,0 102.067973,34.293479,0 102.085056,34.291703,0 102.133299,34.27293,0 102.148333,34.271307,0 102.150793,34.292089,0 102.169516,34.308386,0 102.169379,34.324912,0 102.186463,34.352783,0 102.219263,34.339814,0 102.259306,34.355562,0 102.235116,34.382187,0 102.224866,34.383422,0 102.204913,34.410656,0 102.197669,34.431326,0 102.175666,34.447597,0 102.172249,34.476274,0 102.155849,34.507562,0 102.140133,34.503709,0 102.121409,34.52297,0 102.106923,34.521737,0 102.092983,34.536373,0 102.039956,34.534755,0 102.003739,34.538298,0 101.974356,34.548926,0 101.956042,34.58288,0 101.934586,34.587499,0 101.919826,34.625208,0 101.918186,34.666668,0 101.929802,34.681508,0 101.917366,34.706262,0 101.917912,34.784088,0 101.927479,34.802977,0 101.917229,34.875113,0 101.939779,34.888612,0 101.959732,34.887155,0 101.985972,34.899885,0 102.028203,34.896281,0 102.068383,34.887692,0 102.047883,34.910774,0 102.061823,34.942663,0 102.076993,34.95301,0 102.095033,34.986798,0 102.124689,35.003343,0 102.132479,35.014753,0 102.108563,35.031139,0 102.101046,35.064436,0 102.054716,35.078516,0 102.056356,35.098561,0 102.041733,35.139859,0 102.022599,35.147964,0 102.015629,35.165393,0 102.052119,35.183888,0 102.039136,35.214372,0 102.025059,35.225066,0 102.015903,35.248969,0 101.998136,35.256681,0 101.984742,35.280117,0 101.991439,35.301104,0 101.936499,35.338028,0 101.916409,35.306674,0 101.907116,35.312473,0 101.884429,35.303545,0 101.872949,35.281872,0 101.868712,35.252023,0 101.848486,35.241791,0 101.795049,35.253627,0 101.775369,35.23362,0 101.752819,35.221935,0 101.731635,35.254772,0 101.549869,35.25836,0 101.529779,35.248358,0 101.506682,35.21674,0 101.459942,35.219338,0 101.446958,35.256299,0 101.425502,35.254925,0 101.397075,35.238508,0 101.406095,35.229038,0 101.418942,35.186639,0 101.398852,35.172119,0 101.359218,35.172806,0 101.345278,35.180678,0 101.355528,35.204976,0 101.348558,35.248816,0 101.329288,35.278208,0 101.341315,35.277063,0 101.406642,35.28897,0 101.391745,35.335892,0 101.368102,35.338333,0 101.290065,35.369141,0 101.242095,35.36876,0 101.214215,35.388047,0 101.184421,35.391782,0 101.162145,35.403138,0 101.148205,35.397117,0 101.127295,35.408168,0 101.100235,35.406339,0 101.043381,35.411064,0 100.964525,35.401004,0 100.934868,35.417007,0 100.914094,35.417236,0 100.842071,35.432398,0 100.816514,35.413578,0 100.767314,35.419979,0 100.712374,35.42295,0 100.693104,35.419598,0 100.687638,35.404891,0 100.703491,35.370056,0 100.728364,35.357094,0 100.733011,35.342528,0 100.812414,35.333985,0 100.814054,35.318881,0 100.849588,35.325137,0 100.911088,35.303622,0 100.915734,35.294617,0 100.873368,35.247824,0 100.781254,35.18106,0 100.754194,35.173418,0 100.730961,35.152092,0 100.703491,35.148881,0 100.713878,35.132825,0 100.696931,35.117377,0 100.697478,35.079741,0 100.715518,35.071936,0 100.738478,35.044459,0 100.795468,35.020037,0 100.811731,35.007248,0 100.873094,35.000049,0 100.919424,34.982279,0 100.948398,34.945882,0 100.968078,34.931933,0 101.006755,34.916907,0 101.037778,34.915987,0 101.035455,34.904179,0 101.055408,34.889532,0 101.114448,34.889532,0 101.131531,34.882783,0 101.139185,34.848261,0 101.148341,34.835139,0 101.126065,34.803898,0 101.087388,34.801211,0 101.080828,34.781401,0 101.100918,34.741074,0 101.097638,34.720019,0 101.065658,34.715485,0 101.058825,34.677817,0 101.036958,34.65144,0 101.000331,34.640979,0 100.959741,34.663591,0 100.907808,34.659054,0 100.889631,34.663591,0 100.892638,34.638056,0 100.910268,34.626208,0 100.908354,34.605894,0 100.916691,34.570178,0 100.946758,34.539761,0 100.970128,34.542457,0 100.970675,34.499934,0 100.977645,34.480282,0 100.976278,34.447443,0 100.962611,34.422457,0 100.950585,34.383654,0</coordinates></LinearRing></outerBoundaryIs>
      </Polygon>
      <Polygon>
        <outerBoundaryIs><LinearRing><coordinates>101.549869,35.25836,0 101.731635,35.254772,0 101.752819,35.221935,0 101.775369,35.23362,0 101.795049,35.253627,0 101.848486,35.241791,0 101.868712,35.252023,0 101.872949,35.281872,0 101.884429,35.303545,0 101.907116,35.312473,0 101.916409,35.306674,0 101.936499,35.338028,0 101.991439,35.301104,0 101.984742,35.280117,0 101.998136,35.256681,0 102.015903,35.248969,0 102.025059,35.225066,0 102.039136,35.214372,0 102.052119,35.183888,0 102.015629,35.165393,0 102.022599,35.147964,0 102.041733,35.139859,0 102.056356,35.098561,0 102.054716,35.078516,0 102.101046,35.064436,0 102.108563,35.031139,0 102.132479,35.014753,0 102.157353,35.010848,0 102.174573,35.032517,0 102.213933,35.036498,0 102.224046,35.059079,0 102.252473,35.048746,0 102.279806,35.05663,0 102.295113,35.070635,0 102.310283,35.128237,0 102.339393,35.141159,0 102.35224,35.165163,0 102.373696,35.161265,0 102.40349,35.178156,0 102.39939,35.196266,0 102.365633,35.238584,0 102.370826,35.262788,0 102.335293,35.283475,0 102.312196,35.282483,0 102.280216,35.307589,0 102.311376,35.313236,0 102.317663,35.342833,0 102.306593,35.359839,0 102.28992,35.364566,0 102.282129,35.384998,0 102.292653,35.422569,0 102.314793,35.434378,0 102.408683,35.410073,0 102.447633,35.437349,0 102.45064,35.448318,0 102.41292,35.46355,0 102.404583,35.479008,0 102.42276,35.490885,0 102.426723,35.539668,0 102.40841,35.538527,0 102.40554,35.55435,0 102.38832,35.561728,0 102.354563,35.590398,0 102.349916,35.60872,0 102.303723,35.624378,0 102.269146,35.624074,0 102.226369,35.654089,0 102.225003,35.679308,0 102.212839,35.708011,0 102.197533,35.709681,0 102.180313,35.695863,0 102.162409,35.693737,0 102.152433,35.715906,0 102.170473,35.728583,0 102.124143,35.735338,0 102.141909,35.750212,0 102.129473,35.767815,0 102.102686,35.789357,0 102.082049,35.813775,0 102.100773,35.830151,0 102.079863,35.84622,0 102.078223,35.861528,0 102.115123,35.871681,0 102.110203,35.906525,0 102.094349,35.919323,0 102.077813,35.908873,0 102.053486,35.90698,0 102.040913,35.925986,0 102.083416,35.946729,0 102.041323,35.954373,0 102.017953,35.992358,0 101.983102,36.004235,0 101.975312,36.026998,0 101.956042,36.026242,0 101.944016,36.044842,0 101.955906,36.062303,0 101.934996,36.062832,0 101.896319,36.075,0 101.906979,36.089584,0 101.886752,36.096837,0 101.887572,36.109755,0 101.850672,36.124408,0 101.837416,36.117837,0 101.799969,36.117988,0 101.785346,36.145023,0 101.769629,36.156498,0 101.758149,36.149326,0 101.753502,36.169633,0 101.743252,36.149024,0 101.726989,36.167519,0 101.666855,36.160801,0 101.647722,36.154611,0 101.638429,36.116477,0 101.649362,36.090037,0 101.643212,36.08029,0 101.656605,36.057768,0 101.646355,36.033199,0 101.651959,36.010739,0 101.645535,35.999847,0 101.668222,35.984415,0 101.681752,35.964515,0 101.679975,35.928863,0 101.697059,35.916218,0 101.733685,35.902511,0 101.665215,35.81514,0 101.674509,35.79186,0 101.663029,35.776387,0 101.685169,35.757724,0 101.718652,35.751957,0 101.739425,35.754841,0 101.764572,35.747253,0 101.760199,35.725851,0 101.772499,35.716893,0 101.770586,35.687586,0 101.759106,35.662977,0 101.727809,35.644212,0 101.699519,35.608492,0 101.689542,35.604159,0 101.696239,35.582338,0 101.677652,35.576027,0 101.657699,35.538222,0 101.663985,35.526353,0 101.593739,35.496061,0 101.580209,35.504739,0 101.548639,35.491494,0 101.533059,35.469109,0 101.501352,35.488373,0 101.486319,35.491113,0 101.464862,35.473221,0 101.441082,35.488906,0 101.420172,35.491113,0 101.404045,35.506794,0 101.389832,35.497812,0 101.398715,35.476648,0 101.395298,35.455021,0 101.410058,35.438263,0 101.455842,35.4023,0 101.479759,35.352289,0 101.437392,35.334367,0 101.391745,35.335892,0 101.406642,35.28897,0 101.420308,35.291259,0 101.459258,35.281338,0 101.498072,35.309878,0 101.505999,35.327425,0 101.537842,35.320865,0 101.549322,35.312244,0 101.541122,35.286299,0 101.549869,35.25836,0</coordinates></LinearRing></outerBoundaryIs>
      </Polygon>
    </MultiGeometry>
    </Placemark>
  </Document>
</kml>
