<?xml version="1.0" encoding="UTF-8"?>
<kml xmlns="http://www.opengis.net/kml/2.2">
  <Document>
    <name><![CDATA[丽水市]]></name>
    <Placemark>
      <name><![CDATA[丽水市]]></name>
      <description><![CDATA[省级目录：浙江省]]></description>
      <ExtendedData>
        <Data name="adcode"><value>331100</value></Data>
      </ExtendedData>
      <MultiGeometry>
      <Polygon>
        <outerBoundaryIs><LinearRing><coordinates>120.426713,28.831985,0 120.418101,28.851655,0 120.406881,28.845182,0 120.404715,28.853813,0 120.392954,28.847132,0 120.392855,28.834558,0 120.388475,28.829454,0 120.368446,28.838044,0 120.357914,28.839372,0 120.347284,28.858252,0 120.338278,28.860244,0 120.331388,28.868914,0 120.316428,28.876879,0 120.315394,28.887042,0 120.303239,28.892808,0 120.314312,28.9191,0 120.303977,28.931664,0 120.277894,28.930544,0 120.271004,28.950112,0 120.264951,28.93896,0 120.255453,28.931,0 120.258603,28.927103,0 120.250729,28.913792,0 120.261752,28.911429,0 120.260719,28.865471,0 120.241821,28.857256,0 120.236506,28.844808,0 120.216526,28.832608,0 120.215148,28.825885,0 120.20186,28.810029,0 120.200335,28.80181,0 120.209341,28.795832,0 120.198858,28.783958,0 120.183553,28.785162,0 120.178435,28.775239,0 120.165344,28.774325,0 120.145561,28.784,0 120.131437,28.759708,0 120.111309,28.762324,0 120.109882,28.767224,0 120.097037,28.768553,0 120.083946,28.787031,0 120.049202,28.763155,0 120.028976,28.758047,0 120.025679,28.764151,0 120.010669,28.772207,0 120.005304,28.780886,0 119.982421,28.796662,0 119.971643,28.794255,0 119.967607,28.787819,0 119.948562,28.787197,0 119.942164,28.793009,0 119.921298,28.796164,0 119.921003,28.784,0 119.906731,28.768553,0 119.89807,28.750363,0 119.886751,28.744632,0 119.882371,28.7492,0 119.87179,28.742306,0 119.874448,28.73541,0 119.86618,28.718503,0 119.849644,28.716591,0 119.826367,28.695317,0 119.813867,28.68684,0 119.811751,28.65392,0 119.794969,28.632883,0 119.777252,28.630887,0 119.764949,28.638704,0 119.752449,28.635253,0 119.749398,28.622696,0 119.772725,28.608556,0 119.773955,28.603233,0 119.767065,28.588009,0 119.754122,28.592668,0 119.7399,28.591462,0 119.739309,28.584848,0 119.720461,28.56596,0 119.717705,28.553769,0 119.707813,28.545738,0 119.703581,28.533211,0 119.674742,28.530006,0 119.660224,28.539953,0 119.644722,28.541867,0 119.638276,28.528508,0 119.629171,28.525386,0 119.613374,28.5278,0 119.574201,28.523888,0 119.568492,28.532295,0 119.542458,28.532628,0 119.535175,28.543782,0 119.53488,28.555724,0 119.514653,28.561675,0 119.498413,28.54865,0 119.494427,28.554018,0 119.498068,28.584848,0 119.509879,28.603357,0 119.507911,28.615335,0 119.488423,28.626438,0 119.482025,28.639453,0 119.468442,28.633632,0 119.461208,28.634879,0 119.455696,28.650886,0 119.462241,28.661237,0 119.458895,28.683848,0 119.46421,28.70824,0 119.460814,28.73944,0 119.463767,28.742306,0 119.479663,28.739647,0 119.473019,28.749782,0 119.470854,28.765356,0 119.430696,28.755596,0 119.421198,28.749159,0 119.413619,28.751983,0 119.412438,28.76166,0 119.387684,28.786948,0 119.371887,28.784789,0 119.368737,28.774118,0 119.359534,28.768304,0 119.358206,28.761037,0 119.346247,28.757008,0 119.338422,28.761161,0 119.327694,28.779806,0 119.328629,28.800565,0 119.322428,28.800897,0 119.311503,28.811897,0 119.302644,28.80401,0 119.291325,28.806003,0 119.276512,28.802931,0 119.271148,28.786532,0 119.255745,28.776152,0 119.24851,28.763612,0 119.238028,28.761992,0 119.213569,28.768968,0 119.187536,28.770173,0 119.169573,28.748868,0 119.161207,28.748162,0 119.137683,28.738027,0 119.122378,28.737072,0 119.097132,28.743261,0 119.087831,28.735203,0 119.080793,28.740146,0 119.063962,28.733541,0 119.047575,28.722159,0 119.043687,28.71227,0 119.02971,28.709694,0 119.007958,28.694569,0 119.001659,28.683058,0 118.991472,28.676491,0 118.983992,28.663856,0 118.962683,28.642405,0 118.956974,28.647394,0 118.930202,28.640534,0 118.925527,28.63359,0 118.923657,28.619244,0 118.916619,28.610885,0 118.917112,28.599739,0 118.909139,28.589756,0 118.908549,28.574447,0 118.91406,28.563921,0 118.902938,28.548859,0 118.890192,28.539745,0 118.889306,28.533003,0 118.878332,28.522056,0 118.868046,28.521723,0 118.864552,28.529923,0 118.854562,28.532212,0 118.851019,28.53962,0 118.83842,28.539911,0 118.821786,28.547444,0 118.809385,28.536249,0 118.795359,28.534335,0 118.780546,28.526552,0 118.777298,28.518435,0 118.765142,28.524096,0 118.751215,28.52447,0 118.7428,28.509152,0 118.726953,28.499827,0 118.723164,28.493249,0 118.729709,28.479508,0 118.725379,28.460894,0 118.731136,28.456479,0 118.723951,28.433153,0 118.723459,28.411196,0 118.734975,28.416779,0 118.753233,28.417321,0 118.757564,28.407488,0 118.738371,28.369813,0 118.742012,28.364435,0 118.724001,28.338337,0 118.717898,28.33817,0 118.701904,28.327078,0 118.700182,28.310397,0 118.713518,28.312899,0 118.722327,28.31048,0 118.730152,28.2968,0 118.727298,28.281115,0 118.739355,28.27736,0 118.740881,28.267514,0 118.754513,28.253452,0 118.781186,28.243102,0 118.802052,28.240431,0 118.812387,28.225573,0 118.804168,28.207874,0 118.794769,28.205953,0 118.782121,28.193178,0 118.769276,28.185746,0 118.760959,28.167413,0 118.775182,28.167998,0 118.782908,28.172633,0 118.798115,28.168917,0 118.805891,28.153088,0 118.800428,28.13312,0 118.802298,28.117286,0 118.785369,28.106715,0 118.773607,28.107968,0 118.765142,28.102912,0 118.763518,28.094721,0 118.743144,28.088536,0 118.73532,28.074994,0 118.718784,28.063624,0 118.720359,28.045438,0 118.732662,28.035947,0 118.733499,28.026455,0 118.726609,28.014201,0 118.72656,28.000399,0 118.732514,27.990904,0 118.729906,27.97258,0 118.753479,27.948018,0 118.754168,27.942745,0 118.767111,27.941824,0 118.804562,27.927092,0 118.803725,27.918302,0 118.81844,27.916711,0 118.820408,27.89536,0 118.831531,27.886316,0 118.82656,27.874843,0 118.835763,27.866509,0 118.826314,27.846614,0 118.835418,27.838195,0 118.838814,27.820641,0 118.847131,27.812513,0 118.851462,27.796003,0 118.839405,27.788585,0 118.839995,27.779322,0 118.853972,27.774251,0 118.87218,27.734424,0 118.880645,27.731153,0 118.890438,27.718741,0 118.897968,27.718909,0 118.900084,27.704985,0 118.878479,27.70532,0 118.875035,27.700958,0 118.880546,27.689297,0 118.874641,27.682795,0 118.879907,27.667944,0 118.89531,27.655566,0 118.903726,27.638864,0 118.902643,27.623671,0 118.913913,27.619138,0 118.902741,27.592313,0 118.90407,27.575979,0 118.910222,27.570352,0 118.896048,27.563129,0 118.889011,27.547505,0 118.869178,27.539903,0 118.859631,27.527594,0 118.857859,27.516671,0 118.873607,27.517764,0 118.879907,27.49957,0 118.886501,27.501251,0 118.89034,27.494107,0 118.889454,27.481332,0 118.897722,27.478978,0 118.901462,27.464688,0 118.910763,27.460862,0 118.933352,27.463595,0 118.949198,27.456364,0 118.955448,27.449849,0 118.966029,27.473346,0 118.988322,27.477255,0 118.990439,27.48856,0 118.982761,27.49604,0 118.990734,27.503352,0 118.998903,27.496335,0 119.020803,27.497931,0 119.037191,27.480617,0 119.055301,27.477591,0 119.066423,27.466957,0 119.072525,27.472253,0 119.088126,27.464099,0 119.115095,27.482845,0 119.130744,27.4728,0 119.131286,27.46309,0 119.118884,27.461451,0 119.125921,27.452203,0 119.121394,27.438329,0 119.12853,27.43177,0 119.138766,27.434419,0 119.147526,27.424832,0 119.153973,27.428532,0 119.16849,27.424874,0 119.180252,27.428238,0 119.19477,27.418735,0 119.209485,27.422099,0 119.222674,27.417053,0 119.243441,27.419828,0 119.24728,27.4295,0 119.251069,27.420753,0 119.267851,27.421468,0 119.276463,27.435512,0 119.285026,27.457626,0 119.334682,27.480029,0 119.347674,27.492763,0 119.341867,27.506797,0 119.360027,27.524402,0 119.376808,27.534988,0 119.394968,27.539272,0 119.41667,27.539651,0 119.422674,27.536584,0 119.432861,27.513016,0 119.438472,27.508772,0 119.45171,27.51352,0 119.466523,27.52646,0 119.474643,27.539314,0 119.477497,27.553847,0 119.48483,27.570394,0 119.481877,27.585679,0 119.488718,27.59882,0 119.500923,27.608224,0 119.49797,27.625896,0 119.501169,27.649901,0 119.511503,27.653468,0 119.52046,27.650069,0 119.525923,27.660307,0 119.537094,27.658923,0 119.541917,27.663916,0 119.539161,27.67537,0 119.549299,27.670167,0 119.550135,27.663832,0 119.566523,27.663748,0 119.578925,27.669832,0 119.583945,27.665175,0 119.595018,27.666895,0 119.606238,27.67474,0 119.635569,27.668405,0 119.643,27.673188,0 119.646937,27.685732,0 119.65614,27.69345,0 119.650923,27.695547,0 119.650726,27.717147,0 119.665982,27.721886,0 119.678581,27.734005,0 119.680205,27.744193,0 119.696986,27.753626,0 119.719427,27.76046,0 119.725874,27.767712,0 119.734831,27.766622,0 119.756189,27.795625,0 119.768148,27.805306,0 119.773069,27.794075,0 119.785077,27.795793,0 119.787882,27.808993,0 119.785766,27.822485,0 119.793886,27.826381,0 119.785766,27.833503,0 119.788965,27.85319,0 119.785077,27.861651,0 119.790097,27.867095,0 119.800186,27.890545,0 119.791032,27.898584,0 119.786455,27.909302,0 119.804713,27.922111,0 119.815146,27.92073,0 119.825284,27.911771,0 119.83306,27.911353,0 119.843099,27.92705,0 119.85117,27.932198,0 119.831436,27.951617,0 119.833601,27.956178,0 119.854861,27.961911,0 119.861997,27.949525,0 119.865688,27.950864,0 119.86554,27.966388,0 119.875235,27.974128,0 119.892115,27.951366,0 119.90683,27.954253,0 119.928631,27.968814,0 119.96244,27.97622,0 119.968739,27.962496,0 119.962145,27.950236,0 119.966919,27.937597,0 120.001269,27.941029,0 120.009389,27.947892,0 120.020511,27.939606,0 120.031781,27.941322,0 120.043001,27.951115,0 120.063572,27.951073,0 120.064311,27.961241,0 120.074301,27.972287,0 120.084389,27.967099,0 120.096889,27.980613,0 120.11746,27.982621,0 120.143888,27.976596,0 120.145758,27.979692,0 120.171939,27.978563,0 120.176713,27.972203,0 120.174842,27.960404,0 120.178337,27.952956,0 120.187835,27.948562,0 120.202057,27.935965,0 120.218691,27.93563,0 120.229961,27.931361,0 120.241575,27.934961,0 120.24561,27.943415,0 120.248957,27.964003,0 120.257471,27.96735,0 120.265591,27.95714,0 120.276516,27.959609,0 120.295168,27.977057,0 120.324646,27.978981,0 120.328928,27.966681,0 120.336064,27.970697,0 120.349154,27.987683,0 120.335522,27.990444,0 120.344479,28.019011,0 120.348711,28.021018,0 120.34881,28.034902,0 120.344922,28.040003,0 120.350286,28.052588,0 120.357176,28.050581,0 120.372432,28.054929,0 120.37381,28.066174,0 120.362294,28.080093,0 120.368446,28.088912,0 120.383652,28.09539,0 120.390542,28.094303,0 120.411851,28.11457,0 120.405601,28.124222,0 120.408013,28.131617,0 120.38567,28.14206,0 120.385916,28.147365,0 120.421546,28.160188,0 120.413672,28.172633,0 120.422087,28.182823,0 120.431044,28.186915,0 120.425188,28.196351,0 120.41195,28.199482,0 120.415788,28.213927,0 120.438426,28.234463,0 120.433505,28.246984,0 120.421448,28.253827,0 120.426418,28.268056,0 120.417019,28.288832,0 120.414164,28.302931,0 120.402796,28.305976,0 120.394971,28.315485,0 120.377698,28.31757,0 120.369971,28.331332,0 120.357914,28.32883,0 120.346595,28.335126,0 120.360768,28.3453,0 120.359883,28.359391,0 120.353485,28.367228,0 120.334686,28.371355,0 120.33503,28.384484,0 120.344725,28.392444,0 120.337638,28.395528,0 120.331684,28.407571,0 120.338819,28.412363,0 120.33818,28.427112,0 120.34379,28.431903,0 120.366723,28.424279,0 120.374302,28.410821,0 120.381684,28.42557,0 120.381044,28.436277,0 120.372137,28.446982,0 120.384341,28.458894,0 120.387786,28.479467,0 120.379715,28.498037,0 120.36628,28.499785,0 120.341034,28.49633,0 120.336802,28.509236,0 120.324252,28.512358,0 120.313376,28.522181,0 120.304223,28.506988,0 120.292658,28.511983,0 120.290935,28.539037,0 120.311556,28.557639,0 120.322087,28.554143,0 120.326221,28.56388,0 120.322481,28.573449,0 120.332963,28.580563,0 120.349597,28.574198,0 120.361359,28.580188,0 120.371152,28.573615,0 120.3807,28.581852,0 120.381733,28.599864,0 120.371644,28.606394,0 120.368839,28.618205,0 120.353288,28.626896,0 120.349745,28.633008,0 120.356733,28.637665,0 120.357471,28.646853,0 120.336211,28.654378,0 120.32253,28.6698,0 120.324056,28.686341,0 120.331585,28.701301,0 120.349499,28.704334,0 120.355503,28.712187,0 120.351861,28.723986,0 120.343101,28.721909,0 120.347481,28.730218,0 120.362934,28.734538,0 120.369971,28.740893,0 120.368987,28.763861,0 120.386064,28.787114,0 120.40068,28.785494,0 120.409883,28.798572,0 120.408111,28.806626,0 120.415099,28.822315,0 120.426713,28.831985,0</coordinates></LinearRing></outerBoundaryIs>
      </Polygon>
    </MultiGeometry>
    </Placemark>
  </Document>
</kml>
