<?xml version="1.0" encoding="UTF-8"?>
<kml xmlns="http://www.opengis.net/kml/2.2">
  <Document>
    <name><![CDATA[台州市]]></name>
    <Placemark>
      <name><![CDATA[台州市]]></name>
      <description><![CDATA[省级目录：浙江省]]></description>
      <ExtendedData>
        <Data name="adcode"><value>331000</value></Data>
      </ExtendedData>
      <MultiGeometry>
      <Polygon>
        <outerBoundaryIs><LinearRing><coordinates>121.60846,29.169127,0 121.564267,29.173056,0 121.555802,29.168961,0 121.53592,29.139795,0 121.529719,29.136277,0 121.508361,29.140622,0 121.484542,29.142856,0 121.470517,29.147615,0 121.450044,29.159612,0 121.431048,29.159778,0 121.407032,29.156882,0 121.401225,29.160978,0 121.403833,29.17864,0 121.385378,29.196921,0 121.378784,29.199236,0 121.366924,29.189146,0 121.356343,29.186044,0 121.361904,29.173305,0 121.345418,29.145173,0 121.348715,29.135574,0 121.336609,29.121959,0 121.323813,29.117159,0 121.316973,29.105653,0 121.308213,29.11451,0 121.298616,29.114593,0 121.295221,29.092696,0 121.271746,29.101803,0 121.270713,29.11033,0 121.256096,29.114055,0 121.258754,29.129243,0 121.257622,29.149311,0 121.264364,29.1544,0 121.253045,29.157172,0 121.251028,29.163542,0 121.238872,29.175745,0 121.232966,29.186623,0 121.233705,29.196797,0 121.225338,29.203868,0 121.202701,29.203578,0 121.173517,29.20639,0 121.164708,29.2116,0 121.174403,29.223095,0 121.158852,29.244756,0 121.166824,29.258892,0 121.179325,29.258727,0 121.175289,29.278274,0 121.180899,29.292033,0 121.196992,29.303229,0 121.201077,29.312482,0 121.190742,29.312358,0 121.194187,29.322189,0 121.180456,29.32921,0 121.175092,29.323097,0 121.163084,29.325039,0 121.160574,29.340154,0 121.149846,29.330903,0 121.133704,29.338337,0 121.122041,29.336396,0 121.117956,29.33111,0 121.120368,29.318719,0 121.117513,29.304509,0 121.096155,29.305707,0 121.099501,29.317893,0 121.074698,29.322106,0 121.056539,29.322891,0 121.04084,29.309549,0 121.024009,29.308103,0 121.020515,29.317728,0 121.005554,29.319421,0 120.990889,29.309219,0 120.964806,29.306327,0 120.956883,29.282447,0 120.942611,29.289595,0 120.928093,29.291702,0 120.915347,29.303311,0 120.904225,29.295462,0 120.903782,29.276042,0 120.891627,29.270009,0 120.890692,29.260462,0 120.897335,29.253478,0 120.900042,29.240788,0 120.882227,29.239217,0 120.867266,29.24455,0 120.862148,29.252362,0 120.853634,29.253519,0 120.838428,29.237895,0 120.82391,29.229503,0 120.806144,29.234009,0 120.776518,29.225079,0 120.783063,29.221193,0 120.773171,29.205687,0 120.77824,29.19965,0 120.759884,29.189022,0 120.749648,29.176035,0 120.731095,29.164494,0 120.712295,29.143767,0 120.722187,29.130236,0 120.734441,29.13127,0 120.746843,29.122911,0 120.736606,29.11331,0 120.723614,29.119145,0 120.709884,29.098409,0 120.701222,29.097457,0 120.694382,29.086942,0 120.704864,29.075888,0 120.702207,29.060195,0 120.691626,29.052079,0 120.70073,29.044334,0 120.693151,29.040565,0 120.701714,29.022713,0 120.713575,29.035264,0 120.724451,29.023873,0 120.720317,29.012356,0 120.72824,29.009829,0 120.72952,28.99711,0 120.72199,28.995245,0 120.726665,28.98128,0 120.717315,28.973779,0 120.69886,28.972992,0 120.696695,28.980037,0 120.677699,28.977302,0 120.673319,28.973158,0 120.673417,28.959895,0 120.659638,28.937136,0 120.664953,28.923786,0 120.663771,28.916488,0 120.64699,28.90048,0 120.619086,28.895628,0 120.60447,28.890692,0 120.590051,28.881111,0 120.579962,28.869371,0 120.56323,28.861696,0 120.542757,28.867048,0 120.533604,28.866301,0 120.533948,28.879534,0 120.525484,28.878663,0 120.514706,28.890734,0 120.509982,28.874888,0 120.494972,28.86601,0 120.502206,28.857215,0 120.498466,28.849207,0 120.486802,28.846012,0 120.481143,28.828167,0 120.473909,28.839206,0 120.441773,28.841406,0 120.426713,28.831985,0 120.415099,28.822315,0 120.408111,28.806626,0 120.409883,28.798572,0 120.40068,28.785494,0 120.386064,28.787114,0 120.368987,28.763861,0 120.369971,28.740893,0 120.362934,28.734538,0 120.347481,28.730218,0 120.343101,28.721909,0 120.351861,28.723986,0 120.355503,28.712187,0 120.349499,28.704334,0 120.331585,28.701301,0 120.324056,28.686341,0 120.32253,28.6698,0 120.336211,28.654378,0 120.357471,28.646853,0 120.356733,28.637665,0 120.349745,28.633008,0 120.353288,28.626896,0 120.368839,28.618205,0 120.371644,28.606394,0 120.381733,28.599864,0 120.3807,28.581852,0 120.371152,28.573615,0 120.361359,28.580188,0 120.349597,28.574198,0 120.332963,28.580563,0 120.322481,28.573449,0 120.326221,28.56388,0 120.322087,28.554143,0 120.311556,28.557639,0 120.290935,28.539037,0 120.292658,28.511983,0 120.304223,28.506988,0 120.313376,28.522181,0 120.324252,28.512358,0 120.336802,28.509236,0 120.341034,28.49633,0 120.36628,28.499785,0 120.379715,28.498037,0 120.387786,28.479467,0 120.398957,28.465017,0 120.405995,28.480425,0 120.419135,28.491875,0 120.414952,28.496871,0 120.414952,28.512358,0 120.422186,28.522223,0 120.422727,28.533627,0 120.430503,28.534293,0 120.434145,28.553727,0 120.4307,28.568165,0 120.441871,28.573324,0 120.446349,28.584307,0 120.471891,28.586928,0 120.493495,28.577776,0 120.501566,28.56001,0 120.524056,28.55535,0 120.528781,28.548359,0 120.541232,28.543365,0 120.549204,28.533585,0 120.554716,28.535958,0 120.567856,28.531879,0 120.572236,28.537498,0 120.583358,28.530797,0 120.598811,28.53396,0 120.624303,28.533377,0 120.627157,28.547402,0 120.621202,28.55639,0 120.631291,28.564005,0 120.640002,28.557847,0 120.649647,28.563006,0 120.63946,28.577443,0 120.653043,28.585014,0 120.669234,28.579606,0 120.687344,28.582476,0 120.701026,28.592751,0 120.70201,28.606352,0 120.709096,28.611509,0 120.729372,28.603773,0 120.743496,28.611592,0 120.757817,28.604314,0 120.758703,28.591586,0 120.782916,28.590547,0 120.793644,28.583766,0 120.798713,28.588758,0 120.798221,28.576528,0 120.802601,28.572201,0 120.825829,28.566335,0 120.829225,28.555558,0 120.843054,28.542034,0 120.83267,28.524595,0 120.845071,28.514189,0 120.854323,28.515313,0 120.86953,28.491167,0 120.894481,28.485546,0 120.91082,28.48921,0 120.914412,28.495997,0 120.92765,28.505031,0 120.944776,28.503449,0 120.954028,28.498911,0 120.954471,28.509027,0 120.962198,28.509027,0 120.95767,28.494831,0 120.965593,28.482965,0 120.98705,28.481715,0 120.99517,28.473346,0 121.002946,28.478717,0 121.01771,28.478592,0 121.025436,28.472763,0 121.036115,28.481715,0 121.049895,28.478259,0 121.070417,28.480341,0 121.076864,28.484089,0 121.078734,28.495331,0 121.085131,28.500993,0 121.088182,28.51727,0 121.104816,28.537289,0 121.121352,28.532503,0 121.129866,28.521723,0 121.145565,28.523929,0 121.156736,28.520475,0 121.16958,28.505905,0 121.180949,28.478343,0 121.195171,28.473012,0 121.19463,28.467099,0 121.209098,28.458853,0 121.206096,28.455979,0 121.214413,28.43836,0 121.226815,28.435569,0 121.222829,28.422029,0 121.236165,28.422696,0 121.25772,28.408113,0 121.251274,28.405279,0 121.246155,28.385776,0 121.227553,28.384818,0 121.222041,28.372897,0 121.204866,28.368437,0 121.21589,28.351512,0 121.205949,28.318654,0 121.173911,28.277485,0 121.155358,28.274064,0 121.147385,28.263132,0 121.146401,28.236133,0 121.136805,28.168583,0 121.123271,28.148117,0 121.108409,28.139011,0 121.121106,28.125266,0 121.135279,28.070522,0 121.13587,28.050581,0 121.140988,28.031389,0 121.149797,28.025284,0 121.176175,28.022315,0 121.238675,28.028838,0 121.261165,28.034442,0 121.282278,28.054636,0 121.297829,28.06446,0 121.307425,28.088494,0 121.310083,28.110726,0 121.328144,28.134165,0 121.33774,28.135961,0 121.343154,28.127397,0 121.361215,28.126144,0 121.37214,28.131282,0 121.3778,28.150289,0 121.391333,28.159102,0 121.402357,28.197311,0 121.419581,28.218018,0 121.446402,28.238595,0 121.456048,28.250322,0 121.459739,28.271853,0 121.477652,28.284327,0 121.488774,28.301429,0 121.499306,28.305934,0 121.525979,28.303598,0 121.564365,28.28804,0 121.571452,28.279404,0 121.571944,28.258709,0 121.579523,28.24185,0 121.624208,28.250489,0 121.634297,28.259461,0 121.637053,28.269767,0 121.649011,28.278319,0 121.645665,28.296674,0 121.656935,28.318613,0 121.669336,28.333375,0 121.672633,28.347801,0 121.666433,28.344091,0 121.66033,28.355639,0 121.635871,28.347468,0 121.63656,28.359558,0 121.646403,28.365102,0 121.658854,28.378441,0 121.658903,28.392403,0 121.687151,28.400904,0 121.692761,28.407321,0 121.691826,28.418446,0 121.681935,28.440318,0 121.664513,28.444858,0 121.671108,28.472596,0 121.667811,28.485713,0 121.652653,28.502616,0 121.64222,28.520808,0 121.63907,28.549108,0 121.634247,28.562715,0 121.615054,28.571743,0 121.596157,28.575238,0 121.586216,28.586553,0 121.568844,28.626563,0 121.557082,28.644982,0 121.540842,28.655583,0 121.587397,28.67221,0 121.646305,28.682809,0 121.679129,28.698891,0 121.689415,28.719167,0 121.694582,28.772872,0 121.70472,28.804633,0 121.702899,28.825262,0 121.69222,28.855265,0 121.687348,28.863355,0 121.660084,28.869661,0 121.668352,28.872939,0 121.704228,28.863646,0 121.738677,28.856592,0 121.759051,28.85597,0 121.774602,28.863895,0 121.776423,28.879783,0 121.772043,28.898365,0 121.743352,28.954257,0 121.718352,28.970422,0 121.711265,28.986005,0 121.71535,29.012274,0 121.712643,29.028926,0 121.699454,29.039985,0 121.658952,29.058497,0 121.651915,29.075888,0 121.65536,29.092738,0 121.661511,29.106108,0 121.659936,29.118359,0 121.616531,29.143518,0 121.60846,29.169127,0</coordinates></LinearRing></outerBoundaryIs>
      </Polygon>
      <Polygon>
        <outerBoundaryIs><LinearRing><coordinates>121.84911,28.733666,0 121.846797,28.729055,0 121.859642,28.727891,0 121.865547,28.721992,0 121.873077,28.727518,0 121.866089,28.738027,0 121.880508,28.748702,0 121.893008,28.752108,0 121.896109,28.757341,0 121.909544,28.761867,0 121.893008,28.762532,0 121.875833,28.749034,0 121.851177,28.748868,0 121.846994,28.741433,0 121.855557,28.736075,0 121.84911,28.733666,0</coordinates></LinearRing></outerBoundaryIs>
      </Polygon>
      <Polygon>
        <outerBoundaryIs><LinearRing><coordinates>121.749651,28.69058,0 121.75226,28.683349,0 121.768254,28.690746,0 121.778687,28.687629,0 121.781689,28.680066,0 121.794041,28.679608,0 121.800045,28.695317,0 121.808559,28.699431,0 121.801571,28.702423,0 121.790006,28.690913,0 121.772732,28.694195,0 121.780508,28.699182,0 121.765252,28.705124,0 121.761856,28.689333,0 121.749651,28.69058,0</coordinates></LinearRing></outerBoundaryIs>
      </Polygon>
      <Polygon>
        <outerBoundaryIs><LinearRing><coordinates>121.387347,28.119292,0 121.401569,28.122968,0 121.401323,28.129862,0 121.387347,28.119292,0</coordinates></LinearRing></outerBoundaryIs>
      </Polygon>
      <Polygon>
        <outerBoundaryIs><LinearRing><coordinates>121.919928,28.707285,0 121.920617,28.704916,0 121.942664,28.720663,0 121.916581,28.717215,0 121.919928,28.707285,0</coordinates></LinearRing></outerBoundaryIs>
      </Polygon>
      <Polygon>
        <outerBoundaryIs><LinearRing><coordinates>121.837349,28.770505,0 121.843254,28.770629,0 121.862693,28.78209,0 121.865498,28.799361,0 121.872388,28.807871,0 121.861561,28.813765,0 121.850734,28.808286,0 121.857034,28.803637,0 121.852949,28.793092,0 121.844386,28.788816,0 121.850538,28.784747,0 121.837349,28.770505,0</coordinates></LinearRing></outerBoundaryIs>
      </Polygon>
      <Polygon>
        <outerBoundaryIs><LinearRing><coordinates>121.687397,28.384526,0 121.686118,28.374648,0 121.69532,28.381317,0 121.687397,28.384526,0</coordinates></LinearRing></outerBoundaryIs>
      </Polygon>
      <Polygon>
        <outerBoundaryIs><LinearRing><coordinates>121.889563,28.471513,0 121.908313,28.479092,0 121.918943,28.497371,0 121.899455,28.500701,0 121.896994,28.514231,0 121.8873,28.511359,0 121.880065,28.501909,0 121.87037,28.500035,0 121.871305,28.49429,0 121.883658,28.495456,0 121.883116,28.484089,0 121.874111,28.47701,0 121.876128,28.472554,0 121.889563,28.471513,0</coordinates></LinearRing></outerBoundaryIs>
      </Polygon>
      <Polygon>
        <outerBoundaryIs><LinearRing><coordinates>121.678588,28.278319,0 121.688775,28.273939,0 121.686413,28.2895,0 121.677604,28.285954,0 121.678588,28.278319,0</coordinates></LinearRing></outerBoundaryIs>
      </Polygon>
      <Polygon>
        <outerBoundaryIs><LinearRing><coordinates>121.410674,28.079425,0 121.410526,28.101617,0 121.400831,28.092506,0 121.40718,28.089873,0 121.404227,28.077627,0 121.410674,28.079425,0</coordinates></LinearRing></outerBoundaryIs>
      </Polygon>
      <Polygon>
        <outerBoundaryIs><LinearRing><coordinates>121.869534,28.423946,0 121.88602,28.433986,0 121.893451,28.430278,0 121.910823,28.440068,0 121.920617,28.45273,0 121.889711,28.451189,0 121.871256,28.433111,0 121.869534,28.423946,0</coordinates></LinearRing></outerBoundaryIs>
      </Polygon>
      <Polygon>
        <outerBoundaryIs><LinearRing><coordinates>121.687397,29.09667,0 121.697092,29.094062,0 121.691777,29.11124,0 121.681885,29.109336,0 121.687397,29.09667,0</coordinates></LinearRing></outerBoundaryIs>
      </Polygon>
      <Polygon>
        <outerBoundaryIs><LinearRing><coordinates>121.695271,29.088474,0 121.694385,29.084707,0 121.710084,29.082719,0 121.695271,29.088474,0</coordinates></LinearRing></outerBoundaryIs>
      </Polygon>
      <Polygon>
        <outerBoundaryIs><LinearRing><coordinates>121.672633,29.062224,0 121.665842,29.059615,0 121.680507,29.054688,0 121.672633,29.062224,0</coordinates></LinearRing></outerBoundaryIs>
      </Polygon>
      <Polygon>
        <outerBoundaryIs><LinearRing><coordinates>121.67908,28.371063,0 121.687348,28.366269,0 121.688431,28.373064,0 121.67908,28.371063,0</coordinates></LinearRing></outerBoundaryIs>
      </Polygon>
      <Polygon>
        <outerBoundaryIs><LinearRing><coordinates>121.851227,28.423487,0 121.860872,28.426737,0 121.855607,28.431819,0 121.851227,28.423487,0</coordinates></LinearRing></outerBoundaryIs>
      </Polygon>
      <Polygon>
        <outerBoundaryIs><LinearRing><coordinates>121.634592,28.225448,0 121.644828,28.222985,0 121.644927,28.232836,0 121.634592,28.225448,0</coordinates></LinearRing></outerBoundaryIs>
      </Polygon>
      <Polygon>
        <outerBoundaryIs><LinearRing><coordinates>121.502062,28.072235,0 121.511068,28.077084,0 121.516137,28.087199,0 121.527111,28.086363,0 121.532279,28.093426,0 121.528834,28.101742,0 121.504867,28.085736,0 121.502062,28.072235,0</coordinates></LinearRing></outerBoundaryIs>
      </Polygon>
      <Polygon>
        <outerBoundaryIs><LinearRing><coordinates>121.346353,28.087784,0 121.356786,28.089121,0 121.372091,28.099903,0 121.373961,28.10989,0 121.359443,28.098065,0 121.345565,28.096059,0 121.346353,28.087784,0</coordinates></LinearRing></outerBoundaryIs>
      </Polygon>
      <Polygon>
        <outerBoundaryIs><LinearRing><coordinates>121.81727,28.610428,0 121.803933,28.599115,0 121.823274,28.607267,0 121.81727,28.610428,0</coordinates></LinearRing></outerBoundaryIs>
      </Polygon>
      <Polygon>
        <outerBoundaryIs><LinearRing><coordinates>121.685576,29.115917,0 121.694385,29.113061,0 121.690153,29.120883,0 121.685576,29.115917,0</coordinates></LinearRing></outerBoundaryIs>
      </Polygon>
      <Polygon>
        <outerBoundaryIs><LinearRing><coordinates>121.145122,28.013239,0 121.166185,28.021771,0 121.149649,28.019805,0 121.145122,28.013239,0</coordinates></LinearRing></outerBoundaryIs>
      </Polygon>
      <Polygon>
        <outerBoundaryIs><LinearRing><coordinates>121.940105,28.441526,0 121.945174,28.436652,0 121.94355,28.450731,0 121.940105,28.441526,0</coordinates></LinearRing></outerBoundaryIs>
      </Polygon>
    </MultiGeometry>
    </Placemark>
  </Document>
</kml>
