<?xml version="1.0" encoding="UTF-8"?>
<kml xmlns="http://www.opengis.net/kml/2.2">
  <Document>
    <name><![CDATA[宁波市]]></name>
    <Placemark>
      <name><![CDATA[宁波市]]></name>
      <description><![CDATA[省级目录：浙江省]]></description>
      <ExtendedData>
        <Data name="adcode"><value>330200</value></Data>
      </ExtendedData>
      <MultiGeometry>
      <Polygon>
        <outerBoundaryIs><LinearRing><coordinates>120.86702,30.271729,0 120.893447,30.228843,0 120.916233,30.188394,0 120.92765,30.165215,0 120.931194,30.146618,0 120.939461,30.125723,0 120.930455,30.115192,0 120.93828,30.113021,0 120.950141,30.091012,0 120.959737,30.094537,0 120.96766,30.089987,0 120.973861,30.078305,0 120.969924,30.07027,0 120.98144,30.067359,0 120.986656,30.054402,0 120.992562,30.050425,0 120.986509,30.044274,0 120.990151,30.027787,0 121.018202,30.010765,0 121.039511,30.013923,0 121.034737,30.003955,0 121.038133,29.998704,0 121.05142,30.006786,0 121.064413,30.006827,0 121.075781,30.001986,0 121.082621,29.991072,0 121.091627,29.987257,0 121.085869,29.972648,0 121.07647,29.970391,0 121.066135,29.960829,0 121.045072,29.955616,0 121.042021,29.933203,0 121.0308,29.918792,0 121.031637,29.911073,0 121.023172,29.897357,0 121.016578,29.894934,0 121.031096,29.874602,0 121.060574,29.854143,0 121.063133,29.859032,0 121.077011,29.849007,0 121.085771,29.849295,0 121.10649,29.836228,0 121.096499,29.815966,0 121.104964,29.805485,0 121.096007,29.797839,0 121.092612,29.788959,0 121.08208,29.778433,0 121.055111,29.760669,0 121.045515,29.76729,0 121.033999,29.76877,0 121.024796,29.763918,0 121.03518,29.746439,0 121.014954,29.741667,0 121.010722,29.73525,0 121.019727,29.723403,0 121.035869,29.72114,0 121.034787,29.715997,0 121.009639,29.709003,0 121.006785,29.698592,0 121.01397,29.693119,0 121.010229,29.68674,0 120.992956,29.685259,0 120.992414,29.675833,0 121.017759,29.669742,0 121.038428,29.675751,0 121.054226,29.68567,0 121.058802,29.683859,0 121.068399,29.66686,0 121.074895,29.66085,0 121.074206,29.637259,0 121.08774,29.628077,0 121.101716,29.626265,0 121.113281,29.613745,0 121.110181,29.607444,0 121.117562,29.605508,0 121.105702,29.585447,0 121.115643,29.586724,0 121.120417,29.575601,0 121.113478,29.56596,0 121.112986,29.554834,0 121.130948,29.554174,0 121.140348,29.543006,0 121.155702,29.54177,0 121.169334,29.537112,0 121.183557,29.538802,0 121.20585,29.536947,0 121.213183,29.530311,0 121.225585,29.532908,0 121.231539,29.51308,0 121.216726,29.496795,0 121.228488,29.490733,0 121.219827,29.477785,0 121.216972,29.452666,0 121.224059,29.449242,0 121.217514,29.439217,0 121.209197,29.436742,0 121.218252,29.421146,0 121.215102,29.417267,0 121.226815,29.414749,0 121.231441,29.393825,0 121.226421,29.384662,0 121.230063,29.362658,0 121.213134,29.353575,0 121.20024,29.342384,0 121.193399,29.341434,0 121.194187,29.322189,0 121.190742,29.312358,0 121.201077,29.312482,0 121.196992,29.303229,0 121.180899,29.292033,0 121.175289,29.278274,0 121.179325,29.258727,0 121.166824,29.258892,0 121.158852,29.244756,0 121.174403,29.223095,0 121.164708,29.2116,0 121.173517,29.20639,0 121.202701,29.203578,0 121.225338,29.203868,0 121.233705,29.196797,0 121.232966,29.186623,0 121.238872,29.175745,0 121.251028,29.163542,0 121.253045,29.157172,0 121.264364,29.1544,0 121.257622,29.149311,0 121.258754,29.129243,0 121.256096,29.114055,0 121.270713,29.11033,0 121.271746,29.101803,0 121.295221,29.092696,0 121.298616,29.114593,0 121.308213,29.11451,0 121.316973,29.105653,0 121.323813,29.117159,0 121.336609,29.121959,0 121.348715,29.135574,0 121.345418,29.145173,0 121.361904,29.173305,0 121.356343,29.186044,0 121.366924,29.189146,0 121.378784,29.199236,0 121.385378,29.196921,0 121.403833,29.17864,0 121.401225,29.160978,0 121.407032,29.156882,0 121.431048,29.159778,0 121.450044,29.159612,0 121.470517,29.147615,0 121.484542,29.142856,0 121.508361,29.140622,0 121.529719,29.136277,0 121.53592,29.139795,0 121.555802,29.168961,0 121.564267,29.173056,0 121.60846,29.169127,0 121.648814,29.150924,0 121.715596,29.12498,0 121.749947,29.136691,0 121.768008,29.166686,0 121.769386,29.148277,0 121.780557,29.109626,0 121.794238,29.105197,0 121.811167,29.109916,0 121.827014,29.101845,0 121.842368,29.08835,0 121.860036,29.086404,0 121.884494,29.105446,0 121.898077,29.103956,0 121.909642,29.085866,0 121.899406,29.076426,0 121.903835,29.069056,0 121.931591,29.070713,0 121.935085,29.05183,0 121.951621,29.04744,0 121.966138,29.052866,0 121.969829,29.075888,0 121.984396,29.086942,0 121.983314,29.091454,0 121.968747,29.093028,0 121.983363,29.101224,0 121.98853,29.110992,0 121.985381,29.137601,0 121.979278,29.144842,0 121.988284,29.149269,0 121.98666,29.154855,0 121.96043,29.170575,0 121.949111,29.183314,0 121.9373,29.182859,0 121.948619,29.19324,0 121.971896,29.193364,0 121.977457,29.224087,0 121.968008,29.243888,0 121.968304,29.250006,0 121.990991,29.260793,0 122.001965,29.26009,0 121.99852,29.266124,0 122.000243,29.278811,0 121.981099,29.2841,0 121.967566,29.281414,0 121.944829,29.284182,0 121.940892,29.298271,0 121.946552,29.316695,0 121.958363,29.334373,0 121.952064,29.344119,0 121.935971,29.348124,0 121.932231,29.353451,0 121.938579,29.369512,0 121.937693,29.384125,0 121.945814,29.395311,0 121.959642,29.407156,0 121.975538,29.411159,0 121.981493,29.429934,0 121.991729,29.445942,0 121.992074,29.461411,0 121.973127,29.477991,0 121.96668,29.506566,0 121.968993,29.515595,0 121.986414,29.541193,0 121.995076,29.545108,0 121.985774,29.563776,0 121.987201,29.570616,0 122.000292,29.58244,0 121.999751,29.593686,0 121.985381,29.606291,0 121.966089,29.635859,0 121.937595,29.642571,0 121.923422,29.65167,0 121.909593,29.650105,0 121.893845,29.636559,0 121.872486,29.632483,0 121.858953,29.636601,0 121.833559,29.653111,0 121.863234,29.67925,0 121.906443,29.719247,0 121.925538,29.741256,0 121.937595,29.748536,0 121.959199,29.750017,0 122.003146,29.762273,0 122.015991,29.771936,0 122.037595,29.813747,0 122.04857,29.826036,0 122.08479,29.844528,0 122.102212,29.859649,0 122.135922,29.872261,0 122.143058,29.877724,0 122.140155,29.901751,0 122.11673,29.909964,0 122.096257,29.905036,0 122.080115,29.892634,0 122.00979,29.891114,0 122.003442,29.898999,0 122.0029,29.923186,0 121.994534,29.934599,0 121.984396,29.937637,0 121.981739,29.947037,0 121.968008,29.956519,0 121.9529,29.950732,0 121.927113,29.931151,0 121.919534,29.920804,0 121.901817,29.923678,0 121.859986,29.944,0 121.835183,29.957956,0 121.814366,29.974331,0 121.784051,29.993493,0 121.771453,29.99497,0 121.724996,29.992221,0 121.69975,30.008016,0 121.667466,30.048867,0 121.653096,30.071131,0 121.63533,30.069819,0 121.626029,30.07769,0 121.619927,30.088512,0 121.61471,30.108308,0 121.591678,30.143546,0 121.561462,30.184176,0 121.527554,30.224913,0 121.49778,30.258595,0 121.476274,30.279421,0 121.452701,30.298565,0 121.395073,30.338437,0 121.371894,30.370894,0 121.328046,30.397131,0 121.278784,30.405057,0 121.225486,30.404649,0 121.183212,30.434348,0 121.119236,30.48976,0 121.099501,30.443661,0 121.086952,30.397131,0 121.06018,30.376371,0 121.040102,30.352868,0 121.032572,30.337006,0 121.01392,30.323635,0 120.99517,30.319914,0 120.954373,30.306418,0 120.916036,30.285762,0 120.86702,30.271729,0</coordinates></LinearRing></outerBoundaryIs>
      </Polygon>
      <Polygon>
        <outerBoundaryIs><LinearRing><coordinates>122.026375,29.178351,0 122.013383,29.151504,0 122.027605,29.155806,0 122.037645,29.151959,0 122.039859,29.163253,0 122.056739,29.158454,0 122.06791,29.165611,0 122.074505,29.178144,0 122.063235,29.174008,0 122.049013,29.175083,0 122.044534,29.1841,0 122.057576,29.188939,0 122.050095,29.193488,0 122.056198,29.200518,0 122.036217,29.207383,0 122.031247,29.196342,0 122.037005,29.190552,0 122.029771,29.187367,0 122.040843,29.17955,0 122.026375,29.178351,0</coordinates></LinearRing></outerBoundaryIs>
      </Polygon>
      <Polygon>
        <outerBoundaryIs><LinearRing><coordinates>122.231297,28.859829,0 122.238679,28.853315,0 122.243797,28.861322,0 122.231297,28.859829,0</coordinates></LinearRing></outerBoundaryIs>
      </Polygon>
      <Polygon>
        <outerBoundaryIs><LinearRing><coordinates>122.181936,29.407693,0 122.190204,29.415905,0 122.205362,29.418092,0 122.207921,29.429645,0 122.223866,29.428366,0 122.22485,29.438392,0 122.21112,29.44095,0 122.199358,29.436247,0 122.197242,29.425478,0 122.187497,29.421806,0 122.179771,29.424694,0 122.181936,29.407693,0</coordinates></LinearRing></outerBoundaryIs>
      </Polygon>
      <Polygon>
        <outerBoundaryIs><LinearRing><coordinates>121.790892,29.082264,0 121.791089,29.074232,0 121.808559,29.059243,0 121.817319,29.063052,0 121.82352,29.051043,0 121.832329,29.050381,0 121.838628,29.057752,0 121.840941,29.081519,0 121.831591,29.095015,0 121.820272,29.099402,0 121.793795,29.099444,0 121.788677,29.094601,0 121.790892,29.082264,0</coordinates></LinearRing></outerBoundaryIs>
      </Polygon>
      <Polygon>
        <outerBoundaryIs><LinearRing><coordinates>122.184299,29.460627,0 122.183216,29.455595,0 122.194141,29.45345,0 122.19483,29.465453,0 122.184299,29.460627,0</coordinates></LinearRing></outerBoundaryIs>
      </Polygon>
      <Polygon>
        <outerBoundaryIs><LinearRing><coordinates>122.026473,29.621859,0 122.022389,29.620211,0 122.025686,29.604314,0 122.037645,29.613457,0 122.033855,29.624741,0 122.026473,29.621859,0</coordinates></LinearRing></outerBoundaryIs>
      </Polygon>
      <Polygon>
        <outerBoundaryIs><LinearRing><coordinates>122.258807,28.886586,0 122.267321,28.880364,0 122.267025,28.886835,0 122.258807,28.886586,0</coordinates></LinearRing></outerBoundaryIs>
      </Polygon>
      <Polygon>
        <outerBoundaryIs><LinearRing><coordinates>121.983461,29.227808,0 121.991089,29.221441,0 122.001818,29.221441,0 121.993451,29.227808,0 121.983461,29.227808,0</coordinates></LinearRing></outerBoundaryIs>
      </Polygon>
      <Polygon>
        <outerBoundaryIs><LinearRing><coordinates>121.980705,29.472671,0 121.990843,29.467845,0 121.987792,29.474898,0 121.980705,29.472671,0</coordinates></LinearRing></outerBoundaryIs>
      </Polygon>
      <Polygon>
        <outerBoundaryIs><LinearRing><coordinates>121.976178,29.501124,0 121.983806,29.497042,0 121.984741,29.503886,0 122.004574,29.500299,0 122.004967,29.503763,0 121.989908,29.510071,0 121.976178,29.501124,0</coordinates></LinearRing></outerBoundaryIs>
      </Polygon>
      <Polygon>
        <outerBoundaryIs><LinearRing><coordinates>121.952064,29.187616,0 121.951719,29.183107,0 121.971404,29.163294,0 121.983511,29.165404,0 121.981788,29.175911,0 121.971601,29.185093,0 121.975636,29.192123,0 121.952064,29.187616,0</coordinates></LinearRing></outerBoundaryIs>
      </Polygon>
      <Polygon>
        <outerBoundaryIs><LinearRing><coordinates>121.930459,29.036051,0 121.940991,29.03369,0 121.954524,29.043961,0 121.948766,29.047233,0 121.931,29.041394,0 121.930459,29.036051,0</coordinates></LinearRing></outerBoundaryIs>
      </Polygon>
      <Polygon>
        <outerBoundaryIs><LinearRing><coordinates>122.006641,29.234877,0 122.00103,29.227394,0 122.008609,29.222971,0 122.013826,29.23281,0 122.006641,29.234877,0</coordinates></LinearRing></outerBoundaryIs>
      </Polygon>
      <Polygon>
        <outerBoundaryIs><LinearRing><coordinates>122.001621,29.410416,0 122.003835,29.405051,0 122.016286,29.404185,0 122.018944,29.409674,0 122.001621,29.410416,0</coordinates></LinearRing></outerBoundaryIs>
      </Polygon>
      <Polygon>
        <outerBoundaryIs><LinearRing><coordinates>121.981444,29.332638,0 121.978688,29.340485,0 121.985135,29.348454,0 121.970223,29.340856,0 121.981444,29.332638,0</coordinates></LinearRing></outerBoundaryIs>
      </Polygon>
      <Polygon>
        <outerBoundaryIs><LinearRing><coordinates>122.178295,29.406001,0 122.173866,29.399769,0 122.184348,29.399604,0 122.178295,29.406001,0</coordinates></LinearRing></outerBoundaryIs>
      </Polygon>
      <Polygon>
        <outerBoundaryIs><LinearRing><coordinates>122.009987,29.902654,0 122.02165,29.901546,0 122.02416,29.909594,0 122.011513,29.917027,0 122.005312,29.913044,0 122.009987,29.902654,0</coordinates></LinearRing></outerBoundaryIs>
      </Polygon>
      <Polygon>
        <outerBoundaryIs><LinearRing><coordinates>122.006247,29.899574,0 122.014367,29.892634,0 122.017221,29.900806,0 122.006247,29.899574,0</coordinates></LinearRing></outerBoundaryIs>
      </Polygon>
    </MultiGeometry>
    </Placemark>
  </Document>
</kml>
