<?xml version="1.0" encoding="UTF-8"?>
<kml xmlns="http://www.opengis.net/kml/2.2">
  <Document>
    <name><![CDATA[杭州市]]></name>
    <Placemark>
      <name><![CDATA[杭州市]]></name>
      <description><![CDATA[省级目录：浙江省]]></description>
      <ExtendedData>
        <Data name="adcode"><value>330100</value></Data>
      </ExtendedData>
      <MultiGeometry>
      <Polygon>
        <outerBoundaryIs><LinearRing><coordinates>120.721941,30.286334,0 120.710868,30.297542,0 120.706045,30.309444,0 120.704126,30.330791,0 120.70388,30.365867,0 120.692955,30.377965,0 120.658998,30.385607,0 120.633899,30.389449,0 120.567856,30.387855,0 120.498761,30.38904,0 120.460227,30.382665,0 120.43882,30.373388,0 120.413771,30.318319,0 120.378091,30.344937,0 120.388524,30.370118,0 120.400926,30.377025,0 120.398318,30.38479,0 120.362835,30.374695,0 120.342953,30.37163,0 120.318642,30.380621,0 120.315689,30.394311,0 120.306388,30.396232,0 120.322038,30.404731,0 120.332963,30.417314,0 120.330749,30.427282,0 120.340345,30.433899,0 120.337245,30.464324,0 120.341379,30.472286,0 120.329174,30.468407,0 120.326123,30.500414,0 120.317707,30.521596,0 120.299892,30.5198,0 120.285817,30.507802,0 120.277451,30.504822,0 120.25191,30.506536,0 120.239262,30.50523,0 120.224597,30.509761,0 120.205404,30.505843,0 120.201762,30.514413,0 120.195659,30.503598,0 120.185079,30.502618,0 120.185915,30.494618,0 120.173809,30.492046,0 120.180551,30.482534,0 120.175039,30.476818,0 120.149793,30.467509,0 120.146004,30.482697,0 120.11121,30.476206,0 120.096742,30.48678,0 120.099252,30.495801,0 120.068297,30.496618,0 120.065836,30.483595,0 120.059488,30.47343,0 120.059242,30.459016,0 120.0681,30.445948,0 120.062145,30.434634,0 120.064754,30.4301,0 120.046102,30.427445,0 120.041525,30.433368,0 120.013818,30.435614,0 120.00368,30.444273,0 119.982962,30.445294,0 119.965048,30.431571,0 119.955895,30.433654,0 119.950728,30.444232,0 119.934979,30.446764,0 119.931436,30.456443,0 119.921544,30.462528,0 119.90934,30.456321,0 119.90304,30.459424,0 119.890048,30.457056,0 119.872578,30.462487,0 119.880796,30.476206,0 119.867115,30.477757,0 119.854123,30.493964,0 119.851121,30.502006,0 119.836013,30.496577,0 119.815884,30.510659,0 119.794182,30.505638,0 119.784044,30.511026,0 119.766376,30.514087,0 119.768936,30.551341,0 119.743246,30.550158,0 119.729073,30.551749,0 119.71175,30.566516,0 119.69241,30.556155,0 119.695018,30.542325,0 119.70486,30.525963,0 119.709191,30.508822,0 119.704713,30.494577,0 119.708896,30.487964,0 119.701711,30.467999,0 119.695362,30.464488,0 119.694919,30.452727,0 119.709191,30.434062,0 119.686012,30.417559,0 119.681091,30.408735,0 119.668099,30.399501,0 119.6555,30.40518,0 119.646691,30.39378,0 119.633256,30.395292,0 119.63739,30.410369,0 119.631829,30.424667,0 119.642951,30.428507,0 119.650579,30.440352,0 119.635569,30.441782,0 119.627941,30.431775,0 119.594968,30.421644,0 119.581779,30.423646,0 119.572823,30.431326,0 119.565933,30.443375,0 119.55176,30.43978,0 119.535273,30.424055,0 119.533452,30.409429,0 119.513127,30.401666,0 119.490391,30.408203,0 119.467015,30.408122,0 119.450234,30.410818,0 119.441031,30.392472,0 119.435716,30.391492,0 119.418147,30.376085,0 119.403038,30.373347,0 119.399987,30.367788,0 119.386159,30.363905,0 119.375627,30.354789,0 119.349446,30.349148,0 119.342654,30.363169,0 119.326562,30.371753,0 119.300676,30.363701,0 119.289455,30.349639,0 119.278136,30.341585,0 119.265046,30.338069,0 119.247132,30.340808,0 119.239997,30.327029,0 119.245902,30.321631,0 119.233747,30.293411,0 119.225479,30.288789,0 119.222624,30.299628,0 119.205695,30.301551,0 119.201069,30.291039,0 119.188225,30.291652,0 119.156729,30.299547,0 119.151266,30.304577,0 119.12853,30.3047,0 119.11101,30.311285,0 119.090242,30.324003,0 119.073411,30.315865,0 119.062978,30.304945,0 119.050823,30.306745,0 119.048313,30.312675,0 119.028775,30.312593,0 119.004464,30.328951,0 118.988027,30.333489,0 118.988126,30.348698,0 118.975724,30.347145,0 118.969031,30.351356,0 118.959385,30.347267,0 118.955399,30.359204,0 118.936452,30.350824,0 118.936354,30.34506,0 118.917899,30.332467,0 118.908401,30.330872,0 118.899789,30.322572,0 118.879857,30.314884,0 118.881826,30.298524,0 118.878086,30.282734,0 118.8897,30.254258,0 118.882417,30.247465,0 118.892554,30.243249,0 118.903184,30.217913,0 118.924986,30.213861,0 118.929858,30.20338,0 118.920655,30.198999,0 118.910812,30.187493,0 118.864405,30.168983,0 118.85284,30.166566,0 118.845704,30.156122,0 118.856383,30.148216,0 118.865733,30.151493,0 118.877348,30.147396,0 118.896787,30.148093,0 118.89595,30.138793,0 118.888125,30.127239,0 118.887239,30.117446,0 118.871639,30.113021,0 118.868883,30.101464,0 118.872918,30.094619,0 118.875478,30.072033,0 118.878824,30.064653,0 118.888125,30.062357,0 118.897328,30.049646,0 118.890586,30.04128,0 118.902594,30.029059,0 118.898017,30.017246,0 118.89034,30.012037,0 118.895015,30.000386,0 118.892062,29.994806,0 118.899493,29.98143,0 118.891521,29.959885,0 118.894867,29.939197,0 118.88468,29.93891,0 118.871983,29.946873,0 118.863913,29.93698,0 118.848263,29.941249,0 118.838716,29.934476,0 118.844916,29.915261,0 118.845507,29.899082,0 118.841324,29.891319,0 118.807712,29.86766,0 118.802593,29.860676,0 118.778725,29.841899,0 118.766963,29.848925,0 118.755595,29.845432,0 118.750969,29.831625,0 118.76593,29.823077,0 118.75781,29.816747,0 118.745999,29.818186,0 118.739946,29.813295,0 118.736501,29.788465,0 118.744325,29.779626,0 118.74905,29.761121,0 118.744719,29.738788,0 118.72464,29.722621,0 118.718686,29.709167,0 118.700821,29.706452,0 118.691668,29.693942,0 118.682908,29.688345,0 118.682367,29.681061,0 118.673902,29.669083,0 118.647327,29.643394,0 118.640929,29.641912,0 118.633498,29.648788,0 118.620014,29.654099,0 118.602051,29.643683,0 118.573902,29.638371,0 118.555053,29.613416,0 118.549886,29.613416,0 118.53522,29.590638,0 118.515486,29.583305,0 118.499689,29.573623,0 118.494915,29.553721,0 118.497868,29.543995,0 118.495899,29.519553,0 118.470407,29.507473,0 118.459826,29.505577,0 118.44895,29.51341,0 118.430594,29.503721,0 118.414994,29.509741,0 118.393045,29.507308,0 118.383005,29.510153,0 118.379806,29.502567,0 118.358694,29.477083,0 118.344964,29.475681,0 118.345751,29.465123,0 118.352543,29.45279,0 118.366371,29.45015,0 118.372917,29.437815,0 118.384137,29.433276,0 118.390289,29.423951,0 118.402051,29.425189,0 118.413173,29.420568,0 118.405397,29.408147,0 118.425771,29.397623,0 118.423655,29.387345,0 118.441224,29.375911,0 118.448754,29.37525,0 118.456234,29.365879,0 118.470112,29.360098,0 118.479167,29.366539,0 118.488813,29.367241,0 118.505742,29.359273,0 118.517504,29.363484,0 118.524344,29.36142,0 118.519079,29.344366,0 118.528577,29.345275,0 118.55151,29.335694,0 118.571687,29.338337,0 118.589059,29.327888,0 118.596047,29.330821,0 118.603823,29.323552,0 118.603478,29.316447,0 118.617209,29.303146,0 118.614404,29.296577,0 118.634138,29.272984,0 118.63276,29.263149,0 118.619177,29.276786,0 118.610614,29.279472,0 118.606677,29.267116,0 118.615437,29.25075,0 118.607612,29.239713,0 118.620112,29.219291,0 118.631825,29.219622,0 118.633646,29.205605,0 118.626855,29.19568,0 118.638321,29.192165,0 118.670162,29.200518,0 118.68463,29.202545,0 118.708843,29.188774,0 118.743735,29.213668,0 118.753036,29.213875,0 118.765438,29.220614,0 118.767259,29.234133,0 118.763912,29.248311,0 118.774985,29.250998,0 118.784778,29.259099,0 118.786402,29.266744,0 118.793637,29.267943,0 118.816865,29.281703,0 118.82656,29.280298,0 118.828775,29.287446,0 118.855743,29.303311,0 118.860664,29.31496,0 118.878332,29.326567,0 118.886354,29.322354,0 118.900428,29.332638,0 118.927053,29.310375,0 118.94408,29.306286,0 118.948017,29.301122,0 118.962092,29.296164,0 118.961895,29.290215,0 118.949641,29.281744,0 118.963322,29.267653,0 118.966816,29.269348,0 118.988224,29.243558,0 118.984828,29.239465,0 118.987141,29.226071,0 118.998903,29.216355,0 119.003234,29.207714,0 119.013076,29.212386,0 119.030596,29.215074,0 119.062929,29.226278,0 119.075675,29.224004,0 119.085222,29.230578,0 119.106384,29.227518,0 119.12351,29.236737,0 119.132565,29.235456,0 119.12912,29.227063,0 119.138126,29.220242,0 119.151758,29.22789,0 119.170459,29.217596,0 119.177693,29.207259,0 119.189504,29.205191,0 119.194918,29.216314,0 119.189504,29.227105,0 119.201709,29.229379,0 119.204465,29.223549,0 119.213668,29.225203,0 119.210272,29.23066,0 119.2148,29.246947,0 119.200922,29.257487,0 119.192211,29.258479,0 119.20038,29.272158,0 119.200282,29.29038,0 119.208156,29.284389,0 119.228727,29.284182,0 119.227103,29.276827,0 119.239308,29.258933,0 119.237782,29.250708,0 119.260912,29.247815,0 119.270656,29.251659,0 119.288077,29.268852,0 119.286011,29.279348,0 119.318294,29.279885,0 119.322625,29.296164,0 119.328629,29.299263,0 119.3242,29.307979,0 119.348806,29.319504,0 119.344278,29.324378,0 119.348462,29.336231,0 119.333058,29.355061,0 119.340145,29.38235,0 119.328629,29.393413,0 119.337093,29.411159,0 119.346395,29.408724,0 119.360223,29.416276,0 119.368294,29.415699,0 119.378137,29.42981,0 119.388521,29.429728,0 119.39354,29.411242,0 119.399938,29.411242,0 119.404761,29.400677,0 119.426759,29.405547,0 119.43232,29.415162,0 119.427793,29.422177,0 119.437143,29.424116,0 119.443147,29.404556,0 119.451365,29.397292,0 119.451858,29.385611,0 119.457566,29.370379,0 119.45481,29.365259,0 119.461454,29.350932,0 119.471493,29.349033,0 119.480204,29.332968,0 119.49231,29.331069,0 119.500037,29.335735,0 119.510421,29.333464,0 119.522724,29.350024,0 119.523905,29.366003,0 119.536061,29.373145,0 119.545411,29.367365,0 119.558551,29.372154,0 119.574594,29.372773,0 119.582075,29.379131,0 119.592901,29.377686,0 119.604565,29.369636,0 119.616277,29.368273,0 119.617606,29.380369,0 119.606238,29.388088,0 119.625529,29.410499,0 119.624939,29.417762,0 119.642508,29.432946,0 119.664408,29.424075,0 119.673413,29.425024,0 119.676317,29.419206,0 119.688916,29.421764,0 119.691179,29.438763,0 119.707272,29.433235,0 119.715835,29.448995,0 119.707124,29.464215,0 119.70678,29.472382,0 119.719575,29.491146,0 119.718837,29.505288,0 119.726908,29.511555,0 119.735422,29.510936,0 119.74492,29.516419,0 119.722626,29.542759,0 119.741081,29.551908,0 119.750678,29.550713,0 119.764211,29.557347,0 119.761652,29.566536,0 119.769182,29.579556,0 119.764949,29.594675,0 119.779319,29.603984,0 119.776514,29.626841,0 119.79118,29.654963,0 119.817607,29.673076,0 119.824448,29.671841,0 119.835422,29.678138,0 119.852499,29.668877,0 119.859536,29.671347,0 119.879271,29.66793,0 119.895708,29.660644,0 119.911702,29.66649,0 119.921249,29.66402,0 119.924792,29.669906,0 119.936161,29.666531,0 119.973119,29.674804,0 119.973464,29.68995,0 119.967411,29.694889,0 119.951269,29.699292,0 119.937735,29.70748,0 119.933454,29.699415,0 119.922529,29.697769,0 119.914655,29.704682,0 119.912489,29.720399,0 119.901367,29.728627,0 119.900481,29.74467,0 119.889064,29.753102,0 119.890343,29.762931,0 119.904369,29.754582,0 119.913572,29.755857,0 119.927204,29.744423,0 119.944576,29.755528,0 119.960275,29.755158,0 119.973119,29.765809,0 119.991968,29.753143,0 120.010915,29.757214,0 120.011505,29.761491,0 120.030059,29.770538,0 120.030059,29.78275,0 120.036604,29.788548,0 120.030059,29.806307,0 120.038425,29.82283,0 120.065639,29.822049,0 120.074252,29.82731,0 120.095807,29.816583,0 120.102746,29.823981,0 120.101122,29.830269,0 120.109931,29.845967,0 120.131289,29.858827,0 120.144773,29.874109,0 120.150285,29.887582,0 120.150039,29.905036,0 120.159587,29.906227,0 120.166329,29.917273,0 120.17627,29.913578,0 120.185079,29.904502,0 120.204813,29.924048,0 120.200433,29.929467,0 120.221004,29.942235,0 120.250729,29.936693,0 120.255207,29.94363,0 120.264754,29.930986,0 120.265296,29.924499,0 120.2744,29.919531,0 120.284144,29.922159,0 120.291034,29.935666,0 120.312048,29.927702,0 120.325188,29.93854,0 120.326073,29.946216,0 120.340493,29.956068,0 120.346447,29.973797,0 120.360473,29.973674,0 120.364312,29.978516,0 120.360473,29.98857,0 120.362835,29.99776,0 120.35693,30.011708,0 120.345808,30.019707,0 120.343593,30.034924,0 120.331831,30.037918,0 120.324941,30.048621,0 120.33818,30.060881,0 120.338623,30.070229,0 120.333701,30.09548,0 120.313327,30.107078,0 120.299302,30.097365,0 120.286851,30.106791,0 120.300286,30.118348,0 120.303731,30.126666,0 120.297825,30.128182,0 120.312245,30.1374,0 120.318002,30.12601,0 120.327993,30.125191,0 120.339607,30.142112,0 120.353386,30.142194,0 120.352008,30.150674,0 120.358751,30.147847,0 120.37317,30.155507,0 120.387835,30.156163,0 120.399007,30.136335,0 120.411359,30.132607,0 120.410867,30.149527,0 120.420956,30.152763,0 120.426074,30.144283,0 120.422875,30.135884,0 120.429617,30.132443,0 120.44694,30.135434,0 120.452304,30.15137,0 120.459243,30.151165,0 120.46131,30.168041,0 120.484096,30.172218,0 120.498072,30.169187,0 120.506143,30.159767,0 120.518495,30.155384,0 120.529371,30.157514,0 120.550927,30.15563,0 120.563427,30.147929,0 120.568348,30.151329,0 120.593496,30.146782,0 120.609145,30.152845,0 120.612787,30.16628,0 120.642708,30.217258,0 120.669037,30.23314,0 120.693939,30.262032,0 120.721941,30.286334,0</coordinates></LinearRing></outerBoundaryIs>
      </Polygon>
    </MultiGeometry>
    </Placemark>
  </Document>
</kml>
