<?xml version="1.0" encoding="UTF-8"?>
<kml xmlns="http://www.opengis.net/kml/2.2">
  <Document>
    <name><![CDATA[湖州市]]></name>
    <Placemark>
      <name><![CDATA[湖州市]]></name>
      <description><![CDATA[省级目录：浙江省]]></description>
      <ExtendedData>
        <Data name="adcode"><value>330500</value></Data>
      </ExtendedData>
      <MultiGeometry>
      <Polygon>
        <outerBoundaryIs><LinearRing><coordinates>120.489066,30.763861,0 120.477009,30.785596,0 120.477255,30.800002,0 120.455257,30.816847,0 120.461015,30.828279,0 120.460375,30.839872,0 120.454469,30.849633,0 120.44128,30.856303,0 120.452353,30.867893,0 120.439558,30.885213,0 120.434489,30.887978,0 120.442265,30.90058,0 120.434981,30.920821,0 120.423416,30.927445,0 120.418003,30.925576,0 120.423515,30.90306,0 120.394676,30.890783,0 120.37942,30.890783,0 120.372432,30.882164,0 120.364656,30.880457,0 120.358012,30.887084,0 120.360129,30.892775,0 120.35693,30.908872,0 120.362688,30.921674,0 120.35944,30.931915,0 120.371103,30.948777,0 120.343347,30.939961,0 120.308061,30.932281,0 120.250778,30.926226,0 120.221791,30.926876,0 120.149646,30.937482,0 120.135128,30.941911,0 120.111014,30.955928,0 120.09438,30.973233,0 120.05245,31.005722,0 120.017017,31.017821,0 120.001712,31.027118,0 119.988523,31.059223,0 119.969773,31.074277,0 119.946249,31.106245,0 119.936751,31.146555,0 119.921052,31.16119,0 119.920954,31.170392,0 119.900235,31.169176,0 119.878729,31.160785,0 119.866623,31.168324,0 119.842164,31.16877,0 119.837587,31.173675,0 119.826465,31.173188,0 119.823463,31.165811,0 119.829762,31.161393,0 119.823316,31.154136,0 119.809881,31.148501,0 119.800973,31.156325,0 119.791278,31.156609,0 119.793394,31.168041,0 119.779319,31.178782,0 119.755353,31.170756,0 119.740491,31.173432,0 119.713128,31.167635,0 119.703876,31.151906,0 119.682764,31.160501,0 119.678039,31.168203,0 119.663719,31.165973,0 119.662537,31.159852,0 119.641573,31.148136,0 119.638128,31.135526,0 119.623807,31.130254,0 119.624152,31.11602,0 119.649152,31.105109,0 119.634683,31.093751,0 119.629516,31.082311,0 119.634978,31.064174,0 119.631337,31.046317,0 119.634043,31.019485,0 119.624004,31.005316,0 119.616277,31.002392,0 119.607468,30.991875,0 119.585864,30.976401,0 119.579565,30.962671,0 119.582173,30.947437,0 119.580352,30.929152,0 119.563817,30.919236,0 119.556336,30.896718,0 119.559092,30.891718,0 119.558945,30.871186,0 119.573758,30.853334,0 119.575726,30.829743,0 119.561208,30.829459,0 119.554515,30.825635,0 119.524496,30.776032,0 119.507124,30.769642,0 119.491523,30.777253,0 119.479564,30.771229,0 119.478777,30.753074,0 119.484584,30.744605,0 119.480303,30.738091,0 119.482763,30.704452,0 119.465982,30.683921,0 119.45294,30.671616,0 119.448314,30.655846,0 119.433649,30.644476,0 119.412684,30.642968,0 119.400037,30.658862,0 119.395657,30.678706,0 119.391523,30.685224,0 119.379367,30.679358,0 119.372379,30.680376,0 119.354564,30.66693,0 119.343147,30.6642,0 119.333648,30.652219,0 119.323117,30.630291,0 119.311946,30.621241,0 119.291227,30.616023,0 119.278383,30.617613,0 119.255006,30.615126,0 119.245853,30.618877,0 119.240095,30.604933,0 119.253678,30.596452,0 119.254121,30.588663,0 119.264751,30.582056,0 119.264751,30.57345,0 119.245508,30.561417,0 119.236945,30.546731,0 119.242556,30.530043,0 119.261896,30.525554,0 119.26165,30.51776,0 119.272133,30.510495,0 119.28793,30.512618,0 119.313619,30.531186,0 119.326562,30.532981,0 119.328678,30.521637,0 119.336355,30.507149,0 119.330351,30.488249,0 119.334485,30.478084,0 119.336158,30.44558,0 119.349692,30.438841,0 119.352989,30.424831,0 119.349544,30.408612,0 119.360912,30.410737,0 119.368934,30.399746,0 119.366572,30.388386,0 119.371444,30.383932,0 119.393836,30.383033,0 119.403038,30.373347,0 119.418147,30.376085,0 119.435716,30.391492,0 119.441031,30.392472,0 119.450234,30.410818,0 119.467015,30.408122,0 119.490391,30.408203,0 119.513127,30.401666,0 119.533452,30.409429,0 119.535273,30.424055,0 119.55176,30.43978,0 119.565933,30.443375,0 119.572823,30.431326,0 119.581779,30.423646,0 119.594968,30.421644,0 119.627941,30.431775,0 119.635569,30.441782,0 119.650579,30.440352,0 119.642951,30.428507,0 119.631829,30.424667,0 119.63739,30.410369,0 119.633256,30.395292,0 119.646691,30.39378,0 119.6555,30.40518,0 119.668099,30.399501,0 119.681091,30.408735,0 119.686012,30.417559,0 119.709191,30.434062,0 119.694919,30.452727,0 119.695362,30.464488,0 119.701711,30.467999,0 119.708896,30.487964,0 119.704713,30.494577,0 119.709191,30.508822,0 119.70486,30.525963,0 119.695018,30.542325,0 119.69241,30.556155,0 119.71175,30.566516,0 119.729073,30.551749,0 119.743246,30.550158,0 119.768936,30.551341,0 119.766376,30.514087,0 119.784044,30.511026,0 119.794182,30.505638,0 119.815884,30.510659,0 119.836013,30.496577,0 119.851121,30.502006,0 119.854123,30.493964,0 119.867115,30.477757,0 119.880796,30.476206,0 119.872578,30.462487,0 119.890048,30.457056,0 119.90304,30.459424,0 119.90934,30.456321,0 119.921544,30.462528,0 119.931436,30.456443,0 119.934979,30.446764,0 119.950728,30.444232,0 119.955895,30.433654,0 119.965048,30.431571,0 119.982962,30.445294,0 120.00368,30.444273,0 120.013818,30.435614,0 120.041525,30.433368,0 120.046102,30.427445,0 120.064754,30.4301,0 120.062145,30.434634,0 120.0681,30.445948,0 120.059242,30.459016,0 120.059488,30.47343,0 120.065836,30.483595,0 120.068297,30.496618,0 120.099252,30.495801,0 120.096742,30.48678,0 120.11121,30.476206,0 120.146004,30.482697,0 120.149793,30.467509,0 120.175039,30.476818,0 120.180551,30.482534,0 120.173809,30.492046,0 120.185915,30.494618,0 120.185079,30.502618,0 120.195659,30.503598,0 120.201762,30.514413,0 120.205404,30.505843,0 120.224597,30.509761,0 120.239262,30.50523,0 120.25191,30.506536,0 120.277451,30.504822,0 120.285817,30.507802,0 120.299892,30.5198,0 120.301959,30.530002,0 120.299498,30.557093,0 120.295955,30.565537,0 120.304715,30.564477,0 120.319134,30.579079,0 120.302599,30.595636,0 120.303189,30.60901,0 120.30939,30.612639,0 120.332717,30.615044,0 120.340099,30.631351,0 120.344971,30.662733,0 120.353977,30.662815,0 120.364607,30.654542,0 120.378288,30.656539,0 120.379469,30.669375,0 120.406093,30.670761,0 120.407963,30.675691,0 120.455011,30.68555,0 120.441182,30.695572,0 120.444479,30.701763,0 120.462885,30.701397,0 120.475287,30.710724,0 120.486261,30.727992,0 120.471891,30.746682,0 120.469972,30.764431,0 120.489066,30.763861,0</coordinates></LinearRing></outerBoundaryIs>
      </Polygon>
    </MultiGeometry>
    </Placemark>
  </Document>
</kml>
