<?xml version="1.0" encoding="UTF-8"?>
<kml xmlns="http://www.opengis.net/kml/2.2">
  <Document>
    <name>北京市 全省轮廓</name>
    <Placemark>
      <name>北京市 全省轮廓</name>
      <Polygon><outerBoundaryIs><LinearRing><coordinates>116.206243000000,39.583219000000,0 116.201726000000,39.586373000000,0 116.196394000000,39.586095000000,0 116.196854000000,39.588987000000,0 116.190580000000,39.587386000000,0 116.190768000000,39.589396000000,0 116.184432000000,39.590915000000,0 116.177071000000,39.590016000000,0 116.176924000000,39.585899000000,0 116.165527000000,39.583562000000,0 116.151788000000,39.583415000000,0 116.149613000000,39.573087000000,0 116.138780000000,39.571044000000,0 116.138425000000,39.568887000000,0 116.130373000000,39.567743000000,0 116.130311000000,39.569459000000,0 116.121528000000,39.570554000000,0 116.121465000000,39.574917000000,0 116.116634000000,39.574002000000,0 116.113790000000,39.570668000000,0 116.106282000000,39.570979000000,0 116.105801000000,39.576568000000,0 116.101368000000,39.580049000000,0 116.102016000000,39.576143000000,0 116.098817000000,39.575146000000,0 116.039237000000,39.571943000000,0 116.032964000000,39.572302000000,0 116.032859000000,39.574607000000,0 116.024766000000,39.575604000000,0 116.026230000000,39.587402000000,0 116.020667000000,39.585981000000,0 116.014038000000,39.588072000000,0 116.013703000000,39.583039000000,0 116.010588000000,39.583023000000,0 116.007618000000,39.577205000000,0 115.995196000000,39.577075000000,0 115.996953000000,39.583203000000,0 115.990721000000,39.586471000000,0 115.990993000000,39.593791000000,0 115.978445000000,39.595686000000,0 115.977086000000,39.590931000000,0 115.978153000000,39.572842000000,0 115.974576000000,39.570832000000,0 115.968909000000,39.570995000000,0 115.967592000000,39.564604000000,0 115.963409000000,39.565503000000,0 115.957554000000,39.560927000000,0 115.954982000000,39.566092000000,0 115.950423000000,39.566370000000,0 115.949147000000,39.573299000000,0 115.943083000000,39.574672000000,0 115.943187000000,39.577385000000,0 115.937938000000,39.577467000000,0 115.938105000000,39.581699000000,0 115.934969000000,39.581814000000,0 115.934174000000,39.588072000000,0 115.929991000000,39.589935000000,0 115.930221000000,39.593382000000,0 115.924178000000,39.593840000000,0 115.923759000000,39.597287000000,0 115.912488000000,39.599149000000,0 115.910187000000,39.600832000000,0 115.906800000000,39.590016000000,0 115.909665000000,39.588284000000,0 115.908744000000,39.584020000000,0 115.915604000000,39.582958000000,0 115.911777000000,39.574182000000,0 115.912760000000,39.572842000000,0 115.907866000000,39.566876000000,0 115.896009000000,39.569916000000,0 115.890028000000,39.567873000000,0 115.893416000000,39.561875000000,0 115.893060000000,39.556219000000,0 115.888752000000,39.555614000000,0 115.887686000000,39.550660000000,0 115.883587000000,39.551102000000,0 115.882960000000,39.548110000000,0 115.873298000000,39.548829000000,0 115.872315000000,39.546099000000,0 115.866355000000,39.546361000000,0 115.866041000000,39.549843000000,0 115.862026000000,39.548551000000,0 115.855481000000,39.554993000000,0 115.851361000000,39.550448000000,0 115.847555000000,39.550284000000,0 115.846028000000,39.543287000000,0 115.842160000000,39.541570000000,0 115.828692000000,39.541309000000,0 115.828399000000,39.535455000000,0 115.824321000000,39.534212000000,0 115.822753000000,39.530533000000,0 115.819219000000,39.530762000000,0 115.819804000000,39.524923000000,0 115.824112000000,39.522405000000,0 115.824447000000,39.518774000000,0 115.819762000000,39.518528000000,0 115.822146000000,39.514145000000,0 115.829487000000,39.512885000000,0 115.828692000000,39.507045000000,0 115.821456000000,39.509499000000,0 115.792681000000,39.510742000000,0 115.785006000000,39.510350000000,0 115.777917000000,39.513834000000,0 115.776537000000,39.512722000000,0 115.767419000000,39.515862000000,0 115.770828000000,39.510971000000,0 115.768736000000,39.508878000000,0 115.765328000000,39.514848000000,0 115.759451000000,39.513916000000,0 115.752508000000,39.515453000000,0 115.743934000000,39.526771000000,0 115.741487000000,39.536289000000,0 115.738790000000,39.539314000000,0 115.739124000000,39.545363000000,0 115.726765000000,39.548143000000,0 115.726953000000,39.543908000000,0 115.721600000000,39.543499000000,0 115.720220000000,39.554747000000,0 115.717104000000,39.560403000000,0 115.710161000000,39.563019000000,0 115.698722000000,39.563248000000,0 115.692072000000,39.565781000000,0 115.694393000000,39.569410000000,0 115.698596000000,39.570586000000,0 115.697906000000,39.579248000000,0 115.693431000000,39.580327000000,0 115.694226000000,39.587778000000,0 115.689269000000,39.592941000000,0 115.689290000000,39.599035000000,0 115.685317000000,39.603675000000,0 115.673271000000,39.608526000000,0 115.667479000000,39.615256000000,0 115.667583000000,39.609637000000,0 115.665304000000,39.605325000000,0 115.657273000000,39.600081000000,0 115.650268000000,39.600996000000,0 115.643576000000,39.598937000000,0 115.641589000000,39.603332000000,0 115.634688000000,39.603871000000,0 115.632555000000,39.597695000000,0 115.625947000000,39.599394000000,0 115.618439000000,39.604067000000,0 115.612500000000,39.601126000000,0 115.605285000000,39.600032000000,0 115.599785000000,39.600865000000,0 115.598719000000,39.597761000000,0 115.592445000000,39.596650000000,0 115.586109000000,39.589412000000,0 115.571867000000,39.591569000000,0 115.573875000000,39.596552000000,0 115.567267000000,39.599623000000,0 115.564569000000,39.605619000000,0 115.554510000000,39.609408000000,0 115.551875000000,39.614064000000,0 115.545978000000,39.618751000000,0 115.539119000000,39.616285000000,0 115.533263000000,39.611434000000,0 115.533891000000,39.608608000000,0 115.530586000000,39.602874000000,0 115.524229000000,39.598937000000,0 115.518311000000,39.597156000000,0 115.518834000000,39.593072000000,0 115.515948000000,39.591193000000,0 115.512121000000,39.605129000000,0 115.514358000000,39.613508000000,0 115.523414000000,39.620384000000,0 115.521699000000,39.622311000000,0 115.520423000000,39.633416000000,0 115.522452000000,39.639964000000,0 115.515864000000,39.641237000000,0 115.511493000000,39.644388000000,0 115.506705000000,39.652127000000,0 115.496771000000,39.652551000000,0 115.494659000000,39.649237000000,0 115.478515000000,39.650331000000,0 115.477971000000,39.654216000000,0 115.482593000000,39.663030000000,0 115.491334000000,39.668694000000,0 115.486733000000,39.673362000000,0 115.489724000000,39.678012000000,0 115.488783000000,39.681619000000,0 115.494408000000,39.686481000000,0 115.496395000000,39.685665000000,0 115.499783000000,39.691278000000,0 115.499260000000,39.696189000000,0 115.492631000000,39.701719000000,0 115.490247000000,39.701409000000,0 115.493404000000,39.707494000000,0 115.491229000000,39.714719000000,0 115.488866000000,39.733163000000,0 115.492108000000,39.738870000000,0 115.482321000000,39.742473000000,0 115.470568000000,39.742391000000,0 115.466720000000,39.740451000000,0 115.457728000000,39.744918000000,0 115.439158000000,39.752678000000,0 115.434411000000,39.763859000000,0 115.435414000000,39.769938000000,0 115.430918000000,39.772073000000,0 115.427029000000,39.769775000000,0 115.425209000000,39.773360000000,0 115.431169000000,39.775756000000,0 115.434076000000,39.782274000000,0 115.443382000000,39.785646000000,0 115.452751000000,39.781964000000,0 115.457770000000,39.782143000000,0 115.475859000000,39.791821000000,0 115.483241000000,39.798679000000,0 115.492380000000,39.796057000000,0 115.497336000000,39.791088000000,0 115.508712000000,39.784082000000,0 115.513815000000,39.788693000000,0 115.536275000000,39.792131000000,0 115.539432000000,39.794754000000,0 115.554866000000,39.795601000000,0 115.562290000000,39.803713000000,0 115.566577000000,39.804609000000,0 115.566367000000,39.809788000000,0 115.569274000000,39.813274000000,0 115.563461000000,39.816417000000,0 115.548027000000,39.822703000000,0 115.546396000000,39.825992000000,0 115.534957000000,39.830714000000,0 115.530482000000,39.829916000000,0 115.526509000000,39.835241000000,0 115.514505000000,39.838350000000,0 115.510992000000,39.845090000000,0 115.515948000000,39.847678000000,0 115.522368000000,39.858779000000,0 115.521929000000,39.868186000000,0 115.527345000000,39.869862000000,0 115.529185000000,39.875948000000,0 115.526299000000,39.875655000000,0 115.516659000000,39.880406000000,0 115.510030000000,39.881480000000,0 115.509026000000,39.884164000000,0 115.523016000000,39.898919000000,0 115.520130000000,39.902547000000,0 115.503860000000,39.915818000000,0 115.494994000000,39.917948000000,0 115.487277000000,39.923835000000,0 115.480690000000,39.935850000000,0 115.472387000000,39.938760000000,0 115.464462000000,39.940142000000,0 115.456787000000,39.944271000000,0 115.452312000000,39.948188000000,0 115.447042000000,39.948806000000,0 115.444595000000,39.951358000000,0 115.438468000000,39.952560000000,0 115.435770000000,39.950919000000,0 115.426150000000,39.950350000000,0 115.423745000000,39.955697000000,0 115.426924000000,39.965302000000,0 115.423411000000,39.969819000000,0 115.427635000000,39.979471000000,0 115.428513000000,39.984328000000,0 115.436815000000,39.991427000000,0 115.443905000000,39.994644000000,0 115.450346000000,39.993247000000,0 115.449196000000,40.001985000000,0 115.442817000000,40.007345000000,0 115.442169000000,40.010885000000,0 115.452082000000,40.020790000000,0 115.454528000000,40.029704000000,0 115.460656000000,40.032172000000,0 115.468414000000,40.031896000000,0 115.478557000000,40.036165000000,0 115.488992000000,40.043746000000,0 115.488323000000,40.046132000000,0 115.500954000000,40.052478000000,0 115.510427000000,40.062913000000,0 115.509695000000,40.065477000000,0 115.514944000000,40.066937000000,0 115.527324000000,40.076072000000,0 115.537885000000,40.077775000000,0 115.544263000000,40.075910000000,0 115.552168000000,40.079252000000,0 115.555472000000,40.082626000000,0 115.553736000000,40.091661000000,0 115.563419000000,40.097922000000,0 115.567769000000,40.096543000000,0 115.576196000000,40.100825000000,0 115.578538000000,40.096365000000,0 115.584038000000,40.094889000000,0 115.590709000000,40.096397000000,0 115.592403000000,40.110182000000,0 115.594432000000,40.108982000000,0 115.594850000000,40.116279000000,0 115.599116000000,40.120008000000,0 115.606979000000,40.120057000000,0 115.616223000000,40.117138000000,0 115.621388000000,40.118711000000,0 115.625048000000,40.116295000000,0 115.631468000000,40.117852000000,0 115.635943000000,40.115793000000,0 115.643722000000,40.117511000000,0 115.641882000000,40.120819000000,0 115.644580000000,40.126639000000,0 115.654806000000,40.131276000000,0 115.657734000000,40.128098000000,0 115.678667000000,40.130935000000,0 115.681197000000,40.132670000000,0 115.686990000000,40.130530000000,0 115.693096000000,40.131924000000,0 115.697216000000,40.126720000000,0 115.702172000000,40.128196000000,0 115.712064000000,40.126899000000,0 115.711039000000,40.128941000000,0 115.704765000000,40.129655000000,0 115.699746000000,40.132394000000,0 115.708697000000,40.134291000000,0 115.715891000000,40.133383000000,0 115.724841000000,40.128812000000,0 115.734126000000,40.129379000000,0 115.741111000000,40.132216000000,0 115.749246000000,40.137711000000,0 115.754850000000,40.145459000000,0 115.749539000000,40.152995000000,0 115.754328000000,40.163252000000,0 115.762212000000,40.162620000000,0 115.768213000000,40.165553000000,0 115.773023000000,40.176197000000,0 115.787014000000,40.178708000000,0 115.786930000000,40.170414000000,0 115.789837000000,40.168939000000,0 115.802091000000,40.156754000000,0 115.806567000000,40.153254000000,0 115.822272000000,40.152606000000,0 115.829047000000,40.149981000000,0 115.835760000000,40.145426000000,0 115.834234000000,40.150240000000,0 115.846384000000,40.147096000000,0 115.853348000000,40.149332000000,0 115.853557000000,40.154162000000,0 115.846760000000,40.163171000000,0 115.844418000000,40.168016000000,0 115.846865000000,40.169458000000,0 115.854205000000,40.179939000000,0 115.848099000000,40.183843000000,0 115.855502000000,40.188865000000,0 115.863072000000,40.186095000000,0 115.870308000000,40.186079000000,0 115.873695000000,40.192687000000,0 115.876330000000,40.193918000000,0 115.877313000000,40.200849000000,0 115.886326000000,40.206663000000,0 115.883169000000,40.209594000000,0 115.885072000000,40.212039000000,0 115.883106000000,40.216119000000,0 115.891366000000,40.225379000000,0 115.891994000000,40.228147000000,0 115.898476000000,40.234509000000,0 115.898079000000,40.236419000000,0 115.906695000000,40.234120000000,0 115.911965000000,40.234477000000,0 115.916628000000,40.242391000000,0 115.916984000000,40.247068000000,0 115.935826000000,40.255580000000,0 115.942706000000,40.253557000000,0 115.950276000000,40.256163000000,0 115.960001000000,40.256648000000,0 115.965605000000,40.259415000000,0 115.968888000000,40.264269000000,0 115.967006000000,40.265612000000,0 115.961611000000,40.269219000000,0 115.960231000000,40.274914000000,0 115.955212000000,40.276984000000,0 115.951698000000,40.282015000000,0 115.950088000000,40.289228000000,0 115.946115000000,40.289034000000,0 115.945885000000,40.296199000000,0 115.939757000000,40.304397000000,0 115.943814000000,40.310945000000,0 115.937185000000,40.313047000000,0 115.935721000000,40.316717000000,0 115.929239000000,40.321050000000,0 115.926792000000,40.319611000000,0 115.922672000000,40.325899000000,0 115.927210000000,40.329601000000,0 115.922881000000,40.332898000000,0 115.921417000000,40.338668000000,0 115.924094000000,40.341059000000,0 115.920581000000,40.346473000000,0 115.918301000000,40.353890000000,0 115.909539000000,40.357622000000,0 115.892997000000,40.355554000000,0 115.890927000000,40.357897000000,0 115.885260000000,40.357024000000,0 115.883169000000,40.359545000000,0 115.878066000000,40.359367000000,0 115.876226000000,40.362146000000,0 115.872754000000,40.359593000000,0 115.864452000000,40.359335000000,0 115.864410000000,40.361920000000,0 115.859810000000,40.362130000000,0 115.861922000000,40.364811000000,0 115.861859000000,40.373422000000,0 115.855962000000,40.377120000000,0 115.846865000000,40.375085000000,0 115.840633000000,40.381094000000,0 115.837454000000,40.381255000000,0 115.836555000000,40.385680000000,0 115.796445000000,40.426834000000,0 115.796884000000,40.432531000000,0 115.789920000000,40.432483000000,0 115.786679000000,40.437066000000,0 115.770430000000,40.444166000000,0 115.773546000000,40.448120000000,0 115.772480000000,40.452831000000,0 115.775470000000,40.452040000000,0 115.773400000000,40.457397000000,0 115.779527000000,40.464075000000,0 115.772856000000,40.462301000000,0 115.770367000000,40.464930000000,0 115.771559000000,40.472850000000,0 115.776683000000,40.477511000000,0 115.776202000000,40.482704000000,0 115.782204000000,40.492073000000,0 115.774529000000,40.493911000000,0 115.768088000000,40.498345000000,0 115.744039000000,40.498249000000,0 115.743077000000,40.494959000000,0 115.736050000000,40.503988000000,0 115.743098000000,40.513854000000,0 115.743788000000,40.518464000000,0 115.748702000000,40.526087000000,0 115.755624000000,40.531019000000,0 115.752968000000,40.536288000000,0 115.755060000000,40.540042000000,0 115.759577000000,40.538914000000,0 115.763885000000,40.540574000000,0 115.770179000000,40.548002000000,0 115.773902000000,40.548582000000,0 115.776327000000,40.552158000000,0 115.784713000000,40.558376000000,0 115.792200000000,40.561292000000,0 115.799080000000,40.557700000000,0 115.804915000000,40.558650000000,0 115.815036000000,40.557410000000,0 115.819804000000,40.559343000000,0 115.821540000000,40.563305000000,0 115.820662000000,40.568234000000,0 115.827374000000,40.587027000000,0 115.846175000000,40.593049000000,0 115.854895000000,40.590151000000,0 115.866230000000,40.593371000000,0 115.867777000000,40.595786000000,0 115.885406000000,40.595223000000,0 115.888146000000,40.597026000000,0 115.894733000000,40.606878000000,0 115.897849000000,40.608101000000,0 115.907803000000,40.617291000000,0 115.920372000000,40.616632000000,0 115.928297000000,40.612753000000,0 115.935031000000,40.613316000000,0 115.944672000000,40.611095000000,0 115.948331000000,40.608809000000,0 115.955107000000,40.609534000000,0 115.967404000000,40.605896000000,0 115.965877000000,40.601002000000,0 115.971983000000,40.602370000000,0 115.975120000000,40.590779000000,0 115.982147000000,40.579008000000,0 115.995238000000,40.579862000000,0 115.996116000000,40.583920000000,0 116.005109000000,40.584097000000,0 116.025268000000,40.606540000000,0 116.028509000000,40.607328000000,0 116.030036000000,40.597364000000,0 116.032357000000,40.599875000000,0 116.044570000000,40.602032000000,0 116.050907000000,40.606121000000,0 116.058289000000,40.607006000000,0 116.062722000000,40.610322000000,0 116.069811000000,40.610258000000,0 116.073492000000,40.612125000000,0 116.076691000000,40.619883000000,0 116.085830000000,40.623825000000,0 116.088507000000,40.626626000000,0 116.098879000000,40.630584000000,0 116.104400000000,40.626996000000,0 116.118349000000,40.627961000000,0 116.122071000000,40.629989000000,0 116.120419000000,40.633287000000,0 116.112744000000,40.640946000000,0 116.111531000000,40.646287000000,0 116.113225000000,40.648845000000,0 116.125229000000,40.654089000000,0 116.136940000000,40.667648000000,0 116.142858000000,40.666972000000,0 116.151432000000,40.663338000000,0 116.162683000000,40.662437000000,0 116.167597000000,40.672633000000,0 116.168413000000,40.678920000000,0 116.171487000000,40.681670000000,0 116.173683000000,40.689034000000,0 116.171341000000,40.695979000000,0 116.176213000000,40.700544000000,0 116.177907000000,40.707889000000,0 116.181128000000,40.712438000000,0 116.184913000000,40.713675000000,0 116.192274000000,40.724779000000,0 116.197753000000,40.726900000000,0 116.205700000000,40.733038000000,0 116.204717000000,40.739946000000,0 116.210551000000,40.741713000000,0 116.213249000000,40.740139000000,0 116.220359000000,40.744669000000,0 116.220485000000,40.749183000000,0 116.223308000000,40.753793000000,0 116.233660000000,40.759896000000,0 116.229979000000,40.762417000000,0 116.231757000000,40.771490000000,0 116.235625000000,40.775135000000,0 116.235019000000,40.783130000000,0 116.245224000000,40.788380000000,0 116.247943000000,40.791831000000,0 116.257834000000,40.787898000000,0 116.261013000000,40.782938000000,0 116.269587000000,40.777158000000,0 116.269880000000,40.770703000000,0 116.274167000000,40.766335000000,0 116.273456000000,40.762883000000,0 116.277366000000,40.761630000000,0 116.281402000000,40.763926000000,0 116.290918000000,40.763814000000,0 116.297860000000,40.756812000000,0 116.304762000000,40.755656000000,0 116.307940000000,40.752122000000,0 116.311119000000,40.755110000000,0 116.307940000000,40.763734000000,0 116.313168000000,40.770205000000,0 116.317560000000,40.772180000000,0 116.330149000000,40.773770000000,0 116.333140000000,40.772694000000,0 116.342947000000,40.773096000000,0 116.353111000000,40.770221000000,0 116.361204000000,40.772646000000,0 116.367687000000,40.770880000000,0 116.370970000000,40.772453000000,0 116.379837000000,40.772325000000,0 116.392635000000,40.778394000000,0 116.403217000000,40.778635000000,0 116.407838000000,40.780417000000,0 116.414300000000,40.777912000000,0 116.416496000000,40.769370000000,0 116.424861000000,40.767443000000,0 116.431846000000,40.768246000000,0 116.437722000000,40.766865000000,0 116.444414000000,40.769210000000,0 116.453950000000,40.765870000000,0 116.465452000000,40.772742000000,0 116.465849000000,40.774525000000,0 116.460663000000,40.782440000000,0 116.461416000000,40.788540000000,0 116.457233000000,40.798300000000,0 116.452152000000,40.798059000000,0 116.450981000000,40.801927000000,0 116.440002000000,40.809133000000,0 116.439897000000,40.815038000000,0 116.436823000000,40.820735000000,0 116.422477000000,40.822772000000,0 116.414991000000,40.829318000000,0 116.406458000000,40.833361000000,0 116.406145000000,40.837933000000,0 116.399306000000,40.850492000000,0 116.391778000000,40.854838000000,0 116.389707000000,40.861814000000,0 116.381740000000,40.863465000000,0 116.374881000000,40.871531000000,0 116.366599000000,40.876645000000,0 116.365972000000,40.880188000000,0 116.360514000000,40.884885000000,0 116.353864000000,40.887786000000,0 116.344683000000,40.894694000000,0 116.342236000000,40.899887000000,0 116.334436000000,40.904630000000,0 116.335440000000,40.910495000000,0 116.334122000000,40.920829000000,0 116.338828000000,40.925732000000,0 116.339894000000,40.929416000000,0 116.350120000000,40.936048000000,0 116.358925000000,40.936080000000,0 116.364801000000,40.942999000000,0 116.370343000000,40.943655000000,0 116.379941000000,40.935775000000,0 116.379732000000,40.933228000000,0 116.384019000000,40.928535000000,0 116.384877000000,40.922848000000,0 116.392740000000,40.913123000000,0 116.396316000000,40.911264000000,0 116.398533000000,40.906024000000,0 116.404764000000,40.905736000000,0 116.413715000000,40.899758000000,0 116.418922000000,40.902339000000,0 116.430905000000,40.903364000000,0 116.436614000000,40.899390000000,0 116.448492000000,40.899919000000,0 116.450730000000,40.901345000000,0 116.458676000000,40.900592000000,0 116.464344000000,40.896329000000,0 116.474047000000,40.896008000000,0 116.477581000000,40.901746000000,0 116.473608000000,40.919740000000,0 116.468422000000,40.925091000000,0 116.467209000000,40.931322000000,0 116.461541000000,40.932684000000,0 116.462315000000,40.935231000000,0 116.455372000000,40.945433000000,0 116.454829000000,40.949533000000,0 116.447446000000,40.953840000000,0 116.453302000000,40.964584000000,0 116.451713000000,40.968667000000,0 116.455519000000,40.980481000000,0 116.464135000000,40.984498000000,0 116.474193000000,40.978608000000,0 116.478940000000,40.979104000000,0 116.485612000000,40.982465000000,0 116.493726000000,40.977919000000,0 116.496737000000,40.978432000000,0 116.504516000000,40.975919000000,0 116.516290000000,40.975198000000,0 116.519573000000,40.981569000000,0 116.524718000000,40.981073000000,0 116.533417000000,40.985698000000,0 116.535634000000,40.988675000000,0 116.541991000000,40.990260000000,0 116.547826000000,40.988003000000,0 116.558617000000,40.988627000000,0 116.561231000000,40.993461000000,0 116.569177000000,40.991636000000,0 116.574928000000,40.986307000000,0 116.589692000000,40.976703000000,0 116.597764000000,40.974750000000,0 116.614515000000,40.983314000000,0 116.617067000000,40.998725000000,0 116.614892000000,41.003574000000,0 116.619179000000,41.014230000000,0 116.621897000000,41.015749000000,0 116.622880000000,41.020693000000,0 116.621228000000,41.028978000000,0 116.617589000000,41.034704000000,0 116.614118000000,41.036096000000,0 116.613491000000,41.040782000000,0 116.617736000000,41.048649000000,0 116.616460000000,41.053382000000,0 116.624093000000,41.054437000000,0 116.630848000000,41.060800000000,0 116.637937000000,41.060497000000,0 116.641158000000,41.058322000000,0 116.647431000000,41.059393000000,0 116.653914000000,41.056260000000,0 116.657009000000,41.051303000000,0 116.665207000000,41.046682000000,0 116.673279000000,41.046378000000,0 116.676980000000,41.042732000000,0 116.682878000000,41.041789000000,0 116.688629000000,41.044651000000,0 116.692246000000,41.040813000000,0 116.691347000000,41.037503000000,0 116.695090000000,41.033265000000,0 116.695739000000,41.025396000000,0 116.698855000000,41.021253000000,0 116.693836000000,41.013686000000,0 116.690866000000,41.012982000000,0 116.690950000000,41.007254000000,0 116.683066000000,41.000486000000,0 116.682543000000,40.986259000000,0 116.685304000000,40.982641000000,0 116.681267000000,40.980737000000,0 116.677921000000,40.975983000000,0 116.677921000000,40.970972000000,0 116.687248000000,40.962551000000,0 116.689298000000,40.951118000000,0 116.696178000000,40.944520000000,0 116.702368000000,40.940628000000,0 116.702786000000,40.936512000000,0 116.707220000000,40.934029000000,0 116.712197000000,40.934846000000,0 116.713891000000,40.929416000000,0 116.722318000000,40.927430000000,0 116.717111000000,40.921695000000,0 116.713347000000,40.910431000000,0 116.716881000000,40.910175000000,0 116.723678000000,40.906313000000,0 116.726145000000,40.901185000000,0 116.730432000000,40.897771000000,0 116.739759000000,40.896665000000,0 116.750257000000,40.891665000000,0 116.759501000000,40.889854000000,0 116.758539000000,40.881983000000,0 116.762135000000,40.880765000000,0 116.769392000000,40.882961000000,0 116.772362000000,40.878520000000,0 116.776795000000,40.878376000000,0 116.797226000000,40.860034000000,0 116.796996000000,40.854886000000,0 116.802413000000,40.851198000000,0 116.802496000000,40.842392000000,0 116.805947000000,40.840836000000,0 116.813622000000,40.848423000000,0 116.820732000000,40.848263000000,0 116.823471000000,40.842681000000,0 116.828009000000,40.841109000000,0 116.831815000000,40.842585000000,0 116.837775000000,40.841542000000,0 116.839741000000,40.839024000000,0 116.848190000000,40.839313000000,0 116.848587000000,40.837147000000,0 116.855425000000,40.835447000000,0 116.860633000000,40.830457000000,0 116.861448000000,40.825356000000,0 116.870378000000,40.821601000000,0 116.876171000000,40.821200000000,0 116.876735000000,40.818456000000,0 116.882172000000,40.814172000000,0 116.880207000000,40.804367000000,0 116.886961000000,40.801076000000,0 116.889073000000,40.798348000000,0 116.896686000000,40.796438000000,0 116.894950000000,40.790675000000,0 116.895013000000,40.781733000000,0 116.898589000000,40.776740000000,0 116.904569000000,40.777286000000,0 116.923391000000,40.773722000000,0 116.923181000000,40.766897000000,0 116.927908000000,40.757824000000,0 116.923516000000,40.750596000000,0 116.926548000000,40.744894000000,0 116.940706000000,40.739786000000,0 116.942714000000,40.729857000000,0 116.946645000000,40.726916000000,0 116.960134000000,40.721083000000,0 116.966470000000,40.715250000000,0 116.965111000000,40.709593000000,0 116.969628000000,40.706362000000,0 116.977533000000,40.705559000000,0 116.979938000000,40.702826000000,0 116.988177000000,40.703164000000,0 116.990456000000,40.701203000000,0 117.002481000000,40.697345000000,0 117.005513000000,40.694853000000,0 117.013418000000,40.694082000000,0 117.018291000000,40.696011000000,0 117.027848000000,40.694355000000,0 117.031047000000,40.692136000000,0 117.035585000000,40.694467000000,0 117.036108000000,40.697265000000,0 117.044494000000,40.700367000000,0 117.054887000000,40.699804000000,0 117.058338000000,40.701540000000,0 117.076804000000,40.700029000000,0 117.081153000000,40.702617000000,0 117.086047000000,40.702055000000,0 117.095144000000,40.705559000000,0 117.110661000000,40.708243000000,0 117.117792000000,40.700078000000,0 117.128792000000,40.700913000000,0 117.132493000000,40.698663000000,0 117.142531000000,40.697200000000,0 117.147571000000,40.698968000000,0 117.159491000000,40.696332000000,0 117.164740000000,40.699628000000,0 117.169236000000,40.699097000000,0 117.176639000000,40.693567000000,0 117.180947000000,40.694082000000,0 117.182453000000,40.697072000000,0 117.193996000000,40.696268000000,0 117.197802000000,40.694291000000,0 117.202361000000,40.695577000000,0 117.208405000000,40.694435000000,0 117.210622000000,40.691976000000,0 117.217335000000,40.691960000000,0 117.218715000000,40.689484000000,0 117.233207000000,40.683583000000,0 117.234336000000,40.680577000000,0 117.241635000000,40.676669000000,0 117.256775000000,40.679467000000,0 117.261397000000,40.681155000000,0 117.267754000000,40.676669000000,0 117.273401000000,40.670076000000,0 117.278629000000,40.667551000000,0 117.278608000000,40.664463000000,0 117.290423000000,40.660185000000,0 117.321164000000,40.658287000000,0 117.331851000000,40.661504000000,0 117.337622000000,40.664447000000,0 117.336681000000,40.666956000000,0 117.342411000000,40.673437000000,0 117.359748000000,40.673919000000,0 117.370580000000,40.679708000000,0 117.378192000000,40.678808000000,0 117.386996000000,40.684178000000,0 117.397223000000,40.683776000000,0 117.409226000000,40.687281000000,0 117.414852000000,40.685947000000,0 117.419348000000,40.686960000000,0 117.426437000000,40.685304000000,0 117.432711000000,40.681622000000,0 117.437332000000,40.683599000000,0 117.442226000000,40.676605000000,0 117.453958000000,40.677618000000,0 117.465188000000,40.673534000000,0 117.471503000000,40.674338000000,0 117.482399000000,40.679033000000,0 117.484741000000,40.677087000000,0 117.493357000000,40.675270000000,0 117.502934000000,40.669674000000,0 117.514583000000,40.660523000000,0 117.513913000000,40.656196000000,0 117.502830000000,40.653076000000,0 117.505026000000,40.646142000000,0 117.501972000000,40.644518000000,0 117.500425000000,40.636200000000,0 117.489948000000,40.636023000000,0 117.486163000000,40.633496000000,0 117.477986000000,40.635331000000,0 117.475539000000,40.644421000000,0 117.473093000000,40.644453000000,0 117.467885000000,40.649521000000,0 117.464309000000,40.648652000000,0 117.462009000000,40.653076000000,0 117.449106000000,40.651596000000,0 117.456467000000,40.649167000000,0 117.451448000000,40.646577000000,0 117.454020000000,40.642844000000,0 117.448876000000,40.628380000000,0 117.442289000000,40.627977000000,0 117.438002000000,40.625692000000,0 117.430285000000,40.626014000000,0 117.419954000000,40.617517000000,0 117.412739000000,40.605123000000,0 117.414747000000,40.600728000000,0 117.421753000000,40.593178000000,0 117.420623000000,40.590875000000,0 117.423217000000,40.581440000000,0 117.429804000000,40.579298000000,0 117.429992000000,40.576126000000,0 117.421230000000,40.569104000000,0 117.413471000000,40.569893000000,0 117.403580000000,40.574257000000,0 117.400589000000,40.569345000000,0 117.394650000000,40.567912000000,0 117.389297000000,40.561244000000,0 117.378422000000,40.563370000000,0 117.375453000000,40.567799000000,0 117.369221000000,40.570360000000,0 117.365917000000,40.575965000000,0 117.353014000000,40.578831000000,0 117.350023000000,40.582197000000,0 117.342767000000,40.581585000000,0 117.334611000000,40.576464000000,0 117.328442000000,40.575948000000,0 117.325451000000,40.578155000000,0 117.311837000000,40.578026000000,0 117.299562000000,40.566801000000,0 117.285592000000,40.565061000000,0 117.279256000000,40.560342000000,0 117.273191000000,40.561501000000,0 117.268507000000,40.559842000000,0 117.259640000000,40.552867000000,0 117.249540000000,40.548179000000,0 117.250606000000,40.542024000000,0 117.247427000000,40.540236000000,0 117.252007000000,40.536320000000,0 117.255123000000,40.527973000000,0 117.261460000000,40.519060000000,0 117.264115000000,40.517271000000,0 117.263133000000,40.513145000000,0 117.255562000000,40.514934000000,0 117.246821000000,40.511968000000,0 117.239543000000,40.516723000000,0 117.230405000000,40.511162000000,0 117.219969000000,40.514321000000,0 117.215013000000,40.513273000000,0 117.212504000000,40.507906000000,0 117.214490000000,40.507390000000,0 117.208572000000,40.501102000000,0 117.208426000000,40.498071000000,0 117.212065000000,40.494685000000,0 117.217920000000,40.494589000000,0 117.228460000000,40.481301000000,0 117.225783000000,40.475850000000,0 117.230907000000,40.470463000000,0 117.237243000000,40.468785000000,0 117.233207000000,40.463204000000,0 117.236532000000,40.456558000000,0 117.243308000000,40.455428000000,0 117.252154000000,40.450459000000,0 117.252635000000,40.446038000000,0 117.263342000000,40.442375000000,0 117.257654000000,40.435372000000,0 117.246737000000,40.426883000000,0 117.243872000000,40.422848000000,0 117.234085000000,40.417149000000,0 117.237515000000,40.407786000000,0 117.236616000000,40.400844000000,0 117.240484000000,40.397630000000,0 117.240694000000,40.394417000000,0 117.236950000000,40.394078000000,0 117.235382000000,40.389556000000,0 117.229045000000,40.386843000000,0 117.226661000000,40.378558000000,0 117.223901000000,40.375538000000,0 117.226180000000,40.369044000000,0 117.237055000000,40.370627000000,0 117.242283000000,40.369981000000,0 117.247762000000,40.364101000000,0 117.250188000000,40.358381000000,0 117.254182000000,40.357105000000,0 117.254370000000,40.351191000000,0 117.257089000000,40.341463000000,0 117.261125000000,40.338781000000,0 117.259828000000,40.336195000000,0 117.267127000000,40.335694000000,0 117.274969000000,40.331944000000,0 117.271288000000,40.325285000000,0 117.271853000000,40.319853000000,0 117.274697000000,40.314405000000,0 117.274342000000,40.308552000000,0 117.285739000000,40.302214000000,0 117.293309000000,40.296748000000,0 117.294647000000,40.290894000000,0 117.292368000000,40.286236000000,0 117.296320000000,40.278100000000,0 117.304309000000,40.278181000000,0 117.316835000000,40.281999000000,0 117.316794000000,40.285104000000,0 117.323360000000,40.284441000000,0 117.331244000000,40.289665000000,0 117.334005000000,40.285654000000,0 117.337999000000,40.265903000000,0 117.337622000000,40.263266000000,0 117.342202000000,40.256502000000,0 117.339881000000,40.246194000000,0 117.343457000000,40.242909000000,0 117.345464000000,40.234946000000,0 117.348246000000,40.234574000000,0 117.351613000000,40.229459000000,0 117.355691000000,40.229556000000,0 117.360270000000,40.232550000000,0 117.373989000000,40.232777000000,0 117.386829000000,40.227111000000,0 117.390029000000,40.227969000000,0 117.393730000000,40.221656000000,0 117.377586000000,40.218612000000,0 117.378443000000,40.210290000000,0 117.385679000000,40.207894000000,0 117.393145000000,40.203376000000,0 117.379552000000,40.201319000000,0 117.381455000000,40.194906000000,0 117.384382000000,40.195278000000,0 117.384090000000,40.187828000000,0 117.388356000000,40.188249000000,0 117.397704000000,40.192914000000,0 117.407700000000,40.187504000000,0 117.404751000000,40.183244000000,0 117.401217000000,40.183617000000,0 117.391618000000,40.177607000000,0 117.393186000000,40.174901000000,0 117.380597000000,40.176910000000,0 117.381225000000,40.172455000000,0 117.377021000000,40.176327000000,0 117.372023000000,40.176538000000,0 117.368844000000,40.172990000000,0 117.364014000000,40.176683000000,0 117.359413000000,40.173346000000,0 117.353746000000,40.173670000000,0 117.351111000000,40.171661000000,0 117.357343000000,40.164273000000,0 117.360626000000,40.156965000000,0 117.351717000000,40.150564000000,0 117.355272000000,40.148587000000,0 117.350525000000,40.144827000000,0 117.356883000000,40.145037000000,0 117.356360000000,40.140904000000,0 117.351404000000,40.139932000000,0 117.349082000000,40.136528000000,0 117.330617000000,40.133691000000,0 117.330930000000,40.135750000000,0 117.323276000000,40.140710000000,0 117.318571000000,40.138522000000,0 117.313761000000,40.139964000000,0 117.307613000000,40.136982000000,0 117.302991000000,40.125926000000,0 117.297073000000,40.121273000000,0 117.297094000000,40.118857000000,0 117.285425000000,40.121322000000,0 117.275659000000,40.113636000000,0 117.276663000000,40.109307000000,0 117.274362000000,40.105804000000,0 117.269908000000,40.107198000000,0 117.266834000000,40.112177000000,0 117.260393000000,40.114155000000,0 117.255541000000,40.113279000000,0 117.249268000000,40.116474000000,0 117.245357000000,40.113215000000,0 117.238226000000,40.111755000000,0 117.236009000000,40.108382000000,0 117.229025000000,40.103533000000,0 117.228606000000,40.100257000000,0 117.224403000000,40.098619000000,0 117.224487000000,40.094662000000,0 117.211249000000,40.096608000000,0 117.211040000000,40.090785000000,0 117.213989000000,40.086243000000,0 117.204285000000,40.079657000000,0 117.203616000000,40.076704000000,0 117.208175000000,40.076834000000,0 117.205247000000,40.070280000000,0 117.197572000000,40.067748000000,0 117.198576000000,40.070101000000,0 117.191842000000,40.072973000000,0 117.189207000000,40.082853000000,0 117.185380000000,40.083875000000,0 117.181533000000,40.080095000000,0 117.186426000000,40.076202000000,0 117.183603000000,40.072081000000,0 117.175593000000,40.071642000000,0 117.172227000000,40.074157000000,0 117.158466000000,40.077435000000,0 117.160139000000,40.075553000000,0 117.156250000000,40.069338000000,0 117.139227000000,40.064049000000,0 117.128896000000,40.065460000000,0 117.119507000000,40.072421000000,0 117.107775000000,40.071805000000,0 117.103927000000,40.075585000000,0 117.085608000000,40.075131000000,0 117.085064000000,40.068592000000,0 117.080986000000,40.065087000000,0 117.081049000000,40.068819000000,0 117.069652000000,40.067570000000,0 117.070634000000,40.064179000000,0 117.064382000000,40.062783000000,0 117.061182000000,40.060105000000,0 117.052022000000,40.059375000000,0 117.053382000000,40.052884000000,0 117.051437000000,40.051163000000,0 117.038639000000,40.049378000000,0 117.033159000000,40.042350000000,0 117.027032000000,40.038828000000,0 117.028517000000,40.033957000000,0 117.023916000000,40.033746000000,0 117.024836000000,40.030110000000,0 117.020884000000,40.032448000000,0 117.018061000000,40.030467000000,0 117.011369000000,40.031246000000,0 117.000683000000,40.029915000000,0 117.000160000000,40.032253000000,0 116.991837000000,40.036896000000,0 116.985626000000,40.038828000000,0 116.972095000000,40.036977000000,0 116.969293000000,40.048583000000,0 116.964902000000,40.047836000000,0 116.961932000000,40.051358000000,0 116.945265000000,40.041425000000,0 116.945014000000,40.048631000000,0 116.937632000000,40.046911000000,0 116.938824000000,40.050887000000,0 116.931693000000,40.052024000000,0 116.928096000000,40.054929000000,0 116.924164000000,40.047463000000,0 116.917974000000,40.044704000000,0 116.914252000000,40.052592000000,0 116.906431000000,40.051423000000,0 116.901370000000,40.047723000000,0 116.890265000000,40.045970000000,0 116.880750000000,40.046164000000,0 116.873619000000,40.041522000000,0 116.867826000000,40.041863000000,0 116.857809000000,40.051894000000,0 116.850197000000,40.054977000000,0 116.849486000000,40.051926000000,0 116.831502000000,40.051196000000,0 116.831732000000,40.048485000000,0 116.822739000000,40.046473000000,0 116.823158000000,40.039834000000,0 116.820816000000,40.038779000000,0 116.820000000000,40.028357000000,0 116.815295000000,40.030905000000,0 116.803375000000,40.032155000000,0 116.800259000000,40.028844000000,0 116.789531000000,40.032318000000,0 116.790221000000,40.034477000000,0 116.781542000000,40.034818000000,0 116.777820000000,40.032448000000,0 116.777485000000,40.027204000000,0 116.771755000000,40.014474000000,0 116.770459000000,40.011632000000,0 116.775749000000,40.002943000000,0 116.775373000000,39.992759000000,0 116.766757000000,39.982281000000,0 116.766443000000,39.976351000000,0 116.759605000000,39.969933000000,0 116.757326000000,39.961483000000,0 116.762826000000,39.956006000000,0 116.780580000000,39.949716000000,0 116.782567000000,39.947554000000,0 116.783320000000,39.936045000000,0 116.782358000000,39.928273000000,0 116.782170000000,39.910419000000,0 116.784240000000,39.902221000000,0 116.784700000000,39.891420000000,0 116.787084000000,39.886833000000,0 116.794738000000,39.881252000000,0 116.804148000000,39.877933000000,0 116.804253000000,39.884880000000,0 116.808247000000,39.884913000000,0 116.808310000000,39.889631000000,0 116.812304000000,39.889712000000,0 116.813120000000,39.881301000000,0 116.817009000000,39.878649000000,0 116.823681000000,39.879137000000,0 116.827277000000,39.877071000000,0 116.836897000000,39.864736000000,0 116.839407000000,39.865777000000,0 116.847249000000,39.858616000000,0 116.852540000000,39.859056000000,0 116.858290000000,39.848460000000,0 116.865505000000,39.846913000000,0 116.866049000000,39.843902000000,0 116.871507000000,39.842062000000,0 116.878638000000,39.842257000000,0 116.878304000000,39.845220000000,0 116.885665000000,39.844585000000,0 116.897501000000,39.832587000000,0 116.903357000000,39.830682000000,0 116.907581000000,39.834117000000,0 116.902896000000,39.841346000000,0 116.902813000000,39.848248000000,0 116.910383000000,39.850608000000,0 116.917431000000,39.846913000000,0 116.925900000000,39.835403000000,0 116.928870000000,39.820912000000,0 116.928180000000,39.814153000000,0 116.929790000000,39.811368000000,0 116.942881000000,39.801677000000,0 116.934809000000,39.801139000000,0 116.938301000000,39.793124000000,0 116.950828000000,39.791528000000,0 116.953797000000,39.786070000000,0 116.948004000000,39.785369000000,0 116.949740000000,39.778542000000,0 116.945788000000,39.777369000000,0 116.939284000000,39.781361000000,0 116.933784000000,39.781801000000,0 116.921718000000,39.780628000000,0 116.916490000000,39.775935000000,0 116.920902000000,39.769107000000,0 116.910613000000,39.762278000000,0 116.908292000000,39.766711000000,0 116.901809000000,39.763615000000,0 116.901558000000,39.755204000000,0 116.907163000000,39.755970000000,0 116.913185000000,39.745962000000,0 116.914461000000,39.741755000000,0 116.910718000000,39.740989000000,0 116.912934000000,39.735690000000,0 116.916364000000,39.735870000000,0 116.916678000000,39.731353000000,0 116.911533000000,39.731516000000,0 116.902290000000,39.729413000000,0 116.899760000000,39.726168000000,0 116.887589000000,39.725515000000,0 116.882800000000,39.718470000000,0 116.887108000000,39.714311000000,0 116.886376000000,39.707004000000,0 116.893841000000,39.695879000000,0 116.893360000000,39.693187000000,0 116.887819000000,39.690952000000,0 116.889910000000,39.687656000000,0 116.902896000000,39.690576000000,0 116.909024000000,39.682859000000,0 116.905197000000,39.681651000000,0 116.906661000000,39.677425000000,0 116.891144000000,39.674080000000,0 116.883239000000,39.675352000000,0 116.873180000000,39.671387000000,0 116.863979000000,39.670391000000,0 116.860486000000,39.667258000000,0 116.849946000000,39.667552000000,0 116.851410000000,39.652845000000,0 116.839135000000,39.647523000000,0 116.840766000000,39.644241000000,0 116.833572000000,39.644127000000,0 116.834555000000,39.641841000000,0 116.826901000000,39.638217000000,0 116.828930000000,39.635163000000,0 116.826357000000,39.633122000000,0 116.838445000000,39.622230000000,0 116.834116000000,39.621495000000,0 116.835391000000,39.617004000000,0 116.825040000000,39.613884000000,0 116.823994000000,39.617183000000,0 116.819540000000,39.618996000000,0 116.809711000000,39.614521000000,0 116.802078000000,39.612300000000,0 116.790012000000,39.610535000000,0 116.792835000000,39.602155000000,0 116.789384000000,39.602596000000,0 116.790702000000,39.596045000000,0 116.785474000000,39.596209000000,0 116.785055000000,39.593497000000,0 116.778196000000,39.593382000000,0 116.774892000000,39.599166000000,0 116.774202000000,39.605439000000,0 116.762616000000,39.613819000000,0 116.748689000000,39.619943000000,0 116.744004000000,39.616824000000,0 116.737877000000,39.615370000000,0 116.730516000000,39.619143000000,0 116.730202000000,39.622932000000,0 116.725518000000,39.624075000000,0 116.721858000000,39.621756000000,0 116.716149000000,39.621560000000,0 116.709290000000,39.618114000000,0 116.705338000000,39.621462000000,0 116.700737000000,39.621070000000,0 116.702577000000,39.610421000000,0 116.718282000000,39.603021000000,0 116.718324000000,39.601077000000,0 116.724953000000,39.598006000000,0 116.727065000000,39.593055000000,0 116.705108000000,39.587974000000,0 116.700695000000,39.590964000000,0 116.699127000000,39.595457000000,0 116.696408000000,39.595392000000,0 116.694087000000,39.601355000000,0 116.688900000000,39.598496000000,0 116.669975000000,39.603381000000,0 116.670037000000,39.604916000000,0 116.662384000000,39.605210000000,0 116.656800000000,39.602776000000,0 116.657678000000,39.600750000000,0 116.646532000000,39.599117000000,0 116.645549000000,39.602090000000,0 116.635595000000,39.604818000000,0 116.635407000000,39.599934000000,0 116.628338000000,39.599558000000,0 116.620517000000,39.601665000000,0 116.620182000000,39.606893000000,0 116.616857000000,39.607301000000,0 116.616648000000,39.614096000000,0 116.613177000000,39.613802000000,0 116.611755000000,39.618882000000,0 116.607781000000,39.619698000000,0 116.607886000000,39.624696000000,0 116.602177000000,39.624533000000,0 116.600128000000,39.619649000000,0 116.593561000000,39.618588000000,0 116.591993000000,39.621299000000,0 116.579194000000,39.623487000000,0 116.579382000000,39.619666000000,0 116.565936000000,39.619780000000,0 116.565978000000,39.616138000000,0 116.569637000000,39.611760000000,0 116.566103000000,39.611140000000,0 116.566605000000,39.604361000000,0 116.562276000000,39.601714000000,0 116.557132000000,39.601502000000,0 116.549436000000,39.596143000000,0 116.544187000000,39.596519000000,0 116.544124000000,39.603609000000,0 116.540883000000,39.601420000000,0 116.541803000000,39.593480000000,0 116.530866000000,39.596715000000,0 116.530615000000,39.598774000000,0 116.524446000000,39.596535000000,0 116.525052000000,39.593807000000,0 116.521267000000,39.590229000000,0 116.523170000000,39.586242000000,0 116.519699000000,39.581863000000,0 116.520389000000,39.577156000000,0 116.526140000000,39.577271000000,0 116.527248000000,39.572940000000,0 116.520389000000,39.571910000000,0 116.519385000000,39.566484000000,0 116.511564000000,39.565503000000,0 116.510581000000,39.560502000000,0 116.508050000000,39.560256000000,0 116.508448000000,39.551053000000,0 116.489773000000,39.550268000000,0 116.489480000000,39.553472000000,0 116.473378000000,39.553096000000,0 116.470952000000,39.554600000000,0 116.475134000000,39.545756000000,0 116.478020000000,39.543205000000,0 116.478188000000,39.535487000000,0 116.468819000000,39.534359000000,0 116.464595000000,39.531628000000,0 116.464553000000,39.527638000000,0 116.453846000000,39.528652000000,0 116.453720000000,39.526477000000,0 116.440985000000,39.527311000000,0 116.437513000000,39.526510000000,0 116.439876000000,39.523353000000,0 116.440378000000,39.516271000000,0 116.442741000000,39.516189000000,0 116.443829000000,39.509875000000,0 116.433017000000,39.507438000000,0 116.431699000000,39.510530000000,0 116.424631000000,39.509728000000,0 116.423125000000,39.516337000000,0 116.424046000000,39.522732000000,0 116.421473000000,39.525103000000,0 116.411247000000,39.524678000000,0 116.405538000000,39.528194000000,0 116.402652000000,39.526886000000,0 116.402820000000,39.514390000000,0 116.407253000000,39.512116000000,0 116.408570000000,39.508011000000,0 116.418734000000,39.506391000000,0 116.422895000000,39.496608000000,0 116.418504000000,39.496575000000,0 116.415827000000,39.488230000000,0 116.411582000000,39.485105000000,0 116.412376000000,39.482077000000,0 116.423544000000,39.485154000000,0 116.427329000000,39.487788000000,0 116.429964000000,39.481325000000,0 116.425342000000,39.481259000000,0 116.428333000000,39.476219000000,0 116.433644000000,39.478183000000,0 116.436258000000,39.482912000000,0 116.444142000000,39.482192000000,0 116.444059000000,39.478870000000,0 116.448764000000,39.476284000000,0 116.448638000000,39.465122000000,0 116.453992000000,39.457510000000,0 116.454682000000,39.453302000000,0 116.450667000000,39.452648000000,0 116.450353000000,39.448522000000,0 116.437241000000,39.445951000000,0 116.434397000000,39.442758000000,0 116.425635000000,39.446885000000,0 116.408947000000,39.450257000000,0 116.399787000000,39.450044000000,0 116.391903000000,39.452893000000,0 116.388557000000,39.450732000000,0 116.373563000000,39.452058000000,0 116.367791000000,39.451633000000,0 116.362187000000,39.454874000000,0 116.351124000000,39.455529000000,0 116.350162000000,39.452910000000,0 116.334499000000,39.457019000000,0 116.325611000000,39.462961000000,0 116.325088000000,39.466153000000,0 116.320048000000,39.468543000000,0 116.319944000000,39.473436000000,0 116.314779000000,39.476104000000,0 116.312708000000,39.480556000000,0 116.306957000000,39.485023000000,0 116.305284000000,39.489179000000,0 116.283201000000,39.493941000000,0 116.279269000000,39.491306000000,0 116.275631000000,39.495201000000,0 116.269315000000,39.495495000000,0 116.257939000000,39.500518000000,0 116.257060000000,39.505491000000,0 116.253861000000,39.510055000000,0 116.245831000000,39.514897000000,0 116.246709000000,39.520098000000,0 116.243530000000,39.524236000000,0 116.246479000000,39.525299000000,0 116.248256000000,39.530271000000,0 116.245601000000,39.530140000000,0 116.246521000000,39.539788000000,0 116.242505000000,39.552966000000,0 116.246186000000,39.557167000000,0 116.243007000000,39.558360000000,0 116.240644000000,39.564098000000,0 116.234684000000,39.563934000000,0 116.236462000000,39.568396000000,0 116.229373000000,39.565471000000,0 116.225817000000,39.568151000000,0 116.221175000000,39.578921000000,0 116.208105000000,39.577728000000,0 116.206243000000,39.583219000000,0</coordinates></LinearRing></outerBoundaryIs></Polygon>
    </Placemark>
  </Document>
</kml>
