<?xml version="1.0" encoding="UTF-8"?>
<kml xmlns="http://www.opengis.net/kml/2.2">
  <Document>
    <name>六盘水市</name>
    <Placemark>
      <name>六盘水市</name>
      <MultiGeometry><Polygon><outerBoundaryIs><LinearRing><coordinates>104.756941000000,26.765959000000,0 104.763177000000,26.733953000000,0 104.761918000000,26.717715000000,0 104.757420000000,26.708719000000,0 104.764016000000,26.698569000000,0 104.762097000000,26.691048000000,0 104.747706000000,26.685603000000,0 104.744288000000,26.667790000000,0 104.745008000000,26.646742000000,0 104.737452000000,26.635201000000,0 104.694638000000,26.609577000000,0 104.688282000000,26.600480000000,0 104.691820000000,26.580482000000,0 104.692839000000,26.558033000000,0 104.688402000000,26.543527000000,0 104.670473000000,26.536273000000,0 104.676829000000,26.520747000000,0 104.655542000000,26.518667000000,0 104.581427000000,26.543111000000,0 104.572132000000,26.540616000000,0 104.570633000000,26.524628000000,0 104.592340000000,26.522918000000,0 104.615126000000,26.508962000000,0 104.620883000000,26.497222000000,0 104.638572000000,26.478132000000,0 104.631856000000,26.461627000000,0 104.632216000000,26.451825000000,0 104.642110000000,26.439108000000,0 104.664836000000,26.434946000000,0 104.664836000000,26.419453000000,0 104.668794000000,26.409878000000,0 104.665376000000,26.396232000000,0 104.680966000000,26.378743000000,0 104.684025000000,26.369628000000,0 104.679527000000,26.363474000000,0 104.670533000000,26.364816000000,0 104.659080000000,26.355792000000,0 104.659499000000,26.335567000000,0 104.645888000000,26.330244000000,0 104.621962000000,26.328994000000,0 104.613807000000,26.322699000000,0 104.591800000000,26.317097000000,0 104.581547000000,26.295013000000,0 104.568534000000,26.281678000000,0 104.555342000000,26.273527000000,0 104.542030000000,26.253102000000,0 104.549886000000,26.216134000000,0 104.538673000000,26.207145000000,0 104.539452000000,26.197043000000,0 104.528659000000,26.175215000000,0 104.519484000000,26.168077000000,0 104.518884000000,26.132843000000,0 104.526500000000,26.121715000000,0 104.526680000000,26.100336000000,0 104.516366000000,26.085215000000,0 104.508451000000,26.082896000000,0 104.499276000000,26.070510000000,0 104.479368000000,26.077469000000,0 104.466836000000,26.087210000000,0 104.459940000000,26.085865000000,0 104.455503000000,26.076958000000,0 104.472772000000,26.053298000000,0 104.468815000000,26.033623000000,0 104.462399000000,26.029632000000,0 104.470494000000,26.009490000000,0 104.462159000000,25.996864000000,0 104.462459000000,25.985955000000,0 104.443990000000,25.959861000000,0 104.441531000000,25.948902000000,0 104.446568000000,25.942865000000,0 104.438353000000,25.927724000000,0 104.420244000000,25.918573000000,0 104.414548000000,25.909886000000,0 104.418445000000,25.892743000000,0 104.430918000000,25.896739000000,0 104.435715000000,25.892650000000,0 104.437514000000,25.875737000000,0 104.441891000000,25.869138000000,0 104.429658000000,25.858031000000,0 104.423602000000,25.842182000000,0 104.430918000000,25.825773000000,0 104.428099000000,25.818428000000,0 104.416167000000,25.811640000000,0 104.411489000000,25.796994000000,0 104.402675000000,25.798110000000,0 104.403814000000,25.786578000000,0 104.397938000000,25.761556000000,0 104.391102000000,25.760905000000,0 104.385525000000,25.746066000000,0 104.373113000000,25.731598000000,0 104.365497000000,25.730388000000,0 104.351945000000,25.739740000000,0 104.353145000000,25.745508000000,0 104.328859000000,25.760486000000,0 104.324602000000,25.748951000000,0 104.327600000000,25.737088000000,0 104.322263000000,25.732668000000,0 104.323463000000,25.703401000000,0 104.316267000000,25.683901000000,0 104.314948000000,25.666306000000,0 104.308532000000,25.660534000000,0 104.311710000000,25.647126000000,0 104.324722000000,25.640701000000,0 104.314468000000,25.631016000000,0 104.331018000000,25.615602000000,0 104.329759000000,25.603586000000,0 104.335455000000,25.598090000000,0 104.360460000000,25.599627000000,0 104.369515000000,25.593619000000,0 104.368495000000,25.577548000000,0 104.381807000000,25.585980000000,0 104.389123000000,25.595482000000,0 104.412809000000,25.585374000000,0 104.421743000000,25.584675000000,0 104.428399000000,25.576057000000,0 104.423182000000,25.563805000000,0 104.434216000000,25.555465000000,0 104.436134000000,25.520422000000,0 104.431637000000,25.504248000000,0 104.418685000000,25.499353000000,0 104.430318000000,25.486720000000,0 104.434695000000,25.472220000000,0 104.446448000000,25.476463000000,0 104.449686000000,25.495065000000,0 104.483566000000,25.494785000000,0 104.499396000000,25.507231000000,0 104.507791000000,25.509655000000,0 104.515646000000,25.521587000000,0 104.524521000000,25.526807000000,0 104.547787000000,25.516646000000,0 104.543590000000,25.524896000000,0 104.549406000000,25.529836000000,0 104.557021000000,25.524103000000,0 104.553304000000,25.515388000000,0 104.556002000000,25.503828000000,0 104.551145000000,25.485415000000,0 104.551205000000,25.473852000000,0 104.543649000000,25.464014000000,0 104.545688000000,25.444941000000,0 104.544249000000,25.419522000000,0 104.538852000000,25.410145000000,0 104.543290000000,25.400815000000,0 104.560859000000,25.394797000000,0 104.567755000000,25.402914000000,0 104.593599000000,25.387845000000,0 104.591261000000,25.384812000000,0 104.616026000000,25.364606000000,0 104.636114000000,25.365166000000,0 104.645828000000,25.356813000000,0 104.654822000000,25.360033000000,0 104.659499000000,25.374313000000,0 104.664536000000,25.377766000000,0 104.683965000000,25.362646000000,0 104.690501000000,25.347805000000,0 104.687802000000,25.333102000000,0 104.692420000000,25.328574000000,0 104.710409000000,25.334969000000,0 104.754962000000,25.340384000000,0 104.783864000000,25.337163000000,0 104.822241000000,25.341971000000,0 104.834054000000,25.348925000000,0 104.849824000000,25.367780000000,0 104.870752000000,25.351306000000,0 104.886882000000,25.362226000000,0 104.888801000000,25.368246000000,0 104.880946000000,25.374546000000,0 104.869073000000,25.375853000000,0 104.855761000000,25.383692000000,0 104.850484000000,25.402728000000,0 104.850604000000,25.414437000000,0 104.860018000000,25.442982000000,0 104.872671000000,25.460936000000,0 104.892818000000,25.480286000000,0 104.913146000000,25.517019000000,0 104.911767000000,25.541113000000,0 104.914345000000,25.550153000000,0 104.902832000000,25.557049000000,0 104.888261000000,25.556770000000,0 104.880046000000,25.564783000000,0 104.881845000000,25.589101000000,0 104.876688000000,25.600512000000,0 104.863136000000,25.614391000000,0 104.861577000000,25.621516000000,0 104.870812000000,25.633018000000,0 104.896056000000,25.650338000000,0 104.901333000000,25.659090000000,0 104.909189000000,25.688927000000,0 104.904691000000,25.709962000000,0 104.877887000000,25.744392000000,0 104.870092000000,25.774905000000,0 104.872851000000,25.780299000000,0 104.873150000000,25.805875000000,0 104.884963000000,25.822333000000,0 104.888501000000,25.837348000000,0 104.901093000000,25.848550000000,0 104.911047000000,25.846923000000,0 104.932994000000,25.864817000000,0 104.947445000000,25.868860000000,0 104.948405000000,25.897807000000,0 104.944327000000,25.906867000000,0 104.951163000000,25.920152000000,0 104.936532000000,25.928699000000,0 104.930056000000,25.940589000000,0 104.940610000000,25.964087000000,0 104.940070000000,25.974673000000,0 104.949604000000,26.000206000000,0 104.955541000000,26.009211000000,0 104.959978000000,26.044806000000,0 104.970891000000,26.055478000000,0 104.976828000000,26.066288000000,0 104.988341000000,26.068422000000,0 105.011966000000,26.091523000000,0 104.999974000000,26.120741000000,0 105.004531000000,26.133029000000,0 105.019162000000,26.148839000000,0 105.032714000000,26.156256000000,0 105.052142000000,26.172665000000,0 105.063355000000,26.168772000000,0 105.065874000000,26.162514000000,0 105.090819000000,26.158528000000,0 105.104371000000,26.164646000000,0 105.124698000000,26.163997000000,0 105.138610000000,26.150600000000,0 105.158518000000,26.174566000000,0 105.187720000000,26.173824000000,0 105.188020000000,26.163627000000,0 105.177526000000,26.158713000000,0 105.180764000000,26.149534000000,0 105.175248000000,26.119396000000,0 105.188860000000,26.103490000000,0 105.193956000000,26.084241000000,0 105.188740000000,26.066891000000,0 105.209187000000,26.045270000000,0 105.220161000000,26.022903000000,0 105.227776000000,25.996725000000,0 105.236291000000,25.985722000000,0 105.249843000000,25.979687000000,0 105.254220000000,25.985490000000,0 105.248583000000,25.991479000000,0 105.261176000000,26.008561000000,0 105.277486000000,26.012321000000,0 105.299673000000,26.008097000000,0 105.359097000000,26.018076000000,0 105.383862000000,26.012692000000,0 105.408567000000,26.016916000000,0 105.428175000000,26.016498000000,0 105.452820000000,26.019283000000,0 105.498992000000,26.030328000000,0 105.509366000000,26.039006000000,0 105.527055000000,26.060535000000,0 105.547083000000,26.074963000000,0 105.567171000000,26.077747000000,0 105.582462000000,26.066056000000,0 105.592296000000,26.062438000000,0 105.598712000000,26.074314000000,0 105.605008000000,26.113507000000,0 105.613403000000,26.135069000000,0 105.607227000000,26.154309000000,0 105.611724000000,26.160335000000,0 105.620838000000,26.157554000000,0 105.630912000000,26.141931000000,0 105.646323000000,26.143600000000,0 105.669469000000,26.135301000000,0 105.668749000000,26.147680000000,0 105.680322000000,26.156349000000,0 105.679363000000,26.162746000000,0 105.690157000000,26.169189000000,0 105.701789000000,26.170209000000,0 105.709345000000,26.164693000000,0 105.722837000000,26.170162000000,0 105.715761000000,26.188887000000,0 105.704308000000,26.181750000000,0 105.680442000000,26.200658000000,0 105.661674000000,26.208535000000,0 105.633611000000,26.207053000000,0 105.604588000000,26.209091000000,0 105.591576000000,26.222945000000,0 105.591756000000,26.232072000000,0 105.568610000000,26.224520000000,0 105.558656000000,26.231284000000,0 105.542586000000,26.222157000000,0 105.531193000000,26.221879000000,0 105.533351000000,26.233091000000,0 105.524776000000,26.236658000000,0 105.512064000000,26.223733000000,0 105.502650000000,26.229570000000,0 105.492216000000,26.245830000000,0 105.473328000000,26.259819000000,0 105.471469000000,26.283298000000,0 105.485740000000,26.296865000000,0 105.487779000000,26.315153000000,0 105.493955000000,26.333114000000,0 105.500011000000,26.340890000000,0 105.518540000000,26.354404000000,0 105.537909000000,26.359679000000,0 105.527115000000,26.381658000000,0 105.514283000000,26.414642000000,0 105.513443000000,26.430738000000,0 105.501511000000,26.439385000000,0 105.454979000000,26.438969000000,0 105.442326000000,26.442345000000,0 105.428535000000,26.458806000000,0 105.399872000000,26.459407000000,0 105.378165000000,26.464817000000,0 105.368031000000,26.479657000000,0 105.358857000000,26.471058000000,0 105.341107000000,26.493016000000,0 105.350462000000,26.499441000000,0 105.353880000000,26.509424000000,0 105.331333000000,26.511689000000,0 105.319940000000,26.526338000000,0 105.295295000000,26.532391000000,0 105.281504000000,26.518667000000,0 105.254400000000,26.520007000000,0 105.248344000000,26.524074000000,0 105.218362000000,26.533916000000,0 105.208468000000,26.544451000000,0 105.212965000000,26.566210000000,0 105.211406000000,26.575263000000,0 105.194736000000,26.581545000000,0 105.183643000000,26.590689000000,0 105.169012000000,26.590366000000,0 105.147485000000,26.576695000000,0 105.140589000000,26.581221000000,0 105.134412000000,26.602188000000,0 105.123559000000,26.612440000000,0 105.126797000000,26.625552000000,0 105.114085000000,26.620982000000,0 105.109108000000,26.624029000000,0 105.100113000000,26.642218000000,0 105.086921000000,26.649558000000,0 105.094057000000,26.656389000000,0 105.095196000000,26.673143000000,0 105.080925000000,26.698477000000,0 105.079725000000,26.721175000000,0 105.094477000000,26.741425000000,0 105.094656000000,26.750141000000,0 105.084583000000,26.762916000000,0 105.056280000000,26.770017000000,0 105.052382000000,26.779146000000,0 105.065934000000,26.786846000000,0 105.066174000000,26.792102000000,0 105.047285000000,26.809389000000,0 105.011487000000,26.816164000000,0 104.997215000000,26.830221000000,0 104.999134000000,26.845844000000,0 105.020901000000,26.864366000000,0 105.025158000000,26.879753000000,0 105.018682000000,26.917752000000,0 104.998355000000,26.914574000000,0 104.969092000000,26.903521000000,0 104.947625000000,26.883208000000,0 104.936712000000,26.865702000000,0 104.925858000000,26.843355000000,0 104.916444000000,26.832295000000,0 104.900794000000,26.831051000000,0 104.872731000000,26.850359000000,0 104.866734000000,26.857179000000,0 104.863016000000,26.871830000000,0 104.854502000000,26.881872000000,0 104.845207000000,26.886387000000,0 104.829916000000,26.880583000000,0 104.820862000000,26.861740000000,0 104.800714000000,26.844507000000,0 104.796097000000,26.828839000000,0 104.783924000000,26.815657000000,0 104.771692000000,26.807360000000,0 104.756701000000,26.789336000000,0 104.756941000000,26.765959000000,0</coordinates></LinearRing></outerBoundaryIs></Polygon><Polygon><outerBoundaryIs><LinearRing><coordinates>104.705312000000,26.802336000000,0 104.700515000000,26.842941000000,0 104.696557000000,26.852064000000,0 104.684205000000,26.852387000000,0 104.667355000000,26.839392000000,0 104.651464000000,26.836719000000,0 104.647687000000,26.855013000000,0 104.639112000000,26.863399000000,0 104.629937000000,26.824414000000,0 104.626819000000,26.819621000000,0 104.603373000000,26.801598000000,0 104.597137000000,26.788321000000,0 104.604213000000,26.772276000000,0 104.602834000000,26.761486000000,0 104.591740000000,26.747328000000,0 104.598336000000,26.738150000000,0 104.628019000000,26.731554000000,0 104.650925000000,26.733076000000,0 104.655182000000,26.743362000000,0 104.662198000000,26.745022000000,0 104.680667000000,26.767342000000,0 104.682526000000,26.776057000000,0 104.705312000000,26.802336000000,0</coordinates></LinearRing></outerBoundaryIs></Polygon></MultiGeometry>
    </Placemark>
  </Document>
</kml>
