<?xml version="1.0" encoding="UTF-8"?>
<kml xmlns="http://www.opengis.net/kml/2.2">
<Document>
<name>贵州省_全省轮廓</name>
<Placemark><name>贵州省_全省轮廓</name><MultiGeometry><Polygon><outerBoundaryIs><LinearRing><coordinates>105.081943999999993,24.915631999999999,0 105.098733999999993,24.929120999999999,0 105.100172999999998,24.924765000000001,0 105.089259999999996,24.915210999999999,0 105.081943999999993,24.915631999999999,0</coordinates></LinearRing></outerBoundaryIs></Polygon><Polygon><outerBoundaryIs><LinearRing><coordinates>106.463569000000007,25.040302000000001,0 106.449956999999998,25.033235999999999,0 106.445279999999997,25.022333,0 106.435745999999995,25.017745999999999,0 106.411640000000006,25.012177000000001,0 106.406064000000001,25.005624000000001,0 106.388673999999995,25.005389999999998,0 106.369906,24.998837999999999,0 106.353655000000003,24.990224999999999,0 106.332487999999998,24.988492999999998,0 106.316357999999994,24.983108999999999,0 106.304964999999996,24.974074000000002,0 106.278581000000003,24.97927,0 106.261491000000007,24.977350999999999,0 106.253755999999996,24.971218,0 106.242182999999997,24.972107000000001,0 106.228211000000002,24.980207,0 106.215378999999999,24.981845,0 106.196910000000003,24.963118000000001,0 106.191632999999996,24.953426,0 106.183238000000003,24.951692999999999,0 106.175382999999997,24.95675,0 106.153017000000006,24.960964000000001,0 106.145341000000002,24.954034,0 106.149899000000005,24.944434999999999,0 106.164289999999994,24.934460000000001,0 106.167648,24.924719,0 106.182338999999999,24.903734,0 106.192113000000006,24.896989000000001,0 106.197509999999994,24.885791999999999,0 106.196489999999997,24.872064000000002,0 106.204046000000005,24.861426999999999,0 106.206085000000002,24.851071000000001,0 106.200327999999999,24.839776000000001,0 106.197329999999994,24.813433,0 106.185216999999994,24.801151000000001,0 106.188035999999997,24.790789,0 106.170226,24.758338999999999,0 106.149899000000005,24.762841999999999,0 106.143242999999998,24.756698,0 106.138864999999996,24.737092000000001,0 106.133588000000003,24.729821999999999,0 106.119016999999999,24.725131000000001,0 106.113561000000004,24.714058999999999,0 106.097250000000003,24.705942,0 106.084118000000004,24.705192,0 106.065828999999994,24.697261999999998,0 106.047060999999999,24.684076000000001,0 106.046221000000003,24.673141999999999,0 106.039265,24.655588000000002,0 106.023195000000001,24.632352000000001,0 106.014320999999995,24.634229999999999,0 105.990094999999997,24.649252000000001,0 105.985838000000001,24.661408999999999,0 105.961851999999993,24.677553,0 105.953038000000006,24.688112,0 105.946501999999995,24.703972,0 105.942003999999997,24.724802,0 105.904947000000007,24.725224000000001,0 105.892294000000007,24.722784999999998,0 105.880841000000004,24.730430999999999,0 105.864110999999994,24.729493000000002,0 105.856076000000002,24.716874000000001,0 105.827592999999993,24.702939000000001,0 105.805466999999993,24.701532,0 105.795213000000004,24.704816000000001,0 105.766250999999997,24.720344999999998,0 105.758934999999994,24.734935,0 105.737768000000003,24.742439999999998,0 105.725054999999998,24.755431999999999,0 105.705686999999998,24.768469,0 105.678284000000005,24.775597000000001,0 105.650401000000002,24.772174,0 105.626114999999999,24.777190999999998,0 105.614362,24.785585000000001,0 105.607646000000003,24.803729000000001,0 105.590557000000004,24.807573000000001,0 105.572867000000002,24.797305999999999,0 105.544325000000001,24.798525000000001,0 105.523336999999998,24.801573000000001,0 105.497493000000006,24.809355,0 105.493235999999996,24.816668,0 105.492816000000005,24.833355000000001,0 105.484481000000002,24.846900000000002,0 105.470989000000003,24.852664000000001,0 105.456598,24.877873999999998,0 105.448503000000002,24.910713999999999,0 105.443166000000005,24.921862000000001,0 105.428174999999996,24.930713000000001,0 105.391836999999995,24.941624999999998,0 105.365633000000003,24.943498000000002,0 105.339009000000004,24.933382999999999,0 105.333972000000003,24.926358,0 105.308847,24.923969,0 105.280063999999996,24.929449000000002,0 105.265493000000006,24.930198000000001,0 105.257638,24.942094000000001,0 105.263993999999997,24.956235,0 105.251521999999994,24.967426,0 105.234791999999999,24.965599999999998,0 105.231133999999997,24.980909,0 105.215243999999998,24.981283000000001,0 105.212665000000001,24.995374000000002,0 105.195994999999996,24.994672000000001,0 105.178486000000007,24.985403000000002,0 105.157258999999996,24.958856999999998,0 105.145505999999997,24.964663000000002,0 105.132493999999994,24.961386000000001,0 105.125237999999996,24.946214000000001,0 105.108987999999997,24.939423999999999,0 105.100292999999994,24.931182,0 105.075168000000005,24.916709000000001,0 105.070430999999999,24.894974000000001,0 105.038830000000004,24.873000999999999,0 105.036911000000003,24.865644,0 105.041708,24.853975999999999,0 105.037751,24.834057999999999,0 105.026776999999996,24.81559,0 105.034153000000003,24.795431000000001,0 105.033372999999997,24.787787999999999,0 105.017062999999993,24.785302999999999,0 104.982523999999998,24.770439,0 104.899354000000002,24.752946000000001,0 104.875729000000007,24.73986,0 104.866254999999995,24.730665999999999,0 104.860438000000002,24.701532,0 104.841909000000001,24.676192,0 104.822961000000006,24.670373000000001,0 104.810608000000002,24.671686999999999,0 104.803173000000001,24.665725999999999,0 104.764256000000003,24.657043000000002,0 104.751304000000005,24.647138999999999,0 104.743388999999993,24.622257999999999,0 104.729477000000003,24.618220000000001,0 104.708969999999994,24.624182999999999,0 104.698955999999995,24.632728,0 104.703632999999996,24.645824999999999,0 104.697935999999999,24.649391999999999,0 104.666094999999999,24.656903,0 104.632994999999994,24.659203000000002,0 104.628798000000003,24.661173999999999,0 104.599776000000006,24.696041999999998,0 104.594019000000003,24.710305999999999,0 104.574350999999993,24.714058999999999,0 104.558580000000006,24.727803999999999,0 104.529437999999999,24.731415999999999,0 104.528659000000005,24.736810999999999,0 104.542389999999997,24.755807000000001,0 104.540470999999997,24.764904999999999,0 104.544968999999995,24.777754000000002,0 104.537113000000005,24.793274,0 104.541431000000003,24.804901000000001,0 104.539811999999998,24.813855,0 104.562358000000003,24.839026,0 104.570993000000001,24.844087999999999,0 104.587002999999996,24.872907000000001,0 104.596298000000004,24.88448,0 104.608289999999997,24.892351000000001,0 104.618724,24.893944000000001,0 104.635394000000005,24.903922000000001,0 104.638692000000006,24.918254999999998,0 104.651403999999999,24.934601000000001,0 104.651284000000004,24.940314000000001,0 104.663937000000004,24.951084000000002,0 104.663456999999994,24.963118000000001,0 104.687022999999996,24.974962999999999,0 104.685224000000005,24.985496999999999,0 104.700694999999996,24.994765000000001,0 104.712986999999998,24.996216,0 104.706871000000007,25.010117999999999,0 104.700575000000001,25.036325000000001,0 104.683785,25.054853999999999,0 104.673710999999997,25.05855,0 104.652063999999996,25.058924000000001,0 104.635934000000006,25.054713,0 104.619563999999997,25.060655000000001,0 104.647266999999999,25.061684,0 104.671013000000002,25.066783000000001,0 104.686482999999996,25.076232999999998,0 104.686302999999995,25.095690999999999,0 104.693139000000002,25.102893999999999,0 104.696376999999998,25.123376,0 104.718264000000005,25.140910000000002,0 104.718863999999996,25.152691000000001,0 104.732354999999998,25.16779,0 104.734634,25.182233,0 104.724559999999997,25.195692999999999,0 104.731936000000005,25.204944999999999,0 104.740809999999996,25.206581,0 104.750643999999994,25.215039000000001,0 104.767194000000003,25.204431,0 104.777327999999997,25.186392999999999,0 104.787582,25.179241999999999,0 104.804732000000001,25.161667000000001,0 104.818642999999994,25.160170999999998,0 104.823020999999997,25.171296000000002,0 104.808628999999996,25.190318000000001,0 104.815825000000004,25.198357000000001,0 104.808210000000003,25.215786000000001,0 104.810128000000006,25.231718000000001,0 104.827997999999994,25.237090999999999,0 104.817384000000004,25.261054000000001,0 104.805991000000006,25.262829,0 104.796637000000004,25.253533999999998,0 104.788482000000002,25.256757,0 104.779966999999999,25.270021,0 104.766475,25.276513000000001,0 104.754182,25.275905999999999,0 104.757180000000005,25.266378,0 104.735893000000004,25.267873000000002,0 104.729776999999999,25.273664,0 104.709569000000002,25.281790000000001,0 104.707890000000006,25.296219000000001,0 104.671192000000005,25.293464,0 104.662018000000003,25.284825999999999,0 104.641030999999998,25.294819,0 104.640071000000006,25.298928,0 104.652843000000004,25.304998000000001,0 104.645768000000004,25.316389000000001,0 104.647327000000004,25.343791,0 104.645827999999995,25.356812999999999,0 104.636114000000006,25.365165999999999,0 104.616026000000005,25.364605999999998,0 104.591261000000003,25.384812,0 104.593598999999998,25.387844999999999,0 104.567755000000005,25.402913999999999,0 104.560858999999994,25.394797000000001,0 104.543289999999999,25.400815000000001,0 104.538852000000006,25.410145,0 104.544248999999994,25.419522000000001,0 104.545687999999998,25.444941,0 104.543649000000002,25.464013999999999,0 104.551204999999996,25.473852000000001,0 104.551145000000005,25.485415,0 104.556002000000007,25.503827999999999,0 104.553303999999997,25.515388000000002,0 104.557021000000006,25.524103,0 104.549406000000005,25.529836,0 104.543589999999995,25.524895999999998,0 104.547787,25.516646000000001,0 104.524520999999993,25.526807000000002,0 104.515646000000004,25.521587,0 104.507790999999997,25.509654999999999,0 104.499396000000004,25.507231000000001,0 104.483565999999996,25.494785,0 104.449686,25.495065,0 104.446448000000004,25.476462999999999,0 104.434695000000005,25.47222,0 104.430318,25.486719999999998,0 104.418684999999996,25.499352999999999,0 104.431636999999995,25.504248,0 104.436133999999996,25.520422,0 104.434216000000006,25.555465000000002,0 104.423181999999997,25.563804999999999,0 104.428398999999999,25.576056999999999,0 104.421743000000006,25.584675000000001,0 104.412808999999996,25.585374000000002,0 104.389122999999998,25.595482000000001,0 104.381806999999995,25.585979999999999,0 104.368494999999996,25.577548,0 104.369515000000007,25.593619,0 104.360460000000003,25.599627000000002,0 104.335454999999996,25.598089999999999,0 104.329758999999996,25.603586,0 104.331018,25.615601999999999,0 104.314468000000005,25.631015999999999,0 104.324721999999994,25.640701,0 104.311710000000005,25.647126,0 104.308532,25.660533999999998,0 104.314948000000001,25.666305999999999,0 104.316266999999996,25.683900999999999,0 104.323463000000004,25.703400999999999,0 104.322263000000007,25.732668,0 104.327600000000004,25.737088,0 104.324601999999999,25.748951000000002,0 104.328858999999994,25.760486,0 104.353144999999998,25.745508000000001,0 104.351945000000001,25.739740000000001,0 104.365497000000005,25.730388000000001,0 104.373113000000004,25.731598000000002,0 104.385525000000001,25.746065999999999,0 104.391102000000004,25.760905000000001,0 104.397937999999996,25.761555999999999,0 104.403813999999997,25.786577999999999,0 104.402675000000002,25.798110000000001,0 104.411489000000003,25.796994000000002,0 104.416167000000002,25.811640000000001,0 104.428099000000003,25.818428000000001,0 104.430918000000005,25.825773000000002,0 104.423602000000002,25.842182000000001,0 104.429658000000003,25.858031,0 104.441890999999998,25.869138,0 104.437513999999993,25.875737000000001,0 104.435715000000002,25.89265,0 104.430918000000005,25.896739,0 104.418445000000006,25.892742999999999,0 104.414547999999996,25.909886,0 104.420243999999997,25.918572999999999,0 104.438353000000006,25.927724000000001,0 104.446567999999999,25.942865000000001,0 104.441530999999998,25.948902,0 104.443989999999999,25.959861,0 104.462458999999996,25.985955000000001,0 104.462159,25.996863999999999,0 104.470494000000002,26.00949,0 104.462399000000005,26.029631999999999,0 104.468815000000006,26.033622999999999,0 104.472772000000006,26.053298000000002,0 104.455502999999993,26.076958000000001,0 104.459940000000003,26.085864999999998,0 104.466836000000001,26.087209999999999,0 104.479367999999994,26.077469000000001,0 104.499275999999995,26.070509999999999,0 104.508450999999994,26.082896000000002,0 104.516366000000005,26.085215000000002,0 104.526679999999999,26.100335999999999,0 104.526499999999999,26.121714999999998,0 104.518884,26.132843000000001,0 104.519484000000006,26.168077,0 104.528659000000005,26.175215000000001,0 104.539451999999997,26.197043000000001,0 104.538673000000003,26.207145000000001,0 104.549886000000001,26.216134,0 104.542029999999997,26.253101999999998,0 104.555341999999996,26.273527000000001,0 104.568534,26.281677999999999,0 104.581547,26.295013000000001,0 104.591800000000006,26.317097,0 104.613806999999994,26.322699,0 104.621961999999996,26.328994000000002,0 104.645887999999999,26.330244,0 104.659498999999997,26.335567000000001,0 104.659080000000003,26.355792000000001,0 104.670533000000006,26.364816000000001,0 104.679526999999993,26.363474,0 104.684025000000005,26.369627999999999,0 104.680965999999998,26.378743,0 104.665375999999995,26.396232000000001,0 104.668794000000005,26.409877999999999,0 104.664835999999994,26.419453000000001,0 104.664835999999994,26.434946,0 104.642110000000002,26.439108000000001,0 104.632216,26.451824999999999,0 104.631855999999999,26.461627,0 104.638571999999996,26.478131999999999,0 104.620883000000006,26.497222000000001,0 104.615126000000004,26.508962,0 104.592339999999993,26.522918000000001,0 104.570633000000001,26.524628,0 104.572131999999996,26.540616,0 104.581666999999996,26.556692999999999,0 104.579688000000004,26.568057,0 104.572192000000001,26.569305,0 104.571413000000007,26.578264999999998,0 104.556541999999993,26.590412000000001,0 104.542990000000003,26.584778,0 104.501615000000001,26.58935,0 104.487522999999996,26.579559,0 104.463958000000005,26.595123000000001,0 104.459519999999998,26.603435000000001,0 104.459101000000004,26.622043999999999,0 104.467855,26.644525999999999,0 104.457901000000007,26.663636,0 104.442729999999997,26.672588999999999,0 104.441771000000003,26.686986999999998,0 104.434156000000002,26.697738000000001,0 104.423602000000002,26.704936,0 104.421262999999996,26.712040999999999,0 104.398837,26.707704,0 104.398177000000004,26.685880000000001,0 104.381686999999999,26.663450999999998,0 104.379887999999994,26.648819,0 104.365016999999995,26.642726,0 104.362978999999996,26.631601,0 104.353205000000003,26.620750999999998,0 104.328858999999994,26.619458000000002,0 104.312669,26.612763000000001,0 104.300616000000005,26.630215,0 104.274951999999999,26.633724000000001,0 104.272792999999993,26.621074,0 104.256782999999999,26.619226999999999,0 104.248928000000006,26.626844999999999,0 104.238373999999993,26.627075999999999,0 104.229859000000005,26.619873999999999,0 104.205573999999999,26.625830000000001,0 104.191602000000003,26.634370000000001,0 104.174333000000004,26.635248000000001,0 104.160601,26.646788000000001,0 104.140812999999994,26.641849000000001,0 104.129599999999996,26.643926,0 104.121025000000003,26.637786999999999,0 104.113230000000001,26.623937000000002,0 104.097879000000006,26.605052000000001,0 104.093861000000004,26.59637,0 104.079769999999996,26.580344,0 104.068556999999998,26.573369,0 104.064479000000006,26.560389000000001,0 104.071015000000003,26.541077999999999,0 104.072035,26.519129,0 104.052546000000007,26.507206,0 104.042591999999999,26.514323000000001,0 104.008713,26.511735000000002,0 104.000917999999999,26.519684000000002,0 103.972435000000004,26.516449000000001,0 103.955164999999994,26.521578000000002,0 103.925483,26.516725999999998,0 103.917748000000003,26.513445000000001,0 103.897419999999997,26.514184,0 103.887345999999994,26.517603999999999,0 103.865639000000002,26.512243000000002,0 103.843812999999997,26.530819999999999,0 103.820785999999998,26.528648,0 103.815449999999998,26.532806999999998,0 103.810952,26.55406,0 103.798720000000003,26.567318,0 103.767898000000002,26.581637000000001,0 103.769696999999994,26.602789000000001,0 103.748469999999998,26.625599000000001,0 103.761003000000002,26.649004000000001,0 103.758483999999996,26.665436,0 103.759383999999997,26.689433000000001,0 103.767778000000007,26.697831000000001,0 103.767778000000007,26.707889000000002,0 103.773354999999995,26.716885000000001,0 103.769158000000004,26.73386,0 103.763761000000002,26.737919000000002,0 103.749968999999993,26.725926000000001,0 103.737196999999995,26.728648,0 103.725443999999996,26.742808,0 103.724723999999995,26.754061,0 103.718907999999999,26.761624000000001,0 103.720406999999994,26.771723000000001,0 103.705656000000005,26.794730000000001,0 103.703078000000005,26.815335000000001,0 103.707335,26.828976999999998,0 103.715310000000002,26.830681999999999,0 103.724125000000001,26.841650000000001,0 103.722206,26.851419,0 103.730901000000003,26.85575,0 103.752307999999999,26.860174000000001,0 103.761961999999997,26.866071000000002,0 103.774015000000006,26.866945999999999,0 103.779471000000001,26.875745999999999,0 103.767658999999995,26.891361,0 103.763581000000002,26.905546999999999,0 103.765199999999993,26.916876999999999,0 103.777192999999997,26.934972999999999,0 103.775093999999996,26.950949000000001,0 103.754166999999995,26.963148,0 103.753446999999994,26.973044999999999,0 103.744811999999996,26.992650999999999,0 103.734499,27.004384999999999,0 103.730660999999998,27.021087999999999,0 103.714770000000001,27.035533000000001,0 103.705116000000004,27.049102999999999,0 103.675613999999996,27.051679,0 103.655646000000004,27.032036999999999,0 103.653907000000004,27.022881999999999,0 103.638616999999996,27.013266000000002,0 103.622485999999995,27.006824000000002,0 103.613731999999999,27.009354999999999,0 103.628123000000002,27.016119,0 103.623686000000006,27.035349,0 103.618228999999999,27.034980999999998,0 103.607135999999997,27.047308999999998,0 103.601438999999999,27.062166000000001,0 103.608635000000007,27.065660999999999,0 103.617929000000004,27.079825,0 103.628362999999993,27.072651,0 103.647790999999998,27.065569,0 103.659844000000007,27.065798999999998,0 103.653307999999996,27.092562000000001,0 103.641194999999996,27.089987000000001,0 103.620447999999996,27.096746,0 103.624525000000006,27.112193000000001,0 103.633520000000004,27.120376,0 103.650189999999995,27.12557,0 103.661462999999998,27.122996000000001,0 103.674715000000006,27.131086,0 103.696181999999993,27.126673,0 103.711591999999996,27.142530000000001,0 103.706614999999999,27.157281999999999,0 103.719508000000005,27.161234,0 103.728201999999996,27.179152999999999,0 103.737437,27.185631000000001,0 103.745831999999993,27.198630999999999,0 103.749609000000007,27.211309,0 103.764600000000002,27.212043999999999,0 103.781570000000002,27.229955,0 103.791284000000005,27.244052,0 103.789186000000001,27.253050999999999,0 103.801357999999993,27.250710000000002,0 103.802318,27.267284,0 103.824923999999996,27.264161999999999,0 103.841414,27.272746000000001,0 103.845490999999996,27.287527000000001,0 103.865459000000001,27.281742999999999,0 103.865578999999997,27.303131,0 103.872474999999994,27.305105000000001,0 103.874033999999995,27.330387999999999,0 103.885727000000003,27.330708999999999,0 103.903296999999995,27.347958999999999,0 103.904855999999995,27.38456,0 103.913309999999996,27.388458,0 103.914510000000007,27.396666,0 103.925363000000004,27.413218000000001,0 103.932439000000002,27.443930999999999,0 103.943951999999996,27.434305999999999,0 103.956005000000005,27.433114,0 103.956484000000003,27.425367000000001,0 103.975493,27.422844999999999,0 103.979810000000001,27.417207000000001,0 103.992643000000001,27.419727999999999,0 104.006134000000003,27.430133999999999,0 104.015248999999997,27.429262999999999,0 104.016447999999997,27.412347,0 104.019806000000003,27.410972000000001,0 104.019925999999998,27.377177,0 104.039534000000003,27.362638,0 104.057822999999999,27.355619999999998,0 104.0625,27.347684000000001,0 104.080370000000002,27.338784,0 104.083488000000003,27.331534999999999,0 104.113828999999996,27.338004000000002,0 104.118865999999997,27.330113000000001,0 104.134217000000007,27.322313000000001,0 104.131518999999997,27.306619000000001,0 104.142431999999999,27.296476999999999,0 104.149268000000006,27.283901,0 104.174153000000004,27.263013999999998,0 104.189922999999993,27.277933999999998,0 104.190462999999994,27.287710000000001,0 104.208872,27.278117000000002,0 104.219185999999993,27.279861,0 104.219126000000003,27.286791999999998,0 104.210851000000005,27.297211000000001,0 104.223382999999998,27.299092999999999,0 104.230458999999996,27.291245,0 104.251086000000001,27.300239999999999,0 104.259900999999999,27.308316999999999,0 104.249587000000005,27.319742999999999,0 104.247848000000005,27.336444,0 104.270454999999998,27.360939999999999,0 104.279388999999995,27.361765999999999,0 104.27825,27.372315,0 104.284065999999996,27.367362,0 104.295818999999995,27.374654,0 104.308830999999998,27.407257999999999,0 104.322383000000002,27.407854,0 104.335155999999998,27.427705,0 104.342050999999998,27.427246,0 104.342651000000004,27.436322000000001,0 104.332757000000001,27.444023000000001,0 104.344269999999995,27.452914,0 104.345348999999999,27.462813000000001,0 104.362258999999995,27.467853999999999,0 104.402434999999997,27.455113999999998,0 104.410169999999994,27.457909999999998,0 104.409451000000004,27.445305999999999,0 104.416585999999995,27.435542999999999,0 104.428999000000005,27.434350999999999,0 104.435955000000007,27.425962999999999,0 104.447528000000005,27.426375,0 104.461319000000003,27.420645,0 104.467196000000001,27.414273000000001,0 104.497057999999996,27.414501999999999,0 104.490881000000002,27.401893000000001,0 104.504433000000006,27.397171,0 104.517264999999995,27.400334000000001,0 104.507671000000002,27.387495000000001,0 104.522782000000007,27.365068999999998,0 104.522301999999996,27.354334999999999,0 104.545388000000003,27.330067,0 104.570212999999995,27.331717999999999,0 104.588381999999996,27.323001000000001,0 104.594798999999995,27.311299999999999,0 104.612487999999999,27.307216,0 104.630776999999995,27.317862000000002,0 104.656380999999996,27.321899999999999,0 104.664356999999995,27.316714999999999,0 104.680667,27.323964,0 104.686183,27.334838000000001,0 104.694158999999999,27.333507999999998,0 104.721382000000006,27.342454,0 104.735652999999999,27.334655000000001,0 104.754362,27.345389999999998,0 104.767613999999995,27.330249999999999,0 104.771032000000005,27.317402999999999,0 104.789141000000001,27.321073999999999,0 104.790220000000005,27.330434,0 104.808628999999996,27.354565000000001,0 104.826078999999993,27.352316999999999,0 104.835913000000005,27.343509000000001,0 104.843888000000007,27.343233999999999,0 104.856539999999995,27.33259,0 104.848865000000004,27.320340000000002,0 104.850543999999999,27.304324000000001,0 104.871230999999995,27.290876999999998,0 104.878967000000003,27.297302999999999,0 104.891919000000001,27.299780999999999,0 104.894077999999993,27.305517999999999,0 104.904990999999995,27.307445000000001,0 104.913145999999998,27.326809000000001,0 104.937072000000001,27.337039999999998,0 104.943787999999998,27.346675000000001,0 104.963994999999997,27.357913,0 104.970651000000004,27.357638000000001,0 104.999853999999999,27.372223999999999,0 105.012085999999996,27.380248999999999,0 105.032293999999993,27.400563999999999,0 105.045426000000006,27.396162,0 105.046925000000002,27.407440999999999,0 105.057659000000001,27.409367,0 105.067132999999998,27.417940000000002,0 105.089859000000004,27.417940000000002,0 105.099333999999999,27.411384000000002,0 105.121459999999999,27.418536,0 105.134891999999994,27.416152,0 105.157078999999996,27.404827999999998,0 105.167272999999994,27.408816999999999,0 105.172309999999996,27.397307999999999,0 105.184721999999994,27.392448000000002,0 105.184002000000007,27.367498999999999,0 105.191078000000005,27.371765,0 105.194376000000005,27.382818,0 105.211886000000007,27.399508999999998,0 105.225857000000005,27.419407,0 105.232812999999993,27.436322000000001,0 105.226157000000001,27.441134999999999,0 105.234132000000002,27.453098000000001,0 105.238989000000004,27.46987,0 105.233652000000006,27.475873,0 105.235871000000003,27.490534,0 105.248463000000001,27.495481999999999,0 105.249782999999994,27.505011,0 105.259917000000002,27.514768,0 105.253140999999999,27.536201999999999,0 105.256978000000004,27.540873000000001,0 105.246784000000005,27.545223,0 105.234731999999994,27.540185999999999,0 105.232332999999997,27.546322,0 105.242767000000001,27.551359000000001,0 105.240487999999999,27.558731000000002,0 105.250501999999997,27.565415999999999,0 105.244026000000005,27.572603000000001,0 105.251761000000002,27.573473,0 105.257037999999994,27.582903999999999,0 105.274967000000004,27.589815999999999,0 105.290617999999995,27.604324999999999,0 105.305128999999994,27.613614999999999,0 105.303269999999998,27.626335999999998,0 105.294995,27.633199999999999,0 105.303870000000003,27.639787999999999,0 105.309866,27.654976999999999,0 105.308966999999996,27.670850000000002,0 105.301351999999994,27.682787000000001,0 105.301351999999994,27.696048999999999,0 105.318680999999998,27.714248000000001,0 105.327016,27.727049000000001,0 105.339967999999999,27.729106000000002,0 105.353819999999999,27.748853,0 105.367790999999997,27.748808,0 105.373608000000004,27.754978000000001,0 105.384760999999997,27.757491000000002,0 105.393096,27.750499000000001,0 105.394414999999995,27.761192999999999,0 105.421458999999999,27.768367999999999,0 105.430572999999995,27.762609999999999,0 105.440168,27.775223,0 105.448622999999998,27.775314000000002,0 105.458217000000005,27.767866000000001,0 105.477104999999995,27.774857000000001,0 105.492875999999995,27.772755,0 105.517760999999993,27.764894999999999,0 105.522738000000004,27.758130999999999,0 105.537488999999994,27.753744000000001,0 105.549301999999997,27.727186,0 105.559974999999994,27.719963,0 105.580782999999997,27.721471999999999,0 105.605307999999994,27.715437000000001,0 105.602849000000006,27.704692000000001,0 105.609984999999995,27.691979,0 105.622636999999997,27.680821000000002,0 105.623836999999995,27.666139000000001,0 105.628992999999994,27.660969999999999,0 105.643084999999999,27.659963000000001,0 105.655017999999998,27.677161999999999,0 105.664372,27.683931000000001,0 105.677864,27.68329,0 105.685479000000001,27.678488000000002,0 105.702028999999996,27.676887000000001,0 105.721037999999993,27.684844999999999,0 105.719119000000006,27.692162,0 105.722836999999998,27.705881000000002,0 105.767629999999997,27.717950999999999,0 105.784180000000006,27.719093999999998,0 105.813801999999995,27.71123,0 105.831191000000004,27.709949999999999,0 105.842883999999998,27.705331999999999,0 105.860454000000004,27.716304999999998,0 105.868249000000006,27.732534999999999,0 105.881921000000006,27.738659999999999,0 105.891274999999993,27.736283,0 105.905186999999998,27.745151,0 105.921317000000002,27.747025000000001,0 105.929952,27.728192,0 105.968568000000005,27.740763000000001,0 105.985417999999996,27.749766999999999,0 106.004067000000006,27.746842000000001,0 106.023015000000001,27.746979,0 106.062411999999995,27.763341,0 106.059054000000003,27.770606999999998,0 106.063731000000004,27.777142000000001,0 106.079320999999993,27.775680000000001,0 106.105824999999996,27.779928999999999,0 106.127532000000002,27.778649999999999,0 106.143602000000001,27.773759999999999,0 106.165249000000003,27.763158000000001,0 106.179340999999994,27.761925000000002,0 106.193492000000006,27.754384000000002,0 106.206564,27.762930000000001,0 106.224672999999996,27.760964999999999,0 106.23115,27.767316999999998,0 106.242423000000002,27.767316999999998,0 106.268507,27.782167999999999,0 106.306944000000001,27.808667,0 106.321515000000005,27.809398000000002,0 106.341842999999997,27.820177999999999,0 106.344240999999997,27.826846,0 106.329970000000003,27.825749999999999,0 106.319416000000004,27.832007000000001,0 106.317077999999995,27.838767000000001,0 106.334287000000003,27.855115000000001,0 106.339984000000001,27.865342999999999,0 106.338184999999996,27.875340999999999,0 106.325891999999996,27.879313,0 106.333327999999995,27.887986999999999,0 106.325772000000001,27.897936999999999,0 106.304905000000005,27.899352,0 106.300348,27.908709000000002,0 106.309222000000005,27.913592000000001,0 106.308023000000006,27.936727999999999,0 106.314019000000002,27.938507000000001,0 106.328111000000007,27.952878999999999,0 106.325173000000007,27.962595,0 106.317376999999993,27.967659000000001,0 106.315817999999993,27.979517999999999,0 106.301846999999995,27.989916000000001,0 106.294351000000006,28.003643,0 106.283017999999998,28.007199,0 106.268927000000005,28.003323000000002,0 106.246260000000007,28.011987000000001,0 106.243201999999997,28.029084000000001,0 106.256754000000001,28.048503,0 106.265508999999994,28.049869999999999,0 106.266707999999994,28.066551,0 106.254655,28.079492999999999,0 106.249917999999994,28.092569999999998,0 106.231448999999998,28.097992000000001,0 106.226231999999996,28.115894999999998,0 106.211540999999997,28.119083,0 106.207104000000001,28.134250999999999,0 106.191632999999996,28.136755000000001,0 106.177301999999997,28.148596000000001,0 106.145221000000006,28.162848,0 106.125073999999998,28.167083000000002,0 106.112841000000003,28.163577,0 106.093592999999998,28.162666000000002,0 106.071826000000001,28.151236999999998,0 106.060912000000002,28.142949000000002,0 106.037645999999995,28.138349000000002,0 106.027213000000003,28.131245,0 106.036567000000005,28.110702,0 106.033868999999996,28.106966,0 106.020617000000001,28.109152999999999,0 106.013240999999994,28.119948999999998,0 105.986198000000002,28.116032000000001,0 105.985358000000005,28.108378999999999,0 105.976123999999999,28.108059999999998,0 105.970787000000001,28.131245,0 105.963290999999998,28.137893999999999,0 105.945241999999993,28.143540999999999,0 105.936966999999996,28.132247,0 105.927193000000003,28.135435000000001,0 105.903687000000005,28.129194999999999,0 105.895173,28.119767,0 105.876043999999993,28.128239000000001,0 105.878563,28.139033000000001,0 105.868609000000006,28.146729000000001,0 105.860992999999993,28.158158,0 105.860274000000004,28.170041999999999,0 105.871007000000006,28.201953,0 105.881021000000004,28.211829000000002,0 105.890555000000006,28.236266000000001,0 105.875804000000002,28.244865000000001,0 105.874184999999997,28.254601000000001,0 105.863212000000004,28.249186999999999,0 105.850020000000001,28.254237,0 105.833950000000002,28.283348,0 105.823396000000002,28.306903999999999,0 105.808404999999993,28.307223,0 105.797672000000006,28.312360999999999,0 105.792814000000007,28.329454999999999,0 105.785679000000002,28.336500999999998,0 105.771347000000006,28.328818999999999,0 105.771287000000001,28.319452999999999,0 105.786637999999996,28.308814000000002,0 105.761332999999993,28.309360000000002,0 105.740706000000003,28.304857999999999,0 105.735248999999996,28.291671000000001,0 105.738546999999997,28.277298999999999,0 105.730031999999994,28.272158999999998,0 105.711264,28.281711000000001,0 105.705087000000006,28.279845999999999,0 105.688597000000001,28.284348999999999,0 105.683020999999997,28.295582,0 105.670547999999997,28.30986,0 105.658196000000004,28.310632999999999,0 105.649921000000006,28.319089999999999,0 105.639966999999999,28.311042,0 105.639487000000003,28.324227,0 105.651780000000002,28.34282,0 105.654898000000003,28.362363999999999,0 105.660174999999995,28.365272000000001,0 105.652738999999997,28.372406999999999,0 105.650281000000007,28.389537000000001,0 105.642724999999999,28.397715000000002,0 105.648302000000001,28.407845999999999,0 105.643265,28.431511,0 105.631872000000001,28.432147000000001,0 105.612562999999994,28.438912999999999,0 105.611964,28.455169999999999,0 105.619279000000006,28.464023999999998,0 105.609324999999998,28.472196,0 105.614661999999996,28.484227000000001,0 105.619399000000001,28.484000000000002,0 105.627973999999995,28.507829000000001,0 105.623896999999999,28.518131,0 105.642245000000003,28.517586000000001,0 105.650101000000006,28.522986,0 105.664491999999996,28.523803000000001,0 105.671207999999993,28.536280999999999,0 105.684640000000002,28.534557,0 105.683380999999997,28.557876,0 105.691834999999998,28.564679999999999,0 105.693155000000004,28.588581999999999,0 105.699931000000007,28.592300000000002,0 105.713003,28.586586,0 105.720678000000007,28.590622,0 105.737707999999998,28.614201000000001,0 105.748801,28.615152999999999,0 105.757255999999998,28.602231,0 105.757676000000004,28.590350000000001,0 105.778482999999994,28.59883,0 105.784959000000001,28.611118000000001,0 105.798390999999995,28.603183000000001,0 105.835988,28.599419999999999,0 105.850499999999997,28.606311999999999,0 105.859493999999998,28.597923000000002,0 105.876164000000003,28.602910999999999,0 105.885039000000006,28.595475,0 105.893433999999999,28.605722,0 105.905906000000002,28.611027,0 105.890255999999994,28.621409,0 105.893732999999997,28.623902999999999,0 105.895651999999998,28.643712000000001,0 105.901049,28.648561999999998,0 105.891935000000004,28.651326000000001,0 105.889476000000002,28.670496,0 105.903568000000007,28.669226999999999,0 105.921915999999996,28.679015,0 105.935587999999996,28.681913999999999,0 105.933369999999996,28.702300999999999,0 105.942303999999993,28.71041,0 105.955916000000002,28.713851999999999,0 105.954597000000007,28.724632,0 105.965630000000004,28.736045000000001,0 105.967788999999996,28.761628000000002,0 105.979241999999999,28.746549999999999,0 105.999510000000001,28.742927999999999,0 106.008923999999993,28.738218,0 106.017917999999995,28.722639000000001,0 106.028891999999999,28.719695000000002,0 106.022954999999996,28.708144999999998,0 106.036086999999995,28.706242,0 106.030811,28.695053000000001,0 106.043163000000007,28.693557999999999,0 106.066969,28.686173,0 106.066428999999999,28.692516000000001,0 106.080461,28.686309000000001,0 106.090294999999998,28.669454000000002,0 106.083038999999999,28.661387000000001,0 106.098209999999995,28.654907000000001,0 106.103426999999996,28.636096999999999,0 106.120756,28.632743000000001,0 106.115658999999994,28.642533,0 106.129330999999993,28.640041,0 106.144621999999998,28.644753999999999,0 106.152056999999999,28.636505,0 106.165728999999999,28.636233000000001,0 106.171245999999996,28.628663,0 106.173344,28.612522999999999,0 106.184856999999994,28.600598999999999,0 106.184798000000001,28.589442999999999,0 106.192593000000002,28.577244,0 106.205605000000006,28.567990999999999,0 106.214778999999993,28.573207,0 106.236186000000004,28.560144000000001,0 106.254835,28.539411999999999,0 106.277261999999993,28.532878,0 106.278041000000002,28.538867,0 106.292612000000005,28.537324000000002,0 106.293992000000003,28.526934000000001,0 106.306824000000006,28.503245,0 106.323673999999997,28.494938999999999,0 106.330689000000007,28.482137999999999,0 106.341363000000001,28.480685999999999,0 106.349097999999998,28.473784999999999,0 106.352875999999995,28.480277000000001,0 106.378900000000002,28.479731999999998,0 106.376142000000002,28.493304999999999,0 106.380578999999997,28.507375,0 106.374522999999996,28.510915000000001,0 106.373743000000005,28.524982999999999,0 106.378600000000006,28.532606000000001,0 106.373563000000004,28.537642000000002,0 106.389814000000001,28.553249000000001,0 106.385676000000004,28.560824,0 106.399107999999998,28.571166000000002,0 106.412959999999998,28.563137999999999,0 106.423213000000004,28.562684000000001,0 106.434066999999999,28.556695999999999,0 106.441621999999995,28.559418000000001,0 106.454035000000005,28.549755000000001,0 106.453074999999998,28.544720000000002,0 106.467286999999999,28.541588999999998,0 106.471603999999999,28.532606000000001,0 106.483836999999994,28.530608999999998,0 106.493370999999996,28.538322999999998,0 106.501165999999998,28.534510999999998,0 106.504704000000004,28.544674000000001,0 106.487255000000005,28.558827999999998,0 106.478920000000002,28.575021,0 106.467347000000004,28.588536000000001,0 106.473822999999996,28.598966000000001,0 106.498828000000003,28.585861000000001,0 106.508781999999997,28.564861000000001,0 106.524072000000004,28.577832999999998,0 106.513339000000002,28.577017000000001,0 106.494330000000005,28.600190000000001,0 106.494990000000001,28.615152999999999,0 106.501525999999998,28.618552999999999,0 106.501046000000002,28.628119000000002,0 106.506682999999995,28.635598000000002,0 106.502785000000003,28.661297000000001,0 106.520174999999995,28.662112,0 106.528270000000006,28.677655000000001,0 106.515856999999997,28.688122,0 106.510340999999997,28.715166,0 106.498108000000002,28.717476000000001,0 106.493851000000006,28.739485999999999,0 106.462069999999997,28.761220000000002,0 106.454515000000001,28.775300000000001,0 106.451695999999998,28.792816999999999,0 106.462789999999998,28.797207,0 106.459610999999995,28.805716,0 106.451396000000003,28.808114,0 106.453495000000004,28.816939000000001,0 106.468425999999994,28.826440999999999,0 106.461830000000006,28.831009999999999,0 106.474481999999995,28.833046,0 106.476220999999995,28.826757000000001,0 106.490612999999996,28.806529999999999,0 106.508781999999997,28.795850000000002,0 106.521134000000004,28.794266,0 106.523053000000004,28.781139,0 106.533787000000004,28.778739999999999,0 106.534025999999997,28.770909,0 106.547998000000007,28.769867000000001,0 106.561850000000007,28.756059,0 106.563888000000006,28.746188,0 106.559751000000006,28.733871000000001,0 106.560291000000007,28.720737,0 106.576841000000002,28.702392,0 106.582357000000002,28.702210999999998,0 106.587273999999994,28.691519,0 106.598067999999998,28.691882,0 106.606103000000004,28.685040999999998,0 106.619174999999998,28.689164000000002,0 106.614258000000007,28.680282999999999,0 106.617676000000003,28.667279000000001,0 106.626850000000005,28.659257,0 106.635244999999998,28.658487000000001,0 106.643699999999995,28.664332999999999,0 106.651375999999999,28.649422999999999,0 106.641182000000001,28.644165000000001,0 106.617676000000003,28.644255999999999,0 106.618875000000003,28.637276,0 106.628589000000005,28.634464999999999,0 106.636803999999998,28.623222999999999,0 106.633566000000002,28.607627000000001,0 106.626011000000005,28.604317000000002,0 106.613059000000007,28.608851000000001,0 106.607061999999999,28.594296,0 106.616836000000006,28.562819999999999,0 106.615277000000006,28.549665000000001,0 106.588892999999999,28.531426,0 106.584636000000003,28.523257999999998,0 106.568685000000002,28.523667,0 106.560291000000007,28.513366000000001,0 106.567905999999994,28.505286999999999,0 106.562809000000001,28.497389999999999,0 106.568026000000003,28.484044999999998,0 106.591831999999997,28.490355000000001,0 106.591532000000001,28.499068999999999,0 106.584935999999999,28.506875999999998,0 106.593390999999997,28.510189,0 106.61018,28.497934999999998,0 106.632727000000003,28.503516999999999,0 106.631107999999998,28.490264,0 106.649755999999996,28.479551000000001,0 106.661090000000002,28.491897999999999,0 106.678359,28.481366999999999,0 106.688253000000003,28.484680999999998,0 106.697667999999993,28.476645000000001,0 106.693290000000005,28.456531999999999,0 106.708521000000005,28.450493000000002,0 106.716195999999997,28.456396000000002,0 106.725251,28.454443999999999,0 106.732866000000001,28.463570000000001,0 106.746657999999996,28.466657999999999,0 106.744859000000005,28.489854999999999,0 106.726029999999994,28.518584000000001,0 106.723991999999996,28.529883000000002,0 106.728189,28.541998,0 106.737363999999999,28.553294000000001,0 106.754333000000003,28.558329000000001,0 106.765127000000007,28.558192999999999,0 106.779877999999997,28.563773000000001,0 106.780957000000001,28.574884999999998,0 106.766626000000002,28.580145999999999,0 106.758590999999996,28.588128000000001,0 106.759069999999994,28.611118000000001,0 106.775020999999995,28.611979000000002,0 106.780358000000007,28.624991000000001,0 106.792590000000004,28.616240999999999,0 106.793430000000001,28.606493,0 106.800505000000001,28.602139999999999,0 106.807700999999994,28.589442999999999,0 106.827068999999995,28.598558000000001,0 106.833246000000003,28.613202999999999,0 106.829288000000005,28.622724000000002,0 106.866345999999993,28.624492,0 106.869764000000004,28.649059999999999,0 106.866945000000001,28.649920999999999,0 106.880617000000001,28.680510000000002,0 106.883195000000001,28.692426000000001,0 106.862148000000005,28.690975999999999,0 106.854713000000004,28.697092000000001,0 106.853932999999998,28.706333000000001,0 106.862567999999996,28.707556,0 106.852913999999998,28.724450999999998,0 106.828328999999997,28.737674999999999,0 106.824071000000004,28.756149000000001,0 106.833365999999998,28.768781000000001,0 106.838462000000007,28.765974,0 106.845358000000004,28.781002999999998,0 106.862328000000005,28.780595999999999,0 106.864607000000007,28.774484999999999,0 106.874261000000004,28.779736,0 106.886373000000006,28.794718,0 106.897886999999997,28.801145000000002,0 106.905382000000003,28.796120999999999,0 106.923070999999993,28.810015,0 106.938422000000003,28.792365,0 106.942260000000005,28.782135,0 106.950235000000006,28.777608000000001,0 106.951734000000002,28.766970000000001,0 106.967804000000001,28.774122999999999,0 106.987892000000002,28.774666,0 106.988671999999994,28.790327999999999,0 106.981356000000005,28.804268,0 106.980816000000004,28.813182999999999,0 106.989271000000002,28.829563,0 106.983395000000002,28.851186999999999,0 107.002643000000006,28.854489999999998,0 107.005161999999999,28.859193999999999,0 107.019132999999997,28.860686999999999,0 107.016075000000001,28.882486,0 107.032385000000005,28.882304999999999,0 107.038860999999997,28.877963000000001,0 107.038981000000007,28.863717000000001,0 107.058708999999993,28.868963999999998,0 107.045576999999994,28.874932999999999,0 107.052532999999997,28.891123,0 107.066564999999997,28.895372999999999,0 107.072321000000002,28.87932,0 107.063385999999994,28.877058999999999,0 107.059788999999995,28.868466000000002,0 107.072681000000003,28.866612,0 107.090249999999997,28.875114,0 107.096665999999999,28.890083000000001,0 107.141938999999994,28.887730999999999,0 107.145776999999995,28.876878000000001,0 107.155850999999998,28.882982999999999,0 107.167124000000001,28.880586000000001,0 107.182653999999999,28.887143999999999,0 107.184094000000002,28.879953,0 107.193567999999999,28.888770999999998,0 107.198425,28.878416000000001,0 107.194047999999995,28.876607,0 107.206519999999998,28.868013999999999,0 107.196866,28.847387999999999,0 107.195126999999999,28.838068,0 107.226367999999994,28.836801999999999,0 107.216353999999995,28.82816,0 107.210598000000005,28.814812,0 107.213415999999995,28.795034999999999,0 107.218753000000007,28.788698,0 107.219232000000005,28.772718999999999,0 107.246635999999995,28.761854,0 107.253532000000007,28.766788999999999,0 107.252392,28.780550999999999,0 107.261447000000004,28.792726999999999,0 107.277157000000003,28.799154000000001,0 107.304620999999997,28.806757000000001,0 107.325367999999997,28.809562,0 107.345156000000003,28.829608,0 107.331963999999999,28.841190000000001,0 107.359907000000007,28.849965999999998,0 107.367283,28.844989999999999,0 107.383472999999995,28.848564,0 107.395405999999994,28.860866999999999,0 107.391927999999993,28.868466000000002,0 107.406138999999996,28.891529999999999,0 107.415614000000005,28.889811000000002,0 107.413815,28.911424,0 107.42089,28.925211999999998,0 107.433603000000005,28.933755000000001,0 107.441038000000006,28.943788999999999,0 107.438760000000002,28.955268,0 107.421549999999996,28.954545,0 107.412975000000003,28.960148,0 107.405540000000002,28.972258,0 107.40446,28.981881000000001,0 107.396964999999994,28.993355999999999,0 107.370461000000006,28.993898000000002,0 107.364165,29.009616999999999,0 107.377296999999999,29.026779000000001,0 107.395166000000003,29.039648,0 107.390728999999993,29.059062999999998,0 107.377896000000007,29.057979,0 107.376097000000001,29.074771999999999,0 107.369741000000005,29.091607,0 107.382034000000004,29.097518999999998,0 107.392287999999994,29.091246000000002,0 107.412674999999993,29.095397999999999,0 107.427605999999997,29.128291000000001,0 107.421490000000006,29.13578,0 107.408417999999998,29.138352000000001,0 107.408237999999997,29.150891000000001,0 107.412316000000004,29.1614,0 107.403261000000001,29.172494,0 107.404399999999995,29.18787,0 107.427066999999994,29.190304999999999,0 107.441457999999997,29.203966000000001,0 107.464004000000003,29.195444999999999,0 107.462325000000007,29.176867999999999,0 107.473059000000006,29.171005999999998,0 107.488290000000006,29.174703999999998,0 107.515332999999998,29.194497999999999,0 107.532242999999994,29.195489999999999,0 107.549572999999995,29.210052000000001,0 107.554370000000006,29.219472,0 107.569300999999996,29.219427,0 107.575477000000006,29.207301999999999,0 107.576256000000001,29.185120000000001,0 107.581174000000004,29.172539,0 107.590168000000006,29.165279000000002,0 107.585070999999999,29.158332999999999,0 107.589269000000002,29.150034000000002,0 107.601022,29.147824,0 107.600601999999995,29.159596000000001,0 107.606718000000001,29.165458999999998,0 107.616911999999999,29.162979,0 107.628784999999993,29.16582,0 107.645874000000006,29.160858999999999,0 107.659486000000001,29.162887999999999,0 107.662604000000002,29.147914,0 107.698643000000004,29.141238999999999,0 107.707577000000001,29.154184000000001,0 107.718491,29.156123000000001,0 107.727244999999996,29.175695999999999,0 107.724727000000001,29.182189000000001,0 107.739418000000001,29.189043000000002,0 107.751591000000005,29.199638,0 107.759386000000006,29.192288999999999,0 107.760284999999996,29.177679999999999,0 107.767900999999995,29.17511,0 107.775216,29.162842999999999,0 107.782352000000003,29.161670999999998,0 107.795184000000006,29.146470999999998,0 107.810654999999997,29.139389000000001,0 107.799981000000002,29.106183000000001,0 107.789846999999995,29.082355,0 107.785229999999999,29.047234,0 107.803459000000004,29.042898999999998,0 107.815092000000007,29.034772,0 107.823547000000005,29.034230000000001,0 107.821207999999999,29.005732999999999,0 107.810415000000006,28.984321000000001,0 107.828103999999996,28.976143,0 107.842016000000001,28.964621999999999,0 107.867559999999997,28.960464000000002,0 107.871998000000005,28.983056000000001,0 107.883031000000003,28.986533999999999,0 107.887647999999999,29.008533,0 107.908815000000004,29.007359000000001,0 107.931122000000002,29.035222999999998,0 107.949291000000002,29.033733000000002,0 107.993904000000001,29.033823000000002,0 108.024246000000005,29.038699999999999,0 108.034499999999994,29.046737,0 108.035999000000004,29.054051000000001,0 108.069398000000007,29.086552000000001,0 108.109814,29.076080999999999,0 108.128763000000006,29.065698999999999,0 108.132720000000006,29.054096000000001,0 108.152448000000007,29.053735,0 108.171396999999999,29.065383000000001,0 108.197721000000001,29.070664000000001,0 108.204736999999994,29.056760000000001,0 108.215050000000005,29.056128000000001,0 108.230401000000001,29.046963000000002,0 108.224644999999995,29.031566000000002,0 108.242273999999995,29.028358999999998,0 108.256964999999994,29.041996000000001,0 108.260203000000004,29.063758,0 108.268658000000002,29.077795999999999,0 108.270636999999994,29.090885,0 108.286586999999997,29.089214999999999,0 108.301938000000007,29.083076999999999,0 108.307154999999995,29.077525000000001,0 108.29786,29.047143999999999,0 108.309792999999999,29.018424,0 108.308713999999995,29.003384,0 108.312550999999999,28.997060000000001,0 108.322924999999998,28.953956999999999,0 108.339894999999999,28.947856000000002,0 108.346911000000006,28.941483999999999,0 108.350567999999996,28.930319999999998,0 108.350329000000002,28.907084000000001,0 108.357463999999993,28.893384000000001,0 108.355305999999999,28.870818,0 108.346430999999995,28.856299,0 108.355186000000003,28.831644000000001,0 108.354225999999997,28.814268999999999,0 108.382408999999996,28.805806,0 108.386487000000002,28.801642999999999,0 108.389004999999997,28.785847,0 108.385287000000005,28.772220999999998,0 108.375332999999998,28.767513000000001,0 108.372515000000007,28.760134000000001,0 108.347269999999995,28.736270999999999,0 108.347629999999995,28.709232,0 108.343672999999995,28.696458,0 108.332519000000005,28.679604000000001,0 108.343971999999994,28.673396,0 108.352127999999993,28.676114999999999,0 108.390923999999998,28.651779999999999,0 108.421684999999997,28.643349000000001,0 108.439014999999998,28.634011999999998,0 108.461381000000003,28.634148,0 108.471096000000003,28.627801000000002,0 108.491303000000002,28.630566999999999,0 108.501018000000002,28.626667999999999,0 108.502756000000005,28.637637999999999,0 108.517987000000005,28.639994999999999,0 108.524642999999998,28.647110999999999,0 108.538494999999998,28.652730999999999,0 108.547788999999995,28.647881999999999,0 108.561160999999998,28.649151,0 108.566497999999996,28.662566000000002,0 108.575912000000002,28.659711000000001,0 108.586106000000001,28.648788,0 108.585327000000007,28.639633,0 108.596180000000004,28.640357999999999,0 108.609012000000007,28.633603999999998,0 108.623283999999998,28.641445999999998,0 108.632338000000004,28.638953000000001,0 108.636055999999996,28.621772,0 108.618905999999996,28.606538,0 108.604635000000002,28.590260000000001,0 108.610930999999994,28.539411999999999,0 108.589343999999997,28.538595000000001,0 108.576871999999995,28.533830999999999,0 108.573213999999993,28.528113999999999,0 108.581068999999999,28.506967,0 108.574952999999994,28.497661999999998,0 108.587604999999996,28.479323999999998,0 108.586765999999997,28.463070999999999,0 108.597258999999994,28.456804999999999,0 108.602835999999996,28.438867999999999,0 108.609911999999994,28.435689,0 108.608832000000007,28.407301,0 108.587424999999996,28.404938999999999,0 108.577530999999993,28.390173000000001,0 108.576331999999994,28.364318000000001,0 108.580110000000005,28.343274000000001,0 108.602416000000005,28.340820000000001,0 108.610810999999998,28.325091,0 108.667356999999996,28.334409999999998,0 108.675752000000003,28.343046999999999,0 108.673952999999997,28.354547,0 108.659081999999998,28.35032,0 108.656443999999993,28.356365,0 108.664719000000005,28.382857999999999,0 108.674193000000002,28.389354999999998,0 108.691702000000006,28.394034999999999,0 108.696798999999999,28.404575000000001,0 108.688344000000001,28.422291000000001,0 108.669875000000005,28.431464999999999,0 108.666816999999995,28.44182,0 108.641452999999998,28.455715000000001,0 108.645229999999998,28.468610000000002,0 108.658662000000007,28.478052999999999,0 108.671135000000007,28.475283999999998,0 108.688643999999996,28.482502,0 108.701415999999995,28.482502,0 108.709691000000007,28.501066000000002,0 108.723363000000006,28.491942999999999,0 108.725641999999993,28.475828,0 108.733917000000005,28.468882000000001,0 108.743690999999998,28.467656000000002,0 108.749088,28.461072999999999,0 108.746748999999994,28.450220999999999,0 108.773912999999993,28.437868999999999,0 108.779308999999998,28.427423000000001,0 108.761740000000003,28.395261999999999,0 108.762818999999993,28.385811,0 108.783086999999995,28.380403999999999,0 108.777389999999997,28.366589999999999,0 108.777929999999998,28.347228999999999,0 108.761439999999993,28.324591000000002,0 108.770075000000006,28.314952000000002,0 108.763779,28.305631000000002,0 108.741051999999996,28.294899999999998,0 108.725762000000003,28.280301000000001,0 108.727620999999999,28.259831999999999,0 108.737575000000007,28.251415999999999,0 108.738833999999997,28.227347000000002,0 108.749506999999994,28.227575000000002,0 108.758681999999993,28.220203000000001,0 108.758201999999997,28.198357000000001,0 108.765338,28.192121,0 108.773313000000002,28.213467999999999,0 108.799757,28.226618999999999,0 108.805572999999995,28.242090000000001,0 108.821764000000002,28.245138000000001,0 108.824342000000001,28.231033,0 108.833276999999995,28.217881999999999,0 108.836214999999996,28.207369,0 108.855163000000005,28.199859,0 108.864457999999999,28.206140000000001,0 108.897257999999994,28.219519999999999,0 108.912249000000003,28.215561000000001,0 108.919505000000001,28.217790999999998,0 108.933176000000003,28.20787,0 108.927300000000002,28.196491000000002,0 108.929399000000004,28.190574000000002,0 108.956621999999996,28.182334000000001,0 108.979947999999993,28.170770999999998,0 108.985765000000001,28.161346000000002,0 109.001535000000004,28.161390999999998,0 109.009810000000002,28.167902000000002,0 109.014246999999997,28.177873000000002,0 109.013828000000004,28.199586,0 109.026780000000002,28.220065999999999,0 109.038233000000005,28.217427000000001,0 109.041590999999997,28.205366000000001,0 109.061438999999993,28.200132,0 109.082065999999998,28.184336999999999,0 109.089982000000006,28.196626999999999,0 109.101434999999995,28.201407,0 109.099816000000004,28.214742000000001,0 109.085363999999998,28.232807999999999,0 109.081526999999994,28.248550000000002,0 109.087582999999995,28.26097,0 109.100414999999998,28.263835,0 109.119063999999995,28.282257000000001,0 109.116246000000004,28.288260000000001,0 109.126799000000005,28.296945999999998,0 109.141250999999997,28.320544999999999,0 109.137713000000005,28.334229000000001,0 109.150784999999999,28.344683,0 109.151684000000003,28.350546999999999,0 109.138611999999995,28.358637000000002,0 109.144788000000005,28.363817999999998,0 109.153122999999994,28.381041,0 109.153603000000004,28.397306,0 109.157140999999996,28.403393999999999,0 109.154263,28.417611999999998,0 109.164935999999997,28.414978000000001,0 109.165655999999998,28.430375000000002,0 109.176749000000001,28.431511,0 109.180706999999998,28.439457999999998,0 109.176569000000001,28.446179000000001,0 109.185503999999995,28.453126999999999,0 109.191739999999996,28.470880000000001,0 109.215485999999999,28.482137999999999,0 109.233594999999994,28.474965999999998,0 109.236412999999999,28.478415999999999,0 109.274370000000005,28.494667,0 109.275929000000005,28.484000000000002,0 109.266334999999998,28.481774999999999,0 109.260818,28.464704999999999,0 109.261778000000007,28.454398000000001,0 109.256861000000001,28.436734000000001,0 109.264356000000006,28.404392999999999,0 109.264656000000002,28.392489999999999,0 109.277367999999996,28.376542000000001,0 109.288342,28.374314999999999,0 109.285283000000007,28.359045999999999,0 109.268553999999995,28.338092,0 109.275270000000006,28.314043000000002,0 109.273050999999995,28.309405000000002,0 109.285522999999998,28.304131000000002,0 109.297576000000007,28.292808000000001,0 109.294938000000002,28.278527,0 109.306391000000005,28.274206,0 109.314965999999998,28.276389999999999,0 109.340990000000005,28.293717000000001,0 109.363116000000005,28.282983999999999,0 109.352203000000003,28.268521,0 109.359519000000006,28.265882000000001,0 109.365875000000003,28.274206,0 109.376908,28.276935000000002,0 109.399693999999997,28.269293999999999,0 109.388001000000003,28.268111000000001,0 109.373490000000004,28.256830000000001,0 109.367313999999993,28.239041,0 109.356759999999994,28.23349,0 109.359578999999997,28.22043,0 109.345787000000001,28.206686000000001,0 109.340450000000004,28.190391000000002,0 109.343208000000004,28.173593,0 109.341829000000004,28.162165000000002,0 109.335832999999994,28.158204000000001,0 109.338172,28.141764999999999,0 109.328097999999997,28.126871999999999,0 109.325399000000004,28.115212,0 109.314366000000007,28.103914,0 109.312087000000005,28.083503,0 109.304952,28.076394000000001,0 109.298715000000001,28.032502999999998,0 109.305910999999995,28.029996000000001,0 109.311548000000002,28.037973000000001,0 109.325219000000004,28.042760000000001,0 109.334574000000003,28.062221999999998,0 109.346986000000001,28.060399,0 109.370552000000004,28.046087,0 109.379187000000002,28.033096,0 109.365094999999997,28.009114,0 109.342248999999995,28.005330000000001,0 109.321622000000005,27.991786000000001,0 109.320182000000003,27.970988999999999,0 109.307109999999994,27.968024,0 109.301773999999995,27.958352999999999,0 109.313826000000006,27.933306000000002,0 109.314846000000003,27.918109999999999,0 109.311907000000005,27.907796000000001,0 109.320601999999994,27.895609,0 109.317784000000003,27.885521000000001,0 109.321860999999998,27.867991,0 109.337512000000004,27.869543,0 109.326837999999995,27.858585000000001,0 109.345546999999996,27.840730000000001,0 109.340209999999999,27.821411000000001,0 109.342669000000001,27.800764000000001,0 109.331215999999998,27.791626000000001,0 109.341049999999996,27.790209999999998,0 109.333015000000003,27.782807999999999,0 109.338111999999995,27.775908000000001,0 109.349863999999997,27.771063999999999,0 109.364316000000002,27.759777,0 109.362996999999993,27.745014000000001,0 109.377987000000005,27.738019999999999,0 109.365934999999993,27.722203,0 109.392379000000005,27.726362999999999,0 109.395317000000006,27.721699999999998,0 109.414146000000002,27.725037,0 109.418222999999998,27.714248000000001,0 109.429975999999996,27.703548999999999,0 109.45684,27.693580000000001,0 109.470451999999995,27.680271999999999,0 109.458219,27.674783000000001,0 109.456119999999999,27.669432,0 109.464455000000001,27.651409000000001,0 109.470032000000003,27.628761999999998,0 109.469132000000002,27.620937000000001,0 109.451262999999997,27.585925,0 109.461937000000006,27.565598999999999,0 109.459118000000004,27.56015,0 109.445986000000005,27.562394000000001,0 109.433633999999998,27.548383000000001,0 109.404971000000003,27.550488999999999,0 109.379126999999997,27.535789999999999,0 109.325879,27.494198999999998,0 109.312387000000001,27.486181999999999,0 109.302972999999994,27.475643999999999,0 109.306929999999994,27.434397000000001,0 109.299914999999999,27.423946000000001,0 109.286422999999999,27.424633,0 109.245527999999993,27.418168999999999,0 109.243249000000006,27.42963,0 109.221902,27.438889,0 109.213686999999993,27.450485,0 109.202113999999995,27.450073,0 109.189520999999999,27.436551999999999,0 109.166974999999994,27.417849,0 109.156240999999994,27.416519000000001,0 109.159419999999997,27.442326999999999,0 109.154083,27.448789000000001,0 109.144008999999997,27.448834999999999,0 109.123321000000004,27.428622000000001,0 109.123321000000004,27.418399000000001,0 109.112948000000003,27.424633,0 109.109170000000006,27.41872,0 109.115765999999994,27.412576000000001,0 109.125,27.415555999999999,0 109.129257999999993,27.425550000000001,0 109.138672,27.430318,0 109.141970000000001,27.417711000000001,0 109.127699000000007,27.405056999999999,0 109.115886000000003,27.400105,0 109.124761000000007,27.387907999999999,0 109.113847000000007,27.367177999999999,0 109.118464000000003,27.362224999999999,0 109.114386999999994,27.352730000000001,0 109.106412000000006,27.355619999999998,0 109.101074999999994,27.34984,0 109.103773000000004,27.337085999999999,0 109.086383999999995,27.331029999999998,0 109.080387000000002,27.334883999999999,0 109.069233999999994,27.322817000000001,0 109.059520000000006,27.326854999999998,0 109.052083999999994,27.336673000000001,0 109.044409000000002,27.331075999999999,0 109.054123000000004,27.306068,0 109.053943000000004,27.29487,0 109.045608000000001,27.288215000000001,0 109.040811000000005,27.276235,0 109.023900999999995,27.282247999999999,0 109.010589999999993,27.270496999999999,0 108.999555999999998,27.267558999999999,0 108.987503000000004,27.270634999999999,0 108.984624999999994,27.256219000000002,0 108.968554999999995,27.245521,0 108.963458000000003,27.235510999999999,0 108.951464999999999,27.236062,0 108.947087999999994,27.228393000000001,0 108.914227999999994,27.214662000000001,0 108.908651000000006,27.204326999999999,0 108.925741000000002,27.199596,0 108.919145,27.193486,0 108.929758000000007,27.180071999999999,0 108.926040999999998,27.175201999999999,0 108.926760000000002,27.160912,0 108.913687999999993,27.157695,0 108.904933,27.134947,0 108.887124,27.121203000000001,0 108.887484000000001,27.112514999999998,0 108.878788999999998,27.106309,0 108.873512000000005,27.113939999999999,0 108.859960999999998,27.11486,0 108.854324000000005,27.09601,0 108.845868999999993,27.098493000000001,0 108.827280000000002,27.089343,0 108.807491999999996,27.098585,0 108.792260999999996,27.083273999999999,0 108.803833999999995,27.078859000000001,0 108.831177999999994,27.057887999999998,0 108.840952000000001,27.063040000000001,0 108.845629000000002,27.058026000000002,0 108.843950000000007,27.047953,0 108.854743999999997,27.031991000000001,0 108.868534999999994,27.031025,0 108.877350000000007,27.016257,0 108.878428999999997,27.006364000000001,0 108.872853000000006,26.999876,0 108.885024999999999,27.002912999999999,0 108.900615999999999,27.016946999999998,0 108.918485000000004,27.019062999999999,0 108.914946999999998,27.025964999999999,0 108.921003999999996,27.029782999999998,0 108.921362999999999,27.009768999999999,0 108.936774,27.011793999999998,0 108.951944999999995,27.018740999999999,0 108.950986,27.036912999999998,0 108.943129999999996,27.037374,0 108.940432000000001,27.044733999999998,0 108.964237999999995,27.054485,0 108.989602000000005,27.074076999999999,0 109.007531,27.080238999999999,0 109.016105999999994,27.086767999999999,0 109.018805,27.095825999999999,0 109.032535999999993,27.10378,0 109.035833999999994,27.098078999999998,0 109.053702999999999,27.098309,0 109.061977999999996,27.110399999999998,0 109.066954999999993,27.104516,0 109.080387000000002,27.116513999999999,0 109.097237000000007,27.116101,0 109.111389000000003,27.123180000000001,0 109.122962000000001,27.123363999999999,0 109.133994999999999,27.117756,0 109.131056999999998,27.110125,0 109.118943999999999,27.105205000000002,0 109.109170000000006,27.092516,0 109.101134999999999,27.068926000000001,0 109.130516999999998,27.065062999999999,0 109.141070999999997,27.073571000000001,0 109.154263,27.071961000000002,0 109.163556999999997,27.065798999999998,0 109.175250000000005,27.087228,0 109.185503999999995,27.082308000000001,0 109.195937000000001,27.091275,0 109.223040999999995,27.122489999999999,0 109.238932000000005,27.149148,0 109.248106000000007,27.153421999999999,0 109.257400000000004,27.150618000000001,0 109.264235999999997,27.131867,0 109.280546000000001,27.127133000000001,0 109.298955000000007,27.135268,0 109.335053000000002,27.139082999999999,0 109.333674000000002,27.148734000000001,0 109.358739,27.15287,0 109.37397,27.147815000000001,0 109.378167000000005,27.155443999999999,0 109.384583000000006,27.143909000000001,0 109.393158,27.143863,0 109.392798999999997,27.156086999999999,0 109.400834000000003,27.159579000000001,0 109.400233999999998,27.152411000000001,0 109.415284999999997,27.153880999999998,0 109.427937,27.12603,0 109.440888999999999,27.118169000000002,0 109.448324999999997,27.120560000000001,0 109.457559000000003,27.133337999999998,0 109.472669999999994,27.134900999999999,0 109.469372000000007,27.115456999999999,0 109.459598,27.108286,0 109.457919000000004,27.096516000000001,0 109.467393000000001,27.094861000000002,0 109.459598,27.084101,0 109.466014000000001,27.080514999999998,0 109.482444000000001,27.081112999999998,0 109.481425000000002,27.071272,0 109.454560999999998,27.069478,0 109.468293000000003,27.064786999999999,0 109.487061999999995,27.053933000000001,0 109.496176000000006,27.062487999999998,0 109.486761999999999,27.067409000000001,0 109.489819999999995,27.078628999999999,0 109.498455000000007,27.079364999999999,0 109.505050999999995,27.072742999999999,0 109.518483000000003,27.072558999999998,0 109.510446999999999,27.067913999999998,0 109.518842000000006,27.060003999999999,0 109.517943000000002,27.043216000000001,0 109.525019,27.037282000000001,0 109.525797999999995,27.026562999999999,0 109.541329000000005,27.012898,0 109.540609000000003,26.994123999999999,0 109.529275999999996,26.991823,0 109.527597,26.977187000000001,0 109.536831000000006,26.974656,0 109.546724999999995,26.984597000000001,0 109.555000000000007,26.946898000000001,0 109.533653000000001,26.938611000000002,0 109.526697999999996,26.925902000000001,0 109.514105000000001,26.930783000000002,0 109.493238000000005,26.921112999999998,0 109.484243000000006,26.913561000000001,0 109.471771000000004,26.911166000000001,0 109.458219,26.901862999999999,0 109.446585999999996,26.899652,0 109.436452000000003,26.892605,0 109.438551000000004,26.877403999999999,0 109.444846999999996,26.871738000000001,0 109.436452000000003,26.861141,0 109.452641999999997,26.861832,0 109.456720000000004,26.873211999999999,0 109.472909999999999,26.884774,0 109.474169000000003,26.894309,0 109.486822000000004,26.895323000000001,0 109.490838999999994,26.883623,0 109.513805000000005,26.874271,0 109.510386999999994,26.865518000000002,0 109.513146000000006,26.840267999999998,0 109.497315,26.823077999999999,0 109.497495000000001,26.815289,0 109.507688999999999,26.801183000000002,0 109.517522999999997,26.77993,0 109.516923000000006,26.757705000000001,0 109.522139999999993,26.749219,0 109.504631000000003,26.744606999999998,0 109.502352000000002,26.757705000000001,0 109.486701999999994,26.760148999999998,0 109.453962000000004,26.761209000000001,0 109.437710999999993,26.755213999999999,0 109.417743000000002,26.739764000000001,0 109.413966000000002,26.722235999999999,0 109.407070000000004,26.719836999999998,0 109.381285000000005,26.727449,0 109.385963000000004,26.712133000000001,0 109.373009999999994,26.705027999999999,0 109.364975000000001,26.696169999999999,0 109.355020999999994,26.693217000000001,0 109.335593000000003,26.699998999999998,0 109.319102999999998,26.701751999999999,0 109.298416000000003,26.696539000000001,0 109.292958999999996,26.701291000000001,0 109.283724000000007,26.698568999999999,0 109.287021999999993,26.689664,0 109.304231999999999,26.663128,0 109.334093999999993,26.646234,0 109.355141000000003,26.659020000000002,0 109.364375999999993,26.633447,0 109.378707000000006,26.622458999999999,0 109.384703000000002,26.604728000000001,0 109.391299000000004,26.600525999999999,0 109.387162000000004,26.588056999999999,0 109.390219999999999,26.582238,0 109.385482999999994,26.571014000000002,0 109.399034999999998,26.570967,0 109.395196999999996,26.566441000000001,0 109.403952000000004,26.560203999999999,0 109.408749,26.537057999999998,0 109.404312000000004,26.529665000000001,0 109.381704999999997,26.518481999999999,0 109.385482999999994,26.493525000000002,0 109.364075999999997,26.475912999999998,0 109.362457000000006,26.466249999999999,0 109.380985999999993,26.461766000000001,0 109.373549999999994,26.449466000000001,0 109.361018000000001,26.448309999999999,0 109.326837999999995,26.427962999999998,0 109.319582999999994,26.418620000000001,0 109.313586000000001,26.397387999999999,0 109.299014999999997,26.368193999999999,0 109.292598999999996,26.345333,0 109.277308000000005,26.340009999999999,0 109.271432000000004,26.327743999999999,0 109.27449,26.315431,0 109.285882999999998,26.295846999999998,0 109.297635999999997,26.297236000000002,0 109.306450999999996,26.290707000000001,0 109.324920000000006,26.290337000000001,0 109.323359999999994,26.282464999999998,0 109.334754000000004,26.276675999999998,0 109.339791000000005,26.26408,0 109.354361999999995,26.265284000000001,0 109.373249999999999,26.278205,0 109.391178999999994,26.277093000000001,0 109.401493000000002,26.283715000000001,0 109.421041000000002,26.288716000000001,0 109.429795999999996,26.286678999999999,0 109.442627999999999,26.289874000000001,0 109.443528000000001,26.302005000000001,0 109.460138000000001,26.31381,0 109.466133999999997,26.314135,0 109.476867999999996,26.299226999999998,0 109.458338999999995,26.283436999999999,0 109.453422000000003,26.264543,0 109.439629999999994,26.238835000000002,0 109.452402000000006,26.209647,0 109.468293000000003,26.203206999999999,0 109.470451999999995,26.196348,0 109.459298000000004,26.194077,0 109.471771000000004,26.169930999999998,0 109.467512999999997,26.162329,0 109.480106000000006,26.145593000000002,0 109.494437000000005,26.144991000000001,0 109.495216999999997,26.152640000000002,0 109.504991000000004,26.134142000000001,0 109.514105000000001,26.128253000000001,0 109.512726000000001,26.115500999999998,0 109.504091000000003,26.096857,0 109.474408999999994,26.099036999999999,0 109.459838000000005,26.093471000000001,0 109.449703999999997,26.10182,0 109.450963000000002,26.075983999999998,0 109.447545000000005,26.071763000000001,0 109.453841999999995,26.054040000000001,0 109.466254000000006,26.048658,0 109.479146,26.047775999999999,0 109.482624000000001,26.029631999999999,0 109.468412999999998,26.000530999999999,0 109.454380999999998,25.991385999999999,0 109.408508999999995,25.967289999999998,0 109.406829999999999,25.961068000000001,0 109.426017999999999,25.955171,0 109.432015000000007,25.947787000000002,0 109.434353000000002,25.932321999999999,0 109.425719000000001,25.91639,0 109.413246000000001,25.905612000000001,0 109.396755999999996,25.900316,0 109.391358999999994,25.891255999999998,0 109.388660999999999,25.870764999999999,0 109.373729999999995,25.853290999999999,0 109.369052999999994,25.842646999999999,0 109.358979000000005,25.836047000000001,0 109.349024999999997,25.838836000000001,0 109.339310999999995,25.833769,0 109.337091999999998,25.811174999999999,0 109.339731,25.802527000000001,0 109.336313000000004,25.7896,0 109.329116999999997,25.784206000000001,0 109.334153999999998,25.772020999999999,0 109.327858000000006,25.761417000000002,0 109.338410999999994,25.755277,0 109.341470000000001,25.746904000000001,0 109.340090000000004,25.731738,0 109.314905999999993,25.733180000000001,0 109.313885999999997,25.722059999999999,0 109.296677000000003,25.714196999999999,0 109.280485999999996,25.713964000000001,0 109.256381000000005,25.71978,0 109.254761999999999,25.728573999999998,0 109.247686000000002,25.728248000000001,0 109.234194000000002,25.736343999999999,0 109.217285000000004,25.736761999999999,0 109.206970999999996,25.740251000000001,0 109.209429,25.747508,0 109.204992000000004,25.773928000000002,0 109.206671,25.788112000000002,0 109.193059000000005,25.800108999999999,0 109.175430000000006,25.804898000000001,0 109.166135999999995,25.796296000000002,0 109.182265999999998,25.788903000000001,0 109.177948000000001,25.782067000000001,0 109.191079999999999,25.774533000000002,0 109.182805000000002,25.763276999999999,0 109.159239999999997,25.759043999999999,0 109.155342000000005,25.744717000000001,0 109.148266000000007,25.741833,0 109.132316000000003,25.762951999999999,0 109.143828999999997,25.777229999999999,0 109.143589000000006,25.795273000000002,0 109.135133999999994,25.805456,0 109.117985000000004,25.809408000000001,0 109.094779000000003,25.802295000000001,0 109.098257000000004,25.795134000000001,0 109.087643,25.795831,0 109.080567000000002,25.78867,0 109.077869000000007,25.776765000000001,0 109.048186999999999,25.790576999999999,0 109.031336999999994,25.793925000000002,0 109.016766000000004,25.790901999999999,0 109.011788999999993,25.779509000000001,0 108.997697000000002,25.784392,0 108.989602000000005,25.778950999999999,0 109.000035999999994,25.760579,0 108.989722,25.762998,0 108.979588000000007,25.745322000000002,0 108.964237999999995,25.745089,0 108.959559999999996,25.740112,0 108.963577999999998,25.732529,0 108.953863999999996,25.730761000000001,0 108.940252000000001,25.740112,0 108.929758000000007,25.732575000000001,0 108.911409000000006,25.724758999999999,0 108.912128999999993,25.718337999999999,0 108.896238999999994,25.71415,0 108.895099000000002,25.703400999999999,0 108.900316000000004,25.682365000000001,0 108.919565000000006,25.677757,0 108.929399000000004,25.684180000000001,0 108.948407000000003,25.676686,0 108.958180999999996,25.691347,0 108.974551000000005,25.700422,0 108.983906000000005,25.720571,0 109.001355000000004,25.724526000000001,0 109.003214,25.736343999999999,0 109.030557000000002,25.722712000000001,0 109.036913999999996,25.724526000000001,0 109.042850000000001,25.737693,0 109.055862000000005,25.738111,0 109.054303000000004,25.732202999999998,0 109.079127999999997,25.720711000000001,0 109.071932000000004,25.708193999999999,0 109.075230000000005,25.693860999999998,0 109.057480999999996,25.679805000000002,0 109.049505999999994,25.66058,0 109.042969999999997,25.656949000000001,0 109.041891000000007,25.638978000000002,0 109.031216999999998,25.629525999999998,0 109.046627999999998,25.618862,0 109.042429999999996,25.608896000000001,0 109.046328000000003,25.5748,0 109.052204000000003,25.566832999999999,0 109.067795000000004,25.561848000000001,0 109.075590000000005,25.553089,0 109.088542000000004,25.549500999999999,0 109.077329000000006,25.53622,0 109.066835999999995,25.538737000000001,0 109.055502000000004,25.525548000000001,0 109.044168999999997,25.527971999999998,0 109.025101000000006,25.512498000000001,0 109.011069000000006,25.519255999999999,0 108.989661999999996,25.533704,0 108.972871999999995,25.531793,0 108.972453000000002,25.542511000000001,0 108.952425000000005,25.556349999999998,0 108.937912999999995,25.553601,0 108.931736999999998,25.556397,0 108.913088000000002,25.543769000000001,0 108.897497999999999,25.540880000000001,0 108.888923000000005,25.544841000000002,0 108.890422000000001,25.556256999999999,0 108.876210999999998,25.553367999999999,0 108.867335999999995,25.558540000000001,0 108.851566000000005,25.554625999999999,0 108.855942999999996,25.548383000000001,0 108.830337999999998,25.546797999999999,0 108.826500999999993,25.550059999999998,0 108.812708999999998,25.526340000000001,0 108.800117,25.538038,0 108.798078000000004,25.546704999999999,0 108.789142999999996,25.554673000000001,0 108.781288000000004,25.554347,0 108.786924999999997,25.572144000000002,0 108.799156999999994,25.576011000000001,0 108.794839999999994,25.593992,0 108.780269000000004,25.601815999999999,0 108.786564999999996,25.620818,0 108.784046000000004,25.628267999999998,0 108.765518,25.632086999999999,0 108.761979999999994,25.637767,0 108.723363000000006,25.634508,0 108.714489,25.623472,0 108.703694999999996,25.625520999999999,0 108.689003999999997,25.623193000000001,0 108.682407999999995,25.605868000000001,0 108.689723000000001,25.604285000000001,0 108.690443000000002,25.596274000000001,0 108.683786999999995,25.586119,0 108.672814000000002,25.590171999999999,0 108.660940999999994,25.584814999999999,0 108.659920999999997,25.573449,0 108.665918000000005,25.562360999999999,0 108.658182999999994,25.551831,0 108.687325000000001,25.535242,0 108.690443000000002,25.518930000000001,0 108.682468,25.521027,0 108.667716999999996,25.532212999999999,0 108.663039999999995,25.526014,0 108.654584999999997,25.530069000000001,0 108.632878000000005,25.518884,0 108.631319000000005,25.508396000000001,0 108.622203999999996,25.502896,0 108.621184999999997,25.49278,0 108.607453000000007,25.492080999999999,0 108.618127000000001,25.484342000000002,0 108.620405000000005,25.476696,0 108.628260999999995,25.477955000000001,0 108.633178000000001,25.464433,0 108.621364999999997,25.468024,0 108.611530999999999,25.479633,0 108.598877999999999,25.454827999999999,0 108.600318000000001,25.432487999999999,0 108.587665000000001,25.421386999999999,0 108.595879999999994,25.407533000000001,0 108.613868999999994,25.407253000000001,0 108.622264000000001,25.389758,0 108.623883000000006,25.377299000000001,0 108.615368000000004,25.365773000000001,0 108.63006,25.335902999999998,0 108.624903000000003,25.324325999999999,0 108.625202000000002,25.308126000000001,0 108.613868999999994,25.309853,0 108.589044000000001,25.335342000000001,0 108.594380999999998,25.347525000000001,0 108.585865999999996,25.366007,0 108.562479999999994,25.374079999999999,0 108.564038999999994,25.384345,0 108.543952000000004,25.403661,0 108.544370999999998,25.407999,0 108.524224000000004,25.418354999999998,0 108.511270999999994,25.414390000000001,0 108.513850000000005,25.428709999999999,0 108.507373999999999,25.432955,0 108.500358000000006,25.447831999999998,0 108.488365000000002,25.456365999999999,0 108.471815000000007,25.458884000000001,0 108.463300000000004,25.454315000000001,0 108.443152999999995,25.449978000000002,0 108.433437999999995,25.436406000000002,0 108.418987000000001,25.443355,0 108.415088999999995,25.461682,0 108.400338000000005,25.491382000000002,0 108.392543000000003,25.498560999999999,0 108.381389999999996,25.500658999999999,0 108.359562999999994,25.513477000000002,0 108.351827999999998,25.524709000000001,0 108.352486999999996,25.533097999999999,0 108.344691999999995,25.537338999999999,0 108.316688999999997,25.531514000000001,0 108.303257000000002,25.520748000000001,0 108.305415999999994,25.516227000000001,0 108.299239,25.501124999999998,0 108.28107,25.480005999999999,0 108.260923000000005,25.473759000000001,0 108.240714999999994,25.461915000000001,0 108.236097999999998,25.449370999999999,0 108.252408000000003,25.438458000000001,0 108.252048000000002,25.430482999999999,0 108.225843999999995,25.426984999999998,0 108.226264,25.437245999999998,0 108.221406999999999,25.450071000000001,0 108.202997999999994,25.451702999999998,0 108.192623999999995,25.459071000000002,0 108.162462000000005,25.444754,0 108.157605000000004,25.439018000000001,0 108.165041000000002,25.427403999999999,0 108.170616999999993,25.431835,0 108.190584999999999,25.418914999999998,0 108.185727999999997,25.413364000000001,0 108.193284000000006,25.405526999999999,0 108.182550000000006,25.391577000000002,0 108.165101000000007,25.391577000000002,0 108.153827000000007,25.394749999999998,0 108.142793999999995,25.390644000000002,0 108.155266999999995,25.377953000000002,0 108.152147999999997,25.353732000000001,0 108.136617999999999,25.343138,0 108.137816999999998,25.336509,0 108.152088000000006,25.324418999999999,0 108.149510000000006,25.310366999999999,0 108.135958000000002,25.297854000000001,0 108.137038000000004,25.278148000000002,0 108.143333999999996,25.269787999999998,0 108.134759000000003,25.259699000000001,0 108.133740000000003,25.234380999999999,0 108.121746999999999,25.231017000000001,0 108.114911000000006,25.210225999999999,0 108.080612000000002,25.193777000000001,0 108.053628000000003,25.199572,0 108.010754000000006,25.195271999999999,0 108.001938999999993,25.196534,0 107.989107000000004,25.186859999999999,0 107.969138999999998,25.177886000000001,0 107.950490000000002,25.174194,0 107.928604000000007,25.155823999999999,0 107.915411000000006,25.156804999999999,0 107.898082000000002,25.148904999999999,0 107.897661999999997,25.144836999999999,0 107.872416999999999,25.141611000000001,0 107.867859999999993,25.129408000000002,0 107.841896000000006,25.115940999999999,0 107.819529000000003,25.129173999999999,0 107.806816999999995,25.124825999999999,0 107.794465000000002,25.116128,0 107.778633999999997,25.124779,0 107.768979999999999,25.117531,0 107.762683999999993,25.124499,0 107.778813999999997,25.134926,0 107.789488000000006,25.154748000000001,0 107.782712000000004,25.170455,0 107.759985,25.188635999999999,0 107.756388000000001,25.199898999999998,0 107.762144000000006,25.228961999999999,0 107.752970000000005,25.240874999999999,0 107.742115999999996,25.240220999999998,0 107.710395000000005,25.20345,0 107.700620999999998,25.194151000000002,0 107.694625000000002,25.197889,0 107.696243999999993,25.219850999999998,0 107.690546999999995,25.228168,0 107.669979999999995,25.244425,0 107.661884999999998,25.258952000000001,0 107.658347000000006,25.293371,0 107.668899999999994,25.307472000000001,0 107.659666000000001,25.316296000000001,0 107.643416000000002,25.314848999999999,0 107.631962999999999,25.310133,0 107.614393000000007,25.276979999999998,0 107.614992999999998,25.268107000000001,0 107.608936999999997,25.266051000000001,0 107.605638999999996,25.255215,0 107.593766000000002,25.262829,0 107.599401999999998,25.250965000000001,0 107.590828000000002,25.24905,0 107.583572000000004,25.256056000000001,0 107.558926999999997,25.246901000000001,0 107.554069999999996,25.239567000000001,0 107.543335999999996,25.234848,0 107.541477999999998,25.22457,0 107.521510000000006,25.221485999999999,0 107.518331000000003,25.207609000000001,0 107.513114999999999,25.21658,0 107.504480000000001,25.217607999999998,0 107.504599999999996,25.210692999999999,0 107.479235000000003,25.211207000000002,0 107.472279,25.213730000000002,0 107.474618000000007,25.225971999999999,0 107.470000999999996,25.232092000000002,0 107.490088999999998,25.276700000000002,0 107.481573999999995,25.300187999999999,0 107.470960000000005,25.300795000000001,0 107.449072999999999,25.287534000000001,0 107.432703000000004,25.289121999999999,0 107.428685999999999,25.313448000000001,0 107.409137999999999,25.347152000000001,0 107.408537999999993,25.360220000000002,0 107.413034999999994,25.372772999999999,0 107.423828999999998,25.383879,0 107.42089,25.393070000000002,0 107.402422000000001,25.393723000000001,0 107.386410999999995,25.410612,0 107.375798000000003,25.412057999999998,0 107.367222999999996,25.403894000000001,0 107.364643999999998,25.394983,0 107.353910999999997,25.395496000000001,0 107.344376999999994,25.403661,0 107.314874000000003,25.402633999999999,0 107.308998000000003,25.409165999999999,0 107.308397999999997,25.433140999999999,0 107.315113999999994,25.429690000000001,0 107.325727999999998,25.434726999999999,0 107.325308000000007,25.442516000000001,0 107.332744000000005,25.446712999999999,0 107.330164999999994,25.473199000000001,0 107.321230999999997,25.484575,0 107.322190000000006,25.493433,0 107.328665999999998,25.494551999999999,0 107.313495000000003,25.504947000000001,0 107.307738999999998,25.500239000000001,0 107.296105999999995,25.520468000000001,0 107.263904999999994,25.543164000000001,0 107.237640999999996,25.551644,0 107.230205999999995,25.564782999999998,0 107.236022000000006,25.585328000000001,0 107.228646999999995,25.604890000000001,0 107.211196999999999,25.609175,0 107.199743999999995,25.603819000000001,0 107.187271999999993,25.590917000000001,0 107.185232999999997,25.578340000000001,0 107.165983999999995,25.574334,0 107.160708,25.570281000000001,0 107.122331000000003,25.564737000000001,0 107.093428000000003,25.569814999999998,0 107.064526000000001,25.559518000000001,0 107.064166,25.543303000000002,0 107.074600000000004,25.521260000000002,0 107.070102000000006,25.511752000000001,0 107.055650999999997,25.503968,0 107.039760999999999,25.503316000000002,0 107.019073000000006,25.497395000000001,0 107.007499999999993,25.479447,0 107.003842000000006,25.462102000000002,0 106.996466999999996,25.442702000000001,0 106.981896000000006,25.448159,0 106.963727000000006,25.437339000000001,0 106.968884000000003,25.425958999999999,0 106.967804000000001,25.409492,0 106.974159999999998,25.407019999999999,0 106.979797000000005,25.388124999999999,0 106.979496999999995,25.374079999999999,0 106.986932999999993,25.359753000000001,0 107.010918000000004,25.354946000000002,0 107.014275999999995,25.344818,0 107.007440000000003,25.308078999999999,0 107.013377000000006,25.295518999999999,0 107.009958999999995,25.290289000000001,0 107.013735999999994,25.275345999999999,0 106.991370000000003,25.263109,0 106.987471999999997,25.255776000000001,0 106.998326000000006,25.244145,0 106.995867000000004,25.239612999999999,0 106.976078999999999,25.232932999999999,0 106.955271999999994,25.246247,0 106.933265000000006,25.250451000000002,0 106.912997000000004,25.243023999999998,0 106.904122999999998,25.231531,0 106.900225000000006,25.212702,0 106.900225000000006,25.194478,0 106.888292000000007,25.182186000000002,0 106.852733999999998,25.186954,0 106.836364000000003,25.179476000000001,0 106.798107000000002,25.170455,0 106.787553000000003,25.170874999999999,0 106.772381999999993,25.181391999999999,0 106.764646999999997,25.183121,0 106.732146999999998,25.162320999999999,0 106.722432999999995,25.161854000000002,0 106.705522999999999,25.176157,0 106.691130999999999,25.179241999999999,0 106.667506000000003,25.170594999999999,0 106.645019000000005,25.164846000000001,0 106.639022999999995,25.157273,0 106.640522000000004,25.135065999999998,0 106.629309000000006,25.121411999999999,0 106.614317999999997,25.116361999999999,0 106.597108000000006,25.104904999999999,0 106.590631999999999,25.087786999999999,0 106.578939000000005,25.083670999999999,0 106.551295999999994,25.082829,0 106.530968000000001,25.072537000000001,0 106.522572999999994,25.05986,0 106.512499000000005,25.051110999999999,0 106.463569000000007,25.040302000000001,0</coordinates></LinearRing></outerBoundaryIs><innerBoundaryIs><LinearRing><coordinates>109.466914000000003,26.831927,0 109.476568,26.829899000000001,0 109.482084999999998,26.837042,0 109.466914000000003,26.831927,0</coordinates></LinearRing></innerBoundaryIs></Polygon><Polygon><outerBoundaryIs><LinearRing><coordinates>109.528436999999997,26.741471000000001,0 109.534193000000002,26.744561000000001,0 109.553921000000003,26.735289999999999,0 109.561537000000001,26.742208999999999,0 109.558059,26.754660999999999,0 109.570410999999993,26.747928000000002,0 109.577366999999995,26.751617,0 109.580365,26.755676000000001,0 109.577127000000004,26.770569999999999,0 109.596435,26.760701999999998,0 109.579046000000005,26.740825000000001,0 109.578146000000004,26.733307,0 109.568252000000001,26.726203000000002,0 109.553381000000002,26.722974000000001,0 109.547264999999996,26.7179,0 109.546306000000001,26.731047,0 109.528436999999997,26.741471000000001,0</coordinates></LinearRing></outerBoundaryIs></Polygon></MultiGeometry></Placemark>
</Document>
</kml>