<?xml version="1.0" encoding="UTF-8"?>
<kml xmlns="http://www.opengis.net/kml/2.2">
<Document>
<name>遵义市</name>
<Placemark><name>遵义市</name><MultiGeometry><Polygon><outerBoundaryIs><LinearRing><coordinates>108.069398000000007,29.086552000000001,0 108.035999000000004,29.054051000000001,0 108.034499999999994,29.046737,0 108.024246000000005,29.038699999999999,0 107.993904000000001,29.033823000000002,0 107.949291000000002,29.033733000000002,0 107.931122000000002,29.035222999999998,0 107.908815000000004,29.007359000000001,0 107.887647999999999,29.008533,0 107.883031000000003,28.986533999999999,0 107.871998000000005,28.983056000000001,0 107.867559999999997,28.960464000000002,0 107.842016000000001,28.964621999999999,0 107.828103999999996,28.976143,0 107.810415000000006,28.984321000000001,0 107.821207999999999,29.005732999999999,0 107.823547000000005,29.034230000000001,0 107.815092000000007,29.034772,0 107.803459000000004,29.042898999999998,0 107.785229999999999,29.047234,0 107.789846999999995,29.082355,0 107.799981000000002,29.106183000000001,0 107.810654999999997,29.139389000000001,0 107.795184000000006,29.146470999999998,0 107.782352000000003,29.161670999999998,0 107.775216,29.162842999999999,0 107.767900999999995,29.17511,0 107.760284999999996,29.177679999999999,0 107.759386000000006,29.192288999999999,0 107.751591000000005,29.199638,0 107.739418000000001,29.189043000000002,0 107.724727000000001,29.182189000000001,0 107.727244999999996,29.175695999999999,0 107.718491,29.156123000000001,0 107.707577000000001,29.154184000000001,0 107.698643000000004,29.141238999999999,0 107.662604000000002,29.147914,0 107.659486000000001,29.162887999999999,0 107.645874000000006,29.160858999999999,0 107.628784999999993,29.16582,0 107.616911999999999,29.162979,0 107.606718000000001,29.165458999999998,0 107.600601999999995,29.159596000000001,0 107.601022,29.147824,0 107.589269000000002,29.150034000000002,0 107.585070999999999,29.158332999999999,0 107.590168000000006,29.165279000000002,0 107.581174000000004,29.172539,0 107.576256000000001,29.185120000000001,0 107.575477000000006,29.207301999999999,0 107.569300999999996,29.219427,0 107.554370000000006,29.219472,0 107.549572999999995,29.210052000000001,0 107.532242999999994,29.195489999999999,0 107.515332999999998,29.194497999999999,0 107.488290000000006,29.174703999999998,0 107.473059000000006,29.171005999999998,0 107.462325000000007,29.176867999999999,0 107.464004000000003,29.195444999999999,0 107.441457999999997,29.203966000000001,0 107.427066999999994,29.190304999999999,0 107.404399999999995,29.18787,0 107.403261000000001,29.172494,0 107.412316000000004,29.1614,0 107.408237999999997,29.150891000000001,0 107.408417999999998,29.138352000000001,0 107.421490000000006,29.13578,0 107.427605999999997,29.128291000000001,0 107.412674999999993,29.095397999999999,0 107.392287999999994,29.091246000000002,0 107.382034000000004,29.097518999999998,0 107.369741000000005,29.091607,0 107.376097000000001,29.074771999999999,0 107.377896000000007,29.057979,0 107.390728999999993,29.059062999999998,0 107.395166000000003,29.039648,0 107.377296999999999,29.026779000000001,0 107.364165,29.009616999999999,0 107.370461000000006,28.993898000000002,0 107.396964999999994,28.993355999999999,0 107.40446,28.981881000000001,0 107.405540000000002,28.972258,0 107.412975000000003,28.960148,0 107.421549999999996,28.954545,0 107.438760000000002,28.955268,0 107.441038000000006,28.943788999999999,0 107.433603000000005,28.933755000000001,0 107.42089,28.925211999999998,0 107.413815,28.911424,0 107.415614000000005,28.889811000000002,0 107.406138999999996,28.891529999999999,0 107.391927999999993,28.868466000000002,0 107.395405999999994,28.860866999999999,0 107.383472999999995,28.848564,0 107.367283,28.844989999999999,0 107.359907000000007,28.849965999999998,0 107.331963999999999,28.841190000000001,0 107.345156000000003,28.829608,0 107.325367999999997,28.809562,0 107.304620999999997,28.806757000000001,0 107.277157000000003,28.799154000000001,0 107.261447000000004,28.792726999999999,0 107.252392,28.780550999999999,0 107.253532000000007,28.766788999999999,0 107.246635999999995,28.761854,0 107.219232000000005,28.772718999999999,0 107.218753000000007,28.788698,0 107.213415999999995,28.795034999999999,0 107.210598000000005,28.814812,0 107.216353999999995,28.82816,0 107.226367999999994,28.836801999999999,0 107.195126999999999,28.838068,0 107.196866,28.847387999999999,0 107.206519999999998,28.868013999999999,0 107.194047999999995,28.876607,0 107.198425,28.878416000000001,0 107.193567999999999,28.888770999999998,0 107.184094000000002,28.879953,0 107.182653999999999,28.887143999999999,0 107.167124000000001,28.880586000000001,0 107.155850999999998,28.882982999999999,0 107.145776999999995,28.876878000000001,0 107.141938999999994,28.887730999999999,0 107.096665999999999,28.890083000000001,0 107.090249999999997,28.875114,0 107.072681000000003,28.866612,0 107.059788999999995,28.868466000000002,0 107.063385999999994,28.877058999999999,0 107.072321000000002,28.87932,0 107.066564999999997,28.895372999999999,0 107.052532999999997,28.891123,0 107.045576999999994,28.874932999999999,0 107.058708999999993,28.868963999999998,0 107.038981000000007,28.863717000000001,0 107.038860999999997,28.877963000000001,0 107.032385000000005,28.882304999999999,0 107.016075000000001,28.882486,0 107.019132999999997,28.860686999999999,0 107.005161999999999,28.859193999999999,0 107.002643000000006,28.854489999999998,0 106.983395000000002,28.851186999999999,0 106.989271000000002,28.829563,0 106.980816000000004,28.813182999999999,0 106.981356000000005,28.804268,0 106.988671999999994,28.790327999999999,0 106.987892000000002,28.774666,0 106.967804000000001,28.774122999999999,0 106.951734000000002,28.766970000000001,0 106.950235000000006,28.777608000000001,0 106.942260000000005,28.782135,0 106.938422000000003,28.792365,0 106.923070999999993,28.810015,0 106.905382000000003,28.796120999999999,0 106.897886999999997,28.801145000000002,0 106.886373000000006,28.794718,0 106.874261000000004,28.779736,0 106.864607000000007,28.774484999999999,0 106.862328000000005,28.780595999999999,0 106.845358000000004,28.781002999999998,0 106.838462000000007,28.765974,0 106.833365999999998,28.768781000000001,0 106.824071000000004,28.756149000000001,0 106.828328999999997,28.737674999999999,0 106.852913999999998,28.724450999999998,0 106.862567999999996,28.707556,0 106.853932999999998,28.706333000000001,0 106.854713000000004,28.697092000000001,0 106.862148000000005,28.690975999999999,0 106.883195000000001,28.692426000000001,0 106.880617000000001,28.680510000000002,0 106.866945000000001,28.649920999999999,0 106.869764000000004,28.649059999999999,0 106.866345999999993,28.624492,0 106.829288000000005,28.622724000000002,0 106.833246000000003,28.613202999999999,0 106.827068999999995,28.598558000000001,0 106.807700999999994,28.589442999999999,0 106.800505000000001,28.602139999999999,0 106.793430000000001,28.606493,0 106.792590000000004,28.616240999999999,0 106.780358000000007,28.624991000000001,0 106.775020999999995,28.611979000000002,0 106.759069999999994,28.611118000000001,0 106.758590999999996,28.588128000000001,0 106.766626000000002,28.580145999999999,0 106.780957000000001,28.574884999999998,0 106.779877999999997,28.563773000000001,0 106.765127000000007,28.558192999999999,0 106.754333000000003,28.558329000000001,0 106.737363999999999,28.553294000000001,0 106.728189,28.541998,0 106.723991999999996,28.529883000000002,0 106.726029999999994,28.518584000000001,0 106.744859000000005,28.489854999999999,0 106.746657999999996,28.466657999999999,0 106.732866000000001,28.463570000000001,0 106.725251,28.454443999999999,0 106.716195999999997,28.456396000000002,0 106.708521000000005,28.450493000000002,0 106.693290000000005,28.456531999999999,0 106.697667999999993,28.476645000000001,0 106.688253000000003,28.484680999999998,0 106.678359,28.481366999999999,0 106.661090000000002,28.491897999999999,0 106.649755999999996,28.479551000000001,0 106.631107999999998,28.490264,0 106.632727000000003,28.503516999999999,0 106.61018,28.497934999999998,0 106.593390999999997,28.510189,0 106.584935999999999,28.506875999999998,0 106.591532000000001,28.499068999999999,0 106.591831999999997,28.490355000000001,0 106.568026000000003,28.484044999999998,0 106.562809000000001,28.497389999999999,0 106.567905999999994,28.505286999999999,0 106.560291000000007,28.513366000000001,0 106.568685000000002,28.523667,0 106.584636000000003,28.523257999999998,0 106.588892999999999,28.531426,0 106.615277000000006,28.549665000000001,0 106.616836000000006,28.562819999999999,0 106.607061999999999,28.594296,0 106.613059000000007,28.608851000000001,0 106.626011000000005,28.604317000000002,0 106.633566000000002,28.607627000000001,0 106.636803999999998,28.623222999999999,0 106.628589000000005,28.634464999999999,0 106.618875000000003,28.637276,0 106.617676000000003,28.644255999999999,0 106.641182000000001,28.644165000000001,0 106.651375999999999,28.649422999999999,0 106.643699999999995,28.664332999999999,0 106.635244999999998,28.658487000000001,0 106.626850000000005,28.659257,0 106.617676000000003,28.667279000000001,0 106.614258000000007,28.680282999999999,0 106.619174999999998,28.689164000000002,0 106.606103000000004,28.685040999999998,0 106.598067999999998,28.691882,0 106.587273999999994,28.691519,0 106.582357000000002,28.702210999999998,0 106.576841000000002,28.702392,0 106.560291000000007,28.720737,0 106.559751000000006,28.733871000000001,0 106.563888000000006,28.746188,0 106.561850000000007,28.756059,0 106.547998000000007,28.769867000000001,0 106.534025999999997,28.770909,0 106.533787000000004,28.778739999999999,0 106.523053000000004,28.781139,0 106.521134000000004,28.794266,0 106.508781999999997,28.795850000000002,0 106.490612999999996,28.806529999999999,0 106.476220999999995,28.826757000000001,0 106.474481999999995,28.833046,0 106.461830000000006,28.831009999999999,0 106.468425999999994,28.826440999999999,0 106.453495000000004,28.816939000000001,0 106.451396000000003,28.808114,0 106.459610999999995,28.805716,0 106.462789999999998,28.797207,0 106.451695999999998,28.792816999999999,0 106.454515000000001,28.775300000000001,0 106.462069999999997,28.761220000000002,0 106.493851000000006,28.739485999999999,0 106.498108000000002,28.717476000000001,0 106.510340999999997,28.715166,0 106.515856999999997,28.688122,0 106.528270000000006,28.677655000000001,0 106.520174999999995,28.662112,0 106.502785000000003,28.661297000000001,0 106.506682999999995,28.635598000000002,0 106.501046000000002,28.628119000000002,0 106.501525999999998,28.618552999999999,0 106.494990000000001,28.615152999999999,0 106.494330000000005,28.600190000000001,0 106.513339000000002,28.577017000000001,0 106.524072000000004,28.577832999999998,0 106.508781999999997,28.564861000000001,0 106.498828000000003,28.585861000000001,0 106.473822999999996,28.598966000000001,0 106.467347000000004,28.588536000000001,0 106.478920000000002,28.575021,0 106.487255000000005,28.558827999999998,0 106.504704000000004,28.544674000000001,0 106.501165999999998,28.534510999999998,0 106.493370999999996,28.538322999999998,0 106.483836999999994,28.530608999999998,0 106.471603999999999,28.532606000000001,0 106.467286999999999,28.541588999999998,0 106.453074999999998,28.544720000000002,0 106.454035000000005,28.549755000000001,0 106.441621999999995,28.559418000000001,0 106.434066999999999,28.556695999999999,0 106.423213000000004,28.562684000000001,0 106.412959999999998,28.563137999999999,0 106.399107999999998,28.571166000000002,0 106.385676000000004,28.560824,0 106.389814000000001,28.553249000000001,0 106.373563000000004,28.537642000000002,0 106.378600000000006,28.532606000000001,0 106.373743000000005,28.524982999999999,0 106.374522999999996,28.510915000000001,0 106.380578999999997,28.507375,0 106.376142000000002,28.493304999999999,0 106.378900000000002,28.479731999999998,0 106.352875999999995,28.480277000000001,0 106.349097999999998,28.473784999999999,0 106.341363000000001,28.480685999999999,0 106.330689000000007,28.482137999999999,0 106.323673999999997,28.494938999999999,0 106.306824000000006,28.503245,0 106.293992000000003,28.526934000000001,0 106.292612000000005,28.537324000000002,0 106.278041000000002,28.538867,0 106.277261999999993,28.532878,0 106.254835,28.539411999999999,0 106.236186000000004,28.560144000000001,0 106.214778999999993,28.573207,0 106.205605000000006,28.567990999999999,0 106.192593000000002,28.577244,0 106.184798000000001,28.589442999999999,0 106.184856999999994,28.600598999999999,0 106.173344,28.612522999999999,0 106.171245999999996,28.628663,0 106.165728999999999,28.636233000000001,0 106.152056999999999,28.636505,0 106.144621999999998,28.644753999999999,0 106.129330999999993,28.640041,0 106.115658999999994,28.642533,0 106.120756,28.632743000000001,0 106.103426999999996,28.636096999999999,0 106.098209999999995,28.654907000000001,0 106.083038999999999,28.661387000000001,0 106.090294999999998,28.669454000000002,0 106.080461,28.686309000000001,0 106.066428999999999,28.692516000000001,0 106.066969,28.686173,0 106.043163000000007,28.693557999999999,0 106.030811,28.695053000000001,0 106.036086999999995,28.706242,0 106.022954999999996,28.708144999999998,0 106.028891999999999,28.719695000000002,0 106.017917999999995,28.722639000000001,0 106.008923999999993,28.738218,0 105.999510000000001,28.742927999999999,0 105.979241999999999,28.746549999999999,0 105.967788999999996,28.761628000000002,0 105.965630000000004,28.736045000000001,0 105.954597000000007,28.724632,0 105.955916000000002,28.713851999999999,0 105.942303999999993,28.71041,0 105.933369999999996,28.702300999999999,0 105.935587999999996,28.681913999999999,0 105.921915999999996,28.679015,0 105.903568000000007,28.669226999999999,0 105.889476000000002,28.670496,0 105.891935000000004,28.651326000000001,0 105.901049,28.648561999999998,0 105.895651999999998,28.643712000000001,0 105.893732999999997,28.623902999999999,0 105.890255999999994,28.621409,0 105.905906000000002,28.611027,0 105.893433999999999,28.605722,0 105.885039000000006,28.595475,0 105.876164000000003,28.602910999999999,0 105.859493999999998,28.597923000000002,0 105.850499999999997,28.606311999999999,0 105.835988,28.599419999999999,0 105.798390999999995,28.603183000000001,0 105.784959000000001,28.611118000000001,0 105.778482999999994,28.59883,0 105.757676000000004,28.590350000000001,0 105.757255999999998,28.602231,0 105.748801,28.615152999999999,0 105.737707999999998,28.614201000000001,0 105.720678000000007,28.590622,0 105.713003,28.586586,0 105.699931000000007,28.592300000000002,0 105.693155000000004,28.588581999999999,0 105.691834999999998,28.564679999999999,0 105.683380999999997,28.557876,0 105.684640000000002,28.534557,0 105.671207999999993,28.536280999999999,0 105.664491999999996,28.523803000000001,0 105.650101000000006,28.522986,0 105.642245000000003,28.517586000000001,0 105.623896999999999,28.518131,0 105.627973999999995,28.507829000000001,0 105.619399000000001,28.484000000000002,0 105.614661999999996,28.484227000000001,0 105.609324999999998,28.472196,0 105.619279000000006,28.464023999999998,0 105.611964,28.455169999999999,0 105.612562999999994,28.438912999999999,0 105.631872000000001,28.432147000000001,0 105.643265,28.431511,0 105.648302000000001,28.407845999999999,0 105.642724999999999,28.397715000000002,0 105.650281000000007,28.389537000000001,0 105.652738999999997,28.372406999999999,0 105.660174999999995,28.365272000000001,0 105.654898000000003,28.362363999999999,0 105.651780000000002,28.34282,0 105.639487000000003,28.324227,0 105.639966999999999,28.311042,0 105.649921000000006,28.319089999999999,0 105.658196000000004,28.310632999999999,0 105.670547999999997,28.30986,0 105.683020999999997,28.295582,0 105.688597000000001,28.284348999999999,0 105.705087000000006,28.279845999999999,0 105.711264,28.281711000000001,0 105.730031999999994,28.272158999999998,0 105.738546999999997,28.277298999999999,0 105.735248999999996,28.291671000000001,0 105.740706000000003,28.304857999999999,0 105.761332999999993,28.309360000000002,0 105.786637999999996,28.308814000000002,0 105.771287000000001,28.319452999999999,0 105.771347000000006,28.328818999999999,0 105.785679000000002,28.336500999999998,0 105.792814000000007,28.329454999999999,0 105.797672000000006,28.312360999999999,0 105.808404999999993,28.307223,0 105.823396000000002,28.306903999999999,0 105.833950000000002,28.283348,0 105.850020000000001,28.254237,0 105.863212000000004,28.249186999999999,0 105.874184999999997,28.254601000000001,0 105.875804000000002,28.244865000000001,0 105.890555000000006,28.236266000000001,0 105.881021000000004,28.211829000000002,0 105.871007000000006,28.201953,0 105.860274000000004,28.170041999999999,0 105.860992999999993,28.158158,0 105.868609000000006,28.146729000000001,0 105.878563,28.139033000000001,0 105.876043999999993,28.128239000000001,0 105.895173,28.119767,0 105.903687000000005,28.129194999999999,0 105.927193000000003,28.135435000000001,0 105.936966999999996,28.132247,0 105.945241999999993,28.143540999999999,0 105.963290999999998,28.137893999999999,0 105.970787000000001,28.131245,0 105.976123999999999,28.108059999999998,0 105.985358000000005,28.108378999999999,0 105.986198000000002,28.116032000000001,0 106.013240999999994,28.119948999999998,0 106.020617000000001,28.109152999999999,0 106.033868999999996,28.106966,0 106.036567000000005,28.110702,0 106.027213000000003,28.131245,0 106.037645999999995,28.138349000000002,0 106.060912000000002,28.142949000000002,0 106.071826000000001,28.151236999999998,0 106.093592999999998,28.162666000000002,0 106.112841000000003,28.163577,0 106.125073999999998,28.167083000000002,0 106.145221000000006,28.162848,0 106.177301999999997,28.148596000000001,0 106.191632999999996,28.136755000000001,0 106.207104000000001,28.134250999999999,0 106.211540999999997,28.119083,0 106.226231999999996,28.115894999999998,0 106.231448999999998,28.097992000000001,0 106.249917999999994,28.092569999999998,0 106.254655,28.079492999999999,0 106.266707999999994,28.066551,0 106.265508999999994,28.049869999999999,0 106.256754000000001,28.048503,0 106.243201999999997,28.029084000000001,0 106.246260000000007,28.011987000000001,0 106.268927000000005,28.003323000000002,0 106.283017999999998,28.007199,0 106.294351000000006,28.003643,0 106.301846999999995,27.989916000000001,0 106.315817999999993,27.979517999999999,0 106.317376999999993,27.967659000000001,0 106.325173000000007,27.962595,0 106.328111000000007,27.952878999999999,0 106.314019000000002,27.938507000000001,0 106.308023000000006,27.936727999999999,0 106.309222000000005,27.913592000000001,0 106.300348,27.908709000000002,0 106.304905000000005,27.899352,0 106.325772000000001,27.897936999999999,0 106.333327999999995,27.887986999999999,0 106.325891999999996,27.879313,0 106.338184999999996,27.875340999999999,0 106.339984000000001,27.865342999999999,0 106.334287000000003,27.855115000000001,0 106.317077999999995,27.838767000000001,0 106.319416000000004,27.832007000000001,0 106.329970000000003,27.825749999999999,0 106.344240999999997,27.826846,0 106.341842999999997,27.820177999999999,0 106.321515000000005,27.809398000000002,0 106.306944000000001,27.808667,0 106.268507,27.782167999999999,0 106.242423000000002,27.767316999999998,0 106.23115,27.767316999999998,0 106.224672999999996,27.760964999999999,0 106.206564,27.762930000000001,0 106.193492000000006,27.754384000000002,0 106.179340999999994,27.761925000000002,0 106.165249000000003,27.763158000000001,0 106.143602000000001,27.773759999999999,0 106.127532000000002,27.778649999999999,0 106.105824999999996,27.779928999999999,0 106.079320999999993,27.775680000000001,0 106.063731000000004,27.777142000000001,0 106.059054000000003,27.770606999999998,0 106.062411999999995,27.763341,0 106.023015000000001,27.746979,0 106.004067000000006,27.746842000000001,0 106.001788000000005,27.72362,0 106.005446000000006,27.715161999999999,0 106.009343999999999,27.684021999999999,0 106.005386000000001,27.663896999999999,0 106.013960999999995,27.660969999999999,0 106.035966999999999,27.667877000000001,0 106.059593000000007,27.670621000000001,0 106.063970999999995,27.663211,0 106.086397000000005,27.661427,0 106.086877000000001,27.656212,0 106.109183000000002,27.648710000000001,0 106.106184999999996,27.630911999999999,0 106.115419000000003,27.612013000000001,0 106.127831999999998,27.613614999999999,0 106.134488000000005,27.594988000000001,0 106.153496000000004,27.574801000000001,0 106.162730999999994,27.560562999999998,0 106.172505000000001,27.558685000000001,0 106.210881999999998,27.567705,0 106.233487999999994,27.552503999999999,0 106.245901000000003,27.559601000000001,0 106.238465000000005,27.574938,0 106.243381999999997,27.582719999999998,0 106.261971000000003,27.595949000000001,0 106.277861000000001,27.603225999999999,0 106.275463000000002,27.61064,0 106.282898000000003,27.616223000000002,0 106.292491999999996,27.602447999999999,0 106.310961000000006,27.597505000000002,0 106.317018000000004,27.585604,0 106.334046999999998,27.578692,0 106.338305000000005,27.563217999999999,0 106.336145999999999,27.543666000000002,0 106.318995999999999,27.534186999999999,0 106.310181999999998,27.517745000000001,0 106.310840999999996,27.510966,0 106.323493999999997,27.486685999999999,0 106.333327999999995,27.474636,0 106.354074999999995,27.477843,0 106.364929000000004,27.472390000000001,0 106.374103000000005,27.486135999999998,0 106.404685000000001,27.498322999999999,0 106.415657999999993,27.505744,0 106.433466999999993,27.510966,0 106.454395000000005,27.505240000000001,0 106.462849000000006,27.491588,0 106.475982000000002,27.493466000000002,0 106.485035999999994,27.485724000000001,0 106.512619000000001,27.476056,0 106.522392999999994,27.476376999999999,0 106.528750000000002,27.483204000000001,0 106.524191999999999,27.502904000000001,0 106.536185000000003,27.509408000000001,0 106.545360000000002,27.506156000000001,0 106.548177999999993,27.517423999999998,0 106.563349000000002,27.517835999999999,0 106.583916000000002,27.529423999999999,0 106.594710000000006,27.532447000000001,0 106.610060000000004,27.528873999999998,0 106.621633000000003,27.518844000000001,0 106.640882000000005,27.509408000000001,0 106.651256000000004,27.486594,0 106.670984000000004,27.464371,0 106.696408000000005,27.464645999999998,0 106.705403000000004,27.453143000000001,0 106.703963999999999,27.431325999999999,0 106.718774999999994,27.416702000000001,0 106.720993000000007,27.405377999999999,0 106.712658000000005,27.377680999999999,0 106.696049000000002,27.356904,0 106.695749000000006,27.347867000000001,0 106.714877000000001,27.309235000000001,0 106.72663,27.297027,0 106.735744999999994,27.276097,0 106.735325000000003,27.255897999999998,0 106.754153000000002,27.245062000000001,0 106.742760000000004,27.238955000000001,0 106.737244000000004,27.222377000000002,0 106.745159000000001,27.218060000000001,0 106.760628999999994,27.230827000000001,0 106.760509999999996,27.247909,0 106.772921999999994,27.25273,0 106.792590000000004,27.276602,0 106.798766000000001,27.2895,0 106.793189999999996,27.304416,0 106.795288999999997,27.312631,0 106.820532999999998,27.32424,0 106.840980999999999,27.321256999999999,0 106.857410999999999,27.308042,0 106.866106000000002,27.288215000000001,0 106.880857000000006,27.272058000000001,0 106.894048999999995,27.263427,0 106.905981999999995,27.267696999999998,0 106.913056999999995,27.278852000000001,0 106.926908999999995,27.291336000000001,0 106.934105000000002,27.306252000000001,0 106.957131000000004,27.312539000000001,0 106.993708999999996,27.349426999999999,0 107.005761000000007,27.355207,0 107.018473999999998,27.356490999999998,0 107.041200000000003,27.350711,0 107.065304999999995,27.338142000000001,0 107.087671999999998,27.322541999999999,0 107.098585,27.321532999999999,0 107.150034000000005,27.348876000000001,0 107.170482000000007,27.356629000000002,0 107.200762999999995,27.355803000000002,0 107.209637999999998,27.371397999999999,0 107.238360999999998,27.400013000000001,0 107.248615000000001,27.403544,0 107.244776999999999,27.415693999999998,0 107.260367000000002,27.428070999999999,0 107.266604000000001,27.438476999999999,0 107.268882000000005,27.455756000000001,0 107.266963000000004,27.476147999999998,0 107.275537999999997,27.478943000000001,0 107.288669999999996,27.46735,0 107.308998000000003,27.462446,0 107.338920000000002,27.459925999999999,0 107.352112000000005,27.466846,0 107.359368000000003,27.465654000000001,0 107.355410000000006,27.444527000000001,0 107.376216999999997,27.442876999999999,0 107.372380000000007,27.435772,0 107.384972000000005,27.430454999999998,0 107.399124,27.417802999999999,0 107.400503,27.405698999999998,0 107.376216999999997,27.388000000000002,0 107.375978000000003,27.366489999999999,0 107.386711000000005,27.361903999999999,0 107.401762000000005,27.363462999999999,0 107.408777999999998,27.353325999999999,0 107.408838000000003,27.343188000000001,0 107.419511,27.342545999999999,0 107.434802000000005,27.372682000000001,0 107.451772000000005,27.365939999999998,0 107.458607999999998,27.368279000000001,0 107.491767999999993,27.371490000000001,0 107.498304000000005,27.364059000000001,0 107.501722000000001,27.349105999999999,0 107.504180000000005,27.315476,0 107.477255999999997,27.297395000000002,0 107.475157999999993,27.280504000000001,0 107.464724000000004,27.277107000000001,0 107.458488000000003,27.268063999999999,0 107.463584999999995,27.251169000000001,0 107.461066000000002,27.240057,0 107.476776999999998,27.240929999999999,0 107.492007000000001,27.230276,0 107.489789000000002,27.223203999999999,0 107.500401999999994,27.216085,0 107.511495999999994,27.203454000000001,0 107.524628000000007,27.207864000000001,0 107.525767000000002,27.218381999999998,0 107.514014000000003,27.237348000000001,0 107.519711000000001,27.244143999999999,0 107.531223999999995,27.224536000000001,0 107.542917000000003,27.215855999999999,0 107.553470000000004,27.216636999999999,0 107.566661999999994,27.225408000000002,0 107.562224999999998,27.236246000000001,0 107.550111999999999,27.252914000000001,0 107.556588000000005,27.257871999999999,0 107.592985999999996,27.267008000000001,0 107.602221,27.267605,0 107.618531000000004,27.258009999999999,0 107.642635999999996,27.267146,0 107.656307999999996,27.267008000000001,0 107.652469999999994,27.253786000000002,0 107.646473999999998,27.247862999999999,0 107.650431999999995,27.238909,0 107.666381999999999,27.234593,0 107.684431000000004,27.235327999999999,0 107.709016000000005,27.228210000000001,0 107.729584000000003,27.226143,0 107.747452999999993,27.217693000000001,0 107.772937999999996,27.218060000000001,0 107.780973000000003,27.209242,0 107.762383999999997,27.203545999999999,0 107.760405000000006,27.191649000000002,0 107.793745000000001,27.188203000000001,0 107.823606999999996,27.186733,0 107.832901000000007,27.192705,0 107.835059999999999,27.185262999999999,0 107.846092999999996,27.183195999999999,0 107.825646000000006,27.171067000000001,0 107.819468999999998,27.159027999999999,0 107.851190000000003,27.164449999999999,0 107.851609999999994,27.150756000000001,0 107.862702999999996,27.141565,0 107.881951999999998,27.142208,0 107.886388999999994,27.146253000000002,0 107.884829999999994,27.15889,0 107.882970999999998,27.175294000000001,0 107.886689000000004,27.178049999999999,0 107.905097999999995,27.175937000000001,0 107.921408,27.189536,0 107.922967,27.196013000000001,0 107.951689999999999,27.192337999999999,0 107.971298000000004,27.199183000000001,0 107.964101999999997,27.209976999999999,0 107.965901000000002,27.214936999999999,0 107.977834000000001,27.215579999999999,0 108.004698000000005,27.226786000000001,0 108.020707999999999,27.229771,0 108.033360000000002,27.238634000000001,0 108.039715999999999,27.258102000000001,0 108.032640999999998,27.269625000000001,0 108.011832999999996,27.274583,0 108.003557999999998,27.286196,0 107.999899999999997,27.302764,0 107.989346999999995,27.305838999999999,0 107.975915000000001,27.317907999999999,0 107.956547,27.312951999999999,0 107.952049000000002,27.328323000000001,0 107.959365000000005,27.339196999999999,0 107.958106000000001,27.350757000000002,0 107.948452000000003,27.354198,0 107.931361999999993,27.346444999999999,0 107.919369000000003,27.332543999999999,0 107.931421999999998,27.321256999999999,0 107.930822000000006,27.313639999999999,0 107.915351999999999,27.314236999999999,0 107.906116999999995,27.325983000000001,0 107.908276000000001,27.332039999999999,0 107.894363999999996,27.345573999999999,0 107.870619000000005,27.341812000000001,0 107.856707,27.330158999999998,0 107.819828999999999,27.324376999999998,0 107.805318,27.331948000000001,0 107.806816999999995,27.347408000000001,0 107.779953000000006,27.351490999999999,0 107.774557000000001,27.359701999999999,0 107.780912999999998,27.373691000000001,0 107.762264000000002,27.385155999999998,0 107.765801999999994,27.391164,0 107.801000999999999,27.394098,0 107.798302000000007,27.404002999999999,0 107.798062000000002,27.438110000000002,0 107.791765999999996,27.443930999999999,0 107.774257000000006,27.443747999999999,0 107.757407000000001,27.453327000000002,0 107.755188000000004,27.459558999999999,0 107.762923999999998,27.475964000000001,0 107.780793000000003,27.486319000000002,0 107.789128000000005,27.485265999999999,0 107.808015999999995,27.491267000000001,0 107.829123999999993,27.542064,0 107.844774000000001,27.555114,0 107.865701999999999,27.551451,0 107.885130000000004,27.551587999999999,0 107.893704999999997,27.556625,0 107.902638999999994,27.568391999999999,0 107.906836999999996,27.591646000000001,0 107.902579000000003,27.612105,0 107.903119000000004,27.627891999999999,0 107.922186999999994,27.666093,0 107.937117999999998,27.680546,0 107.940776,27.691521999999999,0 107.927943999999997,27.726500000000001,0 107.927763999999996,27.745287999999999,0 107.931721999999993,27.753240999999999,0 107.946233000000007,27.767728000000002,0 107.943954000000005,27.779060999999999,0 107.932501000000002,27.778696,0 107.931842000000003,27.793545000000002,0 107.912833000000006,27.80958,0 107.903599,27.826664000000001,0 107.888368,27.844017999999998,0 107.888608000000005,27.878035000000001,0 107.898802000000003,27.897708999999999,0 107.906177,27.904281999999998,0 107.923686000000004,27.908069999999999,0 107.911634000000006,27.929061999999998,0 107.909594999999996,27.937457999999999,0 107.911394000000001,27.962322,0 107.915171999999998,27.973040999999998,0 107.933340999999999,28.001408000000001,0 107.928004000000001,28.009250999999999,0 107.914692000000002,28.018643999999998,0 107.889267000000004,28.051466000000001,0 107.884410000000003,28.063041999999999,0 107.878113999999997,28.055340000000001,0 107.870918000000003,28.058667,0 107.862164000000007,28.037381,0 107.855328,28.038291999999998,0 107.835899999999995,28.031044000000001,0 107.832121999999998,28.049095000000001,0 107.813293000000002,28.047363000000001,0 107.813232999999997,28.06728,0 107.807057,28.069922999999999,0 107.791886000000005,28.066004,0 107.786548999999994,28.074480000000001,0 107.778874000000002,28.072977000000002,0 107.78595,28.083411999999999,0 107.784869999999998,28.093937,0 107.799021999999994,28.125551000000002,0 107.803218999999999,28.147503,0 107.805617999999996,28.174275999999999,0 107.803398999999999,28.183562999999999,0 107.816051999999999,28.175460000000001,0 107.824027000000001,28.183336000000001,0 107.836438999999999,28.184291999999999,0 107.851669999999999,28.202635999999998,0 107.859224999999995,28.200268999999999,0 107.862223999999998,28.211966,0 107.864981999999998,28.247185000000002,0 107.861204000000001,28.261288,0 107.866000999999997,28.288896999999999,0 107.862583000000001,28.308859999999999,0 107.861564000000001,28.339502,0 107.866480999999993,28.358501,0 107.874455999999995,28.370407,0 107.921108000000004,28.370135000000001,0 107.913792000000001,28.382902999999999,0 107.936038999999994,28.384720999999999,0 107.955646999999999,28.380132,0 107.972497000000004,28.383811999999999,0 107.990245999999999,28.368998999999999,0 107.996662000000001,28.369634999999999,0 108.000979999999998,28.384585000000001,0 107.983051000000003,28.397079000000002,0 107.972556999999995,28.398168999999999,0 107.960744000000005,28.411071,0 107.968839000000003,28.423335000000002,0 107.969199000000003,28.439730999999998,0 107.977294000000001,28.447814000000001,0 107.991146000000001,28.441773999999999,0 108.010754000000006,28.446452000000001,0 108.007875999999996,28.434054,0 107.982570999999993,28.431238,0 107.983230000000006,28.422881,0 107.995643000000001,28.427923,0 108.006197,28.424244000000002,0 108.007636000000005,28.415886,0 108.019508999999999,28.403120999999999,0 108.025745000000001,28.401212999999998,0 108.012313000000006,28.396170000000001,0 108.005897000000004,28.389764,0 108.016150999999994,28.384039000000001,0 108.026165000000006,28.368272000000001,0 108.037137999999999,28.365454,0 108.051709000000002,28.388538,0 108.068258999999998,28.422018000000001,0 108.063941999999997,28.433644999999999,0 108.048710999999997,28.444044999999999,0 108.056145999999998,28.454443999999999,0 108.060103999999995,28.472377999999999,0 108.048170999999996,28.489901,0 108.049909999999997,28.500475999999999,0 108.070058000000003,28.516542000000001,0 108.069937999999993,28.526843,0 108.058244999999999,28.541408000000001,0 108.043554,28.548121999999999,0 108.038516999999999,28.5547,0 108.049909999999997,28.566766000000001,0 108.038456999999994,28.583819999999999,0 108.037558000000004,28.592753999999999,0 108.061543,28.613022000000001,0 108.082830000000001,28.620547999999999,0 108.084269000000006,28.627212,0 108.093024,28.621727,0 108.114491000000001,28.628799000000001,0 108.128882000000004,28.644165000000001,0 108.122585999999998,28.652369,0 108.145013000000006,28.669996999999999,0 108.163241999999997,28.677066,0 108.174575000000004,28.690206,0 108.181889999999996,28.712357999999998,0 108.182190000000006,28.741568999999998,0 108.184648999999993,28.748950000000001,0 108.195322000000004,28.750671000000001,0 108.201379000000003,28.763121999999999,0 108.213671000000005,28.776340999999999,0 108.207494999999994,28.817571999999998,0 108.195081999999999,28.802548000000002,0 108.189446000000004,28.800692000000002,0 108.180751000000001,28.810829999999999,0 108.158743999999999,28.845804000000001,0 108.158085,28.856344,0 108.141295,28.855982000000001,0 108.128642999999997,28.869778,0 108.134818999999993,28.902653000000001,0 108.138417000000004,28.932082000000001,0 108.132239999999996,28.943968999999999,0 108.117309000000006,28.950703000000001,0 108.106995999999995,28.961865,0 108.107894999999999,28.975871999999999,0 108.088346999999999,28.999454,0 108.078992999999997,29.007178,0 108.078873000000002,29.023166,0 108.073536000000004,29.058160000000001,0 108.078573000000006,29.071069999999999,0 108.069398000000007,29.086552000000001,0</coordinates></LinearRing></outerBoundaryIs></Polygon><Polygon><outerBoundaryIs><LinearRing><coordinates>107.939216999999999,27.15071,0 107.940956,27.146253000000002,0 107.956067000000004,27.148779999999999,0 107.955946999999995,27.154387,0 107.945154000000002,27.160269,0 107.938976999999994,27.166839,0 107.929383000000001,27.162658,0 107.931662000000003,27.154019000000002,0 107.939216999999999,27.15071,0</coordinates></LinearRing></outerBoundaryIs></Polygon></MultiGeometry></Placemark>
</Document>
</kml>