<?xml version="1.0" encoding="UTF-8"?>
<kml xmlns="http://www.opengis.net/kml/2.2">
<Document>
<name>南平市</name>
<Placemark><name>南平市</name><MultiGeometry><Polygon><outerBoundaryIs><LinearRing><coordinates>119.262116000000006,27.420622999999999,0 119.248953,27.418638999999999,0 119.247247000000002,27.429504000000001,0 119.243443999999997,27.419867,0 119.222628,27.417079999999999,0 119.209464999999994,27.422135000000001,0 119.194742000000005,27.418733,0 119.180262999999997,27.428228000000001,0 119.168514000000002,27.424873999999999,0 119.153987000000001,27.428559,0 119.147551000000007,27.424827000000001,0 119.138775999999993,27.434415999999999,0 119.128489999999999,27.431771000000001,0 119.121420999999998,27.438336,0 119.125906000000001,27.452221000000002,0 119.118886000000003,27.46143,0 119.131316999999996,27.463083000000001,0 119.130780999999999,27.472809999999999,0 119.115082999999998,27.482818999999999,0 119.090074000000001,27.464877000000001,0 119.072524000000001,27.472242999999999,0 119.065162999999998,27.466766,0 119.055314999999993,27.477626000000001,0 119.037180000000006,27.480599999999999,0 119.020798999999997,27.497926,0 118.998909999999995,27.496320999999998,0 118.990719999999996,27.503354999999999,0 118.982774000000006,27.496037999999999,0 118.990427999999994,27.488579000000001,0 118.988282999999996,27.477247999999999,0 118.966003000000001,27.473376999999999,0 118.955425000000005,27.449812999999999,0 118.949184000000002,27.456377,0 118.933340000000001,27.463602000000002,0 118.910769000000002,27.460863,0 118.901456999999994,27.464687999999999,0 118.897704000000004,27.478947999999999,0 118.887806999999995,27.483574999999998,0 118.890342000000004,27.494102999999999,0 118.879909999999995,27.499579000000001,0 118.873571999999996,27.517751000000001,0 118.857873999999995,27.516712999999999,0 118.859628999999998,27.527567999999999,0 118.869184000000004,27.539932,0 118.889026000000001,27.547481999999999,0 118.896045999999998,27.563146,0 118.910184000000001,27.570316999999999,0 118.904041000000007,27.575977999999999,0 118.902480999999995,27.591591000000001,0 118.906771000000006,27.595458000000001,0 118.908282999999997,27.610596999999999,0 118.913888999999998,27.619132,0 118.902626999999995,27.623659,0 118.903700000000001,27.638888000000001,0 118.894096000000005,27.656896,0 118.879909999999995,27.667973,0 118.874644000000004,27.682818000000001,0 118.880543000000003,27.689322000000001,0 118.875034999999997,27.700961,0 118.878495999999998,27.705296000000001,0 118.900043999999994,27.705013000000001,0 118.897947000000002,27.718910999999999,0 118.890439999999998,27.718723000000001,0 118.880640999999997,27.731159999999999,0 118.870744000000002,27.736671000000001,0 118.853973999999994,27.774253000000002,0 118.840030999999996,27.779291000000001,0 118.839398000000003,27.788565999999999,0 118.851488000000003,27.796005000000001,0 118.847099999999998,27.812528,0 118.838813000000002,27.820671000000001,0 118.835400000000007,27.838225000000001,0 118.826331999999994,27.846647999999998,0 118.835740999999999,27.866503999999999,0 118.826526999999999,27.874831,0 118.831500000000005,27.886309000000001,0 118.820434000000006,27.895386999999999,0 118.818434999999994,27.916692000000001,0 118.803712000000004,27.918337999999999,0 118.804541,27.927084000000001,0 118.767099999999999,27.941800000000001,0 118.754181000000003,27.942740000000001,0 118.753499000000005,27.948005999999999,0 118.729902999999993,27.97259,0 118.732487000000006,27.990872,0 118.72654,28.000411,0 118.726588000000007,28.014178000000001,0 118.733510999999993,28.026440000000001,0 118.732681999999997,28.035976000000002,0 118.720348000000001,28.045417,0 118.718788000000004,28.063638999999998,0 118.735363000000007,28.075002999999999,0 118.743163999999993,28.088526000000002,0 118.763541000000004,28.094722999999998,0 118.765150000000006,28.102938999999999,0 118.773584,28.108008999999999,0 118.785332999999994,28.106741,0 118.802297999999993,28.117303,0 118.800445999999994,28.133448000000001,0 118.805905999999993,28.153063,0 118.798106000000004,28.168921999999998,0 118.782944000000001,28.172628,0 118.775143999999997,28.167983,0 118.760958000000002,28.16742,0 118.769294000000002,28.185763000000001,0 118.782116000000002,28.193221000000001,0 118.794791000000004,28.205931,0 118.804151000000005,28.207901,0 118.812389999999994,28.225580000000001,0 118.802054999999996,28.240442999999999,0 118.781188999999998,28.243116000000001,0 118.754523000000006,28.253475999999999,0 118.740871999999996,28.267492000000001,0 118.739361000000002,28.277380999999998,0 118.727320000000006,28.281130000000001,0 118.730147000000002,28.296828999999999,0 118.719373000000004,28.312056999999999,0 118.699287999999996,28.309949,0 118.689879000000005,28.291018999999999,0 118.674814999999995,28.271476,0 118.666674,28.269741,0 118.651365999999996,28.277146999999999,0 118.640251000000006,28.273491,0 118.632987,28.261633,0 118.623041999999998,28.256616999999999,0 118.595741000000004,28.256992,0 118.597496000000007,28.271991,0 118.584479999999999,28.284317000000001,0 118.568831000000003,28.285254999999999,0 118.558593000000002,28.282302000000001,0 118.547477999999998,28.286567000000002,0 118.546259000000006,28.274991,0 118.53022,28.270444999999999,0 118.514132000000004,28.269648,0 118.505650000000003,28.279911999999999,0 118.495607000000007,28.273116000000002,0 118.492925999999997,28.262710999999999,0 118.502675999999994,28.246818999999999,0 118.490683000000004,28.238427000000001,0 118.481031000000002,28.245975000000001,0 118.459922000000006,28.244381000000001,0 118.445295999999999,28.250851000000001,0 118.448854999999995,28.261538999999999,0 118.438616999999994,28.261258000000002,0 118.430379000000002,28.279537000000001,0 118.433059999999998,28.293126999999998,0 118.424284999999998,28.291533999999999,0 118.388452999999998,28.266742000000001,0 118.373486,28.265851000000001,0 118.364467000000005,28.253803999999999,0 118.350426999999996,28.250288000000001,0 118.343456000000003,28.234583000000001,0 118.339166000000006,28.235894999999999,0 118.314887999999996,28.222860000000001,0 118.319422000000003,28.214466000000002,0 118.334143999999995,28.206869000000001,0 118.339751000000007,28.193878000000002,0 118.356082000000001,28.192751999999999,0 118.374314999999996,28.187967,0 118.374656000000002,28.173895000000002,0 118.379288000000003,28.166575999999999,0 118.361054999999993,28.155878000000001,0 118.361785999999995,28.140393,0 118.368415999999996,28.129176999999999,0 118.356764999999996,28.123920999999999,0 118.359544,28.111905,0 118.356228999999999,28.091671999999999,0 118.341993000000002,28.084817000000001,0 118.339117000000002,28.088244,0 118.308160000000001,28.089417999999998,0 118.291974999999994,28.082609999999999,0 118.274912,28.082985999999998,0 118.253558999999996,28.068757999999999,0 118.242542,28.075520000000001,0 118.225040000000007,28.059318999999999,0 118.210414999999998,28.057299,0 118.199738999999994,28.05002,0 118.182725000000005,28.051711000000001,0 118.153814999999994,28.061855000000001,0 118.135095000000007,28.053682999999999,0 118.120761999999999,28.041799999999999,0 118.129098999999997,28.017185000000001,0 118.123395000000002,28.012533999999999,0 118.105892999999995,28.016997,0 118.093802999999994,28.001868000000002,0 118.091999000000001,27.98152,0 118.097020999999998,27.967607999999998,0 118.089903000000007,27.964976,0 118.074205000000006,27.967514000000001,0 118.070744000000005,27.977430999999999,0 118.060945000000004,27.982695,0 118.042711999999995,27.980156999999998,0 118.034327000000005,27.988192999999999,0 118.019165999999998,27.981190999999999,0 118.006587999999994,27.980391999999998,0 117.998057000000003,27.991154000000002,0 117.985674000000003,27.971556,0 117.965198999999998,27.962626,0 117.958032000000003,27.968971,0 117.942773000000003,27.974094000000001,0 117.932486999999995,27.966761999999999,0 117.920249999999996,27.963425000000001,0 117.912158000000005,27.950074000000001,0 117.891000000000005,27.948475999999999,0 117.866575999999995,27.937757000000001,0 117.855997000000002,27.945889999999999,0 117.849123000000006,27.936487,0 117.836399,27.927789000000001,0 117.815144000000004,27.920642000000001,0 117.799300000000002,27.90136,0 117.785503000000006,27.892706,0 117.788379000000006,27.882922000000001,0 117.782528999999997,27.866033999999999,0 117.788135999999994,27.855823999999998,0 117.775752999999995,27.836483999999999,0 117.759664999999998,27.826930000000001,0 117.754351,27.812056999999999,0 117.741968999999997,27.801183000000002,0 117.730951000000005,27.803443000000001,0 117.716423000000006,27.816246,0 117.705648999999994,27.833000999999999,0 117.682541000000001,27.823730000000001,0 117.673230000000004,27.828482999999999,0 117.667039000000003,27.842272000000001,0 117.649975999999995,27.851683000000001,0 117.610049000000004,27.863446,0 117.602590000000006,27.869561999999998,0 117.603565000000003,27.885933000000001,0 117.595521000000005,27.899526000000002,0 117.586161000000004,27.905593,0 117.588695999999999,27.918337999999999,0 117.584649999999996,27.934936,0 117.586794999999995,27.942316999999999,0 117.579189999999997,27.945748999999999,0 117.569635000000005,27.935312,0 117.560468999999998,27.947254000000001,0 117.563687000000002,27.956655999999999,0 117.558081000000001,27.964881999999999,0 117.532340000000005,27.973953000000002,0 117.530731000000003,27.981708000000001,0 117.521760999999998,27.982413000000001,0 117.511426,27.974516999999999,0 117.504845000000003,27.954305000000002,0 117.482857999999993,27.939402000000001,0 117.474716999999998,27.930468999999999,0 117.462968000000004,27.941330000000001,0 117.454046000000005,27.939920000000001,0 117.429963999999998,27.913118000000001,0 117.404612999999998,27.893224,0 117.396033000000003,27.893224,0 117.384382000000002,27.886403000000001,0 117.378433999999999,27.888660999999999,0 117.366587999999993,27.882358,0 117.353864000000002,27.864903999999999,0 117.353425000000001,27.858505999999998,0 117.340700999999996,27.856293999999998,0 117.333046999999993,27.862082000000001,0 117.336167000000003,27.878264999999999,0 117.327684000000005,27.894117000000001,0 117.318081000000006,27.894069999999999,0 117.303358000000003,27.872150000000001,0 117.289024999999995,27.868527,0 117.280786000000006,27.871209,0 117.276641999999995,27.84806,0 117.293608000000006,27.843212999999999,0 117.303065000000004,27.830224999999999,0 117.297751000000005,27.798452999999999,0 117.306088000000003,27.781832999999999,0 117.305599999999998,27.775476999999999,0 117.29468,27.763940000000002,0 117.277811999999997,27.767613000000001,0 117.279762000000005,27.749859000000001,0 117.268111000000005,27.740438999999999,0 117.264503000000005,27.728898000000001,0 117.254412000000002,27.729227999999999,0 117.243978999999996,27.718111,0 117.227744999999999,27.719241,0 117.203710999999998,27.711372999999998,0 117.202639000000005,27.683572000000002,0 117.186257999999995,27.682677000000002,0 117.172657000000001,27.678152999999998,0 117.142967999999996,27.688849999999999,0 117.131559999999993,27.687201000000002,0 117.121516999999997,27.694222,0 117.106648000000007,27.686116999999999,0 117.096166999999994,27.667501000000001,0 117.102114999999998,27.662835000000001,0 117.111864999999995,27.645394,0 117.106014999999999,27.642375999999999,0 117.109572999999997,27.632003999999998,0 117.094071,27.627808000000002,0 117.078714000000005,27.642234999999999,0 117.078714000000005,27.650908999999999,0 117.061018000000004,27.669056999999999,0 117.040785999999997,27.670235000000002,0 117.020358999999999,27.653078000000001,0 117.021626999999995,27.643035999999999,0 117.013972999999993,27.630213000000001,0 117.009196000000003,27.633702,0 117.003394,27.625969000000001,0 117.017043999999999,27.611729,0 117.013534000000007,27.606729999999999,0 117.024502999999996,27.59244,0 117.016801000000001,27.563476000000001,0 117.020017999999993,27.557106999999998,0 117.042005000000003,27.547293,0 117.050877,27.549510999999999,0 117.054874999999996,27.542622000000001,0 117.073839000000007,27.559795999999999,0 117.084906000000004,27.564088999999999,0 117.091048000000001,27.547387000000001,0 117.098848000000004,27.544131,0 117.103138000000001,27.533137,0 117.103138000000001,27.510766,0 117.110353000000003,27.494952000000001,0 117.104650000000007,27.484614000000001,0 117.111523000000005,27.474557000000001,0 117.110157999999998,27.458832999999998,0 117.125416999999999,27.451985000000001,0 117.126148999999998,27.434463000000001,0 117.132778999999999,27.422324,0 117.127514000000005,27.406687000000002,0 117.107380000000006,27.393552,0 117.105625000000003,27.382400000000001,0 117.099141000000003,27.379186000000001,0 117.104065000000006,27.366710000000001,0 117.100262000000001,27.339153,0 117.109476000000001,27.326861000000001,0 117.129560999999995,27.322416,0 117.140480999999994,27.322794999999999,0 117.142578,27.316175000000001,0 117.137165999999993,27.302982,0 117.157154000000006,27.301753000000001,0 117.160177000000004,27.295746999999999,0 117.171876999999995,27.290261000000001,0 117.166173000000001,27.267084000000001,0 117.154424000000006,27.260933999999999,0 117.149793000000003,27.241394,0 117.140579000000002,27.231504999999999,0 117.120493999999994,27.215935999999999,0 117.116349999999997,27.207747999999999,0 117.106696999999997,27.20363,0 117.097142000000005,27.205570999999999,0 117.084417999999999,27.182801999999999,0 117.069305,27.175227,0 117.056775999999999,27.156950999999999,0 117.048781000000005,27.152263000000001,0 117.043661999999998,27.139809,0 117.053217000000004,27.101441999999999,0 117.063991000000001,27.109779,0 117.072962000000004,27.097650999999999,0 117.086661000000007,27.094145999999999,0 117.096557000000004,27.107268999999999,0 117.102504999999994,27.107268999999999,0 117.122297000000003,27.093340000000001,0 117.139604000000006,27.098931,0 117.149451999999997,27.107458000000001,0 117.160956999999996,27.110253,0 117.180165000000002,27.093198000000001,0 117.190596999999997,27.071023,0 117.200103999999996,27.058986000000001,0 117.225258999999994,27.050075,0 117.242371000000006,27.041449,0 117.244077000000004,27.033484999999999,0 117.255240999999998,27.034907,0 117.260896000000002,27.046946999999999,0 117.276447000000005,27.057801000000001,0 117.282004999999998,27.057848,0 117.285418000000007,27.075856000000002,0 117.280591000000001,27.090686999999999,0 117.289659,27.100968000000002,0 117.288293999999993,27.112053,0 117.272547000000003,27.113948000000001,0 117.276251999999999,27.126311000000001,0 117.286636000000001,27.129152000000001,0 117.301749000000001,27.119916,0 117.325051999999999,27.113664,0 117.329438999999994,27.107174000000001,0 117.347769999999997,27.096325,0 117.365808000000001,27.101535999999999,0 117.383454999999998,27.099499000000002,0 117.382723999999996,27.069410999999999,0 117.395497000000006,27.067468999999999,0 117.405733999999995,27.052492999999998,0 117.439080000000004,27.064957,0 117.438396999999995,27.058368999999999,0 117.426015000000007,27.044056000000001,0 117.435959999999994,27.046520999999998,0 117.445222999999999,27.042586,0 117.447806,27.029834999999999,0 117.444295999999994,27.022866,0 117.450731000000005,27.019026,0 117.451657999999995,27.005087,0 117.458141999999995,27.003285000000002,0 117.465209999999999,27.010113,0 117.478227000000004,27.013669,0 117.485197999999997,27.022582,0 117.485343999999998,27.008975,0 117.512546999999998,27.008975,0 117.523565000000005,27.001909999999999,0 117.529610000000005,27.003854,0 117.533997999999997,26.995224,0 117.546233999999998,26.992899999999999,0 117.534875,26.983225999999998,0 117.531706,26.960128000000001,0 117.508160000000004,26.952300999999999,0 117.503870000000006,26.943667000000001,0 117.505331999999996,26.926729000000002,0 117.514545999999996,26.919706000000001,0 117.524589000000006,26.925543000000001,0 117.544284000000005,26.922647999999999,0 117.551353000000006,26.930430000000001,0 117.562321999999995,26.923265000000001,0 117.579092000000003,26.923169999999999,0 117.589378999999994,26.892987999999999,0 117.601907999999995,26.885535999999998,0 117.612876999999997,26.872767,0 117.619799,26.872102000000002,0 117.630572999999998,26.858381999999999,0 117.634619000000001,26.841004000000002,0 117.642176000000006,26.836207999999999,0 117.652559999999994,26.819728999999999,0 117.670646000000005,26.804766999999998,0 117.666161000000002,26.791181999999999,0 117.671475000000001,26.783866,0 117.656119000000004,26.767616,0 117.653193000000002,26.753646,0 117.645881000000003,26.741813,0 117.629987999999997,26.735872000000001,0 117.624234999999999,26.72589,0 117.612291999999997,26.727696000000002,0 117.601029999999994,26.708825000000001,0 117.593521999999993,26.702929999999999,0 117.605856000000003,26.698128000000001,0 117.604101,26.686574,0 117.640713000000005,26.674733,0 117.645003000000003,26.656137999999999,0 117.668891000000002,26.657088999999999,0 117.662796999999998,26.646291999999999,0 117.667574999999999,26.634733000000001,0 117.678787999999997,26.636731000000001,0 117.683126000000001,26.643913999999999,0 117.695752999999996,26.641012,0 117.701651999999996,26.652999000000001,0 117.727343000000005,26.663415000000001,0 117.744455000000002,26.658611000000001,0 117.759568000000002,26.661131999999998,0 117.769024999999999,26.655472,0 117.778824,26.666744000000001,0 117.791888999999998,26.666459,0 117.803443000000001,26.671119000000001,0 117.813974000000002,26.667456999999999,0 117.818605000000005,26.671785,0 117.826550999999995,26.667504999999998,0 117.839421000000002,26.676159999999999,0 117.853998000000004,26.679631000000001,0 117.858677999999998,26.674876000000001,0 117.848099000000005,26.660038,0 117.858483000000007,26.653903,0 117.855069999999998,26.640298999999999,0 117.870572999999993,26.631498000000001,0 117.868672000000004,26.622554000000001,0 117.85351,26.620508999999998,0 117.856532999999999,26.601334000000001,0 117.865796000000003,26.597335999999999,0 117.862481000000002,26.582584000000001,0 117.872474999999994,26.581202999999999,0 117.878325000000004,26.557165999999999,0 117.884370000000004,26.564402000000001,0 117.899482000000006,26.571207999999999,0 117.901578999999998,26.563925999999999,0 117.922833999999995,26.559498999999999,0 117.940286999999998,26.574064,0 117.950427000000005,26.563545000000001,0 117.970415000000003,26.567924000000001,0 117.976849999999999,26.562783,0 117.982163999999997,26.567829,0 117.978800000000007,26.578491,0 117.994985,26.577634,0 118.011122,26.569590000000002,0 117.994741000000005,26.551549000000001,0 117.993133,26.540123000000001,0 118.006393000000003,26.529363,0 118.003418999999994,26.511315,0 118.021163999999999,26.507981999999998,0 118.037935000000004,26.512457999999999,0 118.044759999999997,26.506171999999999,0 118.033790999999994,26.497647000000001,0 118.038471000000001,26.488502,0 118.029891000000006,26.477975000000001,0 118.037350000000004,26.464541000000001,0 118.045490999999998,26.473258999999999,0 118.057678999999993,26.4694,0 118.057776000000004,26.460920000000002,0 118.065528,26.453582999999998,0 118.059336000000002,26.439478999999999,0 118.067038999999994,26.427278999999999,0 118.082980000000006,26.424181000000001,0 118.089658999999997,26.415745999999999,0 118.087270000000004,26.406403999999998,0 118.091707,26.395773999999999,0 118.113303000000002,26.394248000000001,0 118.114035000000001,26.379517,0 118.131585000000001,26.377658,0 118.136070000000004,26.365738,0 118.153962000000007,26.379517,0 118.167417,26.380042,0 118.167856,26.387239999999998,0 118.181408000000005,26.388860999999999,0 118.189940000000007,26.381329000000001,0 118.202663999999999,26.385619999999999,0 118.216509000000002,26.394963000000001,0 118.215095000000005,26.404592000000001,0 118.224942999999996,26.409739999999999,0 118.243613999999994,26.403496000000001,0 118.240786999999997,26.396011999999999,0 118.254143999999997,26.394200999999999,0 118.262871000000004,26.399635,0 118.259653,26.409502,0 118.269940000000005,26.422561000000002,0 118.279544000000001,26.422512999999999,0 118.289732999999998,26.414601999999999,0 118.299920999999998,26.419844999999999,0 118.297337999999996,26.431664000000001,0 118.306794999999994,26.437906000000002,0 118.310841999999994,26.431329999999999,0 118.323322000000005,26.430043000000001,0 118.333218000000002,26.438048999999999,0 118.332633000000001,26.425992000000001,0 118.323029000000005,26.419559,0 118.327855999999997,26.407405000000001,0 118.341993000000002,26.409310999999999,0 118.344966999999997,26.416126999999999,0 118.349891,26.405117000000001,0 118.36242,26.400493000000001,0 118.371536000000006,26.409502,0 118.393424999999993,26.394152999999999,0 118.408976999999993,26.394152999999999,0 118.419897000000006,26.398014,0 118.443493000000004,26.395011,0 118.453729999999993,26.403161999999998,0 118.454363999999998,26.386572999999999,0 118.448806000000005,26.382567999999999,0 118.436910999999995,26.392675000000001,0 118.427014999999997,26.379946,0 118.427892,26.369551999999999,0 118.436813999999998,26.355772000000002,0 118.450755999999998,26.349333999999999,0 118.454266000000004,26.338794,0 118.468159999999997,26.345662000000001,0 118.494924999999995,26.364211999999998,0 118.501165,26.364927000000002,0 118.518325000000004,26.351908999999999,0 118.526369000000003,26.336075000000001,0 118.538167000000001,26.337077000000001,0 118.542310000000001,26.342371,0 118.555912000000006,26.341846,0 118.563809000000006,26.336219,0 118.561811000000006,26.325486999999999,0 118.592329000000007,26.323816999999998,0 118.590768999999995,26.316471,0 118.599349000000004,26.304545000000001,0 118.607928999999999,26.304210999999999,0 118.615241999999995,26.288228,0 118.630452000000005,26.288705,0 118.633913000000007,26.272003999999999,0 118.641858999999997,26.263987,0 118.655850999999998,26.262650000000001,0 118.668672000000001,26.243416,0 118.673060000000007,26.251767999999998,0 118.666478999999995,26.275344,0 118.665991000000005,26.293810000000001,0 118.652000000000001,26.319572000000001,0 118.663359,26.329207,0 118.662237000000005,26.342179999999999,0 118.640641000000002,26.355152,0 118.629037999999994,26.359348000000001,0 118.623919000000001,26.366167000000001,0 118.609488999999996,26.361971,0 118.598129999999998,26.351002999999999,0 118.592523999999997,26.350764000000002,0 118.594327000000007,26.360779000000001,0 118.584138999999993,26.371697999999999,0 118.563126999999994,26.367167999999999,0 118.562102999999993,26.387001999999999,0 118.550890999999993,26.391435999999999,0 118.549622999999997,26.412980999999998,0 118.566247000000004,26.428709000000001,0 118.566441999999995,26.434237,0 118.556691999999998,26.444482000000001,0 118.567076,26.464873999999998,0 118.587502000000001,26.474688,0 118.601737999999997,26.477546,0 118.608610999999996,26.489550000000001,0 118.605394000000004,26.505886,0 118.615193000000005,26.523554000000001,0 118.615094999999997,26.540313999999999,0 118.618947000000006,26.554024999999999,0 118.604564999999994,26.550787,0 118.590866000000005,26.553167999999999,0 118.580822999999995,26.565068,0 118.588721000000007,26.605236000000001,0 118.584772000000001,26.613323999999999,0 118.586624999999998,26.627787999999999,0 118.594083999999995,26.638158000000001,0 118.595643999999993,26.653283999999999,0 118.600616000000002,26.659800000000001,0 118.598764000000003,26.669122000000002,0 118.589354999999998,26.674733,0 118.578434999999999,26.675018999999999,0 118.572292000000004,26.683434999999999,0 118.58175,26.692898,0 118.581067000000004,26.701218000000001,0 118.587891999999997,26.709395000000001,0 118.602565999999996,26.707920999999999,0 118.605248000000003,26.727269,0 118.613339999999994,26.736395000000002,0 118.613584000000003,26.750699999999998,0 118.624114000000006,26.771228000000001,0 118.625283999999994,26.787286000000002,0 118.637472000000002,26.794744000000001,0 118.641273999999996,26.818684000000001,0 118.625771999999998,26.839817,0 118.631816999999998,26.852257000000002,0 118.649220999999997,26.854631000000001,0 118.650926999999996,26.860755999999999,0 118.663261000000006,26.863130000000002,0 118.672572000000002,26.859521999999998,0 118.690415000000002,26.864601,0 118.696021999999999,26.872102000000002,0 118.692317000000003,26.882213,0 118.698312999999999,26.888145999999999,0 118.703237000000001,26.906182000000001,0 118.693340000000006,26.928056999999999,0 118.671791999999996,26.947320000000001,0 118.681348,26.963543000000001,0 118.696557999999996,26.960412000000002,0 118.699775000000002,26.950308,0 118.712108999999998,26.944378,0 118.734876,26.956427999999999,0 118.747209999999995,26.949597000000001,0 118.782651999999999,26.947082999999999,0 118.792207000000005,26.953060000000001,0 118.792889000000002,26.965392999999999,0 118.803858000000005,26.976348999999999,0 118.824674999999999,26.981376999999998,0 118.837691000000007,26.988585,0 118.845052999999993,27.000677,0 118.841835000000003,27.013527,0 118.847684999999998,27.023624999999999,0 118.860263000000003,27.022155000000001,0 118.874156999999997,27.035287,0 118.880201999999997,27.054151000000001,0 118.898289000000005,27.072586000000001,0 118.902432000000005,27.090402999999998,0 118.916033999999996,27.096893000000001,0 118.924077999999994,27.112385,0 118.931780000000003,27.113616,0 118.946405999999996,27.104994999999999,0 118.958106000000001,27.117215999999999,0 118.956594999999993,27.127352999999999,0 118.946357000000006,27.127162999999999,0 118.947771000000003,27.141324000000001,0 118.934899999999999,27.137867,0 118.931877999999998,27.144876,0 118.940213999999997,27.162348999999999,0 118.933974000000006,27.159887000000001,0 118.929732999999999,27.168977999999999,0 118.937387000000001,27.175511,0 118.943772999999993,27.171534999999999,0 118.964443000000003,27.168551999999998,0 118.987893,27.158750999999999,0 118.991500000000002,27.12669,0 118.999690000000001,27.121953000000001,0 118.991158999999996,27.107695,0 119.001445000000004,27.097225000000002,0 119.013876999999994,27.096419999999998,0 119.021968999999999,27.102578999999999,0 119.042883000000003,27.102484,0 119.046394000000006,27.106653000000001,0 119.059605000000005,27.098078000000001,0 119.077057999999994,27.101109999999998,0 119.093389000000002,27.097272,0 119.093778999999998,27.082916000000001,0 119.107917,27.073865999999999,0 119.120446000000001,27.058512,0 119.119910000000004,27.053108999999999,0 119.136436000000003,27.056332000000001,0 119.134437000000005,27.070975000000001,0 119.127661000000003,27.087418,0 119.143895000000001,27.087890999999999,0 119.160373000000007,27.092061000000001,0 119.161348000000004,27.107552999999999,0 119.185479999999998,27.116410999999999,0 119.195717000000002,27.109210999999998,0 119.205077000000003,27.115227000000001,0 119.205028999999996,27.126311000000001,0 119.186015999999995,27.133226000000001,0 119.191767999999996,27.161828,0 119.188306999999995,27.169782999999999,0 119.175338999999994,27.169073000000001,0 119.178117999999998,27.176884000000001,0 119.178556999999998,27.199559000000001,0 119.20147,27.209261999999999,0 119.207026999999997,27.232025,0 119.235010000000003,27.224122999999999,0 119.234718000000001,27.211676000000001,0 119.247197999999997,27.201453000000001,0 119.255876000000001,27.204623999999999,0 119.263530000000003,27.197619,0 119.271767999999994,27.212575000000001,0 119.245491999999999,27.238696999999998,0 119.233401999999998,27.235337999999999,0 119.216631000000007,27.252891000000002,0 119.204931000000002,27.260887,0 119.211804999999998,27.263347,0 119.208440999999993,27.274982999999999,0 119.210684000000001,27.297355,0 119.217314000000002,27.311588,0 119.228769999999997,27.312533999999999,0 119.235984999999999,27.320997999999999,0 119.245881999999995,27.3201,0 119.242761999999999,27.333100999999999,0 119.247393000000002,27.345344999999998,0 119.254948999999996,27.348513000000001,0 119.253877000000003,27.365009000000001,0 119.267916999999997,27.369403999999999,0 119.275327000000004,27.379234,0 119.273718000000002,27.387173000000001,0 119.263577999999995,27.397898999999999,0 119.259970999999993,27.410654999999998,0 119.262116000000006,27.420622999999999,0</coordinates></LinearRing></outerBoundaryIs></Polygon></MultiGeometry></Placemark>
</Document>
</kml>