<?xml version="1.0" encoding="UTF-8"?>
<kml xmlns="http://www.opengis.net/kml/2.2">
<Document>
<name>漳州市</name>
<Placemark><name>漳州市</name><MultiGeometry><Polygon><outerBoundaryIs><LinearRing><coordinates>116.903893999999994,24.369851000000001,0 116.896922000000004,24.360105999999998,0 116.896141999999998,24.350701000000001,0 116.908232999999996,24.34178,0 116.909109999999998,24.330190999999999,0 116.919543000000004,24.320976999999999,0 116.913399999999996,24.312441,0 116.914277999999996,24.287704999999999,0 116.918177999999997,24.283387000000001,0 116.929488000000006,24.286200999999998,0 116.937726999999995,24.282854,0 116.935435999999996,24.247969999999999,0 116.939141000000006,24.239576,0 116.934021999999999,24.219290000000001,0 116.956154999999995,24.21696,0 116.971316000000002,24.198079,0 116.976337000000001,24.199777999999998,0 116.991157999999999,24.189875000000001,0 116.998616999999996,24.178999999999998,0 116.990378000000007,24.168367,0 116.978824000000003,24.162054999999999,0 116.972925000000004,24.153509,0 116.964783999999995,24.153364,0 116.947086999999996,24.134910000000001,0 116.934899000000001,24.126944999999999,0 116.926563000000002,24.098576999999999,0 116.929732000000001,24.065441,0 116.936995999999994,24.054556000000002,0 116.952449999999999,24.054701999999999,0 116.948792999999995,24.037983000000001,0 116.940408000000005,24.035115999999999,0 116.955179999999999,24.020242,0 116.954447999999999,24.005949999999999,0 116.960054999999997,24.002158000000001,0 116.969950999999995,24.007456999999999,0 116.981309999999993,23.996713,0 116.975410999999994,23.990635000000001,0 116.973168999999999,23.974249,0 116.982625999999996,23.959320000000002,0 116.980188999999996,23.941033000000001,0 116.973314999999999,23.927071999999999,0 116.954740999999999,23.920456999999999,0 116.959275000000005,23.914473000000001,0 116.958836000000005,23.900656000000001,0 116.973022,23.894817,0 116.979263000000003,23.884452,0 116.975459999999998,23.872287,0 116.960054999999997,23.86815,0 116.962053999999995,23.861384999999999,0 116.981554000000003,23.855592999999999,0 116.984624999999994,23.861287999999998,0 116.995107000000004,23.862017999999999,0 117.012120999999993,23.855301000000001,0 117.022456000000005,23.838751999999999,0 117.026746000000003,23.819911999999999,0 117.018457999999995,23.81222,0 117.020066999999997,23.800729,0 117.034058000000002,23.789090999999999,0 117.042541,23.763766,0 117.047805999999994,23.758652000000001,0 117.051072000000005,23.736730999999999,0 117.049317000000002,23.724162,0 117.053998000000007,23.708521999999999,0 117.053217000000004,23.698385999999999,0 117.066624000000004,23.688786,0 117.074083000000002,23.690930000000002,0 117.089438999999999,23.668558999999998,0 117.115424000000004,23.665293999999999,0 117.124881000000002,23.646038999999998,0 117.132974000000004,23.651450000000001,0 117.147452999999999,23.653790000000001,0 117.159347999999994,23.640139999999999,0 117.173681000000002,23.634630999999999,0 117.185917000000003,23.636240000000001,0 117.192595999999995,23.629560000000001,0 117.192937000000001,23.561624999999999,0 117.271474999999995,23.566161999999998,0 117.291268000000002,23.571186000000001,0 117.29468,23.558990999999999,0 117.302627000000001,23.550405000000001,0 117.317787999999993,23.54899,0 117.361761000000001,23.556308000000001,0 117.382383000000004,23.553526999999999,0 117.427526,23.572161999999999,0 117.441565999999995,23.570698,0 117.453997999999999,23.575040000000001,0 117.463747999999995,23.585184999999999,0 117.463357999999999,23.598548000000001,0 117.455753000000001,23.606399,0 117.454679999999996,23.628243999999999,0 117.466526999999999,23.639896,0 117.493095999999994,23.642430999999998,0 117.501334999999997,23.650524000000001,0 117.498604999999998,23.667292,0 117.490025000000003,23.671728000000002,0 117.488855000000001,23.679476999999999,0 117.502651,23.704623000000002,0 117.518738999999997,23.704184999999999,0 117.544723000000005,23.71583,0 117.568611000000004,23.712516999999998,0 117.589915000000005,23.701846,0 117.601517999999999,23.701943,0 117.612973999999994,23.713394000000001,0 117.627647999999994,23.749396999999998,0 117.639446000000007,23.767759999999999,0 117.660310999999993,23.789090999999999,0 117.661432000000005,23.796931000000001,0 117.651633000000004,23.815335999999999,0 117.658507,23.851797000000001,0 117.671963000000005,23.878077999999999,0 117.691023999999999,23.889026999999999,0 117.704041000000004,23.890097000000001,0 117.762590000000003,23.886983000000001,0 117.787891999999999,23.899974,0 117.792816000000002,23.906299000000001,0 117.801980999999998,23.93685,0 117.807586999999998,23.947403999999999,0 117.826064000000002,23.966370999999999,0 117.847708999999995,23.984752,0 117.864918000000003,24.004783,0 117.890073999999998,24.004783,0 117.910646,24.011783999999999,0 117.927563000000006,24.039878999999999,0 117.928099000000003,24.056256999999999,0 117.925027999999998,24.075158999999999,0 117.931608999999995,24.094448,0 117.947258000000005,24.111353000000001,0 117.974754000000004,24.134473,0 117.990841000000003,24.142728999999999,0 118.000055000000003,24.152441,0 118.001419999999996,24.176863999999998,0 118.019408999999996,24.197254000000001,0 118.038910000000001,24.199292,0 118.056703999999996,24.209389000000002,0 118.063578000000007,24.219241,0 118.074692999999996,24.225453999999999,0 118.115741,24.229385000000001,0 118.123834000000002,24.235935999999999,0 118.125979000000001,24.252531000000001,0 118.143431000000007,24.251804,0 118.153229999999994,24.255831000000001,0 118.157422999999994,24.263642000000001,0 118.157422999999994,24.277906000000002,0 118.144406000000004,24.293816,0 118.145674,24.306329999999999,0 118.139579999999995,24.314720999999999,0 118.127099999999999,24.318455,0 118.126856000000004,24.333148000000001,0 118.121347,24.347258,0 118.112133,24.356907,0 118.096435999999997,24.358457999999999,0 118.081372000000002,24.356276000000001,0 118.075716999999997,24.360882,0 118.083564999999993,24.370965999999999,0 118.088587000000004,24.406154000000001,0 118.086295000000007,24.410322000000001,0 118.049001000000004,24.418317999999999,0 118.028476999999995,24.420546999999999,0 118.005515000000003,24.418609,0 117.992498999999995,24.423067,0 117.985089000000002,24.433533000000001,0 117.975046000000006,24.434888999999998,0 117.964077000000003,24.444046,0 117.956812999999997,24.459209999999999,0 117.962371000000005,24.480377000000001,0 117.958568,24.501251,0 117.937507999999994,24.513404999999999,0 117.931268000000003,24.526672000000001,0 117.912059999999997,24.533449999999998,0 117.913133000000002,24.546665999999998,0 117.908452999999994,24.555330999999999,0 117.913619999999995,24.568593,0 117.886026999999999,24.590178000000002,0 117.893388999999999,24.597774999999999,0 117.892364999999998,24.611564999999999,0 117.920688999999996,24.614225999999999,0 117.930293000000006,24.632659,0 117.954717000000002,24.649249999999999,0 117.957787999999994,24.666129999999999,0 117.965394000000003,24.671014,0 117.955496999999994,24.708487999999999,0 117.948379000000003,24.711727,0 117.941018,24.742519000000001,0 117.947891999999996,24.762429999999998,0 117.955156000000002,24.765619999999998,0 117.961297999999999,24.788136999999999,0 117.959153000000001,24.823981,0 117.962956000000005,24.841175,0 117.956374999999994,24.845086999999999,0 117.940383999999995,24.844652,0 117.924734999999998,24.864258,0 117.913034999999994,24.870293,0 117.898605000000003,24.874638999999998,0 117.893631999999997,24.887191000000001,0 117.882565999999997,24.895686999999999,0 117.871695000000003,24.871790000000001,0 117.863991999999996,24.878308000000001,0 117.849756999999997,24.873866,0 117.833864000000005,24.881543000000001,0 117.821189000000004,24.874590000000001,0 117.824990999999997,24.866527000000001,0 117.822114999999997,24.857980000000001,0 117.812560000000005,24.849964,0 117.802662999999995,24.852668999999999,0 117.797545,24.865416,0 117.789987999999994,24.85716,0 117.775752999999995,24.850930000000002,0 117.770584999999997,24.855951999999998,0 117.770244000000005,24.868555000000001,0 117.762590000000003,24.868410000000001,0 117.750403000000006,24.877196999999999,0 117.729975999999994,24.880769999999998,0 117.717787999999999,24.874251999999998,0 117.711596999999998,24.863630000000001,0 117.683419000000001,24.848998999999999,0 117.668403999999995,24.853971999999999,0 117.657580999999993,24.853490000000001,0 117.644857000000002,24.858946,0 117.636617999999999,24.866865000000001,0 117.624771999999993,24.866720000000001,0 117.616727999999995,24.877101,0 117.614874999999998,24.898004,0 117.631450999999998,24.912870999999999,0 117.630183000000002,24.925709999999999,0 117.607026000000005,24.930294,0 117.604344999999995,24.947908000000002,0 117.618239000000003,24.964456999999999,0 117.637056999999999,24.970922000000002,0 117.654802000000004,24.981342000000001,0 117.654460999999998,24.996970999999998,0 117.670840999999996,24.999912999999999,0 117.685075999999995,24.988530000000001,0 117.695070000000001,24.992196,0 117.701504999999997,25.004494999999999,0 117.715496999999999,25.003530000000001,0 117.718031999999994,25.015008999999999,0 117.737142000000006,25.026534000000002,0 117.738410000000002,25.037286999999999,0 117.726222000000007,25.043652000000002,0 117.731584999999995,25.051076999999999,0 117.726709999999997,25.071179000000001,0 117.721883000000005,25.07788,0 117.707550999999995,25.067900999999999,0 117.699019000000007,25.078699,0 117.677470999999997,25.088049999999999,0 117.671378000000004,25.098797000000001,0 117.671524000000005,25.124385,0 117.653047000000001,25.134070000000001,0 117.626624000000007,25.138358,0 117.620579000000006,25.147993,0 117.621602999999993,25.160951000000001,0 117.604004000000003,25.164323,0 117.596739999999997,25.171354999999998,0 117.582065999999998,25.174871,0 117.573193000000003,25.188934,0 117.562175999999994,25.187488999999999,0 117.555691999999993,25.194230999999998,0 117.555398999999994,25.21171,0 117.545648999999997,25.210988,0 117.548184000000006,25.192208000000001,0 117.535021999999998,25.201165,0 117.529415,25.185514000000001,0 117.515765000000002,25.175689999999999,0 117.497434999999996,25.174292999999999,0 117.495435999999998,25.165189999999999,0 117.484564000000006,25.164901,0 117.483637999999999,25.134454999999999,0 117.478763000000001,25.127806,0 117.481981000000005,25.120386,0 117.503040999999996,25.109110000000001,0 117.510840999999999,25.090315,0 117.503870000000006,25.041481999999998,0 117.492023000000003,25.023689000000001,0 117.490561,25.016840999999999,0 117.495485000000002,24.971404,0 117.493144999999998,24.962092999999999,0 117.483735999999993,24.958185,0 117.445515,24.959969999999998,0 117.425137000000007,24.978207000000001,0 117.393742000000003,24.980715,0 117.383844999999994,24.984767000000002,0 117.370293000000004,24.973527000000001,0 117.361711999999997,24.971983000000002,0 117.341285999999997,24.978736999999999,0 117.318032000000002,24.968316999999999,0 117.306965000000005,24.968219999999999,0 117.300920000000005,24.975746000000001,0 117.288781,24.971741999999999,0 117.293802999999997,24.984237,0 117.286587999999995,24.990507000000001,0 117.279713999999998,24.98771,0 117.267916,24.974202999999999,0 117.236812999999998,24.962527000000001,0 117.234570000000005,24.954518,0 117.245929000000004,24.954035999999999,0 117.237056999999993,24.930824999999999,0 117.237447000000003,24.923393000000001,0 117.227063000000001,24.909154999999998,0 117.219604000000004,24.908431,0 117.210292999999993,24.921028,0 117.184405999999996,24.925854000000001,0 117.188597999999999,24.903942000000001,0 117.196594000000005,24.900804000000001,0 117.198007000000004,24.885162999999999,0 117.172218000000001,24.865947999999999,0 117.169391000000005,24.826058,0 117.154424000000006,24.813306000000001,0 117.144234999999995,24.790358999999999,0 117.137507999999997,24.784803,0 117.102357999999995,24.789538,0 117.080713000000003,24.781033999999998,0 117.070768000000001,24.785865999999999,0 117.072084000000004,24.807653999999999,0 117.069208000000003,24.821953000000001,0 117.056728000000007,24.823740000000001,0 117.052826999999994,24.812099,0 117.052144999999996,24.793403000000001,0 117.027964999999995,24.780213,0 117.023480000000006,24.773641000000001,0 117.023870000000002,24.739861000000001,0 117.018556000000004,24.709212999999998,0 117.026892000000004,24.693935,0 117.039372,24.690791999999998,0 117.033327,24.671835999999999,0 117.046929000000006,24.653313000000001,0 117.043467000000007,24.633626,0 117.037470999999996,24.626128000000001,0 117.019872000000007,24.62903,0 117.014948000000004,24.615773999999998,0 117.025186000000005,24.602032999999999,0 117.023138000000003,24.571352000000001,0 117.017142000000007,24.555814999999999,0 117.006221999999994,24.544294000000001,0 116.996813000000003,24.540614999999999,0 116.980773999999997,24.544584,0 116.947721000000001,24.544972000000001,0 116.932511000000005,24.534127999999999,0 116.935581999999997,24.521878000000001,0 116.929439000000002,24.513598999999999,0 116.922077999999999,24.526623000000001,0 116.911450000000002,24.515681000000001,0 116.917349000000002,24.490257,0 116.927098999999998,24.468267999999998,0 116.935873999999998,24.456835999999999,0 116.944016000000005,24.431885000000001,0 116.934899000000001,24.390014999999998,0 116.928415000000001,24.382598999999999,0 116.903260000000003,24.380127000000002,0 116.903893999999994,24.369851000000001,0</coordinates></LinearRing></outerBoundaryIs></Polygon><Polygon><outerBoundaryIs><LinearRing><coordinates>117.711547999999993,23.772728000000001,0 117.717592999999994,23.769611000000001,0 117.724369999999993,23.775942000000001,0 117.708184000000003,23.779205000000001,0 117.711547999999993,23.772728000000001,0</coordinates></LinearRing></outerBoundaryIs></Polygon><Polygon><outerBoundaryIs><LinearRing><coordinates>117.683711000000002,23.784611000000002,0 117.692828000000006,23.774919000000001,0 117.690292999999997,23.783929000000001,0 117.683711000000002,23.784611000000002,0</coordinates></LinearRing></outerBoundaryIs></Polygon><Polygon><outerBoundaryIs><LinearRing><coordinates>118.151133999999999,24.318358,0 118.156350000000003,24.331548000000002,0 118.146259000000001,24.339113000000001,0 118.151133999999999,24.318358,0</coordinates></LinearRing></outerBoundaryIs></Polygon><Polygon><outerBoundaryIs><LinearRing><coordinates>117.669476000000003,23.790503000000001,0 117.676739999999995,23.788312000000001,0 117.671279999999996,23.803357999999999,0 117.669476000000003,23.790503000000001,0</coordinates></LinearRing></outerBoundaryIs></Polygon></MultiGeometry></Placemark>
</Document>
</kml>