<?xml version="1.0" encoding="UTF-8"?>
<kml xmlns="http://www.opengis.net/kml/2.2">
  <Document>
    <name>福建省 全省轮廓</name>
    <Placemark>
      <name>福建省 全省轮廓</name>
      <MultiGeometry><Polygon><outerBoundaryIs><LinearRing><coordinates>117.717593000000,23.769611000000,0 117.711548000000,23.772728000000,0 117.708184000000,23.779205000000,0 117.724370000000,23.775942000000,0 117.717593000000,23.769611000000,0</coordinates></LinearRing></outerBoundaryIs></Polygon><Polygon><outerBoundaryIs><LinearRing><coordinates>117.690293000000,23.783929000000,0 117.692828000000,23.774919000000,0 117.683711000000,23.784611000000,0 117.690293000000,23.783929000000,0</coordinates></LinearRing></outerBoundaryIs></Polygon><Polygon><outerBoundaryIs><LinearRing><coordinates>117.671280000000,23.803358000000,0 117.676740000000,23.788312000000,0 117.669476000000,23.790503000000,0 117.671280000000,23.803358000000,0</coordinates></LinearRing></outerBoundaryIs></Polygon><Polygon><outerBoundaryIs><LinearRing><coordinates>118.156350000000,24.331548000000,0 118.151134000000,24.318358000000,0 118.146259000000,24.339113000000,0 118.156350000000,24.331548000000,0</coordinates></LinearRing></outerBoundaryIs></Polygon><Polygon><outerBoundaryIs><LinearRing><coordinates>118.075717000000,24.360882000000,0 118.081372000000,24.356276000000,0 118.096436000000,24.358458000000,0 118.112133000000,24.356907000000,0 118.121347000000,24.347258000000,0 118.126856000000,24.333148000000,0 118.127100000000,24.318455000000,0 118.139580000000,24.314721000000,0 118.145674000000,24.306330000000,0 118.144406000000,24.293816000000,0 118.157423000000,24.277906000000,0 118.157423000000,24.263642000000,0 118.153230000000,24.255831000000,0 118.143431000000,24.251804000000,0 118.125979000000,24.252531000000,0 118.123834000000,24.235936000000,0 118.115741000000,24.229385000000,0 118.074693000000,24.225454000000,0 118.063578000000,24.219241000000,0 118.056704000000,24.209389000000,0 118.038910000000,24.199292000000,0 118.019409000000,24.197254000000,0 118.001420000000,24.176864000000,0 118.000055000000,24.152441000000,0 117.990841000000,24.142729000000,0 117.974754000000,24.134473000000,0 117.947258000000,24.111353000000,0 117.931609000000,24.094448000000,0 117.925028000000,24.075159000000,0 117.928099000000,24.056257000000,0 117.927563000000,24.039879000000,0 117.910646000000,24.011784000000,0 117.890074000000,24.004783000000,0 117.864918000000,24.004783000000,0 117.847709000000,23.984752000000,0 117.826064000000,23.966371000000,0 117.807587000000,23.947404000000,0 117.801981000000,23.936850000000,0 117.792816000000,23.906299000000,0 117.787892000000,23.899974000000,0 117.762590000000,23.886983000000,0 117.704041000000,23.890097000000,0 117.691024000000,23.889027000000,0 117.671963000000,23.878078000000,0 117.658507000000,23.851797000000,0 117.651633000000,23.815336000000,0 117.661432000000,23.796931000000,0 117.660311000000,23.789091000000,0 117.639446000000,23.767760000000,0 117.627648000000,23.749397000000,0 117.612974000000,23.713394000000,0 117.601518000000,23.701943000000,0 117.589915000000,23.701846000000,0 117.568611000000,23.712517000000,0 117.544723000000,23.715830000000,0 117.518739000000,23.704185000000,0 117.502651000000,23.704623000000,0 117.488855000000,23.679477000000,0 117.490025000000,23.671728000000,0 117.498605000000,23.667292000000,0 117.501335000000,23.650524000000,0 117.493096000000,23.642431000000,0 117.466527000000,23.639896000000,0 117.454680000000,23.628244000000,0 117.455753000000,23.606399000000,0 117.463358000000,23.598548000000,0 117.463748000000,23.585185000000,0 117.453998000000,23.575040000000,0 117.441566000000,23.570698000000,0 117.427526000000,23.572162000000,0 117.382383000000,23.553527000000,0 117.361761000000,23.556308000000,0 117.317788000000,23.548990000000,0 117.302627000000,23.550405000000,0 117.294680000000,23.558991000000,0 117.291268000000,23.571186000000,0 117.271475000000,23.566162000000,0 117.192937000000,23.561625000000,0 117.192596000000,23.629560000000,0 117.185917000000,23.636240000000,0 117.173681000000,23.634631000000,0 117.159348000000,23.640140000000,0 117.147453000000,23.653790000000,0 117.132974000000,23.651450000000,0 117.124881000000,23.646039000000,0 117.115424000000,23.665294000000,0 117.089439000000,23.668559000000,0 117.074083000000,23.690930000000,0 117.066624000000,23.688786000000,0 117.053217000000,23.698386000000,0 117.053998000000,23.708522000000,0 117.049317000000,23.724162000000,0 117.051072000000,23.736731000000,0 117.047806000000,23.758652000000,0 117.042541000000,23.763766000000,0 117.034058000000,23.789091000000,0 117.020067000000,23.800729000000,0 117.018458000000,23.812220000000,0 117.026746000000,23.819912000000,0 117.022456000000,23.838752000000,0 117.012121000000,23.855301000000,0 116.995107000000,23.862018000000,0 116.984625000000,23.861288000000,0 116.981554000000,23.855593000000,0 116.962054000000,23.861385000000,0 116.960055000000,23.868150000000,0 116.975460000000,23.872287000000,0 116.979263000000,23.884452000000,0 116.973022000000,23.894817000000,0 116.958836000000,23.900656000000,0 116.959275000000,23.914473000000,0 116.954741000000,23.920457000000,0 116.973315000000,23.927072000000,0 116.980189000000,23.941033000000,0 116.982626000000,23.959320000000,0 116.973169000000,23.974249000000,0 116.975411000000,23.990635000000,0 116.981310000000,23.996713000000,0 116.969951000000,24.007457000000,0 116.960055000000,24.002158000000,0 116.954448000000,24.005950000000,0 116.955180000000,24.020242000000,0 116.940408000000,24.035116000000,0 116.948793000000,24.037983000000,0 116.952450000000,24.054702000000,0 116.936996000000,24.054556000000,0 116.929732000000,24.065441000000,0 116.926563000000,24.098577000000,0 116.934899000000,24.126945000000,0 116.947087000000,24.134910000000,0 116.964784000000,24.153364000000,0 116.972925000000,24.153509000000,0 116.978824000000,24.162055000000,0 116.990378000000,24.168367000000,0 116.998617000000,24.179000000000,0 116.991158000000,24.189875000000,0 116.976337000000,24.199778000000,0 116.971316000000,24.198079000000,0 116.956155000000,24.216960000000,0 116.934022000000,24.219290000000,0 116.939141000000,24.239576000000,0 116.935436000000,24.247970000000,0 116.937727000000,24.282854000000,0 116.929488000000,24.286201000000,0 116.918178000000,24.283387000000,0 116.914278000000,24.287705000000,0 116.913400000000,24.312441000000,0 116.919543000000,24.320977000000,0 116.909110000000,24.330191000000,0 116.908233000000,24.341780000000,0 116.896142000000,24.350701000000,0 116.896922000000,24.360106000000,0 116.903894000000,24.369851000000,0 116.885271000000,24.396219000000,0 116.873278000000,24.391178000000,0 116.869427000000,24.407220000000,0 116.863528000000,24.409789000000,0 116.855484000000,24.423842000000,0 116.848220000000,24.426895000000,0 116.838909000000,24.442544000000,0 116.841493000000,24.453397000000,0 116.851730000000,24.452767000000,0 116.860749000000,24.462262000000,0 116.849342000000,24.479069000000,0 116.833595000000,24.496117000000,0 116.812632000000,24.484058000000,0 116.816825000000,24.490403000000,0 116.796837000000,24.502074000000,0 116.788111000000,24.511613000000,0 116.779384000000,24.527688000000,0 116.781091000000,24.533789000000,0 116.772315000000,24.534757000000,0 116.758373000000,24.546618000000,0 116.756081000000,24.555040000000,0 116.767782000000,24.564189000000,0 116.761200000000,24.582967000000,0 116.781627000000,24.603049000000,0 116.787526000000,24.614710000000,0 116.798885000000,24.623999000000,0 116.798543000000,24.637157000000,0 116.811950000000,24.644897000000,0 116.815314000000,24.654571000000,0 116.801225000000,24.678268000000,0 116.777581000000,24.679574000000,0 116.753839000000,24.654522000000,0 116.741895000000,24.666565000000,0 116.707331000000,24.665114000000,0 116.700457000000,24.655683000000,0 116.690122000000,24.659504000000,0 116.667062000000,24.658633000000,0 116.635131000000,24.647702000000,0 116.632791000000,24.641269000000,0 116.624113000000,24.641414000000,0 116.596471000000,24.654039000000,0 116.586380000000,24.636722000000,0 116.572973000000,24.630143000000,0 116.570438000000,24.621725000000,0 116.553278000000,24.613065000000,0 116.525929000000,24.604791000000,0 116.506770000000,24.621290000000,0 116.517495000000,24.652297000000,0 116.504966000000,24.667049000000,0 116.501505000000,24.698335000000,0 116.486977000000,24.718592000000,0 116.469719000000,24.719317000000,0 116.455923000000,24.713709000000,0 116.446075000000,24.714483000000,0 116.437398000000,24.733577000000,0 116.417166000000,24.743051000000,0 116.415362000000,24.756438000000,0 116.419116000000,24.767311000000,0 116.407172000000,24.777797000000,0 116.399664000000,24.793983000000,0 116.384405000000,24.790939000000,0 116.375972000000,24.803355000000,0 116.377239000000,24.821083000000,0 116.417800000000,24.840692000000,0 116.407318000000,24.853296000000,0 116.393912000000,24.856918000000,0 116.394789000000,24.877873000000,0 116.379238000000,24.877535000000,0 116.374558000000,24.868458000000,0 116.361785000000,24.869859000000,0 116.349744000000,24.856725000000,0 116.349159000000,24.836732000000,0 116.344089000000,24.827555000000,0 116.332730000000,24.821856000000,0 116.332291000000,24.826638000000,0 116.318153000000,24.818185000000,0 116.299969000000,24.802920000000,0 116.291340000000,24.800263000000,0 116.264917000000,24.799877000000,0 116.251267000000,24.793403000000,0 116.233083000000,24.800650000000,0 116.233717000000,24.806205000000,0 116.250048000000,24.827893000000,0 116.238933000000,24.830405000000,0 116.229329000000,24.826010000000,0 116.221139000000,24.830791000000,0 116.220505000000,24.842624000000,0 116.210901000000,24.854455000000,0 116.200907000000,24.857980000000,0 116.191742000000,24.877101000000,0 116.181066000000,24.875121000000,0 116.153229000000,24.846632000000,0 116.139530000000,24.844701000000,0 116.116032000000,24.851413000000,0 116.094874000000,24.849240000000,0 116.091316000000,24.838374000000,0 116.083223000000,24.853490000000,0 116.068890000000,24.849964000000,0 116.062796000000,24.859912000000,0 116.052266000000,24.861505000000,0 116.043150000000,24.871162000000,0 116.038324000000,24.886901000000,0 116.023357000000,24.902156000000,0 116.015264000000,24.905728000000,0 116.003077000000,24.896508000000,0 115.984941000000,24.900225000000,0 115.976703000000,24.915960000000,0 115.962760000000,24.913209000000,0 115.955301000000,24.918518000000,0 115.908451000000,24.923296000000,0 115.897288000000,24.937147000000,0 115.892559000000,24.937099000000,0 115.884271000000,24.950899000000,0 115.870231000000,24.959488000000,0 115.872278000000,24.972080000000,0 115.882955000000,24.976663000000,0 115.892266000000,24.970054000000,0 115.894996000000,24.962045000000,0 115.904405000000,24.964361000000,0 115.917227000000,24.958089000000,0 115.925075000000,24.960790000000,0 115.917129000000,24.974251000000,0 115.899238000000,24.991761000000,0 115.881980000000,24.995041000000,0 115.876958000000,25.003193000000,0 115.873643000000,25.019928000000,0 115.888220000000,25.022918000000,0 115.897873000000,25.037046000000,0 115.912303000000,25.042929000000,0 115.918348000000,25.038685000000,0 115.928293000000,25.050498000000,0 115.920980000000,25.061201000000,0 115.913863000000,25.060670000000,0 115.919372000000,25.072433000000,0 115.908305000000,25.084531000000,0 115.880078000000,25.092243000000,0 115.883832000000,25.103183000000,0 115.874033000000,25.114700000000,0 115.873936000000,25.121831000000,0 115.888366000000,25.129011000000,0 115.884954000000,25.141489000000,0 115.875837000000,25.152328000000,0 115.867403000000,25.149053000000,0 115.855118000000,25.153195000000,0 115.853363000000,25.163889000000,0 115.860432000000,25.165960000000,0 115.853412000000,25.176460000000,0 115.857507000000,25.178146000000,0 115.855606000000,25.209447000000,0 115.870523000000,25.221243000000,0 115.878762000000,25.214310000000,0 115.890804000000,25.217825000000,0 115.901724000000,25.231353000000,0 115.918250000000,25.230438000000,0 115.930926000000,25.236023000000,0 115.939506000000,25.253977000000,0 115.949402000000,25.266202000000,0 115.947160000000,25.288146000000,0 115.951547000000,25.293150000000,0 115.965636000000,25.286895000000,0 115.974704000000,25.289878000000,0 115.977629000000,25.298443000000,0 115.986355000000,25.290793000000,0 116.000054000000,25.301522000000,0 116.008001000000,25.321440000000,0 116.000834000000,25.324855000000,0 116.005758000000,25.330868000000,0 116.000152000000,25.343277000000,0 115.991669000000,25.345105000000,0 116.000005000000,25.357705000000,0 115.992742000000,25.371074000000,0 115.996008000000,25.379585000000,0 116.008001000000,25.392855000000,0 116.002297000000,25.408190000000,0 116.005368000000,25.414247000000,0 116.015167000000,25.414439000000,0 116.021797000000,25.420688000000,0 116.022090000000,25.437942000000,0 116.012193000000,25.455242000000,0 116.019213000000,25.474221000000,0 116.007269000000,25.473741000000,0 116.005466000000,25.490459000000,0 116.013119000000,25.498193000000,0 116.015752000000,25.508184000000,0 116.036569000000,25.514764000000,0 116.035301000000,25.540552000000,0 116.040274000000,25.547995000000,0 116.054168000000,25.546938000000,0 116.062845000000,25.563310000000,0 116.054411000000,25.578192000000,0 116.052023000000,25.598592000000,0 116.040956000000,25.606942000000,0 116.046904000000,25.616972000000,0 116.041639000000,25.626329000000,0 116.050950000000,25.627577000000,0 116.059628000000,25.639140000000,0 116.067135000000,25.634342000000,0 116.068939000000,25.646337000000,0 116.057580000000,25.660153000000,0 116.065234000000,25.676126000000,0 116.056215000000,25.682409000000,0 116.060164000000,25.694926000000,0 116.067672000000,25.691329000000,0 116.067623000000,25.704085000000,0 116.082589000000,25.696221000000,0 116.106965000000,25.701112000000,0 116.110085000000,25.707585000000,0 116.108476000000,25.723312000000,0 116.118226000000,25.732805000000,0 116.116764000000,25.738941000000,0 116.129634000000,25.759169000000,0 116.145965000000,25.759601000000,0 116.166538000000,25.766023000000,0 116.165953000000,25.748480000000,0 116.175460000000,25.749487000000,0 116.177020000000,25.768467000000,0 116.181602000000,25.776423000000,0 116.176288000000,25.785240000000,0 116.160103000000,25.798753000000,0 116.159274000000,25.809581000000,0 116.131779000000,25.824288000000,0 116.129244000000,25.838706000000,0 116.130706000000,25.858726000000,0 116.153473000000,25.876779000000,0 116.169804000000,25.877018000000,0 116.177653000000,25.894350000000,0 116.191937000000,25.901005000000,0 116.207196000000,25.901388000000,0 116.225137000000,25.908520000000,0 116.232205000000,25.900430000000,0 116.258287000000,25.902967000000,0 116.268232000000,25.914217000000,0 116.280664000000,25.914408000000,0 116.302407000000,25.922593000000,0 116.304162000000,25.929485000000,0 116.320249000000,25.940828000000,0 116.326294000000,25.956572000000,0 116.348330000000,25.961691000000,0 116.369975000000,25.963318000000,0 116.368025000000,25.974897000000,0 116.359933000000,25.991497000000,0 116.361054000000,26.000729000000,0 116.371048000000,26.005464000000,0 116.383284000000,26.029424000000,0 116.400103000000,26.033059000000,0 116.401322000000,26.046160000000,0 116.418238000000,26.054575000000,0 116.421749000000,26.065667000000,0 116.443540000000,26.078908000000,0 116.458409000000,26.091909000000,0 116.477178000000,26.102710000000,0 116.489268000000,26.113701000000,0 116.489463000000,26.128753000000,0 116.481907000000,26.137974000000,0 116.482102000000,26.160140000000,0 116.471474000000,26.175185000000,0 116.463382000000,26.175424000000,0 116.453632000000,26.166111000000,0 116.435935000000,26.160044000000,0 116.415070000000,26.159806000000,0 116.392498000000,26.170314000000,0 116.399372000000,26.189943000000,0 116.400054000000,26.203791000000,0 116.390451000000,26.210093000000,0 116.393132000000,26.217446000000,0 116.385429000000,26.238165000000,0 116.395618000000,26.244561000000,0 116.391669000000,26.256589000000,0 116.401761000000,26.274867000000,0 116.418190000000,26.279257000000,0 116.422041000000,26.291520000000,0 116.413071000000,26.298057000000,0 116.427257000000,26.300251000000,0 116.437105000000,26.308218000000,0 116.438714000000,26.321385000000,0 116.453827000000,26.331592000000,0 116.459287000000,26.345137000000,0 116.499799000000,26.361399000000,0 116.494533000000,26.369028000000,0 116.498287000000,26.387097000000,0 116.511109000000,26.391150000000,0 116.512181000000,26.402257000000,0 116.519396000000,26.410360000000,0 116.533437000000,26.408835000000,0 116.534558000000,26.400779000000,0 116.545186000000,26.397251000000,0 116.553619000000,26.400255000000,0 116.559226000000,26.385620000000,0 116.553717000000,26.365404000000,0 116.571072000000,26.370983000000,0 116.584235000000,26.366119000000,0 116.601395000000,26.372938000000,0 116.608952000000,26.383808000000,0 116.610560000000,26.394010000000,0 116.604418000000,26.405784000000,0 116.604174000000,26.415793000000,0 116.610658000000,26.433284000000,0 116.627964000000,26.445483000000,0 116.630109000000,26.459634000000,0 116.637130000000,26.466113000000,0 116.638105000000,26.479499000000,0 116.610755000000,26.476975000000,0 116.597446000000,26.485358000000,0 116.601200000000,26.490455000000,0 116.589012000000,26.497980000000,0 116.598763000000,26.510458000000,0 116.586916000000,26.519982000000,0 116.578775000000,26.521649000000,0 116.579604000000,26.531601000000,0 116.562590000000,26.544694000000,0 116.540895000000,26.556357000000,0 116.540944000000,26.568115000000,0 116.553229000000,26.575778000000,0 116.558982000000,26.596242000000,0 116.561907000000,26.620651000000,0 116.568781000000,26.642202000000,0 116.566051000000,26.650145000000,0 116.550548000000,26.651192000000,0 116.545039000000,26.659658000000,0 116.519884000000,26.684767000000,0 116.511986000000,26.708254000000,0 116.515106000000,26.720994000000,0 116.537824000000,26.737107000000,0 116.550207000000,26.751317000000,0 116.558641000000,26.766809000000,0 116.557909000000,26.773983000000,0 116.547721000000,26.791134000000,0 116.543674000000,26.803912000000,0 116.544162000000,26.820441000000,0 116.548647000000,26.840007000000,0 116.557373000000,26.851830000000,0 116.568976000000,26.858952000000,0 116.602126000000,26.888716000000,0 116.632986000000,26.933988000000,0 116.659262000000,26.962215000000,0 116.679299000000,26.978484000000,0 116.704893000000,26.990909000000,0 116.734095000000,26.993754000000,0 116.757300000000,26.984364000000,0 116.765003000000,27.000393000000,0 116.782261000000,27.009591000000,0 116.817702000000,27.018505000000,0 116.851340000000,27.009354000000,0 116.860944000000,27.011488000000,0 116.880152000000,27.026564000000,0 116.894339000000,27.032679000000,0 116.910085000000,27.034576000000,0 116.927684000000,27.031352000000,0 116.936362000000,27.019311000000,0 116.946795000000,27.037989000000,0 116.967562000000,27.061782000000,0 117.000177000000,27.080121000000,0 117.032401000000,27.089739000000,0 117.053217000000,27.101442000000,0 117.043662000000,27.139809000000,0 117.048781000000,27.152263000000,0 117.056776000000,27.156951000000,0 117.069305000000,27.175227000000,0 117.084418000000,27.182802000000,0 117.097142000000,27.205571000000,0 117.106697000000,27.203630000000,0 117.116350000000,27.207748000000,0 117.120494000000,27.215936000000,0 117.140579000000,27.231505000000,0 117.149793000000,27.241394000000,0 117.154424000000,27.260934000000,0 117.166173000000,27.267084000000,0 117.171877000000,27.290261000000,0 117.160177000000,27.295747000000,0 117.157154000000,27.301753000000,0 117.137166000000,27.302982000000,0 117.142578000000,27.316175000000,0 117.140481000000,27.322795000000,0 117.129561000000,27.322416000000,0 117.109476000000,27.326861000000,0 117.100262000000,27.339153000000,0 117.104065000000,27.366710000000,0 117.099141000000,27.379186000000,0 117.105625000000,27.382400000000,0 117.107380000000,27.393552000000,0 117.127514000000,27.406687000000,0 117.132779000000,27.422324000000,0 117.126149000000,27.434463000000,0 117.125417000000,27.451985000000,0 117.110158000000,27.458833000000,0 117.111523000000,27.474557000000,0 117.104650000000,27.484614000000,0 117.110353000000,27.494952000000,0 117.103138000000,27.510766000000,0 117.103138000000,27.533137000000,0 117.098848000000,27.544131000000,0 117.091048000000,27.547387000000,0 117.084906000000,27.564089000000,0 117.073839000000,27.559796000000,0 117.054875000000,27.542622000000,0 117.050877000000,27.549511000000,0 117.042005000000,27.547293000000,0 117.020018000000,27.557107000000,0 117.016801000000,27.563476000000,0 117.024503000000,27.592440000000,0 117.013534000000,27.606730000000,0 117.017044000000,27.611729000000,0 117.003394000000,27.625969000000,0 117.009196000000,27.633702000000,0 117.013973000000,27.630213000000,0 117.021627000000,27.643036000000,0 117.020359000000,27.653078000000,0 117.040786000000,27.670235000000,0 117.061018000000,27.669057000000,0 117.078714000000,27.650909000000,0 117.078714000000,27.642235000000,0 117.094071000000,27.627808000000,0 117.109573000000,27.632004000000,0 117.106015000000,27.642376000000,0 117.111865000000,27.645394000000,0 117.102115000000,27.662835000000,0 117.096167000000,27.667501000000,0 117.106648000000,27.686117000000,0 117.121517000000,27.694222000000,0 117.131560000000,27.687201000000,0 117.142968000000,27.688850000000,0 117.172657000000,27.678153000000,0 117.186258000000,27.682677000000,0 117.202639000000,27.683572000000,0 117.203711000000,27.711373000000,0 117.227745000000,27.719241000000,0 117.243979000000,27.718111000000,0 117.254412000000,27.729228000000,0 117.264503000000,27.728898000000,0 117.268111000000,27.740439000000,0 117.279762000000,27.749859000000,0 117.277812000000,27.767613000000,0 117.294680000000,27.763940000000,0 117.305600000000,27.775477000000,0 117.306088000000,27.781833000000,0 117.297751000000,27.798453000000,0 117.303065000000,27.830225000000,0 117.293608000000,27.843213000000,0 117.276642000000,27.848060000000,0 117.280786000000,27.871209000000,0 117.289025000000,27.868527000000,0 117.303358000000,27.872150000000,0 117.318081000000,27.894070000000,0 117.327684000000,27.894117000000,0 117.336167000000,27.878265000000,0 117.333047000000,27.862082000000,0 117.340701000000,27.856294000000,0 117.353425000000,27.858506000000,0 117.353864000000,27.864904000000,0 117.366588000000,27.882358000000,0 117.378434000000,27.888661000000,0 117.384382000000,27.886403000000,0 117.396033000000,27.893224000000,0 117.404613000000,27.893224000000,0 117.429964000000,27.913118000000,0 117.454046000000,27.939920000000,0 117.462968000000,27.941330000000,0 117.474717000000,27.930469000000,0 117.482858000000,27.939402000000,0 117.504845000000,27.954305000000,0 117.511426000000,27.974517000000,0 117.521761000000,27.982413000000,0 117.530731000000,27.981708000000,0 117.532340000000,27.973953000000,0 117.558081000000,27.964882000000,0 117.563687000000,27.956656000000,0 117.560469000000,27.947254000000,0 117.569635000000,27.935312000000,0 117.579190000000,27.945749000000,0 117.586795000000,27.942317000000,0 117.584650000000,27.934936000000,0 117.588696000000,27.918338000000,0 117.586161000000,27.905593000000,0 117.595521000000,27.899526000000,0 117.603565000000,27.885933000000,0 117.602590000000,27.869562000000,0 117.610049000000,27.863446000000,0 117.649976000000,27.851683000000,0 117.667039000000,27.842272000000,0 117.673230000000,27.828483000000,0 117.682541000000,27.823730000000,0 117.705649000000,27.833001000000,0 117.716423000000,27.816246000000,0 117.730951000000,27.803443000000,0 117.741969000000,27.801183000000,0 117.754351000000,27.812057000000,0 117.759665000000,27.826930000000,0 117.775753000000,27.836484000000,0 117.788136000000,27.855824000000,0 117.782529000000,27.866034000000,0 117.788379000000,27.882922000000,0 117.785503000000,27.892706000000,0 117.799300000000,27.901360000000,0 117.815144000000,27.920642000000,0 117.836399000000,27.927789000000,0 117.849123000000,27.936487000000,0 117.855997000000,27.945890000000,0 117.866576000000,27.937757000000,0 117.891000000000,27.948476000000,0 117.912158000000,27.950074000000,0 117.920250000000,27.963425000000,0 117.932487000000,27.966762000000,0 117.942773000000,27.974094000000,0 117.958032000000,27.968971000000,0 117.965199000000,27.962626000000,0 117.985674000000,27.971556000000,0 117.998057000000,27.991154000000,0 118.006588000000,27.980392000000,0 118.019166000000,27.981191000000,0 118.034327000000,27.988193000000,0 118.042712000000,27.980157000000,0 118.060945000000,27.982695000000,0 118.070744000000,27.977431000000,0 118.074205000000,27.967514000000,0 118.089903000000,27.964976000000,0 118.097021000000,27.967608000000,0 118.091999000000,27.981520000000,0 118.093803000000,28.001868000000,0 118.105893000000,28.016997000000,0 118.123395000000,28.012534000000,0 118.129099000000,28.017185000000,0 118.120762000000,28.041800000000,0 118.135095000000,28.053683000000,0 118.153815000000,28.061855000000,0 118.182725000000,28.051711000000,0 118.199739000000,28.050020000000,0 118.210415000000,28.057299000000,0 118.225040000000,28.059319000000,0 118.242542000000,28.075520000000,0 118.253559000000,28.068758000000,0 118.274912000000,28.082986000000,0 118.291975000000,28.082610000000,0 118.308160000000,28.089418000000,0 118.339117000000,28.088244000000,0 118.341993000000,28.084817000000,0 118.356229000000,28.091672000000,0 118.359544000000,28.111905000000,0 118.356765000000,28.123921000000,0 118.368416000000,28.129177000000,0 118.361786000000,28.140393000000,0 118.361055000000,28.155878000000,0 118.379288000000,28.166576000000,0 118.374656000000,28.173895000000,0 118.374315000000,28.187967000000,0 118.356082000000,28.192752000000,0 118.339751000000,28.193878000000,0 118.334144000000,28.206869000000,0 118.319422000000,28.214466000000,0 118.314888000000,28.222860000000,0 118.339166000000,28.235895000000,0 118.343456000000,28.234583000000,0 118.350427000000,28.250288000000,0 118.364467000000,28.253804000000,0 118.373486000000,28.265851000000,0 118.388453000000,28.266742000000,0 118.424285000000,28.291534000000,0 118.433060000000,28.293127000000,0 118.430379000000,28.279537000000,0 118.438617000000,28.261258000000,0 118.448855000000,28.261539000000,0 118.445296000000,28.250851000000,0 118.459922000000,28.244381000000,0 118.481031000000,28.245975000000,0 118.490683000000,28.238427000000,0 118.502676000000,28.246819000000,0 118.492926000000,28.262711000000,0 118.495607000000,28.273116000000,0 118.505650000000,28.279912000000,0 118.514132000000,28.269648000000,0 118.530220000000,28.270445000000,0 118.546259000000,28.274991000000,0 118.547478000000,28.286567000000,0 118.558593000000,28.282302000000,0 118.568831000000,28.285255000000,0 118.584480000000,28.284317000000,0 118.597496000000,28.271991000000,0 118.595741000000,28.256992000000,0 118.623042000000,28.256617000000,0 118.632987000000,28.261633000000,0 118.640251000000,28.273491000000,0 118.651366000000,28.277147000000,0 118.666674000000,28.269741000000,0 118.674815000000,28.271476000000,0 118.689879000000,28.291019000000,0 118.699288000000,28.309949000000,0 118.719373000000,28.312057000000,0 118.730147000000,28.296829000000,0 118.727320000000,28.281130000000,0 118.739361000000,28.277381000000,0 118.740872000000,28.267492000000,0 118.754523000000,28.253476000000,0 118.781189000000,28.243116000000,0 118.802055000000,28.240443000000,0 118.812390000000,28.225580000000,0 118.804151000000,28.207901000000,0 118.794791000000,28.205931000000,0 118.782116000000,28.193221000000,0 118.769294000000,28.185763000000,0 118.760958000000,28.167420000000,0 118.775144000000,28.167983000000,0 118.782944000000,28.172628000000,0 118.798106000000,28.168922000000,0 118.805906000000,28.153063000000,0 118.800446000000,28.133448000000,0 118.802298000000,28.117303000000,0 118.785333000000,28.106741000000,0 118.773584000000,28.108009000000,0 118.765150000000,28.102939000000,0 118.763541000000,28.094723000000,0 118.743164000000,28.088526000000,0 118.735363000000,28.075003000000,0 118.718788000000,28.063639000000,0 118.720348000000,28.045417000000,0 118.732682000000,28.035976000000,0 118.733511000000,28.026440000000,0 118.726588000000,28.014178000000,0 118.726540000000,28.000411000000,0 118.732487000000,27.990872000000,0 118.729903000000,27.972590000000,0 118.753499000000,27.948006000000,0 118.754181000000,27.942740000000,0 118.767100000000,27.941800000000,0 118.804541000000,27.927084000000,0 118.803712000000,27.918338000000,0 118.818435000000,27.916692000000,0 118.820434000000,27.895387000000,0 118.831500000000,27.886309000000,0 118.826527000000,27.874831000000,0 118.835741000000,27.866504000000,0 118.826332000000,27.846648000000,0 118.835400000000,27.838225000000,0 118.838813000000,27.820671000000,0 118.847100000000,27.812528000000,0 118.851488000000,27.796005000000,0 118.839398000000,27.788566000000,0 118.840031000000,27.779291000000,0 118.853974000000,27.774253000000,0 118.870744000000,27.736671000000,0 118.880641000000,27.731160000000,0 118.890440000000,27.718723000000,0 118.897947000000,27.718911000000,0 118.900044000000,27.705013000000,0 118.878496000000,27.705296000000,0 118.875035000000,27.700961000000,0 118.880543000000,27.689322000000,0 118.874644000000,27.682818000000,0 118.879910000000,27.667973000000,0 118.894096000000,27.656896000000,0 118.903700000000,27.638888000000,0 118.902627000000,27.623659000000,0 118.913889000000,27.619132000000,0 118.908283000000,27.610597000000,0 118.906771000000,27.595458000000,0 118.902481000000,27.591591000000,0 118.904041000000,27.575978000000,0 118.910184000000,27.570317000000,0 118.896046000000,27.563146000000,0 118.889026000000,27.547482000000,0 118.869184000000,27.539932000000,0 118.859629000000,27.527568000000,0 118.857874000000,27.516713000000,0 118.873572000000,27.517751000000,0 118.879910000000,27.499579000000,0 118.890342000000,27.494103000000,0 118.887807000000,27.483575000000,0 118.897704000000,27.478948000000,0 118.901457000000,27.464688000000,0 118.910769000000,27.460863000000,0 118.933340000000,27.463602000000,0 118.949184000000,27.456377000000,0 118.955425000000,27.449813000000,0 118.966003000000,27.473377000000,0 118.988283000000,27.477248000000,0 118.990428000000,27.488579000000,0 118.982774000000,27.496038000000,0 118.990720000000,27.503355000000,0 118.998910000000,27.496321000000,0 119.020799000000,27.497926000000,0 119.037180000000,27.480600000000,0 119.055315000000,27.477626000000,0 119.065163000000,27.466766000000,0 119.072524000000,27.472243000000,0 119.090074000000,27.464877000000,0 119.115083000000,27.482819000000,0 119.130781000000,27.472810000000,0 119.131317000000,27.463083000000,0 119.118886000000,27.461430000000,0 119.125906000000,27.452221000000,0 119.121421000000,27.438336000000,0 119.128490000000,27.431771000000,0 119.138776000000,27.434416000000,0 119.147551000000,27.424827000000,0 119.153987000000,27.428559000000,0 119.168514000000,27.424874000000,0 119.180263000000,27.428228000000,0 119.194742000000,27.418733000000,0 119.209465000000,27.422135000000,0 119.222628000000,27.417080000000,0 119.243444000000,27.419867000000,0 119.247247000000,27.429504000000,0 119.248953000000,27.418639000000,0 119.262116000000,27.420623000000,0 119.267868000000,27.421473000000,0 119.276449000000,27.435502000000,0 119.285029000000,27.457652000000,0 119.334706000000,27.480034000000,0 119.347673000000,27.492781000000,0 119.341872000000,27.506801000000,0 119.360056000000,27.524406000000,0 119.376826000000,27.534977000000,0 119.394962000000,27.539271000000,0 119.416656000000,27.539649000000,0 119.426893000000,27.531060000000,0 119.432841000000,27.513031000000,0 119.438496000000,27.508783000000,0 119.451708000000,27.513551000000,0 119.466528000000,27.526435000000,0 119.474669000000,27.539318000000,0 119.477497000000,27.553851000000,0 119.484809000000,27.570411000000,0 119.481836000000,27.585648000000,0 119.488709000000,27.598807000000,0 119.500946000000,27.608239000000,0 119.497972000000,27.625875000000,0 119.501190000000,27.649872000000,0 119.511476000000,27.653455000000,0 119.520446000000,27.650108000000,0 119.525906000000,27.660290000000,0 119.537070000000,27.658923000000,0 119.541897000000,27.663919000000,0 119.539167000000,27.675372000000,0 119.549307000000,27.670141000000,0 119.550135000000,27.663825000000,0 119.566516000000,27.663731000000,0 119.578947000000,27.669858000000,0 119.583968000000,27.665145000000,0 119.594986000000,27.666889000000,0 119.606248000000,27.674760000000,0 119.635157000000,27.668680000000,0 119.644029000000,27.663495000000,0 119.639642000000,27.652653000000,0 119.647540000000,27.640538000000,0 119.641104000000,27.625403000000,0 119.626479000000,27.620499000000,0 119.630867000000,27.582676000000,0 119.645443000000,27.578195000000,0 119.675084000000,27.574374000000,0 119.672012000000,27.556399000000,0 119.668844000000,27.556494000000,0 119.659337000000,27.539696000000,0 119.667186000000,27.533561000000,0 119.682591000000,27.536959000000,0 119.684639000000,27.541159000000,0 119.708576000000,27.514259000000,0 119.703018000000,27.499295000000,0 119.709989000000,27.495849000000,0 119.706723000000,27.483339000000,0 119.709941000000,27.462469000000,0 119.703993000000,27.458550000000,0 119.703408000000,27.447310000000,0 119.693902000000,27.438667000000,0 119.685468000000,27.438431000000,0 119.689514000000,27.430826000000,0 119.704675000000,27.424686000000,0 119.709551000000,27.404702000000,0 119.724907000000,27.401253000000,0 119.732512000000,27.389819000000,0 119.739581000000,27.386795000000,0 119.741434000000,27.375453000000,0 119.750452000000,27.373232000000,0 119.740507000000,27.362220000000,0 119.746991000000,27.360235000000,0 119.750647000000,27.350403000000,0 119.769124000000,27.345440000000,0 119.768393000000,27.335749000000,0 119.781458000000,27.330501000000,0 119.784968000000,27.323598000000,0 119.769758000000,27.323267000000,0 119.770587000000,27.305678000000,0 119.790477000000,27.302604000000,0 119.795742000000,27.310454000000,0 119.809880000000,27.304495000000,0 119.819532000000,27.296030000000,0 119.822311000000,27.301422000000,0 119.840154000000,27.298915000000,0 119.844834000000,27.306623000000,0 119.834840000000,27.312534000000,0 119.846199000000,27.324071000000,0 119.856729000000,27.314804000000,0 119.871306000000,27.315419000000,0 119.865602000000,27.306198000000,0 119.878131000000,27.301847000000,0 119.878960000000,27.309602000000,0 119.887637000000,27.313338000000,0 119.899045000000,27.311494000000,0 119.903286000000,27.317594000000,0 119.933512000000,27.316553000000,0 119.944042000000,27.314142000000,0 119.938874000000,27.323788000000,0 119.951306000000,27.346764000000,0 119.960178000000,27.351869000000,0 119.964030000000,27.360471000000,0 119.960276000000,27.366096000000,0 119.988356000000,27.371389000000,0 119.994206000000,27.379186000000,0 120.005224000000,27.376682000000,0 120.009612000000,27.363921000000,0 120.015949000000,27.364772000000,0 120.026626000000,27.350781000000,0 120.027552000000,27.342273000000,0 120.052269000000,27.338680000000,0 120.061141000000,27.347425000000,0 120.077034000000,27.369215000000,0 120.096876000000,27.379612000000,0 120.096242000000,27.390339000000,0 120.107162000000,27.395583000000,0 120.121592000000,27.397426000000,0 120.128856000000,27.391614000000,0 120.137192000000,27.402340000000,0 120.130514000000,27.413395000000,0 120.134511000000,27.419820000000,0 120.165614000000,27.424827000000,0 120.176876000000,27.419962000000,0 120.202372000000,27.428370000000,0 120.213195000000,27.420292000000,0 120.221629000000,27.420292000000,0 120.246930000000,27.434558000000,0 120.248978000000,27.439895000000,0 120.262433000000,27.432905000000,0 120.263798000000,27.418025000000,0 120.258192000000,27.412687000000,0 120.273353000000,27.389393000000,0 120.289539000000,27.395914000000,0 120.302701000000,27.392229000000,0 120.315279000000,27.393268000000,0 120.315572000000,27.405600000000,0 120.319813000000,27.399694000000,0 120.331757000000,27.396056000000,0 120.340727000000,27.399647000000,0 120.351598000000,27.383581000000,0 120.343262000000,27.366237000000,0 120.355255000000,27.353901000000,0 120.351452000000,27.346764000000,0 120.358326000000,27.337545000000,0 120.374804000000,27.329272000000,0 120.383433000000,27.312676000000,0 120.401373000000,27.298584000000,0 120.408783000000,27.276639000000,0 120.430038000000,27.258852000000,0 120.422385000000,27.250810000000,0 120.415364000000,27.256392000000,0 120.401763000000,27.250857000000,0 120.398545000000,27.242483000000,0 120.413951000000,27.230937000000,0 120.400934000000,27.211534000000,0 120.404396000000,27.204009000000,0 120.425700000000,27.183323000000,0 120.426138000000,27.173476000000,0 120.438375000000,27.161023000000,0 120.445297000000,27.160881000000,0 120.461678000000,27.142555000000,0 120.426041000000,27.111816000000,0 120.403274000000,27.100636000000,0 120.401860000000,27.089266000000,0 120.392062000000,27.081258000000,0 120.358911000000,27.085712000000,0 120.326833000000,27.087370000000,0 120.319862000000,27.094382000000,0 120.306601000000,27.087986000000,0 120.287540000000,27.093909000000,0 120.282762000000,27.089787000000,0 120.290806000000,27.074387000000,0 120.286857000000,27.062493000000,0 120.299776000000,27.039553000000,0 120.295681000000,27.035713000000,0 120.263896000000,27.035239000000,0 120.256534000000,27.031874000000,0 120.274426000000,27.027939000000,0 120.279399000000,27.009828000000,0 120.278570000000,26.985787000000,0 120.261312000000,26.982657000000,0 120.250928000000,26.973172000000,0 120.243615000000,26.939492000000,0 120.248734000000,26.938211000000,0 120.247223000000,26.924831000000,0 120.237522000000,26.917856000000,0 120.231915000000,26.907226000000,0 120.226114000000,26.913110000000,0 120.208369000000,26.915958000000,0 120.190038000000,26.914629000000,0 120.180581000000,26.920418000000,0 120.156157000000,26.917856000000,0 120.146894000000,26.922648000000,0 120.138411000000,26.915293000000,0 120.126760000000,26.920418000000,0 120.118765000000,26.918900000000,0 120.117887000000,26.905850000000,0 120.121690000000,26.895551000000,0 120.118180000000,26.882878000000,0 120.103701000000,26.872957000000,0 120.083469000000,26.871533000000,0 120.070599000000,26.863699000000,0 120.054462000000,26.863699000000,0 120.049441000000,26.853492000000,0 120.050172000000,26.840244000000,0 120.063676000000,26.824288000000,0 120.082592000000,26.822294000000,0 120.102433000000,26.826805000000,0 120.104773000000,26.823671000000,0 120.094243000000,26.814647000000,0 120.102336000000,26.795695000000,0 120.121787000000,26.798165000000,0 120.128515000000,26.794317000000,0 120.136510000000,26.797785000000,0 120.137046000000,26.788189000000,0 120.124127000000,26.781015000000,0 120.106821000000,26.752838000000,0 120.114280000000,26.743429000000,0 120.126467000000,26.741242000000,0 120.148454000000,26.749987000000,0 120.158545000000,26.746708000000,0 120.150453000000,26.734493000000,0 120.165760000000,26.731499000000,0 120.159910000000,26.715908000000,0 120.150306000000,26.709538000000,0 120.127930000000,26.705354000000,0 120.110623000000,26.692803000000,0 120.115450000000,26.663843000000,0 120.120763000000,26.658849000000,0 120.130952000000,26.661893000000,0 120.127832000000,26.648576000000,0 120.144603000000,26.649432000000,0 120.138070000000,26.638016000000,0 120.103798000000,26.620509000000,0 120.093902000000,26.613705000000,0 120.079228000000,26.616274000000,0 120.068064000000,26.627455000000,0 120.059971000000,26.625932000000,0 120.030769000000,26.607948000000,0 120.007710000000,26.595623000000,0 119.983871000000,26.593482000000,0 119.967735000000,26.597670000000,0 119.946918000000,26.589722000000,0 119.937997000000,26.576539000000,0 119.947649000000,26.560641000000,0 119.939020000000,26.555881000000,0 119.933609000000,26.545122000000,0 119.911818000000,26.539980000000,0 119.902165000000,26.530506000000,0 119.893731000000,26.514030000000,0 119.884663000000,26.510077000000,0 119.867016000000,26.508887000000,0 119.839130000000,26.514220000000,0 119.828551000000,26.524220000000,0 119.830209000000,26.541075000000,0 119.836595000000,26.549502000000,0 119.834986000000,26.561165000000,0 119.844444000000,26.568924000000,0 119.845760000000,26.589009000000,0 119.851952000000,26.595385000000,0 119.892366000000,26.616750000000,0 119.901921000000,26.624553000000,0 119.918496000000,26.621317000000,0 119.940337000000,26.623078000000,0 119.946431000000,26.612040000000,0 119.949209000000,26.624457000000,0 119.961153000000,26.637492000000,0 119.957985000000,26.648671000000,0 119.970172000000,26.652904000000,0 119.971245000000,26.667790000000,0 119.977046000000,26.677301000000,0 119.970562000000,26.691566000000,0 119.989185000000,26.710298000000,0 119.993963000000,26.720566000000,0 120.019557000000,26.728409000000,0 120.020581000000,26.739104000000,0 120.032427000000,26.747706000000,0 120.041153000000,26.748656000000,0 120.059484000000,26.766191000000,0 120.063091000000,26.774363000000,0 120.056364000000,26.785956000000,0 120.028966000000,26.782060000000,0 119.995620000000,26.781395000000,0 119.979581000000,26.774934000000,0 119.967442000000,26.777879000000,0 119.968905000000,26.786098000000,0 119.958960000000,26.782820000000,0 119.943067000000,26.784768000000,0 119.932293000000,26.780112000000,0 119.924688000000,26.770182000000,0 119.938338000000,26.749274000000,0 119.938240000000,26.742050000000,0 119.929758000000,26.725462000000,0 119.913134000000,26.713056000000,0 119.905041000000,26.697510000000,0 119.899191000000,26.693183000000,0 119.904700000000,26.676588000000,0 119.901141000000,26.671547000000,0 119.908210000000,26.661417000000,0 119.873938000000,26.642915000000,0 119.861409000000,26.645436000000,0 119.858338000000,26.659895000000,0 119.862433000000,26.673877000000,0 119.852488000000,26.682104000000,0 119.830452000000,26.690948000000,0 119.810416000000,26.684196000000,0 119.787552000000,26.690996000000,0 119.741531000000,26.684386000000,0 119.711062000000,26.686621000000,0 119.695072000000,26.696701000000,0 119.664700000000,26.726128000000,0 119.657533000000,26.744284000000,0 119.653390000000,26.744664000000,0 119.656851000000,26.728124000000,0 119.664310000000,26.721850000000,0 119.657680000000,26.700600000000,0 119.637741000000,26.703025000000,0 119.633207000000,26.698793000000,0 119.640958000000,26.685195000000,0 119.634572000000,26.676017000000,0 119.628234000000,26.676350000000,0 119.619508000000,26.649099000000,0 119.591866000000,26.632640000000,0 119.584115000000,26.633829000000,0 119.577923000000,26.622269000000,0 119.607954000000,26.594053000000,0 119.620678000000,26.592149000000,0 119.636327000000,26.601809000000,0 119.660995000000,26.609994000000,0 119.670160000000,26.617987000000,0 119.679033000000,26.617654000000,0 119.689611000000,26.610993000000,0 119.699264000000,26.610184000000,0 119.727930000000,26.614133000000,0 119.740069000000,26.610707000000,0 119.752597000000,26.596194000000,0 119.769514000000,26.591769000000,0 119.788381000000,26.583250000000,0 119.793256000000,26.573969000000,0 119.789746000000,26.566925000000,0 119.799349000000,26.556167000000,0 119.799983000000,26.546836000000,0 119.818557000000,26.504505000000,0 119.837668000000,26.450057000000,0 119.835669000000,26.437716000000,0 119.861117000000,26.398634000000,0 119.861458000000,26.391054000000,0 119.880861000000,26.372842000000,0 119.876571000000,26.359634000000,0 119.893731000000,26.355867000000,0 119.913231000000,26.360874000000,0 119.940776000000,26.372890000000,0 119.962372000000,26.373462000000,0 119.954474000000,26.352720000000,0 119.934340000000,26.334788000000,0 119.913573000000,26.320574000000,0 119.909916000000,26.310413000000,0 119.898557000000,26.308600000000,0 119.876863000000,26.310031000000,0 119.862579000000,26.307598000000,0 119.860970000000,26.315851000000,0 119.845126000000,26.322768000000,0 119.806760000000,26.307694000000,0 119.803737000000,26.298963000000,0 119.818411000000,26.293763000000,0 119.814657000000,26.280307000000,0 119.797692000000,26.268234000000,0 119.781117000000,26.282788000000,0 119.771318000000,26.285222000000,0 119.724030000000,26.269570000000,0 119.676254000000,26.263080000000,0 119.669087000000,26.256971000000,0 119.671525000000,26.247282000000,0 119.679910000000,26.238499000000,0 119.679764000000,26.229190000000,0 119.668112000000,26.220311000000,0 119.664456000000,26.202024000000,0 119.643542000000,26.195769000000,0 119.626479000000,26.179532000000,0 119.605321000000,26.169741000000,0 119.603664000000,26.153118000000,0 119.611074000000,26.145713000000,0 119.618728000000,26.119770000000,0 119.632914000000,26.115565000000,0 119.641933000000,26.108923000000,0 119.644614000000,26.090475000000,0 119.654413000000,26.090093000000,0 119.659045000000,26.072264000000,0 119.667137000000,26.028946000000,0 119.675766000000,26.025790000000,0 119.700190000000,26.032485000000,0 119.715352000000,26.025455000000,0 119.723640000000,26.011538000000,0 119.722031000000,25.990349000000,0 119.715206000000,25.963270000000,0 119.702482000000,25.931591000000,0 119.695169000000,25.904404000000,0 119.688880000000,25.898084000000,0 119.643054000000,25.892244000000,0 119.634816000000,25.887121000000,0 119.628478000000,25.872038000000,0 119.625699000000,25.804742000000,0 119.627600000000,25.768275000000,0 119.636619000000,25.760847000000,0 119.637594000000,25.749583000000,0 119.626479000000,25.723312000000,0 119.612195000000,25.727052000000,0 119.602981000000,25.714730000000,0 119.612049000000,25.703557000000,0 119.602981000000,25.685286000000,0 119.583335000000,25.679147000000,0 119.543700000000,25.684423000000,0 119.526638000000,25.683032000000,0 119.490269000000,25.673536000000,0 119.489294000000,25.667972000000,0 119.473012000000,25.662311000000,0 119.478326000000,25.631463000000,0 119.493390000000,25.632375000000,0 119.503822000000,25.624458000000,0 119.510891000000,25.627721000000,0 119.525711000000,25.624266000000,0 119.532488000000,25.630648000000,0 119.540239000000,25.628728000000,0 119.542433000000,25.602527000000,0 119.533706000000,25.594032000000,0 119.534779000000,25.585344000000,0 119.570757000000,25.582224000000,0 119.586699000000,25.592112000000,0 119.596790000000,25.593312000000,0 119.602933000000,25.585920000000,0 119.600349000000,25.576944000000,0 119.616437000000,25.556781000000,0 119.619800000000,25.537239000000,0 119.612585000000,25.522304000000,0 119.613901000000,25.504822000000,0 119.627259000000,25.488874000000,0 119.624480000000,25.473837000000,0 119.634426000000,25.475182000000,0 119.644029000000,25.485607000000,0 119.652658000000,25.485655000000,0 119.654121000000,25.470282000000,0 119.674986000000,25.474990000000,0 119.678935000000,25.483734000000,0 119.676059000000,25.491420000000,0 119.691756000000,25.501603000000,0 119.696534000000,25.510777000000,0 119.706723000000,25.513755000000,0 119.718716000000,25.511594000000,0 119.723932000000,25.517549000000,0 119.714328000000,25.521055000000,0 119.713353000000,25.536182000000,0 119.717789000000,25.547466000000,0 119.708283000000,25.571136000000,0 119.692293000000,25.577424000000,0 119.683761000000,25.595904000000,0 119.692732000000,25.601999000000,0 119.700288000000,25.616396000000,0 119.712476000000,25.623738000000,0 119.719447000000,25.622442000000,0 119.727881000000,25.638420000000,0 119.749575000000,25.646193000000,0 119.784529000000,25.667492000000,0 119.791403000000,25.665381000000,0 119.791891000000,25.653868000000,0 119.779264000000,25.637221000000,0 119.780385000000,25.623690000000,0 119.787991000000,25.615293000000,0 119.808905000000,25.618460000000,0 119.840690000000,25.601279000000,0 119.841665000000,25.592064000000,0 119.831427000000,25.580016000000,0 119.845614000000,25.569743000000,0 119.871891000000,25.563790000000,0 119.884663000000,25.569695000000,0 119.890367000000,25.565663000000,0 119.887296000000,25.552412000000,0 119.870867000000,25.535750000000,0 119.854145000000,25.533493000000,0 119.844054000000,25.544009000000,0 119.821239000000,25.534886000000,0 119.814560000000,25.529411000000,0 119.811001000000,25.507127000000,0 119.816120000000,25.493774000000,0 119.829965000000,25.490171000000,0 119.833085000000,25.481716000000,0 119.843079000000,25.483686000000,0 119.851464000000,25.477440000000,0 119.863896000000,25.479746000000,0 119.859459000000,25.461921000000,0 119.866577000000,25.454954000000,0 119.855072000000,25.450773000000,0 119.845224000000,25.452792000000,0 119.839910000000,25.462690000000,0 119.826504000000,25.465285000000,0 119.813828000000,25.458125000000,0 119.803737000000,25.457597000000,0 119.775120000000,25.437414000000,0 119.764249000000,25.433377000000,0 119.762348000000,25.417516000000,0 119.783554000000,25.411507000000,0 119.772537000000,25.395066000000,0 119.756693000000,25.396268000000,0 119.738606000000,25.416362000000,0 119.718569000000,25.419727000000,0 119.703018000000,25.433521000000,0 119.703115000000,25.440489000000,0 119.685516000000,25.440105000000,0 119.681080000000,25.450341000000,0 119.687564000000,25.461200000000,0 119.680398000000,25.460720000000,0 119.674986000000,25.468119000000,0 119.648905000000,25.461681000000,0 119.641104000000,25.444430000000,0 119.622920000000,25.434049000000,0 119.640081000000,25.429291000000,0 119.646272000000,25.434194000000,0 119.657143000000,25.428378000000,0 119.656802000000,25.438519000000,0 119.670111000000,25.435491000000,0 119.672402000000,25.418958000000,0 119.668356000000,25.407950000000,0 119.658070000000,25.407806000000,0 119.656461000000,25.396989000000,0 119.665236000000,25.372084000000,0 119.660215000000,25.366025000000,0 119.654316000000,25.369920000000,0 119.644956000000,25.362899000000,0 119.630672000000,25.358667000000,0 119.643152000000,25.355926000000,0 119.657046000000,25.363284000000,0 119.658508000000,25.354002000000,0 119.649100000000,25.342941000000,0 119.636034000000,25.338660000000,0 119.612000000000,25.340969000000,0 119.597375000000,25.334668000000,0 119.588795000000,25.345778000000,0 119.596449000000,25.352944000000,0 119.584261000000,25.370112000000,0 119.582750000000,25.379921000000,0 119.590404000000,25.398191000000,0 119.581043000000,25.413526000000,0 119.584115000000,25.425975000000,0 119.573000000000,25.450293000000,0 119.559886000000,25.445728000000,0 119.555352000000,25.429147000000,0 119.572512000000,25.414343000000,0 119.578898000000,25.400787000000,0 119.568222000000,25.393864000000,0 119.564858000000,25.385258000000,0 119.552134000000,25.380450000000,0 119.548527000000,25.366073000000,0 119.531708000000,25.360639000000,0 119.533950000000,25.372516000000,0 119.519959000000,25.376892000000,0 119.500800000000,25.366410000000,0 119.496656000000,25.358812000000,0 119.485736000000,25.367275000000,0 119.491196000000,25.377084000000,0 119.505382000000,25.389153000000,0 119.507235000000,25.396316000000,0 119.485931000000,25.422418000000,0 119.490074000000,25.446833000000,0 119.462482000000,25.447938000000,0 119.456631000000,25.435059000000,0 119.447856000000,25.425542000000,0 119.444200000000,25.411747000000,0 119.438642000000,25.412661000000,0 119.438399000000,25.427369000000,0 119.430257000000,25.435732000000,0 119.447320000000,25.450773000000,0 119.441275000000,25.459423000000,0 119.442786000000,25.472540000000,0 119.452926000000,25.493726000000,0 119.435571000000,25.499538000000,0 119.424651000000,25.488009000000,0 119.401202000000,25.493630000000,0 119.397399000000,25.506311000000,0 119.357034000000,25.520719000000,0 119.350208000000,25.505350000000,0 119.343627000000,25.472540000000,0 119.354547000000,25.443709000000,0 119.353670000000,25.411844000000,0 119.288002000000,25.410978000000,0 119.263188000000,25.427898000000,0 119.261482000000,25.451302000000,0 119.272646000000,25.477824000000,0 119.256119000000,25.479218000000,0 119.256119000000,25.488922000000,0 119.219751000000,25.468648000000,0 119.236034000000,25.448323000000,0 119.232232000000,25.442267000000,0 119.197033000000,25.424629000000,0 119.184797000000,25.427225000000,0 119.168709000000,25.438711000000,0 119.151646000000,25.426504000000,0 119.145845000000,25.405114000000,0 119.144870000000,25.387999000000,0 119.151744000000,25.382999000000,0 119.162664000000,25.387037000000,0 119.171049000000,25.375930000000,0 119.195278000000,25.368333000000,0 119.218776000000,25.367948000000,0 119.228234000000,25.350732000000,0 119.227064000000,25.344865000000,0 119.235839000000,25.331156000000,0 119.240470000000,25.316869000000,0 119.248319000000,25.316196000000,0 119.247491000000,25.333610000000,0 119.253584000000,25.335870000000,0 119.267381000000,25.329521000000,0 119.292634000000,25.331156000000,0 119.299020000000,25.328848000000,0 119.313499000000,25.306430000000,0 119.335681000000,25.285452000000,0 119.353914000000,25.280591000000,0 119.369709000000,25.271544000000,0 119.385065000000,25.275683000000,0 119.378289000000,25.248923000000,0 119.356254000000,25.240211000000,0 119.340946000000,25.240933000000,0 119.332073000000,25.230920000000,0 119.313158000000,25.237371000000,0 119.293365000000,25.235108000000,0 119.301653000000,25.204536000000,0 119.313450000000,25.194520000000,0 119.313450000000,25.189415000000,0 119.300970000000,25.178050000000,0 119.293560000000,25.178387000000,0 119.269331000000,25.159987000000,0 119.261043000000,25.175641000000,0 119.231744000000,25.188982000000,0 119.220385000000,25.187248000000,0 119.198984000000,25.176412000000,0 119.182457000000,25.178242000000,0 119.146723000000,25.204199000000,0 119.138533000000,25.224661000000,0 119.131756000000,25.223217000000,0 119.119130000000,25.212384000000,0 119.108063000000,25.194086000000,0 119.118788000000,25.175738000000,0 119.141896000000,25.169525000000,0 119.143993000000,25.157868000000,0 119.138289000000,25.151895000000,0 119.146333000000,25.146692000000,0 119.160909000000,25.150931000000,0 119.165784000000,25.145439000000,0 119.164273000000,25.119133000000,0 119.158130000000,25.092243000000,0 119.141799000000,25.082700000000,0 119.140531000000,25.056283000000,0 119.147015000000,25.055850000000,0 119.125760000000,25.021085000000,0 119.127807000000,25.012597000000,0 119.119422000000,25.012646000000,0 119.119227000000,25.026582000000,0 119.106698000000,25.032996000000,0 119.106064000000,25.044520000000,0 119.089928000000,25.052185000000,0 119.096948000000,25.056139000000,0 119.113377000000,25.052234000000,0 119.118008000000,25.058115000000,0 119.107283000000,25.075325000000,0 119.128929000000,25.095231000000,0 119.142384000000,25.096725000000,0 119.134291000000,25.106074000000,0 119.082810000000,25.108532000000,0 119.075644000000,25.099809000000,0 119.052341000000,25.112532000000,0 119.052049000000,25.116676000000,0 119.035717000000,25.125783000000,0 119.029136000000,25.139610000000,0 119.028453000000,25.164515000000,0 119.037765000000,25.174871000000,0 119.054291000000,25.168561000000,0 119.062823000000,25.173907000000,0 119.072231000000,25.191293000000,0 119.074425000000,25.211373000000,0 119.064675000000,25.206654000000,0 119.055217000000,25.219462000000,0 119.019629000000,25.210603000000,0 119.012463000000,25.204391000000,0 118.989989000000,25.201839000000,0 118.989989000000,25.211662000000,0 118.978435000000,25.222832000000,0 118.975071000000,25.237611000000,0 118.983505000000,25.237804000000,0 118.988575000000,25.254170000000,0 118.996863000000,25.266298000000,0 119.006369000000,25.255132000000,0 119.017484000000,25.255469000000,0 119.023627000000,25.267887000000,0 119.014364000000,25.274432000000,0 118.994669000000,25.276790000000,0 118.983700000000,25.269667000000,0 118.954547000000,25.271400000000,0 118.949282000000,25.265288000000,0 118.930074000000,25.255854000000,0 118.915546000000,25.256913000000,0 118.918081000000,25.245843000000,0 118.899849000000,25.241366000000,0 118.917789000000,25.238285000000,0 118.919739000000,25.233086000000,0 118.945674000000,25.219606000000,0 118.941921000000,25.211036000000,0 118.950403000000,25.206173000000,0 118.971074000000,25.208340000000,0 118.973999000000,25.198806000000,0 118.984431000000,25.195483000000,0 118.985504000000,25.166105000000,0 118.966588000000,25.153918000000,0 118.951476000000,25.149390000000,0 118.953913000000,25.127132000000,0 118.973804000000,25.121687000000,0 118.974779000000,25.115182000000,0 118.955181000000,25.107905000000,0 118.937777000000,25.098026000000,0 118.916521000000,25.098990000000,0 118.910866000000,25.093014000000,0 118.892097000000,25.092725000000,0 118.889172000000,25.084194000000,0 118.920519000000,25.054934000000,0 118.946259000000,25.043121000000,0 118.945284000000,25.028511000000,0 118.960348000000,25.021760000000,0 118.976290000000,25.026775000000,0 118.983603000000,25.044037000000,0 118.991646000000,25.044037000000,0 118.998959000000,25.055608000000,0 119.016363000000,25.058501000000,0 119.024456000000,25.051655000000,0 119.024066000000,25.043507000000,0 119.011927000000,25.026100000000,0 119.005882000000,24.999334000000,0 118.988575000000,24.995524000000,0 118.989696000000,24.974058000000,0 118.997886000000,24.968558000000,0 119.006125000000,24.970150000000,0 119.009392000000,24.958619000000,0 119.017143000000,24.963444000000,0 119.032451000000,24.961369000000,0 119.032743000000,24.957654000000,0 119.013926000000,24.941490000000,0 118.982774000000,24.934396000000,0 118.983456000000,24.938305000000,0 118.945626000000,24.954036000000,0 118.933340000000,24.949355000000,0 118.918374000000,24.932466000000,0 118.918276000000,24.923876000000,0 118.928124000000,24.918711000000,0 118.932950000000,24.906548000000,0 118.942116000000,24.908189000000,0 118.955522000000,24.896991000000,0 118.972292000000,24.902252000000,0 118.988185000000,24.896846000000,0 118.991841000000,24.880336000000,0 118.958008000000,24.871211000000,0 118.948892000000,24.876232000000,0 118.931439000000,24.870438000000,0 118.906966000000,24.876135000000,0 118.895851000000,24.884005000000,0 118.876156000000,24.888205000000,0 118.864748000000,24.887384000000,0 118.847685000000,24.875701000000,0 118.838325000000,24.875701000000,0 118.835693000000,24.868120000000,0 118.845784000000,24.863775000000,0 118.834474000000,24.854262000000,0 118.819654000000,24.868990000000,0 118.805760000000,24.869859000000,0 118.787234000000,24.855663000000,0 118.765979000000,24.847984000000,0 118.751207000000,24.845377000000,0 118.745894000000,24.824512000000,0 118.734925000000,24.826106000000,0 118.731415000000,24.840692000000,0 118.705187000000,24.844314000000,0 118.698557000000,24.852620000000,0 118.702408000000,24.865513000000,0 118.696997000000,24.867879000000,0 118.687734000000,24.856580000000,0 118.672865000000,24.849578000000,0 118.647905000000,24.843638000000,0 118.645711000000,24.829053000000,0 118.650391000000,24.808765000000,0 118.673694000000,24.794466000000,0 118.690903000000,24.799925000000,0 118.710598000000,24.796736000000,0 118.713036000000,24.809248000000,0 118.721080000000,24.815866000000,0 118.732243000000,24.815625000000,0 118.731415000000,24.800939000000,0 118.736095000000,24.783981000000,0 118.744821000000,24.779488000000,0 118.785431000000,24.776830000000,0 118.784651000000,24.760062000000,0 118.776509000000,24.740972000000,0 118.765784000000,24.734592000000,0 118.765979000000,24.728695000000,0 118.752329000000,24.718785000000,0 118.747259000000,24.723619000000,0 118.742384000000,24.717142000000,0 118.750525000000,24.716465000000,0 118.739800000000,24.706264000000,0 118.742237000000,24.698964000000,0 118.731463000000,24.691372000000,0 118.724053000000,24.677688000000,0 118.716789000000,24.676576000000,0 118.703432000000,24.665453000000,0 118.685930000000,24.662599000000,0 118.677496000000,24.667194000000,0 118.670184000000,24.679767000000,0 118.656095000000,24.669805000000,0 118.652438000000,24.653700000000,0 118.654973000000,24.633674000000,0 118.661262000000,24.622257000000,0 118.667015000000,24.621387000000,0 118.672475000000,24.631449000000,0 118.686856000000,24.633626000000,0 118.689099000000,24.608952000000,0 118.680324000000,24.582241000000,0 118.673255000000,24.575079000000,0 118.664285000000,24.573772000000,0 118.655997000000,24.565883000000,0 118.657460000000,24.554460000000,0 118.639666000000,24.548748000000,0 118.625382000000,24.535144000000,0 118.620604000000,24.534805000000,0 118.614267000000,24.521733000000,0 118.590817000000,24.513792000000,0 118.579946000000,24.507207000000,0 118.558106000000,24.512582000000,0 118.566442000000,24.520620000000,0 118.563712000000,24.539308000000,0 118.546210000000,24.549764000000,0 118.547185000000,24.559203000000,0 118.556497000000,24.562591000000,0 118.557326000000,24.572901000000,0 118.518569000000,24.605904000000,0 118.478642000000,24.615000000000,0 118.444663000000,24.614952000000,0 118.422091000000,24.598549000000,0 118.401567000000,24.590855000000,0 118.402981000000,24.578079000000,0 118.391817000000,24.574062000000,0 118.385674000000,24.582048000000,0 118.373828000000,24.575611000000,0 118.363492000000,24.568158000000,0 118.377435000000,24.561575000000,0 118.373486000000,24.547586000000,0 118.375485000000,24.536403000000,0 118.363541000000,24.530206000000,0 118.346868000000,24.530545000000,0 118.289928000000,24.522702000000,0 118.242883000000,24.512485000000,0 118.205004000000,24.533208000000,0 118.169416000000,24.559252000000,0 118.162005000000,24.572175000000,0 118.150500000000,24.583500000000,0 118.121347000000,24.569852000000,0 118.105942000000,24.551749000000,0 118.098386000000,24.548070000000,0 118.084687000000,24.529916000000,0 118.064553000000,24.464005000000,0 118.052219000000,24.445064000000,0 118.049001000000,24.418318000000,0 118.086295000000,24.410322000000,0 118.088587000000,24.406154000000,0 118.083565000000,24.370966000000,0 118.075717000000,24.360882000000,0</coordinates></LinearRing></outerBoundaryIs></Polygon><Polygon><outerBoundaryIs><LinearRing><coordinates>118.269988000000,24.421419000000,0 118.252779000000,24.417300000000,0 118.246734000000,24.407317000000,0 118.238203000000,24.408190000000,0 118.230403000000,24.401308000000,0 118.217923000000,24.405621000000,0 118.220701000000,24.425780000000,0 118.229087000000,24.427961000000,0 118.233864000000,24.445791000000,0 118.255656000000,24.451943000000,0 118.273450000000,24.441139000000,0 118.269988000000,24.421419000000,0</coordinates></LinearRing></outerBoundaryIs></Polygon><Polygon><outerBoundaryIs><LinearRing><coordinates>118.062505000000,24.437263000000,0 118.056509000000,24.445112000000,0 118.061823000000,24.453154000000,0 118.074937000000,24.446856000000,0 118.077618000000,24.438717000000,0 118.071329000000,24.435180000000,0 118.062505000000,24.437263000000,0</coordinates></LinearRing></outerBoundaryIs></Polygon><Polygon><outerBoundaryIs><LinearRing><coordinates>118.467917000000,24.470448000000,0 118.467527000000,24.459307000000,0 118.478983000000,24.447971000000,0 118.477033000000,24.437506000000,0 118.465625000000,24.434211000000,0 118.469818000000,24.425296000000,0 118.459532000000,24.420062000000,0 118.457728000000,24.412260000000,0 118.430720000000,24.403586000000,0 118.437009000000,24.411000000000,0 118.432377000000,24.418899000000,0 118.416095000000,24.421710000000,0 118.405272000000,24.428058000000,0 118.372268000000,24.426410000000,0 118.350671000000,24.412309000000,0 118.339848000000,24.390161000000,0 118.333072000000,24.383714000000,0 118.318788000000,24.383617000000,0 118.299483000000,24.392390000000,0 118.294315000000,24.401453000000,0 118.281932000000,24.410419000000,0 118.290659000000,24.415023000000,0 118.290123000000,24.423067000000,0 118.311963000000,24.424617000000,0 118.304797000000,24.454608000000,0 118.294023000000,24.466766000000,0 118.295729000000,24.475340000000,0 118.318739000000,24.486625000000,0 118.345260000000,24.468559000000,0 118.374608000000,24.458774000000,0 118.389525000000,24.465507000000,0 118.390403000000,24.474904000000,0 118.383675000000,24.480716000000,0 118.399909000000,24.490693000000,0 118.395034000000,24.508902000000,0 118.412536000000,24.514325000000,0 118.414583000000,24.526672000000,0 118.430525000000,24.521346000000,0 118.438520000000,24.507740000000,0 118.454900000000,24.504447000000,0 118.462944000000,24.478537000000,0 118.473474000000,24.477277000000,0 118.467917000000,24.470448000000,0</coordinates></LinearRing></outerBoundaryIs></Polygon><Polygon><outerBoundaryIs><LinearRing><coordinates>118.070354000000,24.455189000000,0 118.069038000000,24.467735000000,0 118.075717000000,24.494664000000,0 118.089074000000,24.532530000000,0 118.100287000000,24.548070000000,0 118.111695000000,24.555282000000,0 118.142554000000,24.561623000000,0 118.155619000000,24.547779000000,0 118.170196000000,24.545892000000,0 118.191695000000,24.536839000000,0 118.201591000000,24.525558000000,0 118.204467000000,24.504786000000,0 118.206807000000,24.481491000000,0 118.198910000000,24.468268000000,0 118.156545000000,24.434405000000,0 118.143236000000,24.420838000000,0 118.134608000000,24.419675000000,0 118.106186000000,24.424423000000,0 118.088928000000,24.431304000000,0 118.070354000000,24.455189000000,0</coordinates></LinearRing></outerBoundaryIs></Polygon><Polygon><outerBoundaryIs><LinearRing><coordinates>118.378849000000,24.555525000000,0 118.385382000000,24.560075000000,0 118.394888000000,24.554411000000,0 118.383724000000,24.551604000000,0 118.378849000000,24.555525000000,0</coordinates></LinearRing></outerBoundaryIs></Polygon><Polygon><outerBoundaryIs><LinearRing><coordinates>119.449855000000,24.994752000000,0 119.459508000000,24.992196000000,0 119.461116000000,24.982307000000,0 119.449855000000,24.994752000000,0</coordinates></LinearRing></outerBoundaryIs></Polygon><Polygon><outerBoundaryIs><LinearRing><coordinates>119.027039000000,25.040470000000,0 119.036790000000,25.031549000000,0 119.028307000000,25.029669000000,0 119.027039000000,25.040470000000,0</coordinates></LinearRing></outerBoundaryIs></Polygon><Polygon><outerBoundaryIs><LinearRing><coordinates>119.049611000000,25.094749000000,0 119.048344000000,25.101496000000,0 119.058240000000,25.102604000000,0 119.049611000000,25.094749000000,0</coordinates></LinearRing></outerBoundaryIs></Polygon><Polygon><outerBoundaryIs><LinearRing><coordinates>119.371805000000,25.114893000000,0 119.366784000000,25.118073000000,0 119.369563000000,25.128866000000,0 119.377899000000,25.120241000000,0 119.371805000000,25.114893000000,0</coordinates></LinearRing></outerBoundaryIs></Polygon><Polygon><outerBoundaryIs><LinearRing><coordinates>118.994181000000,25.172559000000,0 119.000958000000,25.185851000000,0 119.004419000000,25.181951000000,0 118.994181000000,25.172559000000,0</coordinates></LinearRing></outerBoundaryIs></Polygon><Polygon><outerBoundaryIs><LinearRing><coordinates>119.032597000000,25.189415000000,0 119.036205000000,25.184262000000,0 119.027039000000,25.171451000000,0 119.018118000000,25.173330000000,0 119.015486000000,25.182336000000,0 119.032597000000,25.189415000000,0</coordinates></LinearRing></outerBoundaryIs></Polygon><Polygon><outerBoundaryIs><LinearRing><coordinates>119.342165000000,25.311962000000,0 119.338021000000,25.316437000000,0 119.345236000000,25.323845000000,0 119.349380000000,25.318698000000,0 119.342165000000,25.311962000000,0</coordinates></LinearRing></outerBoundaryIs></Polygon><Polygon><outerBoundaryIs><LinearRing><coordinates>119.362835000000,25.334283000000,0 119.377070000000,25.327453000000,0 119.368149000000,25.326539000000,0 119.362835000000,25.334283000000,0</coordinates></LinearRing></outerBoundaryIs></Polygon><Polygon><outerBoundaryIs><LinearRing><coordinates>119.465797000000,25.333802000000,0 119.471598000000,25.345201000000,0 119.489197000000,25.351357000000,0 119.485931000000,25.337217000000,0 119.488124000000,25.329665000000,0 119.474035000000,25.331349000000,0 119.465797000000,25.333802000000,0</coordinates></LinearRing></outerBoundaryIs></Polygon><Polygon><outerBoundaryIs><LinearRing><coordinates>119.399008000000,25.436597000000,0 119.390379000000,25.435107000000,0 119.396473000000,25.443517000000,0 119.399008000000,25.436597000000,0</coordinates></LinearRing></outerBoundaryIs></Polygon><Polygon><outerBoundaryIs><LinearRing><coordinates>119.595181000000,25.194761000000,0 119.602201000000,25.187633000000,0 119.592110000000,25.187344000000,0 119.595181000000,25.194761000000,0</coordinates></LinearRing></outerBoundaryIs></Polygon><Polygon><outerBoundaryIs><LinearRing><coordinates>119.471452000000,25.259560000000,0 119.479008000000,25.257732000000,0 119.479008000000,25.243532000000,0 119.488466000000,25.247046000000,0 119.499435000000,25.240307000000,0 119.499240000000,25.221773000000,0 119.506162000000,25.214743000000,0 119.514791000000,25.214599000000,0 119.518155000000,25.208003000000,0 119.540483000000,25.202080000000,0 119.545065000000,25.210266000000,0 119.555059000000,25.203525000000,0 119.566613000000,25.209977000000,0 119.578411000000,25.204776000000,0 119.570903000000,25.193364000000,0 119.554572000000,25.193075000000,0 119.555742000000,25.183155000000,0 119.547747000000,25.181180000000,0 119.554474000000,25.164419000000,0 119.523566000000,25.158061000000,0 119.521226000000,25.166635000000,0 119.509429000000,25.170921000000,0 119.508454000000,25.181902000000,0 119.471013000000,25.197072000000,0 119.444102000000,25.202080000000,0 119.440982000000,25.211614000000,0 119.446589000000,25.222495000000,0 119.439179000000,25.236841000000,0 119.453901000000,25.236552000000,0 119.451708000000,25.242329000000,0 119.467698000000,25.246324000000,0 119.471452000000,25.259560000000,0</coordinates></LinearRing></outerBoundaryIs></Polygon><Polygon><outerBoundaryIs><LinearRing><coordinates>119.587527000000,25.241318000000,0 119.578850000000,25.248538000000,0 119.584895000000,25.250945000000,0 119.587527000000,25.241318000000,0</coordinates></LinearRing></outerBoundaryIs></Polygon><Polygon><outerBoundaryIs><LinearRing><coordinates>119.570903000000,25.259272000000,0 119.577533000000,25.269860000000,0 119.580020000000,25.263892000000,0 119.570903000000,25.259272000000,0</coordinates></LinearRing></outerBoundaryIs></Polygon><Polygon><outerBoundaryIs><LinearRing><coordinates>119.518642000000,25.279244000000,0 119.525419000000,25.278522000000,0 119.530489000000,25.265769000000,0 119.517131000000,25.264758000000,0 119.512305000000,25.266924000000,0 119.518642000000,25.279244000000,0</coordinates></LinearRing></outerBoundaryIs></Polygon><Polygon><outerBoundaryIs><LinearRing><coordinates>119.767564000000,25.298828000000,0 119.764444000000,25.289590000000,0 119.757326000000,25.298491000000,0 119.767564000000,25.298828000000,0</coordinates></LinearRing></outerBoundaryIs></Polygon><Polygon><outerBoundaryIs><LinearRing><coordinates>119.712183000000,25.314464000000,0 119.696339000000,25.310904000000,0 119.694340000000,25.303880000000,0 119.688051000000,25.306670000000,0 119.690976000000,25.315426000000,0 119.687174000000,25.325336000000,0 119.693804000000,25.337121000000,0 119.702920000000,25.342075000000,0 119.705358000000,25.333658000000,0 119.699215000000,25.327789000000,0 119.712183000000,25.314464000000,0</coordinates></LinearRing></outerBoundaryIs></Polygon><Polygon><outerBoundaryIs><LinearRing><coordinates>119.697802000000,25.367035000000,0 119.716571000000,25.371651000000,0 119.724468000000,25.378671000000,0 119.727296000000,25.368525000000,0 119.735925000000,25.362514000000,0 119.726711000000,25.356551000000,0 119.705065000000,25.352848000000,0 119.697802000000,25.367035000000,0</coordinates></LinearRing></outerBoundaryIs></Polygon><Polygon><outerBoundaryIs><LinearRing><coordinates>119.906504000000,25.600991000000,0 119.907479000000,25.589520000000,0 119.899825000000,25.582128000000,0 119.884030000000,25.588032000000,0 119.876619000000,25.587168000000,0 119.875937000000,25.606174000000,0 119.882518000000,25.598640000000,0 119.896217000000,25.601087000000,0 119.897485000000,25.606942000000,0 119.906504000000,25.600991000000,0</coordinates></LinearRing></outerBoundaryIs></Polygon><Polygon><outerBoundaryIs><LinearRing><coordinates>119.610050000000,25.653868000000,0 119.601080000000,25.641011000000,0 119.587722000000,25.636597000000,0 119.579873000000,25.627145000000,0 119.560714000000,25.635014000000,0 119.567881000000,25.646145000000,0 119.572463000000,25.633910000000,0 119.580848000000,25.649935000000,0 119.598399000000,25.662024000000,0 119.613219000000,25.668499000000,0 119.610050000000,25.653868000000,0</coordinates></LinearRing></outerBoundaryIs></Polygon><Polygon><outerBoundaryIs><LinearRing><coordinates>119.702725000000,25.640148000000,0 119.697997000000,25.636357000000,0 119.673572000000,25.632567000000,0 119.662116000000,25.641155000000,0 119.662360000000,25.646576000000,0 119.675571000000,25.658714000000,0 119.682591000000,25.650031000000,0 119.705943000000,25.656411000000,0 119.716863000000,25.664758000000,0 119.721933000000,25.639812000000,0 119.712963000000,25.634198000000,0 119.702725000000,25.640148000000,0</coordinates></LinearRing></outerBoundaryIs></Polygon><Polygon><outerBoundaryIs><LinearRing><coordinates>119.663920000000,25.654636000000,0 119.647686000000,25.654828000000,0 119.649295000000,25.664950000000,0 119.661238000000,25.672960000000,0 119.672256000000,25.661448000000,0 119.663920000000,25.654636000000,0</coordinates></LinearRing></outerBoundaryIs></Polygon><Polygon><outerBoundaryIs><LinearRing><coordinates>119.582311000000,25.661640000000,0 119.579776000000,25.668403000000,0 119.590940000000,25.674111000000,0 119.582311000000,25.661640000000,0</coordinates></LinearRing></outerBoundaryIs></Polygon><Polygon><outerBoundaryIs><LinearRing><coordinates>119.641348000000,25.667540000000,0 119.639593000000,25.672001000000,0 119.643542000000,25.677181000000,0 119.659630000000,25.680106000000,0 119.641348000000,25.667540000000,0</coordinates></LinearRing></outerBoundaryIs></Polygon><Polygon><outerBoundaryIs><LinearRing><coordinates>119.672402000000,25.765927000000,0 119.683128000000,25.762668000000,0 119.673280000000,25.756725000000,0 119.672402000000,25.765927000000,0</coordinates></LinearRing></outerBoundaryIs></Polygon><Polygon><outerBoundaryIs><LinearRing><coordinates>119.644371000000,26.109114000000,0 119.636522000000,26.114705000000,0 119.636571000000,26.119913000000,0 119.647978000000,26.118145000000,0 119.644371000000,26.109114000000,0</coordinates></LinearRing></outerBoundaryIs></Polygon><Polygon><outerBoundaryIs><LinearRing><coordinates>119.675571000000,26.142513000000,0 119.684151000000,26.140936000000,0 119.676156000000,26.124405000000,0 119.677278000000,26.113319000000,0 119.662214000000,26.133865000000,0 119.675571000000,26.142513000000,0</coordinates></LinearRing></outerBoundaryIs></Polygon><Polygon><outerBoundaryIs><LinearRing><coordinates>119.653390000000,26.144232000000,0 119.654950000000,26.132623000000,0 119.642908000000,26.129326000000,0 119.642421000000,26.133817000000,0 119.618630000000,26.139025000000,0 119.605419000000,26.154838000000,0 119.607125000000,26.169693000000,0 119.627259000000,26.173132000000,0 119.642908000000,26.157178000000,0 119.657192000000,26.152115000000,0 119.653390000000,26.144232000000,0</coordinates></LinearRing></outerBoundaryIs></Polygon><Polygon><outerBoundaryIs><LinearRing><coordinates>119.918886000000,26.409359000000,0 119.907040000000,26.406976000000,0 119.915815000000,26.418176000000,0 119.918886000000,26.409359000000,0</coordinates></LinearRing></outerBoundaryIs></Polygon><Polygon><outerBoundaryIs><LinearRing><coordinates>119.885882000000,26.419892000000,0 119.892853000000,26.414840000000,0 119.884030000000,26.410979000000,0 119.885882000000,26.419892000000,0</coordinates></LinearRing></outerBoundaryIs></Polygon><Polygon><outerBoundaryIs><LinearRing><coordinates>119.816949000000,26.572684000000,0 119.814023000000,26.560403000000,0 119.801251000000,26.567496000000,0 119.816949000000,26.572684000000,0</coordinates></LinearRing></outerBoundaryIs></Polygon><Polygon><outerBoundaryIs><LinearRing><coordinates>119.801300000000,26.606140000000,0 119.807930000000,26.600382000000,0 119.796766000000,26.600192000000,0 119.801300000000,26.606140000000,0</coordinates></LinearRing></outerBoundaryIs></Polygon><Polygon><outerBoundaryIs><LinearRing><coordinates>119.797789000000,26.611421000000,0 119.792134000000,26.605473000000,0 119.776485000000,26.599811000000,0 119.766979000000,26.604331000000,0 119.760885000000,26.613277000000,0 119.760300000000,26.620889000000,0 119.798862000000,26.631213000000,0 119.818752000000,26.621032000000,0 119.811488000000,26.608804000000,0 119.797789000000,26.611421000000,0</coordinates></LinearRing></outerBoundaryIs></Polygon><Polygon><outerBoundaryIs><LinearRing><coordinates>119.668210000000,26.628454000000,0 119.658606000000,26.634353000000,0 119.651927000000,26.648909000000,0 119.656851000000,26.669883000000,0 119.666162000000,26.679536000000,0 119.673962000000,26.680820000000,0 119.691708000000,26.671024000000,0 119.712866000000,26.668504000000,0 119.748990000000,26.681105000000,0 119.762835000000,26.674971000000,0 119.758789000000,26.659515000000,0 119.720666000000,26.636065000000,0 119.694487000000,26.630071000000,0 119.668210000000,26.628454000000,0</coordinates></LinearRing></outerBoundaryIs></Polygon><Polygon><outerBoundaryIs><LinearRing><coordinates>119.827284000000,26.674448000000,0 119.813390000000,26.665317000000,0 119.807588000000,26.673497000000,0 119.797594000000,26.683721000000,0 119.809490000000,26.682342000000,0 119.827284000000,26.674448000000,0</coordinates></LinearRing></outerBoundaryIs></Polygon><Polygon><outerBoundaryIs><LinearRing><coordinates>119.777802000000,26.685147000000,0 119.791452000000,26.688476000000,0 119.788673000000,26.680392000000,0 119.778045000000,26.676065000000,0 119.777802000000,26.685147000000,0</coordinates></LinearRing></outerBoundaryIs></Polygon><Polygon><outerBoundaryIs><LinearRing><coordinates>119.992988000000,25.964658000000,0 119.979337000000,25.951786000000,0 119.967491000000,25.945374000000,0 119.968368000000,25.955662000000,0 119.976461000000,25.964754000000,0 119.992988000000,25.964658000000,0</coordinates></LinearRing></outerBoundaryIs></Polygon><Polygon><outerBoundaryIs><LinearRing><coordinates>119.930197000000,25.978628000000,0 119.949063000000,25.979681000000,0 119.953256000000,25.976236000000,0 119.937119000000,25.963797000000,0 119.928783000000,25.972170000000,0 119.930197000000,25.978628000000,0</coordinates></LinearRing></outerBoundaryIs></Polygon><Polygon><outerBoundaryIs><LinearRing><coordinates>119.950769000000,26.163722000000,0 119.970075000000,26.162767000000,0 119.960032000000,26.147194000000,0 119.955937000000,26.148866000000,0 119.944968000000,26.139168000000,0 119.936632000000,26.140124000000,0 119.929465000000,26.134295000000,0 119.913036000000,26.140219000000,0 119.918886000000,26.154360000000,0 119.918253000000,26.169597000000,0 119.933024000000,26.168833000000,0 119.928832000000,26.160331000000,0 119.945699000000,26.156127000000,0 119.950769000000,26.163722000000,0</coordinates></LinearRing></outerBoundaryIs></Polygon><Polygon><outerBoundaryIs><LinearRing><coordinates>120.020142000000,26.225658000000,0 120.016290000000,26.208518000000,0 120.006297000000,26.215202000000,0 119.980654000000,26.208374000000,0 119.978362000000,26.193476000000,0 119.969587000000,26.191136000000,0 119.970660000000,26.217207000000,0 119.988064000000,26.224369000000,0 120.000885000000,26.236160000000,0 120.020142000000,26.225658000000,0</coordinates></LinearRing></outerBoundaryIs></Polygon><Polygon><outerBoundaryIs><LinearRing><coordinates>120.011269000000,26.247520000000,0 119.999228000000,26.239692000000,0 120.002592000000,26.246661000000,0 120.011269000000,26.247520000000,0</coordinates></LinearRing></outerBoundaryIs></Polygon><Polygon><outerBoundaryIs><LinearRing><coordinates>119.987138000000,26.262555000000,0 119.981970000000,26.267804000000,0 119.993865000000,26.280450000000,0 119.994986000000,26.265943000000,0 119.987138000000,26.262555000000,0</coordinates></LinearRing></outerBoundaryIs></Polygon><Polygon><outerBoundaryIs><LinearRing><coordinates>120.223774000000,26.338651000000,0 120.234353000000,26.341560000000,0 120.221483000000,26.331974000000,0 120.223774000000,26.338651000000,0</coordinates></LinearRing></outerBoundaryIs></Polygon><Polygon><outerBoundaryIs><LinearRing><coordinates>120.486931000000,26.365452000000,0 120.480544000000,26.372890000000,0 120.472890000000,26.367550000000,0 120.478155000000,26.381138000000,0 120.484834000000,26.380804000000,0 120.486736000000,26.368980000000,0 120.495608000000,26.371936000000,0 120.501068000000,26.376799000000,0 120.511257000000,26.370601000000,0 120.513939000000,26.360349000000,0 120.506772000000,26.364546000000,0 120.497900000000,26.352338000000,0 120.484981000000,26.355438000000,0 120.486931000000,26.365452000000,0</coordinates></LinearRing></outerBoundaryIs></Polygon><Polygon><outerBoundaryIs><LinearRing><coordinates>120.143920000000,26.497933000000,0 120.146114000000,26.489883000000,0 120.134901000000,26.483263000000,0 120.133682000000,26.489550000000,0 120.143920000000,26.497933000000,0</coordinates></LinearRing></outerBoundaryIs></Polygon><Polygon><outerBoundaryIs><LinearRing><coordinates>120.036132000000,26.515935000000,0 120.049197000000,26.520220000000,0 120.057485000000,26.516268000000,0 120.060264000000,26.522411000000,0 120.071574000000,26.521316000000,0 120.071281000000,26.508887000000,0 120.061970000000,26.494504000000,0 120.048125000000,26.494599000000,0 120.034377000000,26.488788000000,0 120.026431000000,26.497504000000,0 120.032817000000,26.500886000000,0 120.036132000000,26.515935000000,0</coordinates></LinearRing></outerBoundaryIs></Polygon><Polygon><outerBoundaryIs><LinearRing><coordinates>120.140117000000,26.536124000000,0 120.137972000000,26.541980000000,0 120.147089000000,26.544408000000,0 120.153621000000,26.533077000000,0 120.146991000000,26.527982000000,0 120.132659000000,26.530410000000,0 120.140117000000,26.536124000000,0</coordinates></LinearRing></outerBoundaryIs></Polygon><Polygon><outerBoundaryIs><LinearRing><coordinates>120.002933000000,26.533172000000,0 119.997668000000,26.533743000000,0 120.002982000000,26.544313000000,0 120.001909000000,26.551978000000,0 120.011269000000,26.542599000000,0 120.002933000000,26.533172000000,0</coordinates></LinearRing></outerBoundaryIs></Polygon><Polygon><outerBoundaryIs><LinearRing><coordinates>120.157034000000,26.562355000000,0 120.164737000000,26.554786000000,0 120.148356000000,26.551597000000,0 120.150063000000,26.555643000000,0 120.157034000000,26.562355000000,0</coordinates></LinearRing></outerBoundaryIs></Polygon><Polygon><outerBoundaryIs><LinearRing><coordinates>120.117936000000,26.569114000000,0 120.134609000000,26.581394000000,0 120.136802000000,26.588057000000,0 120.150843000000,26.602571000000,0 120.162933000000,26.605569000000,0 120.171074000000,26.598907000000,0 120.166979000000,26.571494000000,0 120.150745000000,26.568733000000,0 120.150404000000,26.560213000000,0 120.135925000000,26.550978000000,0 120.126419000000,26.554691000000,0 120.117936000000,26.569114000000,0</coordinates></LinearRing></outerBoundaryIs></Polygon><Polygon><outerBoundaryIs><LinearRing><coordinates>120.369051000000,26.634828000000,0 120.350867000000,26.640679000000,0 120.355450000000,26.647291000000,0 120.369051000000,26.634828000000,0</coordinates></LinearRing></outerBoundaryIs></Polygon><Polygon><outerBoundaryIs><LinearRing><coordinates>119.943652000000,26.684101000000,0 119.939167000000,26.670644000000,0 119.946723000000,26.659753000000,0 119.934048000000,26.666554000000,0 119.926784000000,26.664604000000,0 119.925565000000,26.675019000000,0 119.916839000000,26.674686000000,0 119.904651000000,26.682294000000,0 119.906796000000,26.689760000000,0 119.919618000000,26.692232000000,0 119.950818000000,26.692470000000,0 119.943652000000,26.684101000000,0</coordinates></LinearRing></outerBoundaryIs></Polygon><Polygon><outerBoundaryIs><LinearRing><coordinates>120.124712000000,26.688856000000,0 120.125054000000,26.696511000000,0 120.140020000000,26.691852000000,0 120.137387000000,26.684244000000,0 120.124712000000,26.688856000000,0</coordinates></LinearRing></outerBoundaryIs></Polygon><Polygon><outerBoundaryIs><LinearRing><coordinates>120.350331000000,26.690283000000,0 120.344481000000,26.696226000000,0 120.348625000000,26.701456000000,0 120.359252000000,26.708872000000,0 120.372025000000,26.699316000000,0 120.350331000000,26.690283000000,0</coordinates></LinearRing></outerBoundaryIs></Polygon><Polygon><outerBoundaryIs><LinearRing><coordinates>120.161080000000,26.787856000000,0 120.144603000000,26.791752000000,0 120.141531000000,26.798877000000,0 120.150501000000,26.804245000000,0 120.161812000000,26.803437000000,0 120.161080000000,26.787856000000,0</coordinates></LinearRing></outerBoundaryIs></Polygon><Polygon><outerBoundaryIs><LinearRing><coordinates>120.224651000000,26.887102000000,0 120.228941000000,26.876470000000,0 120.219581000000,26.872245000000,0 120.214755000000,26.878273000000,0 120.224651000000,26.887102000000,0</coordinates></LinearRing></outerBoundaryIs></Polygon><Polygon><outerBoundaryIs><LinearRing><coordinates>120.247662000000,26.914059000000,0 120.249466000000,26.934131000000,0 120.257899000000,26.930287000000,0 120.269843000000,26.935459000000,0 120.258338000000,26.924451000000,0 120.267845000000,26.925543000000,0 120.265163000000,26.916764000000,0 120.247662000000,26.914059000000,0</coordinates></LinearRing></outerBoundaryIs></Polygon><Polygon><outerBoundaryIs><LinearRing><coordinates>120.314597000000,26.922696000000,0 120.293634000000,26.923977000000,0 120.283932000000,26.930098000000,0 120.308893000000,26.939112000000,0 120.324103000000,26.934415000000,0 120.318155000000,26.930667000000,0 120.314597000000,26.922696000000,0</coordinates></LinearRing></outerBoundaryIs></Polygon><Polygon><outerBoundaryIs><LinearRing><coordinates>120.320934000000,26.956143000000,0 120.339021000000,26.970373000000,0 120.354231000000,26.970942000000,0 120.370514000000,26.961883000000,0 120.380508000000,26.940251000000,0 120.394402000000,26.933893000000,0 120.395620000000,26.926444000000,0 120.380166000000,26.927393000000,0 120.360617000000,26.916859000000,0 120.343116000000,26.922221000000,0 120.322348000000,26.940203000000,0 120.320934000000,26.956143000000,0</coordinates></LinearRing></outerBoundaryIs></Polygon><Polygon><outerBoundaryIs><LinearRing><coordinates>120.377193000000,26.952538000000,0 120.373634000000,26.959559000000,0 120.392062000000,26.958847000000,0 120.377193000000,26.952538000000,0</coordinates></LinearRing></outerBoundaryIs></Polygon><Polygon><outerBoundaryIs><LinearRing><coordinates>120.725566000000,26.990529000000,0 120.720544000000,26.974737000000,0 120.712744000000,26.974642000000,0 120.713329000000,26.988253000000,0 120.725566000000,26.990529000000,0</coordinates></LinearRing></outerBoundaryIs></Polygon><Polygon><outerBoundaryIs><LinearRing><coordinates>120.695048000000,26.993327000000,0 120.694414000000,27.002858000000,0 120.696218000000,27.008596000000,0 120.708113000000,27.006983000000,0 120.706358000000,26.998022000000,0 120.695048000000,26.993327000000,0</coordinates></LinearRing></outerBoundaryIs></Polygon><Polygon><outerBoundaryIs><LinearRing><coordinates>120.425163000000,27.104474000000,0 120.421263000000,27.097415000000,0 120.403908000000,27.096135000000,0 120.413171000000,27.103242000000,0 120.425163000000,27.104474000000,0</coordinates></LinearRing></outerBoundaryIs></Polygon></MultiGeometry>
    </Placemark>
  </Document>
</kml>
