<?xml version="1.0" encoding="UTF-8"?>
<kml xmlns="http://www.opengis.net/kml/2.2">
<Document>
<name>莆田市</name>
<Placemark><name>莆田市</name><MultiGeometry><Polygon><outerBoundaryIs><LinearRing><coordinates>118.899849000000003,25.241365999999999,0 118.918081000000001,25.245843000000001,0 118.915546000000006,25.256913000000001,0 118.930074000000005,25.255853999999999,0 118.949281999999997,25.265288000000002,0 118.954547000000005,25.2714,0 118.983699999999999,25.269666999999998,0 118.994669000000002,25.276789999999998,0 119.014364,25.274432000000001,0 119.023627000000005,25.267887000000002,0 119.017483999999996,25.255469000000002,0 119.006369000000007,25.255132,0 118.996863000000005,25.266297999999999,0 118.988574999999997,25.254169999999998,0 118.983504999999994,25.237804000000001,0 118.975071,25.237611000000001,0 118.978435000000005,25.222832,0 118.989988999999994,25.211662,0 118.989988999999994,25.201839,0 119.012462999999997,25.204391000000001,0 119.019628999999995,25.210602999999999,0 119.055216999999999,25.219462,0 119.064674999999994,25.206654,0 119.074425000000005,25.211372999999998,0 119.072231000000002,25.191293000000002,0 119.062822999999995,25.173907,0 119.054291000000006,25.168561,0 119.037764999999993,25.174871,0 119.028452999999999,25.164515000000002,0 119.029135999999994,25.139610000000001,0 119.035717000000005,25.125782999999998,0 119.052048999999997,25.116675999999998,0 119.052340999999998,25.112532000000002,0 119.075643999999997,25.099809,0 119.082809999999995,25.108532,0 119.134291000000005,25.106074,0 119.142384000000007,25.096724999999999,0 119.128928999999999,25.095230999999998,0 119.107282999999995,25.075324999999999,0 119.118008000000003,25.058115000000001,0 119.113377,25.052233999999999,0 119.096947999999998,25.056139000000002,0 119.089928,25.052185000000001,0 119.106064000000003,25.044519999999999,0 119.106697999999994,25.032996000000001,0 119.119226999999995,25.026582000000001,0 119.119422,25.012646,0 119.127807000000004,25.012597,0 119.12576,25.021084999999999,0 119.147014999999996,25.05585,0 119.140530999999996,25.056283000000001,0 119.141799000000006,25.082699999999999,0 119.15813,25.092243,0 119.164272999999994,25.119133000000001,0 119.165784000000002,25.145439,0 119.160909000000004,25.150931,0 119.146332999999998,25.146692000000002,0 119.138289,25.151895,0 119.143992999999995,25.157868000000001,0 119.141896000000003,25.169525,0 119.118787999999995,25.175737999999999,0 119.108063000000001,25.194085999999999,0 119.119129999999998,25.212384,0 119.131755999999996,25.223217000000002,0 119.138532999999995,25.224661000000001,0 119.146722999999994,25.204198999999999,0 119.182456999999999,25.178242000000001,0 119.198983999999996,25.176411999999999,0 119.220384999999993,25.187248,0 119.231744000000006,25.188981999999999,0 119.261043000000001,25.175640999999999,0 119.269330999999994,25.159987000000001,0 119.293559999999999,25.178387000000001,0 119.300970000000007,25.178049999999999,0 119.313450000000003,25.189415,0 119.313450000000003,25.194520000000001,0 119.301653000000002,25.204536000000001,0 119.293364999999994,25.235108,0 119.313158000000001,25.237371,0 119.332072999999994,25.230920000000001,0 119.340946000000002,25.240932999999998,0 119.356254000000007,25.240210999999999,0 119.378288999999995,25.248923000000001,0 119.385064999999997,25.275683000000001,0 119.369709,25.271543999999999,0 119.353914000000003,25.280591000000001,0 119.335680999999994,25.285451999999999,0 119.313498999999993,25.306429999999999,0 119.299019999999999,25.328848000000001,0 119.292634000000007,25.331156,0 119.267381,25.329521,0 119.253584000000004,25.33587,0 119.247490999999997,25.33361,0 119.248318999999995,25.316196000000001,0 119.240470000000002,25.316869000000001,0 119.235838999999999,25.331156,0 119.227063999999999,25.344864999999999,0 119.228234,25.350732000000001,0 119.218776000000005,25.367947999999998,0 119.195278000000002,25.368333,0 119.171048999999996,25.37593,0 119.162664000000007,25.387036999999999,0 119.151743999999994,25.382999000000002,0 119.144869999999997,25.387999000000001,0 119.145844999999994,25.405114000000001,0 119.151646,25.426504000000001,0 119.168709000000007,25.438711000000001,0 119.184797000000003,25.427225,0 119.197033000000005,25.424628999999999,0 119.232231999999996,25.442267000000001,0 119.236034000000004,25.448322999999998,0 119.219751000000002,25.468648000000002,0 119.212682000000001,25.472010999999998,0 119.209416000000004,25.492621,0 119.223798000000002,25.48969,0 119.230817999999999,25.503861000000001,0 119.243004999999997,25.513659000000001,0 119.244370000000004,25.527923000000001,0 119.235010000000003,25.542712999999999,0 119.227745999999996,25.564606999999999,0 119.203907000000001,25.544969999999999,0 119.201859999999996,25.551500000000001,0 119.180701999999997,25.555101000000001,0 119.168807000000001,25.566334999999999,0 119.166662000000002,25.574304000000001,0 119.157009000000002,25.584192000000002,0 119.163639000000003,25.587216000000002,0 119.170708000000005,25.581887999999999,0 119.169099000000003,25.593216000000002,0 119.161688999999996,25.591391999999999,0 119.162372000000005,25.600702999999999,0 119.155204999999995,25.603055000000001,0 119.151450999999994,25.6187,0 119.133999000000003,25.633382999999998,0 119.133315999999994,25.646336999999999,0 119.144236000000006,25.668451000000001,0 119.145553000000007,25.676269000000001,0 119.154718000000003,25.675598000000001,0 119.144284999999996,25.684854999999999,0 119.141604000000001,25.697132,0 119.151646,25.700296999999999,0 119.144138999999996,25.709886999999998,0 119.124346000000003,25.713723000000002,0 119.146771000000001,25.731558,0 119.152231,25.744741000000001,0 119.132876999999993,25.752794000000002,0 119.105772000000002,25.754472,0 119.090562000000006,25.749631000000001,0 119.088368000000003,25.754999000000002,0 119.076717000000002,25.748576,0 119.071061,25.752697999999999,0 119.048782000000003,25.747138,0 119.041225999999995,25.741769000000001,0 119.025869,25.74268,0 119.014803000000001,25.735489000000001,0 118.975460999999996,25.732085999999999,0 118.951524000000006,25.712716,0 118.955034999999995,25.732709,0 118.951036999999999,25.751978999999999,0 118.952596999999997,25.760031999999999,0 118.942358999999996,25.748528,0 118.934510000000003,25.747281999999998,0 118.921054999999996,25.732085999999999,0 118.920323999999994,25.726333,0 118.905162000000004,25.722256999999999,0 118.882785999999996,25.702407000000001,0 118.874448999999998,25.698331,0 118.877861999999993,25.708832000000001,0 118.853682000000006,25.703845000000001,0 118.838909999999998,25.708880000000001,0 118.826430000000002,25.719812000000001,0 118.811902000000003,25.720818999999999,0 118.801226,25.711708999999999,0 118.806490999999994,25.709551000000001,0 118.798983000000007,25.699960999999998,0 118.772413999999998,25.686388999999998,0 118.760420999999994,25.689122999999999,0 118.753596000000002,25.696221000000001,0 118.744724000000005,25.679147,0 118.737849999999995,25.678187999999999,0 118.729951999999997,25.668163,0 118.723321999999996,25.669794,0 118.727611999999993,25.687156999999999,0 118.726296000000005,25.694734,0 118.707185999999993,25.682887999999998,0 118.691633999999993,25.689793999999999,0 118.691097999999997,25.695022000000002,0 118.674424999999999,25.694925999999999,0 118.676520999999994,25.7014,0 118.668233999999998,25.708544,0 118.653656999999995,25.711756999999999,0 118.634936999999994,25.708496,0 118.631866000000002,25.697994999999999,0 118.625478999999999,25.697419,0 118.610123000000002,25.708496,0 118.611975000000001,25.699097999999999,0 118.605052999999998,25.697084,0 118.604906,25.685141999999999,0 118.598568999999998,25.683368000000002,0 118.587745999999996,25.689986000000001,0 118.583845999999994,25.677803999999998,0 118.576240999999996,25.687013,0 118.577800999999994,25.677325,0 118.571853000000004,25.674015000000001,0 118.566490999999999,25.681114000000001,0 118.543480000000002,25.671520999999998,0 118.540068000000005,25.661591999999999,0 118.544844999999995,25.656555000000001,0 118.531293000000005,25.642403000000002,0 118.550061999999997,25.632279,0 118.545186999999999,25.617836,0 118.533096,25.607949999999999,0 118.531293000000005,25.601711000000002,0 118.511549000000002,25.578576000000002,0 118.509989000000004,25.561869999999999,0 118.490098000000003,25.549963000000002,0 118.491462999999996,25.546793999999998,0 118.474058999999997,25.524464999999999,0 118.464748,25.516252999999999,0 118.465674000000007,25.494975,0 118.473572000000004,25.491323999999999,0 118.466551999999993,25.482917,0 118.479372999999995,25.480899000000001,0 118.477326000000005,25.468888,0 118.471328999999997,25.466629999999999,0 118.460068000000007,25.443612999999999,0 118.469818000000004,25.424052,0 118.482151999999999,25.425494,0 118.487661000000003,25.403960000000001,0 118.497411,25.400835000000001,0 118.494388000000001,25.385691000000001,0 118.503260999999995,25.384633000000001,0 118.517983999999998,25.372084000000001,0 118.520713999999998,25.362898999999999,0 118.529830000000004,25.358090000000001,0 118.522518000000005,25.347269000000001,0 118.522371000000007,25.333994000000001,0 118.512865000000005,25.317591,0 118.520518999999993,25.312394999999999,0 118.528221000000002,25.325817000000001,0 118.535729000000003,25.320765999999999,0 118.530170999999996,25.308738999999999,0 118.533389,25.291274000000001,0 118.563517000000004,25.290262999999999,0 118.571853000000004,25.286702999999999,0 118.578288000000001,25.301282,0 118.596180000000004,25.302388000000001,0 118.615679999999998,25.293102000000001,0 118.625577000000007,25.293486999999999,0 118.632694000000001,25.301378,0 118.655704999999998,25.301955,0 118.666430000000005,25.289781999999999,0 118.662578999999994,25.280062000000001,0 118.650098,25.274480000000001,0 118.646441999999993,25.268415999999998,0 118.659604999999999,25.25778,0 118.662042,25.265720999999999,0 118.672766999999993,25.264807000000001,0 118.680420999999996,25.271111000000001,0 118.695778000000004,25.258502,0 118.684759999999997,25.244686999999999,0 118.688074999999998,25.234529999999999,0 118.683443999999994,25.230678999999999,0 118.682371000000003,25.212384,0 118.691536999999997,25.212192000000002,0 118.682225000000003,25.201212999999999,0 118.673644999999993,25.200683999999999,0 118.677837999999994,25.191679000000001,0 118.677789000000004,25.177761,0 118.692024000000004,25.169332000000001,0 118.691585000000003,25.15493,0 118.704650000000001,25.157578999999998,0 118.717521000000005,25.169428,0 118.725711000000004,25.168754,0 118.741018999999994,25.187200000000001,0 118.744870000000006,25.185851,0 118.765101000000001,25.195001000000001,0 118.778508000000002,25.195387,0 118.776752999999999,25.203717000000001,0 118.781872000000007,25.213829,0 118.801322999999996,25.220714000000001,0 118.800982000000005,25.217103000000002,0 118.827697000000001,25.218257999999999,0 118.848708999999999,25.224902,0 118.850122999999996,25.216573,0 118.869477000000003,25.227646,0 118.869623000000004,25.237659000000001,0 118.875473,25.241365999999999,0 118.899849000000003,25.241365999999999,0</coordinates></LinearRing></outerBoundaryIs></Polygon><Polygon><outerBoundaryIs><LinearRing><coordinates>119.471012999999999,25.197071999999999,0 119.508454,25.181902000000001,0 119.509428999999997,25.170921,0 119.521225999999999,25.166634999999999,0 119.523566000000002,25.158061,0 119.554473999999999,25.164418999999999,0 119.547747000000001,25.181180000000001,0 119.555741999999995,25.183154999999999,0 119.554571999999993,25.193075,0 119.570903000000001,25.193363999999999,0 119.578411000000003,25.204775999999999,0 119.566613000000004,25.209976999999999,0 119.555059,25.203524999999999,0 119.545064999999994,25.210266000000001,0 119.540482999999995,25.202079999999999,0 119.518154999999993,25.208003000000001,0 119.514791000000002,25.214599,0 119.506162000000003,25.214742999999999,0 119.49924,25.221772999999999,0 119.499435000000005,25.240307000000001,0 119.488466000000003,25.247046000000001,0 119.479007999999993,25.243531999999998,0 119.479007999999993,25.257732000000001,0 119.471451999999999,25.25956,0 119.467697999999999,25.246324000000001,0 119.451707999999996,25.242329000000002,0 119.453901000000002,25.236552,0 119.439178999999996,25.236840999999998,0 119.446589000000003,25.222494999999999,0 119.440982000000005,25.211614000000001,0 119.444102000000001,25.202079999999999,0 119.471012999999999,25.197071999999999,0</coordinates></LinearRing></outerBoundaryIs></Polygon><Polygon><outerBoundaryIs><LinearRing><coordinates>119.580020000000005,25.263891999999998,0 119.577533000000003,25.269860000000001,0 119.570903000000001,25.259271999999999,0 119.580020000000005,25.263891999999998,0</coordinates></LinearRing></outerBoundaryIs></Polygon><Polygon><outerBoundaryIs><LinearRing><coordinates>119.371804999999995,25.114892999999999,0 119.377898999999999,25.120241,0 119.369562999999999,25.128865999999999,0 119.366783999999996,25.118072999999999,0 119.371804999999995,25.114892999999999,0</coordinates></LinearRing></outerBoundaryIs></Polygon><Polygon><outerBoundaryIs><LinearRing><coordinates>119.517131000000006,25.264758,0 119.530489000000003,25.265768999999999,0 119.525418999999999,25.278521999999999,0 119.518642,25.279243999999998,0 119.512304999999998,25.266923999999999,0 119.517131000000006,25.264758,0</coordinates></LinearRing></outerBoundaryIs></Polygon><Polygon><outerBoundaryIs><LinearRing><coordinates>119.048344,25.101496000000001,0 119.049610999999999,25.094749,0 119.058239999999998,25.102603999999999,0 119.048344,25.101496000000001,0</coordinates></LinearRing></outerBoundaryIs></Polygon><Polygon><outerBoundaryIs><LinearRing><coordinates>119.592110000000005,25.187344,0 119.602200999999994,25.187633000000002,0 119.595180999999997,25.194761,0 119.592110000000005,25.187344,0</coordinates></LinearRing></outerBoundaryIs></Polygon><Polygon><outerBoundaryIs><LinearRing><coordinates>119.342164999999994,25.311962000000001,0 119.349379999999996,25.318698000000001,0 119.345236,25.323844999999999,0 119.338020999999998,25.316437000000001,0 119.342164999999994,25.311962000000001,0</coordinates></LinearRing></outerBoundaryIs></Polygon><Polygon><outerBoundaryIs><LinearRing><coordinates>119.578850000000003,25.248538,0 119.587526999999994,25.241318,0 119.584895000000003,25.250945000000002,0 119.578850000000003,25.248538,0</coordinates></LinearRing></outerBoundaryIs></Polygon><Polygon><outerBoundaryIs><LinearRing><coordinates>119.018118000000001,25.17333,0 119.027039000000002,25.171451000000001,0 119.036204999999995,25.184262,0 119.032596999999996,25.189415,0 119.015485999999996,25.182335999999999,0 119.018118000000001,25.17333,0</coordinates></LinearRing></outerBoundaryIs></Polygon><Polygon><outerBoundaryIs><LinearRing><coordinates>119.368149000000003,25.326539,0 119.377070000000003,25.327452999999998,0 119.362835000000004,25.334282999999999,0 119.368149000000003,25.326539,0</coordinates></LinearRing></outerBoundaryIs></Polygon><Polygon><outerBoundaryIs><LinearRing><coordinates>119.461116000000004,24.982306999999999,0 119.459508,24.992196,0 119.449854999999999,24.994751999999998,0 119.461116000000004,24.982306999999999,0</coordinates></LinearRing></outerBoundaryIs></Polygon></MultiGeometry></Placemark>
</Document>
</kml>