<?xml version="1.0" encoding="UTF-8"?>
<kml xmlns="http://www.opengis.net/kml/2.2">
  <Document>
    <name><![CDATA[上饶市]]></name>
    <Placemark>
      <name><![CDATA[上饶市]]></name>
      <description><![CDATA[省级目录：江西省]]></description>
      <ExtendedData>
        <Data name="adcode"><value>361100</value></Data>
      </ExtendedData>
      <MultiGeometry>
      <Polygon>
        <outerBoundaryIs><LinearRing><coordinates>117.446356,27.932729,0 117.454063,27.939958,0 117.462948,27.941293,0 117.471882,27.931616,0 117.504871,27.954304,0 117.511449,27.974486,0 117.521807,27.982379,0 117.530741,27.981712,0 117.533244,27.973263,0 117.558084,27.964868,0 117.56368,27.956639,0 117.560489,27.947243,0 117.56962,27.935342,0 117.579192,27.945741,0 117.586801,27.942294,0 117.584641,27.934897,0 117.588716,27.918324,0 117.586163,27.905586,0 117.595539,27.899523,0 117.60359,27.885948,0 117.602559,27.869534,0 117.61007,27.863469,0 117.64998,27.851726,0 117.665688,27.843378,0 117.673248,27.82846,0 117.682526,27.823728,0 117.705647,27.833025,0 117.716447,27.816213,0 117.730978,27.803463,0 117.741974,27.80118,0 117.754344,27.812037,0 117.759646,27.826957,0 117.775748,27.836476,0 117.788118,27.855789,0 117.782522,27.866028,0 117.788413,27.882888,0 117.785516,27.89268,0 117.799311,27.901358,0 117.815167,27.92066,0 117.836373,27.927779,0 117.849137,27.93651,0 117.85596,27.945852,0 117.866563,27.937789,0 117.89101,27.948466,0 117.912168,27.950078,0 117.920268,27.963422,0 117.932491,27.966758,0 117.942751,27.974097,0 117.958018,27.968982,0 117.965185,27.962644,0 117.985655,27.971595,0 117.998075,27.991162,0 118.006567,27.980434,0 118.019134,27.981212,0 118.034303,27.988216,0 118.046526,27.978544,0 118.06091,27.982657,0 118.070777,27.977432,0 118.074213,27.967537,0 118.089872,27.964979,0 118.09699,27.967592,0 118.092032,27.981546,0 118.093309,27.999832,0 118.105876,28.017005,0 118.123401,28.012503,0 118.129095,28.017171,0 118.12075,28.041841,0 118.135133,28.053674,0 118.153787,28.06184,0 118.182701,28.05173,0 118.199735,28.050008,0 118.210388,28.057285,0 118.225065,28.059285,0 118.242541,28.075503,0 118.255992,28.06956,0 118.274941,28.083001,0 118.291975,28.082612,0 118.308125,28.089387,0 118.339101,28.088221,0 118.341997,28.084778,0 118.356184,28.091664,0 118.359522,28.111875,0 118.356773,28.123922,0 118.368407,28.129141,0 118.359326,28.150566,0 118.379158,28.16727,0 118.37258,28.188799,0 118.339739,28.193847,0 118.334143,28.206884,0 118.319416,28.214483,0 118.314851,28.222858,0 118.339346,28.235891,0 118.34347,28.234616,0 118.350441,28.250253,0 118.36448,28.253802,0 118.373513,28.265889,0 118.388485,28.26672,0 118.396143,28.27487,0 118.424271,28.291499,0 118.433697,28.288561,0 118.461089,28.301254,0 118.472428,28.318101,0 118.481903,28.320982,0 118.472085,28.332784,0 118.473901,28.339045,0 118.469238,28.355886,0 118.455149,28.383967,0 118.431782,28.398364,0 118.440275,28.411929,0 118.450142,28.41813,0 118.459321,28.42981,0 118.465949,28.448242,0 118.463003,28.45516,0 118.474687,28.467224,0 118.480774,28.467445,0 118.472183,28.479397,0 118.461678,28.482606,0 118.456622,28.477018,0 118.438164,28.493007,0 118.421768,28.492122,0 118.415043,28.497377,0 118.421915,28.50302,0 118.430751,28.500751,0 118.445527,28.513253,0 118.43728,28.521715,0 118.433255,28.516461,0 118.425842,28.523651,0 118.4281,28.534656,0 118.420688,28.54472,0 118.428051,28.547374,0 118.413374,28.555115,0 118.409545,28.568715,0 118.417301,28.572861,0 118.415681,28.583474,0 118.423191,28.584967,0 118.419657,28.597347,0 118.414061,28.595358,0 118.413619,28.606411,0 118.422946,28.609229,0 118.433844,28.626027,0 118.427806,28.631276,0 118.422062,28.646413,0 118.432617,28.65155,0 118.430408,28.669777,0 118.432862,28.676515,0 118.414994,28.686621,0 118.418823,28.692253,0 118.40223,28.702965,0 118.39148,28.700535,0 118.39251,28.710418,0 118.401788,28.714172,0 118.399727,28.727531,0 118.392363,28.738846,0 118.396045,28.755071,0 118.387061,28.755016,0 118.383772,28.774218,0 118.378716,28.784646,0 118.383331,28.787349,0 118.371942,28.801801,0 118.370322,28.809413,0 118.358,28.815149,0 118.331836,28.814818,0 118.320545,28.821216,0 118.31058,28.821988,0 118.295313,28.835223,0 118.304345,28.840075,0 118.297424,28.847849,0 118.293889,28.86086,0 118.288048,28.864002,0 118.28147,28.891341,0 118.276119,28.895971,0 118.269835,28.918618,0 118.256827,28.923632,0 118.242885,28.920161,0 118.224967,28.911841,0 118.199392,28.902969,0 118.193501,28.908259,0 118.196692,28.915918,0 118.206068,28.91961,0 118.227815,28.942417,0 118.225458,28.946824,0 118.199392,28.954645,0 118.196004,28.965055,0 118.186579,28.97695,0 118.163802,28.98631,0 118.148191,28.985595,0 118.147897,28.977831,0 118.133366,28.984328,0 118.125708,28.996166,0 118.132335,29.008663,0 118.127132,29.016094,0 118.113828,29.009048,0 118.109999,28.991761,0 118.099936,28.990385,0 118.110687,29.003653,0 118.107103,29.012021,0 118.097089,28.998753,0 118.092082,29.006296,0 118.088056,29.029414,0 118.0722,29.038991,0 118.066997,29.053958,0 118.076913,29.062872,0 118.075784,29.074591,0 118.045888,29.088838,0 118.037985,29.101874,0 118.053104,29.116228,0 118.038917,29.126346,0 118.045005,29.149108,0 118.041372,29.160872,0 118.028363,29.169227,0 118.033468,29.177141,0 118.042452,29.210331,0 118.051435,29.217583,0 118.057915,29.214781,0 118.07328,29.217034,0 118.081969,29.234557,0 118.075587,29.247355,0 118.080447,29.266356,0 118.077895,29.278765,0 118.071906,29.287001,0 118.076226,29.290624,0 118.10509,29.284914,0 118.11589,29.293698,0 118.136115,29.283926,0 118.152855,29.286287,0 118.169349,29.297596,0 118.176614,29.297376,0 118.176074,29.305885,0 118.166551,29.313898,0 118.179756,29.321363,0 118.18329,29.332229,0 118.207786,29.347593,0 118.20867,29.360376,0 118.204006,29.367837,0 118.208817,29.377491,0 118.192028,29.391697,0 118.192666,29.402775,0 118.176565,29.404694,0 118.163654,29.412097,0 118.136115,29.418896,0 118.129488,29.432602,0 118.138619,29.437701,0 118.13798,29.454912,0 118.127672,29.472066,0 118.143822,29.489765,0 118.142988,29.499846,0 118.130862,29.511077,0 118.109508,29.521977,0 118.103421,29.530686,0 118.082656,29.533753,0 118.050748,29.543173,0 118.042943,29.56628,0 118.014127,29.577284,0 118.003867,29.578105,0 117.994638,29.573233,0 117.984722,29.56168,0 117.96489,29.569948,0 117.954925,29.565075,0 117.938725,29.54958,0 117.920808,29.554508,0 117.889881,29.545801,0 117.87648,29.546184,0 117.863569,29.554179,0 117.852033,29.555001,0 117.829893,29.563871,0 117.816443,29.573889,0 117.794991,29.570331,0 117.770937,29.557081,0 117.753068,29.560366,0 117.736034,29.551551,0 117.70766,29.548977,0 117.691362,29.53567,0 117.673592,29.52729,0 117.664461,29.527619,0 117.655723,29.534465,0 117.64728,29.523675,0 117.647034,29.51524,0 117.632749,29.504777,0 117.621311,29.512556,0 117.614292,29.500778,0 117.604768,29.475793,0 117.595932,29.46982,0 117.586016,29.48582,0 117.577474,29.484834,0 117.571289,29.468066,0 117.578358,29.461709,0 117.574087,29.457653,0 117.556415,29.45557,0 117.546499,29.447403,0 117.535503,29.430793,0 117.529366,29.430409,0 117.522494,29.439455,0 117.526323,29.445649,0 117.509927,29.436001,0 117.508061,29.429094,0 117.517438,29.411165,0 117.511547,29.405736,0 117.497654,29.403213,0 117.486266,29.396523,0 117.485677,29.378204,0 117.48116,29.361309,0 117.490389,29.35264,0 117.490291,29.34644,0 117.445374,29.322625,0 117.431825,29.31066,0 117.437078,29.297761,0 117.453032,29.281675,0 117.449154,29.271408,0 117.432954,29.259492,0 117.403402,29.246366,0 117.385386,29.229614,0 117.38789,29.219286,0 117.384699,29.206265,0 117.37277,29.190166,0 117.384208,29.181208,0 117.386025,29.168292,0 117.398493,29.147734,0 117.427603,29.136078,0 117.439974,29.142071,0 117.441054,29.156749,0 117.454161,29.160212,0 117.463292,29.158013,0 117.486904,29.16362,0 117.497262,29.158013,0 117.497704,29.1435,0 117.481995,29.133219,0 117.49358,29.107484,0 117.51459,29.097364,0 117.499324,29.081577,0 117.502563,29.070355,0 117.509927,29.067879,0 117.519303,29.05726,0 117.494513,29.040586,0 117.493973,29.022204,0 117.481111,29.015489,0 117.493924,29.000956,0 117.491469,28.992257,0 117.497213,28.988953,0 117.488327,28.982126,0 117.457057,28.970341,0 117.47203,28.959712,0 117.483026,28.963898,0 117.49412,28.955472,0 117.49412,28.943133,0 117.499913,28.936193,0 117.51302,28.929637,0 117.514836,28.917075,0 117.531968,28.913329,0 117.537466,28.902253,0 117.554353,28.899222,0 117.557053,28.891341,0 117.548511,28.866042,0 117.543112,28.843163,0 117.544879,28.817741,0 117.549051,28.807372,0 117.537172,28.812281,0 117.520776,28.810406,0 117.511449,28.825903,0 117.504085,28.830039,0 117.487984,28.829433,0 117.475613,28.837428,0 117.449939,28.841729,0 117.438109,28.837814,0 117.430402,28.830315,0 117.411011,28.824414,0 117.395842,28.829046,0 117.393339,28.812557,0 117.404777,28.804559,0 117.402322,28.783652,0 117.388135,28.782935,0 117.384601,28.773556,0 117.374488,28.772839,0 117.371641,28.766825,0 117.358387,28.76848,0 117.348618,28.774218,0 117.329424,28.77317,0 117.324711,28.764011,0 117.306401,28.759651,0 117.299332,28.74591,0 117.2795,28.736693,0 117.273118,28.723446,0 117.262809,28.726261,0 117.248377,28.719196,0 117.241652,28.726482,0 117.242977,28.73719,0 117.23689,28.747069,0 117.226581,28.749497,0 117.20346,28.741054,0 117.193298,28.747456,0 117.191826,28.741109,0 117.173515,28.752698,0 117.17111,28.759265,0 117.17543,28.770853,0 117.15869,28.782439,0 117.152259,28.775267,0 117.144307,28.786907,0 117.142785,28.799595,0 117.136502,28.797885,0 117.122315,28.781004,0 117.123149,28.795237,0 117.116866,28.801029,0 117.090308,28.801029,0 117.085105,28.81173,0 117.070427,28.81548,0 117.047551,28.808917,0 117.039746,28.818734,0 117.029928,28.838696,0 117.009997,28.856781,0 116.984225,28.86979,0 116.963853,28.886547,0 116.963608,28.898836,0 116.957079,28.904843,0 116.970873,28.916524,0 116.973671,28.929306,0 116.985747,28.949248,0 116.998658,28.948421,0 117.00931,28.959327,0 117.013483,28.975628,0 117.014072,28.998809,0 117.029879,29.002552,0 117.038371,29.009378,0 117.032824,29.027323,0 117.046717,29.043063,0 117.049466,29.051097,0 117.044655,29.082623,0 117.048582,29.093954,0 117.061394,29.096044,0 117.066696,29.104404,0 117.077447,29.103249,0 117.069838,29.112764,0 117.079999,29.123542,0 117.06866,29.130195,0 117.068905,29.136188,0 117.0584,29.148888,0 117.032922,29.161806,0 117.029339,29.167468,0 117.031891,29.180109,0 117.024037,29.191155,0 117.011225,29.225274,0 117.017508,29.229174,0 117.014465,29.243291,0 117.020159,29.252023,0 117.011421,29.264215,0 117.008378,29.28195,0 117.025363,29.279095,0 117.028062,29.28766,0 117.035819,29.291887,0 117.042249,29.302975,0 117.055798,29.302317,0 117.079459,29.309892,0 117.069543,29.332229,0 117.045342,29.349897,0 117.042691,29.36482,0 117.050104,29.370031,0 117.054276,29.384457,0 117.069101,29.392355,0 117.071311,29.39762,0 117.067285,29.412152,0 117.070918,29.426791,0 117.062622,29.434192,0 117.045882,29.441428,0 117.042348,29.454583,0 117.042888,29.471738,0 117.049171,29.48593,0 117.047698,29.512994,0 117.051135,29.532055,0 117.046569,29.543556,0 117.040188,29.577776,0 117.027326,29.599233,0 117.025853,29.607498,0 117.042397,29.619482,0 117.050987,29.631575,0 117.071212,29.64197,0 117.077643,29.650395,0 117.08103,29.66664,0 117.092468,29.691524,0 117.090848,29.699233,0 117.070869,29.693711,0 117.055209,29.684305,0 117.042053,29.680915,0 117.015299,29.685727,0 116.996007,29.683376,0 116.984569,29.67468,0 116.974555,29.657561,0 116.958551,29.651598,0 116.939603,29.648316,0 116.918543,29.634475,0 116.873479,29.609304,0 116.848934,29.576408,0 116.838085,29.569838,0 116.8184,29.564801,0 116.783449,29.568415,0 116.779521,29.577667,0 116.786983,29.591297,0 116.775152,29.595347,0 116.770145,29.592228,0 116.760475,29.599069,0 116.740201,29.585933,0 116.732297,29.572028,0 116.721596,29.564966,0 116.716539,29.590804,0 116.688951,29.604104,0 116.679035,29.598522,0 116.663277,29.605254,0 116.653263,29.603721,0 116.63721,29.581335,0 116.607118,29.5717,0 116.596319,29.571316,0 116.581395,29.576462,0 116.566619,29.594691,0 116.528624,29.604214,0 116.512081,29.600219,0 116.500937,29.585659,0 116.49971,29.566663,0 116.530195,29.546842,0 116.533189,29.526414,0 116.529115,29.512665,0 116.520082,29.498532,0 116.524402,29.486807,0 116.537166,29.47382,0 116.538147,29.467408,0 116.524402,29.454474,0 116.517972,29.440277,0 116.518659,29.431122,0 116.540455,29.414948,0 116.537558,29.41111,0 116.542615,29.397071,0 116.55636,29.384896,0 116.559894,29.376504,0 116.548898,29.367672,0 116.554003,29.366191,0 116.554543,29.355439,0 116.546836,29.360047,0 116.537804,29.343258,0 116.552432,29.322844,0 116.564705,29.312087,0 116.562741,29.300615,0 116.575554,29.286177,0 116.588513,29.276185,0 116.59357,29.252572,0 116.611095,29.248673,0 116.646488,29.229394,0 116.567945,29.170436,0 116.547573,29.155815,0 116.473005,29.155705,0 116.451651,29.124092,0 116.45764,29.115458,0 116.448461,29.105944,0 116.43825,29.105119,0 116.437661,29.094944,0 116.406931,29.05649,0 116.4005,29.053023,0 116.409778,29.031561,0 116.402365,29.016314,0 116.40806,29.003818,0 116.407225,28.967973,0 116.40428,28.953929,0 116.380766,28.943684,0 116.366972,28.927158,0 116.358725,28.910298,0 116.344439,28.88831,0 116.342083,28.877673,0 116.330891,28.877838,0 116.324215,28.872381,0 116.278954,28.866373,0 116.259907,28.871279,0 116.250236,28.869019,0 116.240026,28.860805,0 116.238111,28.851433,0 116.245867,28.841288,0 116.245818,28.831859,0 116.240026,28.82458,0 116.246407,28.801801,0 116.253967,28.798547,0 116.274241,28.800091,0 116.287103,28.7879,0 116.301781,28.785804,0 116.319846,28.76699,0 116.323969,28.753581,0 116.32014,28.73846,0 116.339629,28.750325,0 116.355337,28.754188,0 116.363192,28.741219,0 116.380471,28.750105,0 116.379931,28.744034,0 116.392204,28.727807,0 116.412281,28.724053,0 116.429708,28.717429,0 116.446497,28.701198,0 116.446742,28.690817,0 116.441293,28.667789,0 116.447871,28.665028,0 116.449393,28.653649,0 116.44311,28.635972,0 116.462746,28.615142,0 116.465789,28.600719,0 116.473938,28.58364,0 116.497697,28.552682,0 116.509381,28.544775,0 116.532306,28.523263,0 116.554887,28.496879,0 116.577321,28.480171,0 116.585273,28.471152,0 116.591066,28.450788,0 116.586108,28.44232,0 116.584733,28.428925,0 116.599902,28.417299,0 116.589397,28.419957,0 116.583997,28.411209,0 116.575603,28.40894,0 116.568288,28.400634,0 116.570203,28.388286,0 116.581837,28.379647,0 116.593521,28.386126,0 116.618556,28.389726,0 116.647519,28.373721,0 116.660823,28.373666,0 116.691356,28.380145,0 116.699652,28.378705,0 116.716196,28.388895,0 116.729941,28.406946,0 116.743637,28.402462,0 116.751344,28.391609,0 116.753798,28.378096,0 116.774171,28.365745,0 116.778441,28.352396,0 116.788652,28.341095,0 116.798715,28.358157,0 116.824389,28.378318,0 116.855021,28.379813,0 116.871417,28.382361,0 116.879026,28.388951,0 116.878093,28.399527,0 116.867392,28.413867,0 116.871466,28.427818,0 116.896011,28.458702,0 116.891004,28.474362,0 116.879272,28.492619,0 116.880744,28.507279,0 116.897337,28.5023,0 116.904406,28.504513,0 116.911131,28.522323,0 116.965179,28.527632,0 116.976518,28.534435,0 116.990165,28.51281,0 117.003861,28.496326,0 117.013434,28.509934,0 117.011127,28.514635,0 117.032186,28.526305,0 117.033953,28.531891,0 117.049613,28.549696,0 117.054522,28.56573,0 117.044949,28.591931,0 117.055307,28.603316,0 117.068954,28.608732,0 117.079116,28.606576,0 117.096346,28.58961,0 117.108717,28.581484,0 117.12634,28.576675,0 117.147694,28.562192,0 117.199091,28.589223,0 117.216125,28.595026,0 117.225109,28.609561,0 117.223292,28.624259,0 117.236939,28.626635,0 117.246561,28.617131,0 117.262711,28.613208,0 117.274493,28.601824,0 117.283231,28.576731,0 117.29295,28.564901,0 117.30429,28.54389,0 117.315875,28.534601,0 117.313863,28.506172,0 117.320981,28.462409,0 117.32805,28.450954,0 117.326184,28.430198,0 117.314108,28.414642,0 117.310181,28.397478,0 117.327411,28.384244,0 117.319508,28.363474,0 117.317692,28.348574,0 117.29462,28.338546,0 117.281365,28.326135,0 117.277978,28.309899,0 117.257311,28.30929,0 117.264724,28.289448,0 117.265411,28.278362,0 117.288336,28.27487,0 117.294767,28.252804,0 117.302719,28.240217,0 117.297319,28.230567,0 117.28544,28.223968,0 117.274051,28.209879,0 117.27842,28.19357,0 117.283771,28.187301,0 117.280973,28.173097,0 117.270664,28.162442,0 117.274345,28.150954,0 117.281316,28.146514,0 117.309543,28.14324,0 117.331437,28.130861,0 117.353282,28.133581,0 117.362363,28.132083,0 117.399966,28.115373,0 117.426082,28.112264,0 117.436832,28.107045,0 117.444834,28.090886,0 117.46123,28.066561,0 117.46123,28.053452,0 117.465599,28.039397,0 117.465795,28.01945,0 117.44827,27.986382,0 117.445767,27.964201,0 117.432218,27.942405,0 117.435458,27.936121,0 117.446356,27.932729,0</coordinates></LinearRing></outerBoundaryIs>
      </Polygon>
    </MultiGeometry>
    </Placemark>
  </Document>
</kml>
