<?xml version="1.0" encoding="UTF-8"?>
<kml xmlns="http://www.opengis.net/kml/2.2">
  <Document>
    <name><![CDATA[九江市]]></name>
    <Placemark>
      <name><![CDATA[九江市]]></name>
      <description><![CDATA[省级目录：江西省]]></description>
      <ExtendedData>
        <Data name="adcode"><value>360400</value></Data>
      </ExtendedData>
      <MultiGeometry>
      <Polygon>
        <outerBoundaryIs><LinearRing><coordinates>116.688951,29.604104,0 116.685662,29.611602,0 116.670591,29.625118,0 116.651888,29.637155,0 116.652232,29.645416,0 116.663572,29.659147,0 116.677071,29.669047,0 116.680262,29.68261,0 116.673046,29.687532,0 116.656699,29.686329,0 116.654146,29.69475,0 116.66799,29.700272,0 116.687086,29.734767,0 116.703089,29.741272,0 116.720565,29.763349,0 116.739317,29.774168,0 116.745895,29.790339,0 116.762536,29.80252,0 116.780896,29.79247,0 116.789781,29.795092,0 116.812362,29.811696,0 116.830722,29.841512,0 116.861305,29.867335,0 116.882708,29.893532,0 116.891986,29.919341,0 116.891839,29.927361,0 116.900135,29.949507,0 116.887911,29.968812,0 116.868717,29.980481,0 116.844909,29.969412,0 116.835385,29.97023,0 116.834845,29.957415,0 116.828758,29.963141,0 116.8265,29.976828,0 116.82974,29.989041,0 116.829544,30.00654,0 116.80279,29.99651,0 116.787327,30.02033,0 116.783498,30.030739,0 116.770293,30.035644,0 116.764549,30.048939,0 116.753602,30.048994,0 116.747368,30.057221,0 116.720319,30.053897,0 116.685662,30.070622,0 116.666861,30.076723,0 116.64261,30.076396,0 116.611046,30.070677,0 116.596564,30.059727,0 116.586059,30.046324,0 116.571332,30.014443,0 116.571185,29.989204,0 116.564558,29.949343,0 116.558716,29.924306,0 116.551942,29.909848,0 116.541485,29.901609,0 116.52558,29.897516,0 116.479878,29.897843,0 116.467704,29.896152,0 116.441784,29.879834,0 116.392547,29.855707,0 116.359657,29.843642,0 116.343065,29.83567,0 116.322791,29.819998,0 116.312286,29.808966,0 116.280819,29.788864,0 116.261478,29.78209,0 116.253624,29.783128,0 116.227361,29.816885,0 116.208068,29.827479,0 116.187303,29.829063,0 116.167324,29.82737,0 116.13517,29.819452,0 116.10714,29.80831,0 116.077244,29.787007,0 116.049558,29.761929,0 115.988245,29.733893,0 115.965811,29.72471,0 115.94372,29.721211,0 115.909848,29.724218,0 115.837196,29.74854,0 115.762579,29.793016,0 115.706224,29.837854,0 115.683054,29.847791,0 115.667885,29.850193,0 115.621447,29.842823,0 115.578837,29.840693,0 115.550021,29.837909,0 115.511584,29.840311,0 115.505791,29.822401,0 115.487333,29.817868,0 115.479283,29.811314,0 115.473736,29.795146,0 115.473981,29.786351,0 115.466569,29.7663,0 115.472017,29.742583,0 115.462887,29.733182,0 115.436624,29.716729,0 115.419835,29.699561,0 115.41257,29.688844,0 115.3786,29.667516,0 115.363235,29.653513,0 115.359848,29.646456,0 115.349539,29.650723,0 115.329265,29.646128,0 115.32087,29.637538,0 115.307027,29.63732,0 115.285918,29.618552,0 115.27399,29.623586,0 115.266823,29.632341,0 115.270013,29.646456,0 115.26859,29.658326,0 115.250868,29.659913,0 115.228729,29.654279,0 115.214395,29.657834,0 115.188917,29.657396,0 115.176645,29.654771,0 115.155242,29.6586,0 115.137766,29.669649,0 115.131875,29.679329,0 115.122204,29.686165,0 115.107674,29.679384,0 115.109048,29.66314,0 115.120683,29.654716,0 115.142331,29.651598,0 115.139042,29.636718,0 115.132317,29.632341,0 115.136293,29.617184,0 115.128782,29.606786,0 115.13163,29.601861,0 115.120977,29.595183,0 115.133593,29.590038,0 115.160003,29.598412,0 115.170901,29.595676,0 115.172472,29.589108,0 115.157794,29.584838,0 115.153474,29.575641,0 115.1575,29.564582,0 115.152542,29.550018,0 115.153278,29.528933,0 115.157353,29.518965,0 115.153965,29.510365,0 115.124708,29.509707,0 115.100949,29.520553,0 115.086614,29.522963,0 115.099525,29.550237,0 115.087596,29.560038,0 115.072084,29.557793,0 115.056375,29.550894,0 115.046754,29.551879,0 115.033107,29.546787,0 115.018969,29.555001,0 115.012783,29.564473,0 115.000511,29.572138,0 114.994375,29.56294,0 114.980237,29.564309,0 114.970566,29.552317,0 114.95687,29.553577,0 114.947838,29.542899,0 114.948672,29.525319,0 114.966688,29.522197,0 114.968701,29.515733,0 114.957607,29.500504,0 114.939247,29.494313,0 114.925551,29.49886,0 114.926827,29.516774,0 114.921673,29.521101,0 114.918629,29.51031,0 114.900564,29.505982,0 114.90837,29.520006,0 114.901203,29.530029,0 114.897128,29.527071,0 114.885052,29.49508,0 114.875578,29.490313,0 114.871847,29.482533,0 114.860507,29.476067,0 114.864876,29.46982,0 114.876265,29.46823,0 114.884168,29.437755,0 114.888537,29.436111,0 114.904197,29.447842,0 114.91804,29.454474,0 114.907241,29.462421,0 114.905277,29.472943,0 114.923195,29.484944,0 114.935762,29.486478,0 114.934878,29.475354,0 114.946905,29.462421,0 114.931147,29.445978,0 114.931196,29.423063,0 114.92668,29.416154,0 114.913033,29.421692,0 114.89433,29.396742,0 114.876952,29.391587,0 114.877787,29.399375,0 114.8663,29.404584,0 114.831593,29.396688,0 114.811908,29.383305,0 114.805183,29.381715,0 114.784565,29.386157,0 114.768857,29.378808,0 114.759972,29.363119,0 114.740679,29.366795,0 114.740728,29.386432,0 114.732776,29.39422,0 114.718982,29.397236,0 114.688939,29.391916,0 114.673279,29.396194,0 114.654871,29.388406,0 114.648489,29.382044,0 114.621833,29.380069,0 114.592674,29.354561,0 114.556691,29.344081,0 114.5481,29.337606,0 114.519628,29.325424,0 114.502545,29.323777,0 114.497096,29.327619,0 114.465924,29.324216,0 114.457285,29.325533,0 114.455223,29.335905,0 114.442999,29.339582,0 114.450117,29.34463,0 114.443932,29.349129,0 114.440005,29.341612,0 114.428763,29.337826,0 114.398868,29.336893,0 114.375845,29.322899,0 114.344869,29.325259,0 114.333971,29.337881,0 114.323761,29.357798,0 114.306874,29.365259,0 114.266326,29.349733,0 114.258962,29.343971,0 114.261368,29.317631,0 114.251942,29.310386,0 114.251648,29.301658,0 114.261171,29.291063,0 114.25366,29.281675,0 114.25317,29.269486,0 114.246346,29.265203,0 114.25317,29.250321,0 114.252286,29.234832,0 114.238492,29.23269,0 114.224305,29.235436,0 114.2084,29.226098,0 114.192397,29.223901,0 114.179731,29.214671,0 114.16525,29.217144,0 114.149247,29.213573,0 114.121216,29.211265,0 114.093284,29.21176,0 114.063242,29.204947,0 114.059805,29.186154,0 114.052049,29.175822,0 114.041102,29.170436,0 114.034819,29.152296,0 114.012925,29.142016,0 113.987202,29.126236,0 113.973358,29.102149,0 113.962068,29.101819,0 113.952593,29.092744,0 113.951857,29.064303,0 113.942039,29.047355,0 113.948175,29.031561,0 113.946212,29.017966,0 113.961479,28.996937,0 113.955686,28.978381,0 113.966731,28.94429,0 113.973751,28.9379,0 113.98514,28.948862,0 114.008997,28.955251,0 114.009439,28.94429,0 114.003941,28.926497,0 114.005414,28.917792,0 114.012679,28.918012,0 114.02397,28.907708,0 114.028339,28.891176,0 114.040611,28.906551,0 114.048662,28.908149,0 114.060149,28.902363,0 114.066825,28.884507,0 114.056369,28.870562,0 114.062309,28.85667,0 114.059658,28.849724,0 114.069918,28.845864,0 114.080423,28.833237,0 114.097457,28.833734,0 114.124898,28.843273,0 114.134422,28.826951,0 114.142914,28.827999,0 114.149492,28.835057,0 114.15391,28.829377,0 114.151996,28.801636,0 114.140263,28.789169,0 114.137465,28.779735,0 114.153518,28.770963,0 114.163826,28.775984,0 114.163728,28.78597,0 114.197551,28.807483,0 114.204424,28.820499,0 114.213358,28.828936,0 114.224992,28.820113,0 114.226023,28.806159,0 114.232846,28.800422,0 114.246886,28.809358,0 114.257342,28.807593,0 114.267946,28.785308,0 114.270498,28.767487,0 114.280414,28.757941,0 114.288465,28.757941,0 114.313255,28.734762,0 114.313943,28.728028,0 114.341187,28.713013,0 114.345556,28.70578,0 114.36529,28.701695,0 114.370347,28.714172,0 114.393026,28.704345,0 114.41006,28.706222,0 114.4241,28.716049,0 114.439759,28.707271,0 114.465482,28.696891,0 114.467642,28.701916,0 114.459886,28.727034,0 114.469753,28.732775,0 114.484137,28.75336,0 114.500876,28.753857,0 114.510203,28.757665,0 114.517861,28.754299,0 114.530772,28.760148,0 114.543584,28.760258,0 114.54815,28.76699,0 114.564055,28.764342,0 114.567295,28.771459,0 114.579861,28.762024,0 114.583838,28.732388,0 114.593165,28.722784,0 114.614862,28.710694,0 114.623699,28.695124,0 114.641911,28.692198,0 114.648243,28.686069,0 114.674703,28.691204,0 114.705826,28.685185,0 114.716331,28.690983,0 114.737096,28.687007,0 114.741759,28.699873,0 114.756437,28.705725,0 114.762622,28.713675,0 114.773078,28.71235,0 114.803465,28.729849,0 114.801501,28.744255,0 114.795905,28.753416,0 114.810583,28.767928,0 114.816474,28.769749,0 114.827175,28.760258,0 114.828697,28.753747,0 114.840233,28.741164,0 114.855647,28.746683,0 114.859771,28.754519,0 114.871209,28.752533,0 114.87008,28.76848,0 114.879947,28.774163,0 114.892612,28.769859,0 114.900761,28.784756,0 114.917206,28.800974,0 114.914604,28.814212,0 114.907535,28.819506,0 114.910579,28.843163,0 114.909499,28.854079,0 114.923833,28.868964,0 114.929478,28.867916,0 114.955299,28.878114,0 114.958245,28.891231,0 114.951372,28.896026,0 114.94828,28.906771,0 114.954023,28.913549,0 114.949458,28.923522,0 114.971106,28.943023,0 114.968848,28.959272,0 114.96389,28.967478,0 114.973855,28.978436,0 114.984459,28.984438,0 114.98063,28.994404,0 115.000118,29.009268,0 115.02373,29.009434,0 115.040568,29.012791,0 115.049208,29.020993,0 115.05127,29.031506,0 115.061039,29.036074,0 115.068697,29.033432,0 115.075962,29.039981,0 115.098641,29.050877,0 115.109294,29.051537,0 115.146258,29.073491,0 115.168692,29.078057,0 115.182683,29.083558,0 115.202859,29.086198,0 115.216653,29.094669,0 115.24861,29.090049,0 115.270455,29.096704,0 115.289453,29.099399,0 115.295147,29.095714,0 115.315078,29.099344,0 115.335008,29.095714,0 115.353171,29.086913,0 115.367555,29.084603,0 115.394701,29.076131,0 115.395536,29.067604,0 115.411441,29.063257,0 115.423517,29.066228,0 115.445951,29.060616,0 115.447374,29.054619,0 115.437851,29.041577,0 115.450614,29.02991,0 115.47133,29.02391,0 115.470054,29.012957,0 115.475552,29.006186,0 115.483603,29.010314,0 115.512811,29.018461,0 115.525329,29.014993,0 115.54251,29.001011,0 115.571228,28.971112,0 115.619287,28.962852,0 115.622968,28.95123,0 115.635437,28.948642,0 115.645157,28.942032,0 115.660915,28.948752,0 115.668425,28.943849,0 115.68109,28.954976,0 115.681876,28.943133,0 115.664645,28.936633,0 115.666364,28.928921,0 115.719626,28.9168,0 115.726302,28.920877,0 115.726793,28.929967,0 115.738378,28.92848,0 115.740538,28.918838,0 115.754185,28.90622,0 115.756149,28.896246,0 115.764199,28.892444,0 115.777503,28.900379,0 115.7992,28.899387,0 115.815989,28.909527,0 115.816578,28.930078,0 115.825021,28.935972,0 115.825905,28.946163,0 115.819671,28.965715,0 115.823549,28.970341,0 115.838865,28.967092,0 115.858304,28.969626,0 115.866944,28.980969,0 115.882702,29.008388,0 115.886924,29.020057,0 115.906019,29.03057,0 115.914463,29.041852,0 115.921385,29.060451,0 115.915101,29.072115,0 115.930024,29.093789,0 115.937486,29.089664,0 115.958005,29.096594,0 115.980685,29.099729,0 115.987852,29.089279,0 116.003315,29.111334,0 116.008421,29.099289,0 116.018631,29.088563,0 116.065659,29.116503,0 116.086179,29.112764,0 116.092757,29.119473,0 116.111951,29.117768,0 116.132519,29.122387,0 116.173509,29.118098,0 116.155199,29.103359,0 116.142288,29.084493,0 116.153235,29.074041,0 116.165606,29.054344,0 116.175227,29.045484,0 116.191869,29.03866,0 116.227901,29.034368,0 116.236049,29.025727,0 116.237817,29.012241,0 116.234479,29.004369,0 116.236884,28.991982,0 116.249893,28.999414,0 116.27051,29.001121,0 116.274732,29.006956,0 116.278217,29.025231,0 116.273898,29.0462,0 116.265307,29.066448,0 116.262018,29.082513,0 116.27105,29.102149,0 116.290784,29.108969,0 116.318127,29.091424,0 116.373157,29.049666,0 116.4005,29.053023,0 116.406931,29.05649,0 116.437661,29.094944,0 116.43825,29.105119,0 116.448461,29.105944,0 116.45764,29.115458,0 116.451651,29.124092,0 116.473005,29.155705,0 116.547573,29.155815,0 116.567945,29.170436,0 116.646488,29.229394,0 116.611095,29.248673,0 116.59357,29.252572,0 116.588513,29.276185,0 116.575554,29.286177,0 116.562741,29.300615,0 116.564705,29.312087,0 116.552432,29.322844,0 116.537804,29.343258,0 116.546836,29.360047,0 116.554543,29.355439,0 116.554003,29.366191,0 116.548898,29.367672,0 116.559894,29.376504,0 116.55636,29.384896,0 116.542615,29.397071,0 116.537558,29.41111,0 116.540455,29.414948,0 116.518659,29.431122,0 116.517972,29.440277,0 116.524402,29.454474,0 116.538147,29.467408,0 116.537166,29.47382,0 116.524402,29.486807,0 116.520082,29.498532,0 116.529115,29.512665,0 116.533189,29.526414,0 116.530195,29.546842,0 116.49971,29.566663,0 116.500937,29.585659,0 116.512081,29.600219,0 116.528624,29.604214,0 116.566619,29.594691,0 116.581395,29.576462,0 116.596319,29.571316,0 116.607118,29.5717,0 116.63721,29.581335,0 116.653263,29.603721,0 116.663277,29.605254,0 116.679035,29.598522,0 116.688951,29.604104,0</coordinates></LinearRing></outerBoundaryIs>
      </Polygon>
      <Polygon>
        <outerBoundaryIs><LinearRing><coordinates>116.705838,29.697101,0 116.703432,29.710059,0 116.698916,29.709458,0 116.705838,29.697101,0</coordinates></LinearRing></outerBoundaryIs>
      </Polygon>
      <Polygon>
        <outerBoundaryIs><LinearRing><coordinates>116.706525,29.696609,0 116.705543,29.688024,0 116.717128,29.690758,0 116.716196,29.696937,0 116.706525,29.696609,0</coordinates></LinearRing></outerBoundaryIs>
      </Polygon>
    </MultiGeometry>
    </Placemark>
  </Document>
</kml>
