<?xml version="1.0" encoding="UTF-8"?>
<kml xmlns="http://www.opengis.net/kml/2.2">
  <Document>
    <name><![CDATA[景德镇市]]></name>
    <Placemark>
      <name><![CDATA[景德镇市]]></name>
      <description><![CDATA[省级目录：江西省]]></description>
      <ExtendedData>
        <Data name="adcode"><value>360200</value></Data>
      </ExtendedData>
      <MultiGeometry>
      <Polygon>
        <outerBoundaryIs><LinearRing><coordinates>117.70766,29.548977,0 117.690479,29.555931,0 117.682968,29.568032,0 117.682232,29.587246,0 117.678992,29.595512,0 117.668977,29.596989,0 117.661418,29.611821,0 117.647967,29.614886,0 117.628282,29.606239,0 117.608744,29.591571,0 117.586458,29.584728,0 117.574038,29.591078,0 117.557986,29.590093,0 117.545959,29.594198,0 117.543357,29.58856,0 117.528974,29.609522,0 117.523427,29.629222,0 117.530545,29.65406,0 117.51891,29.662921,0 117.493776,29.65953,0 117.474239,29.668336,0 117.451854,29.695953,0 117.457254,29.725311,0 117.455094,29.749141,0 117.443165,29.758923,0 117.434721,29.761164,0 117.413564,29.78799,0 117.409146,29.80263,0 117.424805,29.834633,0 117.418816,29.850412,0 117.384061,29.843642,0 117.375961,29.818086,0 117.356227,29.813717,0 117.347931,29.822346,0 117.338604,29.8479,0 117.333253,29.850575,0 117.325693,29.84386,0 117.303014,29.840366,0 117.295454,29.833595,0 117.29246,29.822783,0 117.278174,29.825131,0 117.271204,29.8301,0 117.25741,29.831247,0 117.249359,29.846099,0 117.25682,29.859529,0 117.261779,29.880653,0 117.253679,29.908975,0 117.246217,29.915086,0 117.217058,29.926924,0 117.206209,29.927524,0 117.188929,29.921851,0 117.17759,29.92196,0 117.148823,29.911321,0 117.134685,29.903846,0 117.12796,29.895497,0 117.133065,29.874267,0 117.127715,29.861603,0 117.110435,29.855434,0 117.092763,29.836871,0 117.073323,29.83223,0 117.075581,29.822619,0 117.09615,29.807545,0 117.12796,29.795802,0 117.135569,29.780943,0 117.135471,29.772037,0 117.108668,29.751983,0 117.108275,29.745097,0 117.122462,29.728536,0 117.112988,29.712136,0 117.090848,29.699233,0 117.092468,29.691524,0 117.08103,29.66664,0 117.077643,29.650395,0 117.071212,29.64197,0 117.050987,29.631575,0 117.042397,29.619482,0 117.025853,29.607498,0 117.027326,29.599233,0 117.040188,29.577776,0 117.046569,29.543556,0 117.051135,29.532055,0 117.047698,29.512994,0 117.049171,29.48593,0 117.042888,29.471738,0 117.042348,29.454583,0 117.045882,29.441428,0 117.062622,29.434192,0 117.070918,29.426791,0 117.067285,29.412152,0 117.071311,29.39762,0 117.069101,29.392355,0 117.054276,29.384457,0 117.050104,29.370031,0 117.042691,29.36482,0 117.045342,29.349897,0 117.069543,29.332229,0 117.079459,29.309892,0 117.055798,29.302317,0 117.042249,29.302975,0 117.035819,29.291887,0 117.028062,29.28766,0 117.025363,29.279095,0 117.008378,29.28195,0 117.011421,29.264215,0 117.020159,29.252023,0 117.014465,29.243291,0 117.017508,29.229174,0 117.011225,29.225274,0 117.024037,29.191155,0 117.031891,29.180109,0 117.029339,29.167468,0 117.032922,29.161806,0 117.0584,29.148888,0 117.068905,29.136188,0 117.06866,29.130195,0 117.079999,29.123542,0 117.069838,29.112764,0 117.077447,29.103249,0 117.066696,29.104404,0 117.061394,29.096044,0 117.048582,29.093954,0 117.044655,29.082623,0 117.049466,29.051097,0 117.046717,29.043063,0 117.032824,29.027323,0 117.038371,29.009378,0 117.029879,29.002552,0 117.014072,28.998809,0 117.013483,28.975628,0 117.00931,28.959327,0 116.998658,28.948421,0 116.985747,28.949248,0 116.973671,28.929306,0 116.970873,28.916524,0 116.957079,28.904843,0 116.963608,28.898836,0 116.963853,28.886547,0 116.984225,28.86979,0 117.009997,28.856781,0 117.029928,28.838696,0 117.039746,28.818734,0 117.047551,28.808917,0 117.070427,28.81548,0 117.085105,28.81173,0 117.090308,28.801029,0 117.116866,28.801029,0 117.123149,28.795237,0 117.122315,28.781004,0 117.136502,28.797885,0 117.142785,28.799595,0 117.144307,28.786907,0 117.152259,28.775267,0 117.15869,28.782439,0 117.17543,28.770853,0 117.17111,28.759265,0 117.173515,28.752698,0 117.191826,28.741109,0 117.193298,28.747456,0 117.20346,28.741054,0 117.226581,28.749497,0 117.23689,28.747069,0 117.242977,28.73719,0 117.241652,28.726482,0 117.248377,28.719196,0 117.262809,28.726261,0 117.273118,28.723446,0 117.2795,28.736693,0 117.299332,28.74591,0 117.306401,28.759651,0 117.324711,28.764011,0 117.329424,28.77317,0 117.348618,28.774218,0 117.358387,28.76848,0 117.371641,28.766825,0 117.374488,28.772839,0 117.384601,28.773556,0 117.388135,28.782935,0 117.402322,28.783652,0 117.404777,28.804559,0 117.393339,28.812557,0 117.395842,28.829046,0 117.411011,28.824414,0 117.430402,28.830315,0 117.438109,28.837814,0 117.449939,28.841729,0 117.475613,28.837428,0 117.487984,28.829433,0 117.504085,28.830039,0 117.511449,28.825903,0 117.520776,28.810406,0 117.537172,28.812281,0 117.549051,28.807372,0 117.544879,28.817741,0 117.543112,28.843163,0 117.548511,28.866042,0 117.557053,28.891341,0 117.554353,28.899222,0 117.537466,28.902253,0 117.531968,28.913329,0 117.514836,28.917075,0 117.51302,28.929637,0 117.499913,28.936193,0 117.49412,28.943133,0 117.49412,28.955472,0 117.483026,28.963898,0 117.47203,28.959712,0 117.457057,28.970341,0 117.488327,28.982126,0 117.497213,28.988953,0 117.491469,28.992257,0 117.493924,29.000956,0 117.481111,29.015489,0 117.493973,29.022204,0 117.494513,29.040586,0 117.519303,29.05726,0 117.509927,29.067879,0 117.502563,29.070355,0 117.499324,29.081577,0 117.51459,29.097364,0 117.49358,29.107484,0 117.481995,29.133219,0 117.497704,29.1435,0 117.497262,29.158013,0 117.486904,29.16362,0 117.463292,29.158013,0 117.454161,29.160212,0 117.441054,29.156749,0 117.439974,29.142071,0 117.427603,29.136078,0 117.398493,29.147734,0 117.386025,29.168292,0 117.384208,29.181208,0 117.37277,29.190166,0 117.384699,29.206265,0 117.38789,29.219286,0 117.385386,29.229614,0 117.403402,29.246366,0 117.432954,29.259492,0 117.449154,29.271408,0 117.453032,29.281675,0 117.437078,29.297761,0 117.431825,29.31066,0 117.445374,29.322625,0 117.490291,29.34644,0 117.490389,29.35264,0 117.48116,29.361309,0 117.485677,29.378204,0 117.486266,29.396523,0 117.497654,29.403213,0 117.511547,29.405736,0 117.517438,29.411165,0 117.508061,29.429094,0 117.509927,29.436001,0 117.526323,29.445649,0 117.522494,29.439455,0 117.529366,29.430409,0 117.535503,29.430793,0 117.546499,29.447403,0 117.556415,29.45557,0 117.574087,29.457653,0 117.578358,29.461709,0 117.571289,29.468066,0 117.577474,29.484834,0 117.586016,29.48582,0 117.595932,29.46982,0 117.604768,29.475793,0 117.614292,29.500778,0 117.621311,29.512556,0 117.632749,29.504777,0 117.647034,29.51524,0 117.64728,29.523675,0 117.655723,29.534465,0 117.664461,29.527619,0 117.673592,29.52729,0 117.691362,29.53567,0 117.70766,29.548977,0</coordinates></LinearRing></outerBoundaryIs>
      </Polygon>
    </MultiGeometry>
    </Placemark>
  </Document>
</kml>
