<?xml version="1.0" encoding="UTF-8"?>
<kml xmlns="http://www.opengis.net/kml/2.2">
  <Document>
    <name><![CDATA[萍乡市]]></name>
    <Placemark>
      <name><![CDATA[萍乡市]]></name>
      <description><![CDATA[省级目录：江西省]]></description>
      <ExtendedData>
        <Data name="adcode"><value>360300</value></Data>
      </ExtendedData>
      <MultiGeometry>
      <Polygon>
        <outerBoundaryIs><LinearRing><coordinates>113.921421,26.960038,0 113.932712,26.981973,0 113.948323,26.998576,0 113.961184,26.999024,0 113.95981,27.021401,0 113.966584,27.033624,0 113.97542,27.033736,0 113.98784,27.051228,0 113.996823,27.056386,0 114.001094,27.068718,0 113.99486,27.076733,0 113.995841,27.085476,0 114.00399,27.094778,0 114.013416,27.122626,0 114.03742,27.15013,0 114.050527,27.158475,0 114.073207,27.153491,0 114.08597,27.168948,0 114.091321,27.190898,0 114.09731,27.196385,0 114.095395,27.208982,0 114.113411,27.223704,0 114.122787,27.218274,0 114.157641,27.242845,0 114.157837,27.253142,0 114.14851,27.265284,0 114.144829,27.289285,0 114.13884,27.303325,0 114.142227,27.318594,0 114.116749,27.309757,0 114.100648,27.329387,0 114.082681,27.332574,0 114.071096,27.340626,0 114.074336,27.353206,0 114.054553,27.360027,0 114.049496,27.375791,0 114.038697,27.381381,0 114.031971,27.379648,0 114.02181,27.391665,0 114.023184,27.401892,0 114.030646,27.417035,0 114.030057,27.426087,0 114.041348,27.434244,0 114.062849,27.431674,0 114.070261,27.435864,0 114.082043,27.428154,0 114.112871,27.436869,0 114.122346,27.429383,0 114.144043,27.430947,0 114.155923,27.439216,0 114.173497,27.444802,0 114.177915,27.450109,0 114.18145,27.46653,0 114.195489,27.473567,0 114.205013,27.496797,0 114.19814,27.505172,0 114.202116,27.52019,0 114.219003,27.525604,0 114.226268,27.53928,0 114.226121,27.547652,0 114.240357,27.558199,0 114.247622,27.557362,0 114.261368,27.563277,0 114.266571,27.570866,0 114.281936,27.578064,0 114.273247,27.576557,0 114.265246,27.587158,0 114.255526,27.589724,0 114.236479,27.604395,0 114.213112,27.627319,0 114.206878,27.637468,0 114.195882,27.641372,0 114.2057,27.644829,0 114.217089,27.665235,0 114.202264,27.680398,0 114.192298,27.6945,0 114.190237,27.709492,0 114.176688,27.722643,0 114.178062,27.733117,0 114.162894,27.737463,0 114.157837,27.748717,0 114.149247,27.75178,0 114.142276,27.76125,0 114.131574,27.761194,0 114.12912,27.768379,0 114.116308,27.770886,0 114.111202,27.764258,0 114.11562,27.756404,0 114.106146,27.752282,0 114.094708,27.756404,0 114.069672,27.743759,0 114.062603,27.745931,0 114.043655,27.743201,0 114.037322,27.754231,0 114.020386,27.761807,0 114.000996,27.752003,0 113.984453,27.762141,0 113.9738,27.761083,0 113.973555,27.775397,0 113.961871,27.779797,0 113.960153,27.791992,0 113.967124,27.808307,0 113.958337,27.81471,0 113.944346,27.810144,0 113.939388,27.802795,0 113.933792,27.830241,0 113.920292,27.828293,0 113.914353,27.832635,0 113.900166,27.829963,0 113.90424,27.834973,0 113.896582,27.843266,0 113.906695,27.84104,0 113.911014,27.84911,0 113.906498,27.856568,0 113.910769,27.863969,0 113.891182,27.870981,0 113.902571,27.878659,0 113.906842,27.889064,0 113.935559,27.911927,0 113.942383,27.909091,0 113.940223,27.900413,0 113.947095,27.899968,0 113.956275,27.91393,0 113.974046,27.92383,0 113.991423,27.940737,0 113.997658,27.94107,0 114.002959,27.955361,0 113.990785,27.973596,0 113.977138,27.975598,0 113.975371,27.967759,0 113.958239,27.96926,0 113.950286,27.979266,0 113.95171,27.987549,0 113.942235,27.989828,0 113.92363,27.984158,0 113.915825,27.993496,0 113.900166,27.987604,0 113.878713,27.99194,0 113.869485,28.004223,0 113.859814,28.001722,0 113.852205,27.988605,0 113.852009,27.976098,0 113.84656,27.97204,0 113.826777,27.973263,0 113.818824,27.98149,0 113.797274,27.969927,0 113.792708,27.955083,0 113.771011,27.952692,0 113.753437,27.934675,0 113.744993,27.915932,0 113.736697,27.905753,0 113.727959,27.876044,0 113.731493,27.869145,0 113.756333,27.860185,0 113.76566,27.832969,0 113.767231,27.808196,0 113.763205,27.799287,0 113.731199,27.77445,0 113.699045,27.74114,0 113.70042,27.731,0 113.696296,27.718909,0 113.669739,27.69489,0 113.659233,27.672037,0 113.645046,27.657765,0 113.619422,27.641762,0 113.607247,27.625367,0 113.60494,27.594577,0 113.608818,27.584982,0 113.601504,27.579068,0 113.599393,27.567406,0 113.578824,27.545196,0 113.58339,27.524656,0 113.610438,27.514496,0 113.621876,27.526777,0 113.628601,27.512207,0 113.622367,27.503665,0 113.627031,27.498026,0 113.613727,27.484122,0 113.614365,27.477421,0 113.591981,27.46815,0 113.599639,27.450332,0 113.597724,27.428768,0 113.606855,27.417538,0 113.620649,27.418264,0 113.62978,27.401054,0 113.619667,27.39893,0 113.602682,27.38574,0 113.6044,27.365506,0 113.616673,27.345379,0 113.625902,27.343198,0 113.639156,27.349964,0 113.657712,27.347448,0 113.672193,27.333301,0 113.699732,27.332071,0 113.717994,27.342416,0 113.722755,27.349013,0 113.743619,27.348734,0 113.762911,27.360866,0 113.783234,27.362151,0 113.810871,27.368412,0 113.822898,27.364779,0 113.837429,27.371878,0 113.872626,27.384846,0 113.876161,27.382051,0 113.872921,27.346721,0 113.857114,27.311883,0 113.854856,27.302262,0 113.869141,27.296501,0 113.871743,27.284754,0 113.859863,27.269089,0 113.85304,27.234786,0 113.847198,27.222472,0 113.822997,27.193026,0 113.8147,27.174324,0 113.801054,27.158419,0 113.779356,27.137191,0 113.774152,27.120273,0 113.771943,27.096403,0 113.779994,27.087101,0 113.793641,27.089399,0 113.803312,27.099373,0 113.807632,27.097692,0 113.811951,27.081553,0 113.816664,27.0468,0 113.823929,27.036091,0 113.838509,27.03497,0 113.845529,27.02841,0 113.848131,27.01669,0 113.863299,27.018485,0 113.870712,27.003904,0 113.871497,26.990106,0 113.879793,26.983319,0 113.892508,26.964751,0 113.921421,26.960038,0</coordinates></LinearRing></outerBoundaryIs>
      </Polygon>
    </MultiGeometry>
    </Placemark>
  </Document>
</kml>
