<?xml version="1.0" encoding="UTF-8"?>
<kml xmlns="http://www.opengis.net/kml/2.2">
  <Document>
    <name><![CDATA[北屯市]]></name>
    <Placemark>
      <name><![CDATA[北屯市]]></name>
      <description><![CDATA[省级目录：新疆维吾尔自治区]]></description>
      <ExtendedData>
        <Data name="adcode"><value>659005</value></Data>
      </ExtendedData>
      <MultiGeometry>
      <Polygon>
        <outerBoundaryIs><LinearRing><coordinates>87.556147,47.356673,0 87.527542,47.338604,0 87.595508,47.289121,0 87.66805,47.267492,0 87.74311,47.204866,0 87.79437,47.184156,0 87.886364,47.161121,0 87.91085,47.172572,0 88.005361,47.145713,0 88.05502,47.147486,0 88.077904,47.128663,0 88.176763,47.114883,0 88.273563,47.132892,0 88.342673,47.174344,0 88.343359,47.232512,0 88.428717,47.234691,0 88.43009,47.258239,0 88.339698,47.239728,0 88.312237,47.258103,0 88.262121,47.238503,0 88.098042,47.28096,0 88.038772,47.312237,0 87.98591,47.316859,0 87.906731,47.341322,0 87.862565,47.317539,0 87.828696,47.351919,0 87.873091,47.346213,0 87.853411,47.367267,0 87.831671,47.357216,0 87.803066,47.382339,0 87.753637,47.380167,0 87.771715,47.357081,0 87.556147,47.356673,0</coordinates></LinearRing></outerBoundaryIs>
      </Polygon>
      <Polygon>
        <outerBoundaryIs><LinearRing><coordinates>87.540357,47.4297,0 87.481316,47.411114,0 87.490241,47.400664,0 87.554774,47.42129,0 87.540357,47.4297,0</coordinates></LinearRing></outerBoundaryIs>
      </Polygon>
    </MultiGeometry>
    </Placemark>
  </Document>
</kml>
