<?xml version="1.0" encoding="UTF-8"?>
<kml xmlns="http://www.opengis.net/kml/2.2">
  <Document>
    <name><![CDATA[博尔塔拉蒙古自治州]]></name>
    <Placemark>
      <name><![CDATA[博尔塔拉蒙古自治州]]></name>
      <description><![CDATA[省级目录：新疆维吾尔自治区]]></description>
      <ExtendedData>
        <Data name="adcode"><value>652700</value></Data>
      </ExtendedData>
      <MultiGeometry>
      <Polygon>
        <outerBoundaryIs><LinearRing><coordinates>82.172213,44.713627,0 82.155736,44.770879,0 82.184341,44.790093,0 82.177476,44.806882,0 82.173128,44.80802,0 82.157109,44.806882,0 82.139717,44.801334,0 82.061454,44.762195,0 82.056648,44.78127,0 81.993946,44.762053,0 82.001269,44.745536,0 81.968544,44.72303,0 81.94566,44.684694,0 81.978613,44.692535,0 82.012482,44.674999,0 82.011566,44.63335,0 81.978384,44.634634,0 81.960764,44.584816,0 81.984105,44.569962,0 82.082507,44.570534,0 82.08388,44.514656,0 81.978384,44.482906,0 82.002184,44.456005,0 81.903096,44.436394,0 81.838334,44.438256,0 81.751603,44.347131,0 81.777691,44.352006,0 81.834901,44.327484,0 82.032391,44.285442,0 82.082736,44.291757,0 82.167636,44.263476,0 82.283658,44.249115,0 82.36032,44.265343,0 82.402197,44.215927,0 82.444991,44.182434,0 82.5379,44.156402,0 82.57337,44.13669,0 82.672916,44.114237,0 82.705411,44.071178,0 82.781158,44.085871,0 82.899697,44.053312,0 82.945923,44.083566,0 83.126707,44.092928,0 83.243416,44.073195,0 83.238381,44.043512,0 83.263554,44.041206,0 83.310466,44.008334,0 83.399485,44.014823,0 83.429921,44.006171,0 83.468824,44.036882,0 83.448457,44.076508,0 83.445482,44.121723,0 83.412071,44.168916,0 83.448915,44.254285,0 83.439761,44.282571,0 83.486216,44.317442,0 83.489877,44.367346,0 83.531526,44.414915,0 83.517567,44.467597,0 83.602924,44.462875,0 83.63931,44.474751,0 83.752815,44.46173,0 83.79332,44.466739,0 83.791947,44.520375,0 83.745492,44.552962,0 83.75968,44.633207,0 83.794464,44.719469,0 83.795837,44.756785,0 83.730389,44.801049,0 83.701784,44.853951,0 83.666313,44.888339,0 83.600178,44.894163,0 83.573862,44.931225,0 83.513448,44.939316,0 83.474087,44.976064,0 83.391476,44.980887,0 83.263554,44.998329,0 83.09444,45.028947,0 83.002675,45.050766,0 82.855531,45.100891,0 82.757816,45.152102,0 82.683214,45.153799,0 82.680696,45.138526,0 82.615477,45.109099,0 82.588245,45.038582,0 82.656439,44.944425,0 82.679552,44.871432,0 82.738822,44.858641,0 82.735847,44.827364,0 82.674518,44.792797,0 82.666737,44.770025,0 82.596483,44.722888,0 82.543163,44.709067,0 82.539959,44.682271,0 82.447737,44.688258,0 82.393959,44.669724,0 82.358947,44.66844,0 82.250934,44.691537,0 82.23583,44.6817,0 82.19235,44.662308,0 82.156651,44.669581,0 82.128962,44.637773,0 82.080905,44.64405,0 82.084338,44.666444,0 82.126216,44.680702,0 82.172213,44.713627,0</coordinates></LinearRing></outerBoundaryIs>
      </Polygon>
      <Polygon>
        <outerBoundaryIs><LinearRing><coordinates>82.145667,44.89672,0 82.130564,44.925121,0 82.063971,44.933638,0 82.045892,44.972802,0 81.993946,44.961169,0 81.940397,45.010238,0 82.058936,45.041274,0 82.133767,45.037165,0 82.20036,44.984291,0 82.275191,45.03008,0 82.287319,45.050624,0 82.272902,45.091407,0 82.295786,45.106693,0 82.235144,45.124239,0 82.222786,45.148426,0 82.161457,45.226292,0 82.10951,45.21132,0 82.09578,45.24973,0 82.052987,45.2558,0 81.99303,45.238153,0 81.920717,45.233353,0 81.879754,45.284163,0 81.832384,45.319845,0 81.787989,45.383676,0 81.73055,45.363252,0 81.69897,45.369028,0 81.582719,45.33662,0 81.575396,45.307859,0 81.541985,45.307154,0 81.528484,45.285997,0 81.449762,45.265679,0 81.413148,45.280918,0 81.382254,45.257634,0 81.32779,45.260881,0 81.28454,45.239,0 81.236941,45.247189,0 81.174925,45.227845,0 81.170119,45.210897,0 81.111307,45.218383,0 81.080871,45.18292,0 81.024577,45.162848,0 80.965993,45.168644,0 80.906266,45.131171,0 80.8621,45.127068,0 80.816332,45.152809,0 80.770563,45.153092,0 80.726626,45.176984,0 80.73166,45.156203,0 80.686121,45.129049,0 80.599162,45.105702,0 80.519296,45.108674,0 80.493666,45.127068,0 80.445838,45.097777,0 80.444237,45.077533,0 80.404418,45.049491,0 80.358192,45.040708,0 80.328214,45.070028,0 80.291829,45.065921,0 80.254756,45.035182,0 80.195716,45.030789,0 80.161389,45.056007,0 80.11196,45.052749,0 79.944677,44.93818,0 79.887925,44.909218,0 79.969163,44.877542,0 79.953831,44.849544,0 79.997768,44.824093,0 79.99937,44.793793,0 80.087703,44.816982,0 80.11585,44.815275,0 80.170085,44.844569,0 80.187935,44.825799,0 80.227753,44.825088,0 80.262766,44.843573,0 80.311051,44.811576,0 80.348581,44.805175,0 80.397324,44.771733,0 80.482911,44.739412,0 80.590008,44.723743,0 80.636005,44.73115,0 80.638293,44.710635,0 80.691842,44.674144,0 80.66072,44.637202,0 80.707632,44.601807,0 80.755002,44.61023,0 80.843564,44.568391,0 80.873771,44.563677,0 80.890018,44.52981,0 80.99826,44.535527,0 81.048376,44.50336,0 81.112222,44.506792,0 81.211311,44.462875,0 81.358455,44.44255,0 81.425734,44.440546,0 81.459603,44.450996,0 81.591415,44.41649,0 81.618647,44.427374,0 81.650913,44.38655,0 81.700114,44.394287,0 81.713845,44.365769,0 81.751603,44.347131,0 81.838334,44.438256,0 81.903096,44.436394,0 82.002184,44.456005,0 81.978384,44.482906,0 82.08388,44.514656,0 82.082507,44.570534,0 81.984105,44.569962,0 81.960764,44.584816,0 81.978384,44.634634,0 82.011566,44.63335,0 82.012482,44.674999,0 81.978613,44.692535,0 81.94566,44.684694,0 81.968544,44.72303,0 82.001269,44.745536,0 81.993946,44.762053,0 82.056648,44.78127,0 82.061454,44.762195,0 82.139717,44.801334,0 82.157109,44.806882,0 82.173128,44.80802,0 82.177476,44.806882,0 82.184341,44.790093,0 82.155736,44.770879,0 82.172213,44.713627,0 82.192579,44.752229,0 82.239263,44.724028,0 82.277937,44.743827,0 82.271072,44.766324,0 82.206996,44.821248,0 82.150015,44.833905,0 82.122096,44.806313,0 82.083422,44.837602,0 82.100814,44.857504,0 82.138115,44.843005,0 82.162372,44.864326,0 82.088915,44.879247,0 82.07999,44.895584,0 82.138344,44.88493,0 82.145667,44.89672,0</coordinates></LinearRing></outerBoundaryIs>
      </Polygon>
      <Polygon>
        <outerBoundaryIs><LinearRing><coordinates>82.277937,44.743827,0 82.239263,44.724028,0 82.23583,44.6817,0 82.250934,44.691537,0 82.358947,44.66844,0 82.347276,44.691252,0 82.393959,44.669724,0 82.447737,44.688258,0 82.539959,44.682271,0 82.543163,44.709067,0 82.542934,44.740124,0 82.499912,44.740836,0 82.347047,44.799769,0 82.312721,44.80361,0 82.268097,44.832625,0 82.206996,44.821248,0 82.271072,44.766324,0 82.277937,44.743827,0</coordinates></LinearRing></outerBoundaryIs>
      </Polygon>
      <Polygon>
        <outerBoundaryIs><LinearRing><coordinates>82.130564,44.925121,0 82.145667,44.89672,0 82.223244,44.889192,0 82.278395,44.860631,0 82.3562,44.901833,0 82.446364,44.883509,0 82.49648,44.884219,0 82.49648,44.903395,0 82.539502,44.902685,0 82.656439,44.944425,0 82.588245,45.038582,0 82.525771,45.08532,0 82.454144,45.068895,0 82.438812,45.006977,0 82.275191,45.03008,0 82.20036,44.984291,0 82.211115,44.94329,0 82.200589,44.91788,0 82.130564,44.925121,0</coordinates></LinearRing></outerBoundaryIs>
      </Polygon>
      <Polygon>
        <outerBoundaryIs><LinearRing><coordinates>82.582753,45.219089,0 82.486868,45.181083,0 82.344758,45.218948,0 82.294413,45.247754,0 82.161457,45.226292,0 82.222786,45.148426,0 82.235144,45.124239,0 82.295786,45.106693,0 82.454144,45.068895,0 82.525771,45.08532,0 82.588245,45.038582,0 82.615477,45.109099,0 82.680696,45.138526,0 82.683214,45.153799,0 82.582753,45.219089,0</coordinates></LinearRing></outerBoundaryIs>
      </Polygon>
    </MultiGeometry>
    </Placemark>
  </Document>
</kml>
