<?xml version="1.0" encoding="UTF-8"?>
<kml xmlns="http://www.opengis.net/kml/2.2">
  <Document>
    <name><![CDATA[可克达拉市]]></name>
    <Placemark>
      <name><![CDATA[可克达拉市]]></name>
      <description><![CDATA[省级目录：新疆维吾尔自治区]]></description>
      <ExtendedData>
        <Data name="adcode"><value>659008</value></Data>
      </ExtendedData>
      <MultiGeometry>
      <Polygon>
        <outerBoundaryIs><LinearRing><coordinates>80.440804,44.083854,0 80.458654,44.047259,0 80.454763,43.985688,0 80.484741,43.957837,0 80.475359,43.939215,0 80.512202,43.904119,0 80.522042,43.816652,0 80.587491,43.725724,0 80.624792,43.754407,0 80.576735,43.783945,0 80.660949,43.778734,0 80.672391,43.844713,0 80.71999,43.890971,0 80.736237,43.921164,0 80.725482,43.969816,0 80.741729,44.016842,0 80.679256,44.062534,0 80.699394,44.067577,0 80.673764,44.100272,0 80.701911,44.133093,0 80.637607,44.180852,0 80.566895,44.17323,0 80.553851,44.101424,0 80.586347,44.017707,0 80.531196,44.029674,0 80.521356,44.07017,0 80.440804,44.083854,0</coordinates></LinearRing></outerBoundaryIs>
      </Polygon>
      <Polygon>
        <outerBoundaryIs><LinearRing><coordinates>80.739899,43.888659,0 80.764156,43.854257,0 80.862328,43.867702,0 81.039909,43.849052,0 81.125953,43.870593,0 81.072175,43.895595,0 81.014508,43.873773,0 80.985674,43.893139,0 80.917021,43.889382,0 80.873771,43.91452,0 80.793905,43.906431,0 80.739899,43.888659,0</coordinates></LinearRing></outerBoundaryIs>
      </Polygon>
      <Polygon>
        <outerBoundaryIs><LinearRing><coordinates>80.9351,43.929685,0 80.978122,43.908742,0 81.071031,43.907731,0 81.082931,43.930984,0 81.05547,43.944124,0 81.057987,43.95062,0 81.076295,43.96058,0 81.079269,43.96592,0 80.987047,43.990016,0 80.9351,43.929685,0</coordinates></LinearRing></outerBoundaryIs>
      </Polygon>
      <Polygon>
        <outerBoundaryIs><LinearRing><coordinates>80.624792,43.754407,0 80.587491,43.725724,0 80.632344,43.663384,0 80.707632,43.673827,0 80.782463,43.696882,0 80.756833,43.784959,0 80.775369,43.80334,0 80.727084,43.811443,0 80.672391,43.844713,0 80.660949,43.778734,0 80.669873,43.753683,0 80.624792,43.754407,0</coordinates></LinearRing></outerBoundaryIs>
      </Polygon>
      <Polygon>
        <outerBoundaryIs><LinearRing><coordinates>81.05547,43.944124,0 81.082931,43.930984,0 81.076295,43.96058,0 81.057987,43.95062,0 81.05547,43.944124,0</coordinates></LinearRing></outerBoundaryIs>
      </Polygon>
    </MultiGeometry>
    </Placemark>
  </Document>
</kml>
