<?xml version="1.0" encoding="UTF-8"?>
<kml xmlns="http://www.opengis.net/kml/2.2">
  <Document>
    <name><![CDATA[吐鲁番市]]></name>
    <Placemark>
      <name><![CDATA[吐鲁番市]]></name>
      <description><![CDATA[省级目录：新疆维吾尔自治区]]></description>
      <ExtendedData>
        <Data name="adcode"><value>650400</value></Data>
      </ExtendedData>
      <MultiGeometry>
      <Polygon>
        <outerBoundaryIs><LinearRing><coordinates>91.910299,41.271422,0 91.905264,41.399694,0 91.889932,41.401799,0 91.823797,41.498585,0 91.785581,41.508947,0 91.784436,41.558778,0 91.82128,41.57393,0 91.833408,41.690377,0 91.855377,41.74336,0 91.808693,41.841577,0 91.737066,42.011046,0 91.696104,42.064508,0 91.632715,42.075225,0 91.637521,42.140529,0 91.503649,42.202795,0 91.464288,42.246003,0 91.472984,42.295411,0 91.448269,42.438372,0 91.447354,42.49443,0 91.431106,42.579531,0 91.412113,42.618792,0 91.407307,42.671298,0 91.429047,42.727295,0 91.408909,42.789716,0 91.416232,42.835461,0 91.384652,42.972787,0 91.347351,43.102048,0 91.313025,43.135126,0 91.255128,43.295138,0 91.259018,43.334236,0 91.209131,43.356255,0 91.225836,43.3822,0 91.204554,43.423282,0 91.16588,43.442356,0 91.15398,43.472048,0 91.169084,43.49518,0 91.129952,43.483833,0 91.104551,43.494744,0 91.017591,43.495325,0 91.003632,43.515104,0 90.948939,43.504489,0 90.881202,43.532842,0 90.843443,43.522229,0 90.790124,43.528044,0 90.760145,43.517867,0 90.686916,43.523101,0 90.635198,43.502307,0 90.555104,43.501434,0 90.420546,43.526881,0 90.385304,43.498525,0 90.361505,43.515686,0 90.318025,43.504925,0 90.269969,43.53226,0 90.21253,43.535022,0 90.17294,43.55348,0 90.057147,43.519903,0 90.016184,43.516704,0 90.014125,43.490671,0 89.966755,43.492562,0 89.964695,43.473794,0 89.920071,43.452837,0 89.896958,43.466227,0 89.758739,43.463899,0 89.749127,43.426922,0 89.67956,43.410319,0 89.624638,43.427505,0 89.550265,43.433184,0 89.519142,43.44978,0 89.398086,43.449344,0 89.375659,43.490962,0 89.326001,43.501434,0 89.31433,43.536185,0 89.280233,43.552753,0 89.226913,43.526445,0 89.199223,43.539673,0 89.189154,43.580793,0 89.138123,43.600254,0 89.078853,43.594445,0 88.999903,43.607078,0 88.936285,43.63248,0 88.974273,43.55101,0 88.936285,43.489943,0 88.93148,43.435368,0 88.871523,43.413961,0 88.842689,43.388466,0 88.753899,43.396625,0 88.641538,43.353922,0 88.555037,43.342549,0 88.53261,43.352027,0 88.523457,43.262585,0 88.482494,43.242139,0 88.430776,43.197427,0 88.351597,43.227093,0 88.310177,43.212188,0 88.247932,43.224609,0 88.21887,43.271345,0 88.225048,43.325193,0 88.164634,43.331028,0 88.045408,43.318045,0 87.99964,43.300245,0 87.974697,43.313815,0 87.886135,43.29864,0 87.752492,43.298056,0 87.587727,43.260979,0 87.36804,43.281272,0 87.393899,43.184124,0 87.385203,43.123565,0 87.414266,43.105562,0 87.487953,43.10278,0 87.597567,43.040089,0 87.634411,43.036572,0 87.638072,42.998162,0 87.755925,42.961196,0 87.815424,42.925382,0 87.862565,42.884551,0 87.931675,42.854426,0 87.941515,42.827815,0 87.882245,42.829873,0 87.789336,42.872209,0 87.758213,42.898948,0 87.66805,42.903207,0 87.569649,42.899095,0 87.538069,42.908201,0 87.52594,42.865155,0 87.543103,42.8459,0 87.509235,42.795601,0 87.544019,42.777796,0 87.589558,42.778826,0 87.691392,42.760721,0 87.841054,42.768229,0 87.9049,42.704018,0 87.913139,42.659355,0 87.947922,42.635906,0 87.981104,42.640478,0 88.031449,42.604035,0 88.128935,42.572296,0 88.166008,42.547927,0 88.202393,42.501674,0 88.176534,42.439556,0 88.122299,42.371302,0 88.003531,42.329218,0 87.898264,42.248675,0 87.923436,42.177985,0 87.997581,42.069867,0 88.138775,42.004193,0 88.168754,41.945013,0 88.19324,41.926965,0 88.215437,41.871296,0 88.293929,41.822752,0 88.341986,41.76804,0 88.347936,41.67016,0 88.33718,41.641246,0 88.347478,41.533567,0 88.307889,41.513902,0 88.318873,41.493179,0 88.406519,41.459828,0 88.563275,41.477858,0 88.735363,41.475003,0 88.835824,41.440892,0 88.859624,41.42195,0 88.990063,41.419394,0 89.017753,41.426912,0 89.082057,41.409921,0 89.204029,41.361178,0 89.282979,41.393076,0 89.33607,41.389766,0 89.338816,41.404807,0 89.399001,41.396385,0 89.45644,41.375022,0 89.460788,41.359824,0 89.558045,41.3678,0 89.616629,41.355158,0 89.698096,41.366596,0 89.743635,41.344622,0 89.785742,41.34974,0 89.834256,41.377129,0 89.960347,41.357416,0 90.108636,41.252883,0 90.315279,41.24248,0 90.399721,41.234187,0 90.54023,41.250018,0 90.65465,41.237052,0 90.69996,41.239314,0 90.780512,41.225743,0 90.905917,41.227552,0 90.966331,41.245797,0 91.092651,41.251375,0 91.194485,41.226497,0 91.446667,41.197687,0 91.641182,41.226949,0 91.765214,41.267202,0 91.840273,41.281066,0 91.910299,41.271422,0</coordinates></LinearRing></outerBoundaryIs>
      </Polygon>
    </MultiGeometry>
    </Placemark>
  </Document>
</kml>
