<?xml version="1.0" encoding="UTF-8"?>
<kml xmlns="http://www.opengis.net/kml/2.2">
  <Document>
    <name><![CDATA[喀什地区]]></name>
    <Placemark>
      <name><![CDATA[喀什地区]]></name>
      <description><![CDATA[省级目录：新疆维吾尔自治区]]></description>
      <ExtendedData>
        <Data name="adcode"><value>653100</value></Data>
      </ExtendedData>
      <MultiGeometry>
      <Polygon>
        <outerBoundaryIs><LinearRing><coordinates>74.806746,38.285516,0 74.793245,38.270878,0 74.817044,38.215445,0 74.804687,38.167064,0 74.821621,38.103033,0 74.879289,38.021256,0 74.925744,38.017307,0 74.911327,37.967056,0 74.919107,37.90807,0 74.937186,37.875948,0 74.917505,37.845079,0 74.98959,37.797879,0 75.006524,37.77094,0 74.922998,37.71719,0 74.920938,37.684667,0 74.892104,37.668162,0 74.930778,37.571759,0 75.035358,37.500845,0 75.078609,37.511026,0 75.129641,37.459156,0 75.153211,37.4141,0 75.12392,37.381763,0 75.138794,37.367741,0 75.12575,37.322311,0 75.078609,37.318165,0 75.017966,37.293763,0 74.927117,37.277651,0 74.911098,37.233602,0 74.816129,37.216519,0 74.800339,37.247969,0 74.753655,37.281161,0 74.727339,37.282915,0 74.665781,37.235837,0 74.64221,37.261375,0 74.598959,37.258343,0 74.578592,37.231367,0 74.544953,37.249246,0 74.511084,37.239988,0 74.477216,37.199431,0 74.487971,37.162049,0 74.465087,37.146867,0 74.496439,37.115855,0 74.498956,37.072352,0 74.530078,37.08211,0 74.568066,37.032666,0 74.617038,37.04371,0 74.632599,37.066592,0 74.709032,37.08451,0 74.739238,37.028024,0 74.792558,37.027544,0 74.806746,37.054272,0 74.847022,37.056992,0 74.842674,37.0205,0 74.893935,36.939611,0 74.938559,36.943297,0 74.927346,36.977904,0 75.005609,36.994561,0 75.032383,37.016818,0 75.063277,37.006251,0 75.171976,37.013936,0 75.168315,36.991838,0 75.244748,36.963326,0 75.288685,36.97454,0 75.413632,36.954674,0 75.396469,36.904185,0 75.430108,36.873394,0 75.425761,36.778859,0 75.458485,36.721022,0 75.504939,36.74368,0 75.536977,36.730182,0 75.537435,36.773077,0 75.588695,36.762797,0 75.634006,36.771632,0 75.723711,36.750588,0 75.871542,36.666518,0 75.946831,36.590567,0 75.924404,36.566414,0 75.991455,36.507127,0 76.034934,36.409237,0 75.989624,36.34014,0 75.999006,36.312193,0 76.055301,36.252712,0 76.061022,36.225219,0 76.011593,36.229101,0 76.016398,36.165509,0 75.967884,36.15871,0 75.936304,36.134747,0 75.949577,36.070269,0 75.968571,36.042063,0 76.014568,36.018065,0 76.097408,36.022605,0 76.117088,35.975075,0 76.164687,35.908842,0 76.147066,35.833451,0 76.22144,35.823372,0 76.228762,35.837027,0 76.298788,35.841579,0 76.365838,35.824185,0 76.369728,35.863356,0 76.431744,35.851818,0 76.482089,35.889189,0 76.515271,35.880904,0 76.548911,35.919235,0 76.597425,35.895686,0 76.587585,35.840278,0 76.566302,35.819307,0 76.593534,35.77198,0 76.69308,35.747574,0 76.698572,35.722346,0 76.751663,35.680499,0 76.761275,35.655902,0 76.836792,35.662093,0 76.917802,35.608478,0 76.966774,35.591685,0 76.998125,35.611086,0 77.064489,35.595761,0 77.093323,35.56967,0 77.195843,35.519257,0 77.307746,35.54047,0 77.38006,35.477141,0 77.451916,35.460484,0 77.518737,35.482039,0 77.578236,35.475671,0 77.639565,35.454931,0 77.657415,35.477467,0 77.690597,35.448234,0 77.728127,35.457871,0 77.757647,35.497222,0 77.797236,35.491345,0 77.816459,35.518604,0 77.781675,35.554011,0 77.814399,35.602609,0 77.844149,35.612716,0 77.851929,35.687014,0 77.821722,35.714858,0 77.826299,35.748225,0 77.851701,35.748225,0 77.835224,35.804836,0 77.878704,35.811828,0 77.866804,35.880904,0 77.844835,35.912577,0 77.887857,35.908355,0 77.923785,35.930764,0 77.872983,35.994707,0 77.800669,36.027308,0 77.742544,36.039145,0 77.732246,36.100247,0 77.791287,36.112234,0 77.790829,36.131508,0 77.854675,36.182504,0 77.910055,36.198525,0 77.810967,36.294579,0 77.724465,36.28262,0 77.610045,36.35968,0 77.624462,36.387772,0 77.579151,36.448924,0 77.484869,36.493104,0 77.42537,36.492137,0 77.40775,36.545959,0 77.503634,36.56126,0 77.534756,36.610849,0 77.582126,36.610366,0 77.576405,36.633701,0 77.623089,36.643193,0 77.64849,36.669252,0 77.61691,36.699964,0 77.542308,36.746732,0 77.49265,36.792991,0 77.505693,36.842911,0 77.528806,36.865052,0 77.518966,36.930315,0 77.608214,36.935284,0 77.642311,36.975981,0 77.651236,37.056512,0 77.681214,37.128485,0 77.664967,37.14463,0 77.642769,37.266481,0 77.600205,37.297591,0 77.64254,37.350369,0 77.639794,37.376505,0 77.667713,37.444035,0 77.664051,37.581611,0 77.699979,37.588762,0 77.741399,37.637365,0 77.752155,37.678954,0 77.806161,37.727023,0 77.878246,37.811662,0 78.006397,37.96342,0 78.245078,38.188343,0 78.506871,38.422471,0 79.003227,38.667116,0 79.238704,38.794283,0 79.285387,38.807253,0 79.333902,38.802253,0 79.390425,38.830218,0 79.566633,38.784437,0 79.599814,38.829905,0 79.616062,38.919196,0 79.733686,39.4775,0 79.190647,39.72068,0 79.117647,39.715436,0 79.092246,39.681032,0 79.003684,39.65927,0 79.000252,39.624993,0 78.915581,39.611247,0 78.84075,39.6131,0 78.796584,39.653404,0 78.708709,39.650471,0 78.705276,39.689982,0 78.673467,39.700936,0 78.657449,39.736409,0 78.757223,39.796672,0 78.777819,39.825012,0 78.776675,39.758147,0 78.809856,39.74381,0 78.782853,39.688593,0 78.806424,39.657264,0 78.840521,39.711271,0 78.883772,39.704176,0 78.870728,39.762154,0 78.904368,39.781418,0 78.993387,39.781418,0 79.004829,39.800677,0 78.942584,39.809765,0 78.906885,39.831326,0 78.932057,39.859806,0 78.989496,39.868271,0 78.942813,39.908118,0 78.989725,39.929494,0 79.001625,39.970996,0 79.039155,39.981291,0 79.015355,40.022147,0 79.045562,40.036887,0 79.214218,40.059603,0 79.145108,40.256522,0 79.003913,40.219786,0 78.903681,40.257134,0 78.807339,40.22591,0 78.759969,40.187014,0 78.605959,40.131694,0 78.59795,40.107621,0 78.550122,40.088295,0 78.543486,40.061445,0 78.442338,40.02614,0 78.36499,40.009709,0 78.301144,40.011705,0 78.208921,39.99865,0 78.074134,39.970996,0 78.017839,39.984517,0 77.940948,39.97453,0 77.798152,39.986822,0 77.765428,39.970074,0 77.603866,39.936413,0 77.529264,39.925804,0 77.511872,39.878427,0 77.302941,39.864731,0 77.211404,39.849339,0 77.054648,39.862576,0 77.022611,39.844413,0 76.838165,39.82686,0 76.82924,39.794977,0 76.786447,39.753985,0 76.743883,39.735176,0 76.637014,39.651089,0 76.595594,39.629935,0 76.59834,39.6131,0 76.55303,39.588999,0 76.506346,39.591935,0 76.447763,39.575864,0 76.29627,39.591008,0 76.215947,39.625302,0 76.15027,39.6131,0 76.126471,39.624221,0 75.976122,39.611556,0 75.985047,39.589926,0 75.930125,39.599815,0 75.855523,39.585754,0 75.701285,39.594871,0 75.701742,39.615881,0 75.646821,39.653404,0 75.551623,39.668223,0 75.533316,39.655257,0 75.466265,39.67918,0 75.433999,39.652787,0 75.36077,39.654022,0 75.341318,39.623294,0 75.365118,39.591781,0 75.357566,39.557161,0 75.389375,39.505972,0 75.357108,39.470381,0 75.320723,39.461557,0 75.299898,39.407819,0 75.305619,39.334192,0 75.350014,39.144574,0 75.472215,39.170072,0 75.512491,39.227566,0 75.573134,39.241543,0 75.580686,39.211876,0 75.635379,39.258468,0 75.642244,39.284701,0 75.691445,39.303943,0 75.736755,39.296806,0 75.683435,39.270111,0 75.671078,39.221197,0 75.60746,39.142241,0 75.587322,39.100396,0 75.586407,39.050273,0 75.552309,38.986245,0 75.565582,38.971282,0 75.662839,38.955691,0 75.757579,38.997934,0 75.771996,39.095728,0 75.707006,39.12731,0 75.747053,39.15126,0 75.770166,39.189967,0 75.839733,39.188879,0 75.835614,39.217624,0 75.882298,39.269025,0 75.952552,39.273682,0 76.006558,39.263436,0 76.049351,39.23968,0 76.157135,39.229895,0 76.145922,39.202243,0 76.047521,39.180642,0 76.050953,39.155925,0 76.131505,39.077518,0 76.141116,39.039684,0 76.063768,39.008062,0 75.940194,39.007127,0 75.927608,39.039528,0 75.861244,38.997778,0 75.759181,38.947115,0 75.829893,38.920444,0 75.908157,38.875345,0 75.938821,38.805378,0 75.975665,38.79819,0 75.977495,38.759268,0 76.033104,38.753639,0 76.035392,38.730024,0 76.16217,38.646917,0 76.149584,38.609323,0 76.243179,38.612926,0 76.288948,38.629689,0 76.339292,38.606346,0 76.403139,38.606189,0 76.401995,38.540192,0 76.344098,38.500503,0 76.383688,38.485123,0 76.455544,38.497835,0 76.547309,38.457337,0 76.597654,38.42467,0 76.602688,38.399532,0 76.6004,38.219541,0 76.539299,38.129851,0 76.540215,38.060735,0 76.510923,38.01399,0 76.509779,37.974485,0 76.469274,37.925787,0 76.492387,37.86566,0 76.482089,37.849987,0 76.436092,37.856003,0 76.410233,37.876898,0 76.384374,37.867401,0 76.382543,37.826868,0 76.327164,37.815622,0 76.292151,37.734159,0 76.264462,37.731463,0 76.208167,37.813405,0 76.162856,37.780449,0 76.100383,37.770464,0 76.0299,37.732256,0 75.940881,37.732415,0 75.868567,37.674669,0 75.805865,37.65213,0 75.793507,37.734476,0 75.858498,37.829719,0 75.851175,37.859961,0 75.886417,37.876581,0 75.880467,37.92642,0 75.78321,37.939704,0 75.781379,37.909811,0 75.747053,37.888451,0 75.728746,37.903008,0 75.666959,37.875473,0 75.561463,37.919302,0 75.462146,37.936858,0 75.410428,37.922624,0 75.421184,37.974485,0 75.389604,38.035155,0 75.385942,38.088673,0 75.399215,38.106031,0 75.368322,38.12433,0 75.278158,38.203786,0 75.192114,38.198902,0 75.136277,38.234977,0 75.108587,38.276387,0 75.042681,38.266155,0 74.982725,38.243009,0 74.945653,38.273869,0 74.896223,38.267414,0 74.806746,38.285516,0</coordinates></LinearRing></outerBoundaryIs>
      </Polygon>
      <Polygon>
        <outerBoundaryIs><LinearRing><coordinates>79.190647,39.72068,0 79.733686,39.4775,0 79.764351,39.622831,0 79.788379,39.801909,0 79.815382,39.882735,0 79.846047,39.908887,0 79.862981,39.957165,0 79.837809,39.980523,0 79.860006,40.013702,0 79.841699,40.131388,0 79.833461,40.131388,0 79.731169,40.146716,0 79.587228,40.175678,0 79.497294,40.211824,0 79.343055,40.241065,0 79.238933,40.253002,0 79.145108,40.256522,0 79.214218,40.059603,0 79.482648,40.097652,0 79.573955,40.012012,0 79.606222,39.913347,0 79.55725,39.865039,0 79.53551,39.862884,0 79.406215,39.89212,0 79.278522,39.877658,0 79.298889,39.844566,0 79.28882,39.814848,0 79.325663,39.80345,0 79.246484,39.784808,0 79.240306,39.733017,0 79.190647,39.72068,0</coordinates></LinearRing></outerBoundaryIs>
      </Polygon>
    </MultiGeometry>
    </Placemark>
  </Document>
</kml>
