<?xml version="1.0" encoding="UTF-8"?>
<kml xmlns="http://www.opengis.net/kml/2.2">
  <Document>
    <name><![CDATA[图木舒克市]]></name>
    <Placemark>
      <name><![CDATA[图木舒克市]]></name>
      <description><![CDATA[省级目录：新疆维吾尔自治区]]></description>
      <ExtendedData>
        <Data name="adcode"><value>659003</value></Data>
      </ExtendedData>
      <MultiGeometry>
      <Polygon>
        <outerBoundaryIs><LinearRing><coordinates>79.190647,39.72068,0 79.240306,39.733017,0 79.246484,39.784808,0 79.325663,39.80345,0 79.28882,39.814848,0 79.298889,39.844566,0 79.278522,39.877658,0 79.406215,39.89212,0 79.53551,39.862884,0 79.55725,39.865039,0 79.606222,39.913347,0 79.573955,40.012012,0 79.482648,40.097652,0 79.214218,40.059603,0 79.045562,40.036887,0 79.015355,40.022147,0 79.039155,39.981291,0 79.001625,39.970996,0 78.989725,39.929494,0 78.942813,39.908118,0 78.989496,39.868271,0 78.932057,39.859806,0 78.906885,39.831326,0 78.942584,39.809765,0 79.004829,39.800677,0 78.993387,39.781418,0 78.904368,39.781418,0 78.870728,39.762154,0 78.883772,39.704176,0 78.840521,39.711271,0 78.806424,39.657264,0 78.782853,39.688593,0 78.809856,39.74381,0 78.776675,39.758147,0 78.777819,39.825012,0 78.757223,39.796672,0 78.657449,39.736409,0 78.673467,39.700936,0 78.705276,39.689982,0 78.708709,39.650471,0 78.796584,39.653404,0 78.84075,39.6131,0 78.915581,39.611247,0 79.000252,39.624993,0 79.003684,39.65927,0 79.092246,39.681032,0 79.117647,39.715436,0 79.190647,39.72068,0</coordinates></LinearRing></outerBoundaryIs>
      </Polygon>
    </MultiGeometry>
    </Placemark>
  </Document>
</kml>
