<?xml version="1.0" encoding="UTF-8"?>
<kml xmlns="http://www.opengis.net/kml/2.2">
  <Document>
    <name><![CDATA[胡杨河市]]></name>
    <Placemark>
      <name><![CDATA[胡杨河市]]></name>
      <description><![CDATA[省级目录：新疆维吾尔自治区]]></description>
      <ExtendedData>
        <Data name="adcode"><value>659010</value></Data>
      </ExtendedData>
      <MultiGeometry>
      <Polygon>
        <outerBoundaryIs><LinearRing><coordinates>84.853768,44.552104,0 85.010295,44.574819,0 85.06842,44.626358,0 85.018304,44.61965,0 85.025398,44.68669,0 85.052859,44.698093,0 85.04668,44.740266,0 85.010295,44.755219,0 84.954,44.799911,0 84.898163,44.802899,0 84.84942,44.826511,0 84.917156,44.836891,0 84.917156,44.888481,0 84.861548,44.899419,0 84.805253,45.025687,0 84.706394,45.067196,0 84.657422,45.063514,0 84.661541,45.102872,0 84.65582,45.152244,0 84.541171,45.152668,0 84.540256,45.094804,0 84.558334,45.084187,0 84.538654,45.055582,0 84.544604,45.009954,0 84.516456,44.988829,0 84.528127,44.97039,0 84.558334,44.991239,0 84.610052,44.995351,0 84.635682,44.930231,0 84.634996,44.867453,0 84.648726,44.866316,0 84.652388,44.791231,0 84.626071,44.791658,0 84.677331,44.739839,0 84.708454,44.733857,0 84.782598,44.669153,0 84.80205,44.683411,0 84.8453,44.663164,0 84.880084,44.626929,0 84.853768,44.552104,0</coordinates></LinearRing></outerBoundaryIs>
      </Polygon>
    </MultiGeometry>
    </Placemark>
  </Document>
</kml>
