<?xml version="1.0" encoding="UTF-8"?>
<kml xmlns="http://www.opengis.net/kml/2.2">
  <Document>
    <name><![CDATA[铁门关市]]></name>
    <Placemark>
      <name><![CDATA[铁门关市]]></name>
      <description><![CDATA[省级目录：新疆维吾尔自治区]]></description>
      <ExtendedData>
        <Data name="adcode"><value>659006</value></Data>
      </ExtendedData>
      <MultiGeometry>
      <Polygon>
        <outerBoundaryIs><LinearRing><coordinates>85.512142,41.914581,0 85.498412,41.866369,0 85.367973,41.826488,0 85.357675,41.747399,0 85.491089,41.754579,0 85.526101,41.740218,0 85.705513,41.745903,0 85.703682,41.684237,0 85.726795,41.661472,0 85.785836,41.664468,0 85.773021,41.72705,0 85.73961,41.756374,0 85.792701,41.82589,0 85.754484,41.852779,0 85.512142,41.914581,0</coordinates></LinearRing></outerBoundaryIs>
      </Polygon>
      <Polygon>
        <outerBoundaryIs><LinearRing><coordinates>86.099576,41.798392,0 85.894993,41.821856,0 85.876685,41.778957,0 85.888585,41.763853,0 86.091109,41.771181,0 86.099576,41.798392,0</coordinates></LinearRing></outerBoundaryIs>
      </Polygon>
      <Polygon>
        <outerBoundaryIs><LinearRing><coordinates>85.437311,41.932036,0 85.443948,41.93845,0 85.408706,41.94203,0 85.437311,41.932036,0</coordinates></LinearRing></outerBoundaryIs>
      </Polygon>
    </MultiGeometry>
    </Placemark>
  </Document>
</kml>
