<?xml version="1.0" encoding="UTF-8"?>
<kml xmlns="http://www.opengis.net/kml/2.2">
  <Document>
    <name><![CDATA[阿克苏地区]]></name>
    <Placemark>
      <name><![CDATA[阿克苏地区]]></name>
      <description><![CDATA[省级目录：新疆维吾尔自治区]]></description>
      <ExtendedData>
        <Data name="adcode"><value>652900</value></Data>
      </ExtendedData>
      <MultiGeometry>
      <Polygon>
        <outerBoundaryIs><LinearRing><coordinates>78.36499,40.009709,0 78.442338,40.02614,0 78.543486,40.061445,0 78.550122,40.088295,0 78.59795,40.107621,0 78.605959,40.131694,0 78.759969,40.187014,0 78.807339,40.22591,0 78.903681,40.257134,0 79.003913,40.219786,0 79.145108,40.256522,0 79.238933,40.253002,0 79.343055,40.241065,0 79.497294,40.211824,0 79.587228,40.175678,0 79.731169,40.146716,0 79.833461,40.131388,0 79.86916,40.145643,0 79.915386,40.386617,0 79.853599,40.437151,0 79.810348,40.491154,0 79.864125,40.489629,0 79.941016,40.44295,0 79.975342,40.485207,0 80.022026,40.500913,0 80.037129,40.536885,0 80.022941,40.592787,0 80.050631,40.642405,0 80.070997,40.631906,0 80.087245,40.694571,0 80.08038,40.750341,0 80.052004,40.775096,0 80.050402,40.828826,0 80.136675,40.891912,0 80.22455,40.883878,0 80.249264,40.82473,0 80.23622,40.784358,0 80.2678,40.819723,0 80.331876,40.850064,0 80.397095,40.818964,0 80.457967,40.773881,0 80.520441,40.70202,0 80.552707,40.687577,0 80.553165,40.655032,0 80.57971,40.666592,0 80.592296,40.619884,0 80.683375,40.666744,0 80.725939,40.701412,0 80.791846,40.703236,0 80.867363,40.658987,0 80.990479,40.702476,0 81.140828,40.698979,0 81.32985,40.762947,0 81.32596,40.805154,0 81.385687,40.825033,0 81.457085,40.804699,0 81.863506,40.944033,0 81.884102,40.941004,0 81.939482,40.991422,0 81.999895,41.076726,0 82.061454,41.126436,0 82.181824,41.166599,0 82.294642,41.23268,0 82.359633,41.251677,0 82.456661,41.255897,0 82.520508,41.323694,0 82.57932,41.342063,0 82.583897,41.389164,0 82.607696,41.457424,0 82.636759,41.461331,0 82.635844,41.503241,0 82.729211,41.463885,0 82.814111,41.461932,0 82.848894,41.478759,0 82.98391,41.408717,0 83.015033,41.377881,0 83.030823,41.289353,0 83.069039,41.243234,0 83.104967,41.224084,0 83.146387,41.223631,0 83.301312,41.124019,0 83.390789,41.137914,0 83.438159,41.06811,0 83.485529,41.077028,0 83.478893,41.135951,0 83.589652,41.15724,0 83.616655,41.10846,0 83.682103,41.069924,0 83.670432,41.036205,0 83.696063,41.017448,0 83.745263,41.031063,0 83.778903,41.010337,0 83.769978,40.976891,0 83.848242,40.9563,0 83.837257,40.913887,0 83.85259,40.873114,0 83.889662,40.833681,0 83.929022,40.816688,0 84.067471,40.77707,0 84.073192,40.924038,0 84.058775,41.082318,0 84.08738,41.120847,0 84.034518,41.168864,0 84.022847,41.233434,0 84.029255,41.348536,0 84.015295,41.445401,0 83.975706,41.505944,0 83.94733,41.528314,0 83.953051,41.558778,0 83.918267,41.56883,0 83.900646,41.597626,0 83.906596,41.685885,0 83.929709,41.774919,0 83.964264,41.809004,0 83.96701,41.873984,0 83.987606,41.93323,0 83.980054,41.985863,0 83.938405,42.074332,0 83.924674,42.14603,0 83.880737,42.186454,0 83.880279,42.261735,0 83.948016,42.268857,0 83.974104,42.294521,0 83.96312,42.356783,0 83.932455,42.373821,0 83.938405,42.415727,0 83.932226,42.500196,0 83.947101,42.531972,0 83.913461,42.523992,0 83.713912,42.540689,0 83.692401,42.513943,0 83.64526,42.514978,0 83.487589,42.469883,0 83.435642,42.491178,0 83.350742,42.508326,0 83.353717,42.539064,0 83.320993,42.569195,0 83.29399,42.555018,0 83.227855,42.583665,0 83.078422,42.553688,0 83.017092,42.587799,0 82.992606,42.620858,0 82.958738,42.630448,0 82.924412,42.593556,0 82.841571,42.568014,0 82.81617,42.579088,0 82.842029,42.613628,0 82.826468,42.645198,0 82.753468,42.624989,0 82.722345,42.595918,0 82.638132,42.597689,0 82.62074,42.558562,0 82.585499,42.543939,0 82.407232,42.55162,0 82.363752,42.538768,0 82.366498,42.50404,0 82.295329,42.48275,0 82.230109,42.494578,0 82.189147,42.467221,0 82.142692,42.489256,0 82.133538,42.440444,0 82.07793,42.43852,0 82.065344,42.420316,0 81.984563,42.425793,0 81.959848,42.402255,0 81.867397,42.411138,0 81.865795,42.384041,0 81.820256,42.3833,0 81.805152,42.405957,0 81.751832,42.365525,0 81.672196,42.369969,0 81.66144,42.392186,0 81.630775,42.373821,0 81.582032,42.374117,0 81.50949,42.352042,0 81.478825,42.360636,0 81.386602,42.354413,0 81.352734,42.332331,0 81.318637,42.357821,0 81.285455,42.332479,0 81.271267,42.343595,0 81.195521,42.343595,0 81.152498,42.323585,0 81.160508,42.259954,0 81.098263,42.291703,0 81.048147,42.284732,0 81.025263,42.342854,0 80.985216,42.380634,0 80.963018,42.361673,0 80.898028,42.369228,0 80.803974,42.339742,0 80.761639,42.361525,0 80.657287,42.366117,0 80.62914,42.353375,0 80.592296,42.366117,0 80.531883,42.360932,0 80.471469,42.321806,0 80.415403,42.304754,0 80.372381,42.326698,0 80.324324,42.315134,0 80.284048,42.32062,0 80.27192,42.282061,0 80.286565,42.233088,0 80.233245,42.210221,0 80.168712,42.20027,0 80.163678,42.152422,0 80.13965,42.151233,0 80.168026,42.096802,0 80.193427,42.081476,0 80.142167,42.03473,0 80.089762,42.047536,0 79.923624,42.042325,0 79.852683,42.015367,0 79.854285,41.984224,0 79.822705,41.963354,0 79.776708,41.892495,0 79.724761,41.896823,0 79.641006,41.884733,0 79.604849,41.849045,0 79.551071,41.833958,0 79.457018,41.847851,0 79.407131,41.833062,0 79.356557,41.795701,0 79.325892,41.809452,0 79.27692,41.78105,0 79.219024,41.726452,0 79.138014,41.72301,0 79.114901,41.699959,0 79.043274,41.681242,0 79.021534,41.657278,0 78.957688,41.651585,0 78.891553,41.597776,0 78.825189,41.560279,0 78.738916,41.555628,0 78.696809,41.541672,0 78.705734,41.519307,0 78.650583,41.467341,0 78.580558,41.481613,0 78.533875,41.445551,0 78.454696,41.412327,0 78.391765,41.408266,0 78.5071,41.310442,0 78.565912,41.288147,0 78.711913,41.185616,0 78.733881,41.161467,0 78.762486,41.086097,0 78.826333,40.994751,0 78.875534,40.985216,0 78.848531,40.915553,0 78.861803,40.891609,0 78.79727,40.861286,0 78.748298,40.81866,0 78.725643,40.822909,0 78.570489,40.766137,0 78.574151,40.700195,0 78.605044,40.696699,0 78.585593,40.637841,0 78.523577,40.552579,0 78.47163,40.52637,0 78.373915,40.494966,0 78.303661,40.455462,0 78.205259,40.420362,0 78.158576,40.387228,0 78.15583,40.331155,0 78.124707,40.287119,0 78.091068,40.274882,0 78.082143,40.231574,0 78.055826,40.202483,0 78.055369,40.140892,0 78.03134,40.093818,0 78.09267,40.060831,0 78.161322,40.071573,0 78.241187,40.060831,0 78.313272,40.066049,0 78.36499,40.009709,0</coordinates></LinearRing></outerBoundaryIs>
      </Polygon>
      <Polygon>
        <outerBoundaryIs><LinearRing><coordinates>80.592296,40.619884,0 80.57971,40.666592,0 80.553165,40.655032,0 80.552707,40.687577,0 80.520441,40.70202,0 80.457967,40.773881,0 80.397095,40.818964,0 80.331876,40.850064,0 80.2678,40.819723,0 80.23622,40.784358,0 80.249264,40.82473,0 80.22455,40.883878,0 80.136675,40.891912,0 80.050402,40.828826,0 80.052004,40.775096,0 80.08038,40.750341,0 80.087245,40.694571,0 80.070997,40.631906,0 80.050631,40.642405,0 80.022941,40.592787,0 80.037129,40.536885,0 80.022026,40.500913,0 79.975342,40.485207,0 79.941016,40.44295,0 79.864125,40.489629,0 79.810348,40.491154,0 79.853599,40.437151,0 79.915386,40.386617,0 79.86916,40.145643,0 79.833461,40.131388,0 79.841699,40.131388,0 79.860006,40.013702,0 79.837809,39.980523,0 79.862981,39.957165,0 79.846047,39.908887,0 79.815382,39.882735,0 79.788379,39.801909,0 79.764351,39.622831,0 80.162305,39.464034,0 80.726855,39.477346,0 81.062335,39.483381,0 81.438092,39.484929,0 81.955958,39.483691,0 82.101272,39.485393,0 82.585041,39.484,0 83.151879,39.484465,0 83.414817,39.483227,0 83.951906,39.956396,0 84.009574,40.037654,0 84.012092,40.113142,0 84.060377,40.677846,0 84.067471,40.77707,0 83.929022,40.816688,0 83.889662,40.833681,0 83.85259,40.873114,0 83.837257,40.913887,0 83.848242,40.9563,0 83.769978,40.976891,0 83.778903,41.010337,0 83.745263,41.031063,0 83.696063,41.017448,0 83.670432,41.036205,0 83.682103,41.069924,0 83.616655,41.10846,0 83.589652,41.15724,0 83.478893,41.135951,0 83.485529,41.077028,0 83.438159,41.06811,0 83.390789,41.137914,0 83.301312,41.124019,0 83.146387,41.223631,0 83.104967,41.224084,0 83.069039,41.243234,0 83.030823,41.289353,0 83.015033,41.377881,0 82.98391,41.408717,0 82.848894,41.478759,0 82.814111,41.461932,0 82.729211,41.463885,0 82.635844,41.503241,0 82.636759,41.461331,0 82.607696,41.457424,0 82.583897,41.389164,0 82.57932,41.342063,0 82.520508,41.323694,0 82.456661,41.255897,0 82.359633,41.251677,0 82.294642,41.23268,0 82.181824,41.166599,0 82.061454,41.126436,0 81.999895,41.076726,0 81.939482,40.991422,0 81.884102,40.941004,0 81.84314,40.886152,0 81.812704,40.813197,0 81.743365,40.733326,0 81.822544,40.685144,0 81.944745,40.494356,0 81.978613,40.468429,0 81.880441,40.467667,0 81.760299,40.437914,0 81.377449,40.43944,0 81.281107,40.43593,0 81.210395,40.397307,0 81.003065,40.396849,0 80.981097,40.423872,0 80.931438,40.432573,0 80.907868,40.420362,0 80.740128,40.369357,0 80.679485,40.381425,0 80.605798,40.423262,0 80.633717,40.465378,0 80.683833,40.464616,0 80.659347,40.484597,0 80.673993,40.511585,0 80.723422,40.488409,0 80.729372,40.452411,0 80.809924,40.454699,0 80.827774,40.476513,0 80.789786,40.479564,0 80.780404,40.505944,0 80.741272,40.533228,0 80.696419,40.520121,0 80.70214,40.546028,0 80.670789,40.569031,0 80.621588,40.556845,0 80.592296,40.619884,0</coordinates></LinearRing></outerBoundaryIs>
      </Polygon>
    </MultiGeometry>
    </Placemark>
  </Document>
</kml>
