<?xml version="1.0" encoding="UTF-8"?>
<kml xmlns="http://www.opengis.net/kml/2.2">
  <Document>
    <name><![CDATA[阿拉尔市]]></name>
    <Placemark>
      <name><![CDATA[阿拉尔市]]></name>
      <description><![CDATA[省级目录：新疆维吾尔自治区]]></description>
      <ExtendedData>
        <Data name="adcode"><value>659002</value></Data>
      </ExtendedData>
      <MultiGeometry>
      <Polygon>
        <outerBoundaryIs><LinearRing><coordinates>81.884102,40.941004,0 81.863506,40.944033,0 81.457085,40.804699,0 81.385687,40.825033,0 81.32596,40.805154,0 81.32985,40.762947,0 81.140828,40.698979,0 80.990479,40.702476,0 80.867363,40.658987,0 80.791846,40.703236,0 80.725939,40.701412,0 80.683375,40.666744,0 80.592296,40.619884,0 80.621588,40.556845,0 80.670789,40.569031,0 80.70214,40.546028,0 80.696419,40.520121,0 80.741272,40.533228,0 80.780404,40.505944,0 80.789786,40.479564,0 80.827774,40.476513,0 80.809924,40.454699,0 80.729372,40.452411,0 80.723422,40.488409,0 80.673993,40.511585,0 80.659347,40.484597,0 80.683833,40.464616,0 80.633717,40.465378,0 80.605798,40.423262,0 80.679485,40.381425,0 80.740128,40.369357,0 80.907868,40.420362,0 80.931438,40.432573,0 80.981097,40.423872,0 81.003065,40.396849,0 81.210395,40.397307,0 81.281107,40.43593,0 81.377449,40.43944,0 81.760299,40.437914,0 81.880441,40.467667,0 81.978613,40.468429,0 81.944745,40.494356,0 81.822544,40.685144,0 81.743365,40.733326,0 81.812704,40.813197,0 81.84314,40.886152,0 81.884102,40.941004,0</coordinates></LinearRing></outerBoundaryIs>
      </Polygon>
    </MultiGeometry>
    </Placemark>
  </Document>
</kml>
