<?xml version="1.0" encoding="UTF-8"?>
<kml xmlns="http://www.opengis.net/kml/2.2">
  <Document>
    <name><![CDATA[林芝市]]></name>
    <Placemark>
      <name><![CDATA[林芝市]]></name>
      <description><![CDATA[省级目录：西藏自治区]]></description>
      <ExtendedData>
        <Data name="adcode"><value>540400</value></Data>
      </ExtendedData>
      <MultiGeometry>
      <Polygon>
        <outerBoundaryIs><LinearRing><coordinates>94.154206,30.486894,0 94.151305,30.48025,0 94.099917,30.45592,0 94.110692,30.423274,0 94.106548,30.389542,0 94.088521,30.379176,0 94.063034,30.378882,0 94.049358,30.366558,0 94.024493,30.368026,0 94.010817,30.326838,0 94.014547,30.306384,0 94.00025,30.297281,0 93.95715,30.299533,0 93.878411,30.333002,0 93.858519,30.33036,0 93.846915,30.299043,0 93.80796,30.305797,0 93.783923,30.296498,0 93.767139,30.279171,0 93.732328,30.294443,0 93.669337,30.28436,0 93.650066,30.304818,0 93.63121,30.301001,0 93.611525,30.285241,0 93.554957,30.290038,0 93.535273,30.304329,0 93.51538,30.30198,0 93.437884,30.326935,0 93.408253,30.348363,0 93.40701,30.381132,0 93.424001,30.387977,0 93.429596,30.407925,0 93.359352,30.469796,0 93.310658,30.469503,0 93.274189,30.49637,0 93.246838,30.494807,0 93.242901,30.474584,0 93.216171,30.453086,0 93.183846,30.436666,0 93.148828,30.404601,0 93.1308,30.412911,0 93.111737,30.448493,0 93.093917,30.46022,0 93.094539,30.480837,0 93.08335,30.490704,0 93.036728,30.502719,0 93.024709,30.510924,0 93.021394,30.530651,0 93.024295,30.584148,0 92.987412,30.593615,0 92.974772,30.57839,0 92.918618,30.608349,0 92.897276,30.60669,0 92.887123,30.596152,0 92.888159,30.568629,0 92.875726,30.532799,0 92.841122,30.541294,0 92.79305,30.527917,0 92.783933,30.51903,0 92.76404,30.472629,0 92.786212,30.456604,0 92.794293,30.439892,0 92.779581,30.402254,0 92.769428,30.400885,0 92.744148,30.358439,0 92.750157,30.327229,0 92.743734,30.323315,0 92.70913,30.33584,0 92.695869,30.327914,0 92.710166,30.314703,0 92.708301,30.29454,0 92.662094,30.293562,0 92.640958,30.30609,0 92.619201,30.301196,0 92.626246,30.282206,0 92.621066,30.256259,0 92.623967,30.226192,0 92.616715,30.219335,0 92.625418,30.201504,0 92.61112,30.178966,0 92.583976,30.163481,0 92.578588,30.134562,0 92.563669,30.134268,0 92.554552,30.096905,0 92.508966,30.086017,0 92.486588,30.098671,0 92.438515,30.073068,0 92.438308,30.062276,0 92.417794,30.049323,0 92.423389,30.036566,0 92.442866,30.031069,0 92.434371,30.014775,0 92.410956,30.013597,0 92.375316,29.99573,0 92.364749,29.975895,0 92.324757,29.987973,0 92.292018,29.963226,0 92.247675,29.936704,0 92.223018,29.936114,0 92.191936,29.95085,0 92.177224,29.948099,0 92.167071,29.914794,0 92.173287,29.904475,0 92.166864,29.881084,0 92.177224,29.874399,0 92.244153,29.859653,0 92.269847,29.836939,0 92.292433,29.790315,0 92.306108,29.786281,0 92.329937,29.803891,0 92.334911,29.82435,0 92.356046,29.827891,0 92.393965,29.823072,0 92.408677,29.803694,0 92.445767,29.802809,0 92.460065,29.78756,0 92.489074,29.797792,0 92.503993,29.792971,0 92.501921,29.742094,0 92.524714,29.714332,0 92.506065,29.683805,0 92.478714,29.656223,0 92.475605,29.60508,0 92.464416,29.591772,0 92.474569,29.558052,0 92.509795,29.545922,0 92.51539,29.567815,0 92.531966,29.577181,0 92.532588,29.603996,0 92.563462,29.6511,0 92.587913,29.664499,0 92.619823,29.65711,0 92.658571,29.68932,0 92.69649,29.684494,0 92.715968,29.649524,0 92.749743,29.648933,0 92.77523,29.670113,0 92.79305,29.67494,0 92.825789,29.670803,0 92.840708,29.695623,0 92.864951,29.694933,0 92.883807,29.717581,0 92.902249,29.706652,0 92.930015,29.702811,0 92.940583,29.690699,0 92.975394,29.671492,0 92.998808,29.643415,0 92.987619,29.609811,0 93.024295,29.567519,0 93.056412,29.557559,0 93.062214,29.542865,0 93.083971,29.525011,0 93.095989,29.48673,0 93.077548,29.469261,0 93.073611,29.4355,0 93.094746,29.410715,0 93.094124,29.373378,0 93.115881,29.358657,0 93.101584,29.334051,0 93.083557,29.327133,0 93.046052,29.327429,0 93.025124,29.305386,0 93.028439,29.274142,0 93.014971,29.235667,0 92.951565,29.184608,0 92.943276,29.155901,0 92.917375,29.124314,0 92.880492,29.122036,0 92.856248,29.112132,0 92.825789,29.081819,0 92.793464,29.063192,0 92.778338,28.997373,0 92.765905,28.969209,0 92.776059,28.951255,0 92.74995,28.915835,0 92.724256,28.916232,0 92.697734,28.898567,0 92.6824,28.875439,0 92.675355,28.838403,0 92.654427,28.819235,0 92.62003,28.833636,0 92.596408,28.825195,0 92.560768,28.835821,0 92.548336,28.854192,0 92.536732,28.840489,0 92.519741,28.84605,0 92.497777,28.867794,0 92.452812,28.839396,0 92.428362,28.802249,0 92.439137,28.763697,0 92.493633,28.71489,0 92.509795,28.720856,0 92.526164,28.744813,0 92.533002,28.780391,0 92.552273,28.803143,0 92.566985,28.803044,0 92.587498,28.787545,0 92.638679,28.767672,0 92.654427,28.756044,0 92.661886,28.765287,0 92.736896,28.748292,0 92.777302,28.745211,0 92.800716,28.719762,0 92.804446,28.701467,0 92.851068,28.69729,0 92.868474,28.701368,0 92.874897,28.73209,0 92.889195,28.755846,0 92.92069,28.769659,0 92.943069,28.760914,0 92.949493,28.768268,0 92.974358,28.731294,0 92.997772,28.740539,0 93.009169,28.735271,0 93.087701,28.723938,0 93.123134,28.72871,0 93.197315,28.724534,0 93.251811,28.747596,0 93.346298,28.749087,0 93.364325,28.715487,0 93.378001,28.708229,0 93.41074,28.714095,0 93.46938,28.701865,0 93.467722,28.668647,0 93.514137,28.664768,0 93.558687,28.673123,0 93.578786,28.670139,0 93.608417,28.680384,0 93.632039,28.673322,0 93.636598,28.654919,0 93.702076,28.666658,0 93.717409,28.66427,0 93.755743,28.688838,0 93.78268,28.650144,0 93.802572,28.655417,0 93.811689,28.625369,0 93.831374,28.624772,0 93.837383,28.598199,0 93.854996,28.577593,0 93.881933,28.566143,0 93.889807,28.531887,0 93.878825,28.504792,0 93.890014,28.480381,0 93.874474,28.465234,0 93.886285,28.43573,0 93.888771,28.396046,0 93.907834,28.374802,0 93.942438,28.36343,0 93.994655,28.359938,0 94.031745,28.362233,0 94.039205,28.339186,0 94.076917,28.288485,0 94.123332,28.243653,0 94.1569,28.231768,0 94.161665,28.198302,0 94.151719,28.182515,0 94.162494,28.15813,0 94.154828,28.145435,0 94.161044,28.110143,0 94.146332,28.085541,0 94.162909,28.075839,0 94.195441,28.03422,0 94.205594,27.996488,0 94.235639,27.981873,0 94.262576,27.983575,0 94.292207,27.962949,0 94.32391,27.893235,0 94.323081,27.845431,0 94.35064,27.829592,0 94.320802,27.780756,0 94.312514,27.737619,0 94.333027,27.723068,0 94.34691,27.729591,0 94.362451,27.714237,0 94.341109,27.708917,0 94.265063,27.651292,0 94.233981,27.63211,0 94.216576,27.602678,0 94.229216,27.591425,0 94.235017,27.568716,0 94.253459,27.55545,0 94.277495,27.581177,0 94.324946,27.585698,0 94.353127,27.578564,0 94.399956,27.589215,0 94.44347,27.585196,0 94.478281,27.602176,0 94.52511,27.596148,0 94.66021,27.650187,0 94.709733,27.678502,0 94.781013,27.699382,0 94.81686,27.721061,0 94.885861,27.743137,0 94.947609,27.79219,0 95.015367,27.82899,0 95.067169,27.840619,0 95.172638,27.891331,0 95.24309,27.916378,0 95.286603,27.940017,0 95.310432,27.975265,0 95.32846,28.017408,0 95.35291,28.040624,0 95.371559,28.110243,0 95.396839,28.142337,0 95.437659,28.161928,0 95.520335,28.180716,0 95.587471,28.208093,0 95.674292,28.254139,0 95.740184,28.275307,0 95.787842,28.270415,0 95.832185,28.294874,0 95.853527,28.290083,0 95.874248,28.297569,0 95.899942,28.278103,0 95.907816,28.241556,0 95.936204,28.240557,0 95.989042,28.198402,0 96.024682,28.191908,0 96.07234,28.192407,0 96.098034,28.212289,0 96.16662,28.208093,0 96.195629,28.213388,0 96.224846,28.227073,0 96.274162,28.228671,0 96.285144,28.215885,0 96.282243,28.189709,0 96.295711,28.142536,0 96.368856,28.118442,0 96.400145,28.120242,0 96.396415,28.148934,0 96.424388,28.160928,0 96.45174,28.152432,0 96.48738,28.107443,0 96.499812,28.067337,0 96.510794,28.07774,0 96.537732,28.075239,0 96.540425,28.064035,0 96.568399,28.061234,0 96.591192,28.039423,0 96.623309,28.024513,0 96.638642,27.989381,0 96.682778,27.949731,0 96.708057,27.956841,0 96.746184,27.944524,0 96.768563,27.931403,0 96.788869,27.9294,0 96.810004,27.89043,0 96.836734,27.887323,0 96.849788,27.874597,0 96.883978,27.873294,0 96.907393,27.884017,0 96.937231,27.877403,0 96.973699,27.860566,0 96.998357,27.830594,0 97.008511,27.807834,0 97.030889,27.815455,0 97.055133,27.80272,0 97.048916,27.784066,0 97.062799,27.742635,0 97.093466,27.737819,0 97.101547,27.779553,0 97.134908,27.791588,0 97.139052,27.801617,0 97.168062,27.811845,0 97.206188,27.852047,0 97.251152,27.89043,0 97.309171,27.913072,0 97.323261,27.897343,0 97.32409,27.880509,0 97.357036,27.873194,0 97.386253,27.886021,0 97.37237,27.907562,0 97.390811,27.916478,0 97.375478,27.926495,0 97.377757,27.966855,0 97.391226,27.993385,0 97.412983,28.013604,0 97.395992,28.029817,0 97.378793,28.031118,0 97.378379,28.062635,0 97.320567,28.054331,0 97.30627,28.073138,0 97.312072,28.089442,0 97.341081,28.105843,0 97.329685,28.140637,0 97.351649,28.149034,0 97.362424,28.198102,0 97.346261,28.212988,0 97.35082,28.236862,0 97.399307,28.239458,0 97.41464,28.255038,0 97.403244,28.281497,0 97.422929,28.29747,0 97.460641,28.268118,0 97.481569,28.279101,0 97.470172,28.304057,0 97.48219,28.31314,0 97.512029,28.315535,0 97.518452,28.327611,0 97.489236,28.345372,0 97.484677,28.385973,0 97.501254,28.393752,0 97.507263,28.412101,0 97.50001,28.428951,0 97.521353,28.444801,0 97.506227,28.471413,0 97.508092,28.494929,0 97.52156,28.495626,0 97.569633,28.541547,0 97.587245,28.542145,0 97.599056,28.517045,0 97.61812,28.515551,0 97.635111,28.531887,0 97.663913,28.530891,0 97.685877,28.519934,0 97.695201,28.501405,0 97.716751,28.496224,0 97.73685,28.465832,0 97.738094,28.396445,0 97.751769,28.377395,0 97.770004,28.374104,0 97.800878,28.326713,0 97.816419,28.3329,0 97.842734,28.326813,0 97.849365,28.348465,0 97.871329,28.361535,0 97.907798,28.36333,0 97.928104,28.340383,0 97.963744,28.312541,0 97.960015,28.295773,0 97.991718,28.287387,0 98.02052,28.25344,0 98.008294,28.213788,0 98.033367,28.187311,0 98.056574,28.202299,0 98.089935,28.195405,0 98.097394,28.166625,0 98.118737,28.160928,0 98.139458,28.142436,0 98.150025,28.155431,0 98.175305,28.165626,0 98.169088,28.204297,0 98.204107,28.219482,0 98.216954,28.212889,0 98.22835,28.225675,0 98.265026,28.239858,0 98.244513,28.278402,0 98.236846,28.309347,0 98.207422,28.330405,0 98.209701,28.358542,0 98.230215,28.348166,0 98.234981,28.370014,0 98.267098,28.377894,0 98.281189,28.394051,0 98.301288,28.384377,0 98.303982,28.35914,0 98.322009,28.346769,0 98.318279,28.324517,0 98.338793,28.295972,0 98.355369,28.29178,0 98.377334,28.24595,0 98.377748,28.207794,0 98.370288,28.183814,0 98.390181,28.164327,0 98.389352,28.114643,0 98.400127,28.104743,0 98.428721,28.104543,0 98.458145,28.13064,0 98.464569,28.151333,0 98.507461,28.144236,0 98.536677,28.176419,0 98.585371,28.181316,0 98.626606,28.165526,0 98.631993,28.179517,0 98.664318,28.208892,0 98.680895,28.207394,0 98.712391,28.22947,0 98.710111,28.288785,0 98.719021,28.310346,0 98.74658,28.321224,0 98.753625,28.336891,0 98.740364,28.348565,0 98.719021,28.388765,0 98.705138,28.393253,0 98.706796,28.412898,0 98.684832,28.435231,0 98.635102,28.461347,0 98.607128,28.458257,0 98.589516,28.468822,0 98.541029,28.510969,0 98.5402,28.528799,0 98.553876,28.54822,0 98.530668,28.578588,0 98.509326,28.589838,0 98.477208,28.649846,0 98.475343,28.68476,0 98.464776,28.699876,0 98.480316,28.732885,0 98.453794,28.775721,0 98.437839,28.788737,0 98.41401,28.774628,0 98.37091,28.767076,0 98.35682,28.787247,0 98.329675,28.78983,0 98.318072,28.806322,0 98.306468,28.842276,0 98.305225,28.870574,0 98.263369,28.895093,0 98.240576,28.920102,0 98.217161,28.895291,0 98.203485,28.863625,0 98.167224,28.869482,0 98.147124,28.862135,0 98.147746,28.892314,0 98.130755,28.903926,0 98.111692,28.937862,0 98.092214,28.960877,0 98.097809,28.986069,0 98.116665,29.000348,0 98.079989,29.033063,0 98.060718,29.025827,0 98.039583,29.03336,0 98.037718,29.083603,0 98.006015,29.101731,0 97.985087,29.135108,0 97.953384,29.14194,0 97.932663,29.104901,0 97.857239,29.101533,0 97.840248,29.105496,0 97.818905,29.133424,0 97.821184,29.145505,0 97.790932,29.167483,0 97.786166,29.184707,0 97.750941,29.213307,0 97.744724,29.23161,0 97.693129,29.253768,0 97.671372,29.272856,0 97.645471,29.269395,0 97.611903,29.290062,0 97.588903,29.277603,0 97.547669,29.281064,0 97.560308,29.249713,0 97.576263,29.243877,0 97.615219,29.206677,0 97.580408,29.180154,0 97.559687,29.193713,0 97.541038,29.187379,0 97.519695,29.136494,0 97.549741,29.10609,0 97.545804,29.096481,0 97.518866,29.098958,0 97.489236,29.082612,0 97.410289,29.068642,0 97.401172,29.111934,0 97.402208,29.131741,0 97.418163,29.184707,0 97.397028,29.233985,0 97.396613,29.286205,0 97.367189,29.28403,0 97.358487,29.302519,0 97.335486,29.320906,0 97.345225,29.338202,0 97.337351,29.354309,0 97.359523,29.362016,0 97.317045,29.411703,0 97.285756,29.429181,0 97.29881,29.450507,0 97.252188,29.454653,0 97.235612,29.447545,0 97.209296,29.461464,0 97.192512,29.444485,0 97.153557,29.446163,0 97.086421,29.507352,0 97.088493,29.540695,0 97.065908,29.540103,0 97.053889,29.517415,0 97.064457,29.495709,0 97.057826,29.482684,0 97.017835,29.496005,0 96.982609,29.482486,0 96.977222,29.462056,0 96.994006,29.394222,0 96.984889,29.379503,0 96.953393,29.36251,0 96.955465,29.3384,0 96.991727,29.317644,0 96.989862,29.289468,0 96.979501,29.269692,0 96.986546,29.256835,0 96.982609,29.202224,0 96.960231,29.197276,0 96.93806,29.211625,0 96.918996,29.19688,0 96.91423,29.178966,0 96.916303,29.122333,0 96.889987,29.120847,0 96.878176,29.129661,0 96.883149,29.155604,0 96.860356,29.156099,0 96.840671,29.172631,0 96.79322,29.183024,0 96.777473,29.173126,0 96.757788,29.17659,0 96.728571,29.168671,0 96.714067,29.17758,0 96.681949,29.226664,0 96.668895,29.271373,0 96.607976,29.307759,0 96.607976,29.32654,0 96.58684,29.327034,0 96.541254,29.356681,0 96.581453,29.390172,0 96.608804,29.389283,0 96.623516,29.403605,0 96.681535,29.389777,0 96.701841,29.399851,0 96.705985,29.418912,0 96.686093,29.441819,0 96.66703,29.452185,0 96.641336,29.478736,0 96.616057,29.487026,0 96.601345,29.5038,0 96.626003,29.506366,0 96.645895,29.537243,0 96.654183,29.565645,0 96.641751,29.586646,0 96.624345,29.639573,0 96.603624,29.65376,0 96.579795,29.657603,0 96.568606,29.696411,0 96.550164,29.713544,0 96.52074,29.714332,0 96.494218,29.732545,0 96.476191,29.780771,0 96.4822,29.806842,0 96.511002,29.82258,0 96.534209,29.868108,0 96.53338,29.88187,0 96.549543,29.90477,0 96.57648,29.9201,0 96.580002,29.941125,0 96.56902,29.959592,0 96.573164,29.978939,0 96.619579,30.006235,0 96.637399,30.030579,0 96.636778,30.07091,0 96.665787,30.114166,0 96.667652,30.128875,0 96.641336,30.143876,0 96.599687,30.143974,0 96.62994,30.157208,0 96.636156,30.176712,0 96.627453,30.205227,0 96.631183,30.233636,0 96.584146,30.257434,0 96.589948,30.266639,0 96.566741,30.280737,0 96.559696,30.295226,0 96.532344,30.303741,0 96.517425,30.275744,0 96.500227,30.281325,0 96.479091,30.266737,0 96.457542,30.279563,0 96.439515,30.306384,0 96.451533,30.31529,0 96.426253,30.325566,0 96.381082,30.312061,0 96.335703,30.321749,0 96.284522,30.308048,0 96.224432,30.282402,0 96.214071,30.224918,0 96.191693,30.211106,0 96.149215,30.212085,0 96.13989,30.196801,0 96.116268,30.200133,0 96.103836,30.218747,0 96.103214,30.239611,0 96.091403,30.24725,0 96.067989,30.238827,0 96.056592,30.256064,0 96.0367,30.256749,0 95.994222,30.234616,0 95.968321,30.24725,0 95.936411,30.245781,0 95.918591,30.260274,0 95.918591,30.274863,0 95.870104,30.298945,0 95.860158,30.323217,0 95.884609,30.344058,0 95.86596,30.354624,0 95.825347,30.360885,0 95.783076,30.397561,0 95.763599,30.424838,0 95.754481,30.456018,0 95.697499,30.48113,0 95.71822,30.531041,0 95.698949,30.554963,0 95.661237,30.557696,0 95.618967,30.569703,0 95.599489,30.569605,0 95.569651,30.582782,0 95.549137,30.600445,0 95.512668,30.58649,0 95.480758,30.60669,0 95.429578,30.60952,0 95.431443,30.583563,0 95.419217,30.575071,0 95.381712,30.582684,0 95.380055,30.561113,0 95.366379,30.550569,0 95.350009,30.568239,0 95.323694,30.58327,0 95.321415,30.597811,0 95.343586,30.619764,0 95.315613,30.62591,0 95.267126,30.652734,0 95.227963,30.643761,0 95.223612,30.620447,0 95.208071,30.614984,0 95.141557,30.660828,0 95.105917,30.660536,0 95.087683,30.636738,0 95.081259,30.607861,0 95.10053,30.582879,0 95.087683,30.570874,0 95.047484,30.577121,0 95.01143,30.558965,0 94.987601,30.58083,0 94.967709,30.587271,0 94.949889,30.576438,0 94.916735,30.575755,0 94.899122,30.594981,0 94.830743,30.610691,0 94.784329,30.590297,0 94.728175,30.60591,0 94.714499,30.619374,0 94.687976,30.620545,0 94.65358,30.601616,0 94.612345,30.60025,0 94.595768,30.583563,0 94.607165,30.549593,0 94.576912,30.542563,0 94.510191,30.545981,0 94.486569,30.552034,0 94.471029,30.573119,0 94.449893,30.568824,0 94.449686,30.549105,0 94.437254,30.539341,0 94.382136,30.541294,0 94.372397,30.55467,0 94.373019,30.585417,0 94.322667,30.595664,0 94.280603,30.562968,0 94.268378,30.562577,0 94.252423,30.540025,0 94.214918,30.524108,0 94.197305,30.499007,0 94.169539,30.500668,0 94.154206,30.486894,0</coordinates></LinearRing></outerBoundaryIs>
      </Polygon>
    </MultiGeometry>
    </Placemark>
  </Document>
</kml>
