<?xml version="1.0" encoding="UTF-8"?>
<kml xmlns="http://www.opengis.net/kml/2.2">
  <Document>
    <name><![CDATA[东营市]]></name>
    <Placemark>
      <name><![CDATA[东营市]]></name>
      <description><![CDATA[省级目录：山东省]]></description>
      <ExtendedData>
        <Data name="adcode"><value>370500</value></Data>
      </ExtendedData>
      <MultiGeometry>
      <Polygon>
        <outerBoundaryIs><LinearRing><coordinates>118.245432,38.144286,0 118.236272,38.125754,0 118.227664,38.119262,0 118.241247,38.112138,0 118.245511,38.103322,0 118.235324,38.082969,0 118.226638,38.079583,0 118.230665,38.056743,0 118.227585,38.037874,0 118.410001,38.053277,0 118.419319,38.053119,0 118.419951,38.025503,0 118.40779,38.026212,0 118.2234,38.00095,0 118.22956,37.986444,0 118.220873,37.98258,0 118.223479,37.959788,0 118.213529,37.95541,0 118.215503,37.949376,0 118.224742,37.950559,0 118.226954,37.939672,0 118.225611,37.923417,0 118.232718,37.922509,0 118.235403,37.905343,0 118.243142,37.895673,0 118.236588,37.884501,0 118.239115,37.868708,0 118.248749,37.858164,0 118.247643,37.871788,0 118.258146,37.854886,0 118.258304,37.844182,0 118.269754,37.853109,0 118.286337,37.8569,0 118.301657,37.870208,0 118.313265,37.861521,0 118.328111,37.865272,0 118.340193,37.838059,0 118.334271,37.832134,0 118.346116,37.832371,0 118.344932,37.824627,0 118.356382,37.820834,0 118.352355,37.814274,0 118.36191,37.792063,0 118.348406,37.790719,0 118.340588,37.774391,0 118.340667,37.763913,0 118.353065,37.75814,0 118.353697,37.750151,0 118.341931,37.74667,0 118.337509,37.729502,0 118.31753,37.728395,0 118.319425,37.712924,0 118.316187,37.714151,0 118.3045,37.690722,0 118.305132,37.683122,0 118.294076,37.678529,0 118.293129,37.670096,0 118.2846,37.662058,0 118.260989,37.654614,0 118.246459,37.658376,0 118.239431,37.65596,0 118.22569,37.663682,0 118.207449,37.661583,0 118.200657,37.667404,0 118.195445,37.661742,0 118.177125,37.657623,0 118.172545,37.644079,0 118.165596,37.644633,0 118.163542,37.63069,0 118.154935,37.628036,0 118.157462,37.62035,0 118.154935,37.605491,0 118.146722,37.599943,0 118.148696,37.594078,0 118.134877,37.590035,0 118.127612,37.578103,0 118.131324,37.571285,0 118.13922,37.571364,0 118.134166,37.558478,0 118.141431,37.556297,0 118.173176,37.563593,0 118.176098,37.557129,0 118.173255,37.546858,0 118.159831,37.539164,0 118.156988,37.530358,0 118.150987,37.530517,0 118.142537,37.518933,0 118.136772,37.516791,0 118.139378,37.507427,0 118.134245,37.507387,0 118.135035,37.496752,0 118.127849,37.491831,0 118.128481,37.483694,0 118.120426,37.480757,0 118.112766,37.463528,0 118.125322,37.45912,0 118.118531,37.456182,0 118.114898,37.439742,0 118.136141,37.441688,0 118.14996,37.438351,0 118.163937,37.416742,0 118.165596,37.4082,0 118.160147,37.399618,0 118.16141,37.389961,0 118.144037,37.392822,0 118.135509,37.384834,0 118.141668,37.376487,0 118.154935,37.377401,0 118.156198,37.364322,0 118.161015,37.362573,0 118.202,37.382409,0 118.216925,37.385191,0 118.217951,37.371478,0 118.222768,37.367861,0 118.245353,37.367781,0 118.245827,37.376646,0 118.258541,37.37911,0 118.262015,37.364283,0 118.273624,37.360029,0 118.286495,37.362772,0 118.291865,37.358518,0 118.287285,37.352434,0 118.315398,37.352514,0 118.31524,37.31477,0 118.319741,37.305978,0 118.326058,37.306535,0 118.325584,37.296866,0 118.342168,37.295075,0 118.342168,37.287076,0 118.355197,37.286997,0 118.358277,37.280669,0 118.368069,37.279594,0 118.36262,37.273783,0 118.372096,37.273703,0 118.375729,37.258497,0 118.368385,37.258576,0 118.36033,37.244561,0 118.350459,37.243765,0 118.346669,37.233252,0 118.3642,37.210189,0 118.375966,37.206126,0 118.376598,37.196962,0 118.383389,37.190587,0 118.387574,37.177834,0 118.380467,37.175164,0 118.377545,37.154157,0 118.366569,37.146781,0 118.361594,37.148495,0 118.356224,37.139325,0 118.347616,37.139803,0 118.340667,37.131748,0 118.346116,37.123931,0 118.338219,37.123134,0 118.349354,37.101753,0 118.338298,37.10311,0 118.338851,37.093894,0 118.332928,37.081923,0 118.338535,37.072265,0 118.337588,37.053904,0 118.324558,37.046279,0 118.3259,37.035459,0 118.310186,37.028231,0 118.308212,37.019885,0 118.28997,37.00946,0 118.288785,36.999993,0 118.291628,36.995878,0 118.294629,36.969666,0 118.312476,36.970905,0 118.322347,36.974502,0 118.324637,36.964751,0 118.3443,36.960714,0 118.352276,36.974582,0 118.384652,36.974382,0 118.387574,36.971305,0 118.386548,36.950481,0 118.401788,36.949802,0 118.40321,36.943125,0 118.439061,36.942206,0 118.467411,36.945484,0 118.47665,36.957077,0 118.503736,36.95156,0 118.503183,36.944285,0 118.524583,36.945284,0 118.52711,36.939687,0 118.537771,36.936769,0 118.55467,36.938368,0 118.560751,36.946564,0 118.557434,36.96539,0 118.559803,36.977059,0 118.552301,36.979657,0 118.553959,37.000233,0 118.564146,36.99416,0 118.580493,36.994999,0 118.566199,36.999034,0 118.571174,37.004148,0 118.590206,37.001351,0 118.583572,37.008422,0 118.588389,37.017409,0 118.57149,37.022081,0 118.545826,37.023519,0 118.545431,37.038494,0 118.56004,37.041408,0 118.557592,37.051469,0 118.561303,37.063325,0 118.580414,37.063325,0 118.591469,37.068474,0 118.610895,37.063005,0 118.631901,37.066757,0 118.632138,37.070429,0 118.654091,37.076935,0 118.655512,37.082681,0 118.665146,37.081763,0 118.668384,37.091539,0 118.667041,37.11392,0 118.673754,37.144309,0 118.653617,37.149692,0 118.649195,37.164243,0 118.64572,37.159579,0 118.634191,37.163366,0 118.633638,37.171178,0 118.645483,37.178153,0 118.649274,37.189112,0 118.660408,37.187877,0 118.668779,37.198436,0 118.672332,37.215129,0 118.680624,37.229269,0 118.709684,37.241256,0 118.728399,37.252764,0 118.777991,37.280112,0 118.821897,37.288788,0 118.856959,37.293842,0 119.039928,37.304466,0 119.010315,37.313218,0 119.001233,37.318748,0 118.98694,37.339511,0 118.981412,37.35983,0 118.985598,37.365754,0 119.009841,37.370763,0 119.012842,37.376089,0 119.003444,37.383403,0 118.982597,37.378077,0 118.977385,37.382052,0 118.973121,37.404346,0 118.958275,37.454912,0 118.942955,37.497466,0 118.939638,37.527066,0 118.9518,37.556019,0 118.972331,37.594474,0 118.988677,37.620905,0 119.024213,37.6419,0 119.065355,37.64194,0 119.118343,37.64804,0 119.153404,37.655406,0 119.236321,37.652079,0 119.262617,37.660475,0 119.280464,37.692503,0 119.299653,37.75549,0 119.309129,37.805383,0 119.304075,37.845486,0 119.292151,37.869616,0 119.263801,37.88154,0 119.240348,37.878026,0 119.212709,37.83881,0 119.161617,37.819214,0 119.135874,37.827985,0 119.122844,37.866536,0 119.120554,37.897054,0 119.110604,37.921365,0 119.045297,37.967597,0 119.00455,37.992278,0 118.996495,38.013996,0 118.985282,38.062099,0 118.974068,38.09415,0 118.958512,38.110131,0 118.931426,38.127486,0 118.908051,38.139368,0 118.877491,38.149596,0 118.853721,38.154985,0 118.811474,38.15762,0 118.777754,38.156952,0 118.726425,38.154238,0 118.62582,38.138306,0 118.607816,38.12906,0 118.603946,38.101354,0 118.597629,38.078993,0 118.565568,38.060209,0 118.552459,38.055679,0 118.534533,38.063517,0 118.530269,38.073204,0 118.517081,38.088363,0 118.513212,38.10466,0 118.504526,38.113909,0 118.483204,38.123236,0 118.461409,38.126659,0 118.449722,38.124259,0 118.43148,38.106274,0 118.420425,38.107337,0 118.404078,38.120914,0 118.39097,38.123315,0 118.38023,38.119931,0 118.360172,38.120954,0 118.330717,38.125046,0 118.274334,38.138542,0 118.245432,38.144286,0</coordinates></LinearRing></outerBoundaryIs>
      </Polygon>
      <Polygon>
        <outerBoundaryIs><LinearRing><coordinates>118.410001,38.053277,0 118.227585,38.037874,0 118.2234,38.00095,0 118.40779,38.026212,0 118.410001,38.053277,0</coordinates></LinearRing></outerBoundaryIs>
      </Polygon>
    </MultiGeometry>
    </Placemark>
  </Document>
</kml>
