<?xml version="1.0" encoding="UTF-8"?>
<kml xmlns="http://www.opengis.net/kml/2.2">
  <Document>
    <name><![CDATA[临沂市]]></name>
    <Placemark>
      <name><![CDATA[临沂市]]></name>
      <description><![CDATA[省级目录：山东省]]></description>
      <ExtendedData>
        <Data name="adcode"><value>371300</value></Data>
      </ExtendedData>
      <MultiGeometry>
      <Polygon>
        <outerBoundaryIs><LinearRing><coordinates>119.203233,35.110894,0 119.196679,35.129919,0 119.189967,35.138101,0 119.174252,35.139042,0 119.164223,35.143173,0 119.163433,35.154134,0 119.173146,35.1617,0 119.164855,35.166525,0 119.157274,35.18243,0 119.149219,35.189298,0 119.1354,35.191669,0 119.139032,35.202338,0 119.161301,35.204136,0 119.170225,35.21231,0 119.174568,35.230331,0 119.182149,35.241852,0 119.181991,35.25231,0 119.187519,35.258192,0 119.179543,35.287595,0 119.164065,35.289554,0 119.155931,35.293882,0 119.157669,35.301721,0 119.143218,35.314048,0 119.141322,35.320823,0 119.148193,35.326741,0 119.146455,35.334862,0 119.133741,35.335596,0 119.105708,35.330659,0 119.096153,35.326864,0 119.087229,35.340575,0 119.085571,35.354243,0 119.078385,35.357506,0 119.075542,35.366113,0 119.06575,35.364563,0 119.04893,35.371498,0 119.044587,35.377004,0 119.024371,35.386873,0 118.999654,35.388953,0 118.984413,35.382224,0 118.98852,35.36697,0 118.986861,35.353141,0 118.973042,35.340167,0 118.961828,35.334168,0 118.947219,35.336943,0 118.930478,35.331271,0 118.923213,35.339187,0 118.92195,35.348408,0 118.904814,35.355507,0 118.889573,35.357261,0 118.871015,35.367215,0 118.874174,35.388464,0 118.865725,35.391685,0 118.859644,35.381694,0 118.84314,35.370804,0 118.816764,35.373292,0 118.797575,35.369417,0 118.784151,35.371049,0 118.776412,35.37627,0 118.768989,35.368031,0 118.739455,35.359505,0 118.723898,35.368479,0 118.712527,35.363544,0 118.709605,35.369825,0 118.696891,35.379818,0 118.682914,35.368642,0 118.652274,35.373578,0 118.632059,35.368438,0 118.625425,35.370315,0 118.624952,35.387036,0 118.606157,35.390747,0 118.601419,35.414517,0 118.619029,35.423118,0 118.635691,35.421039,0 118.642246,35.425156,0 118.632611,35.430903,0 118.6289,35.449324,0 118.64801,35.453276,0 118.651011,35.458614,0 118.662066,35.461547,0 118.667831,35.456821,0 118.693575,35.459103,0 118.698234,35.455436,0 118.709131,35.457677,0 118.723898,35.468758,0 118.734322,35.48607,0 118.725004,35.496578,0 118.698865,35.513558,0 118.696575,35.528622,0 118.725083,35.553205,0 118.724056,35.562972,0 118.734875,35.569767,0 118.74056,35.581484,0 118.735822,35.593443,0 118.739692,35.62496,0 118.751458,35.640409,0 118.76662,35.653539,0 118.791416,35.68296,0 118.794101,35.697504,0 118.806499,35.718056,0 118.804209,35.728655,0 118.798918,35.730117,0 118.757223,35.725935,0 118.743482,35.729346,0 118.722161,35.73101,0 118.707078,35.738075,0 118.703288,35.745221,0 118.706525,35.765152,0 118.702182,35.772295,0 118.700603,35.791367,0 118.716712,35.80723,0 118.724609,35.820454,0 118.722082,35.834932,0 118.732822,35.848111,0 118.7498,35.849489,0 118.75438,35.853544,0 118.756038,35.877379,0 118.765198,35.898331,0 118.777281,35.896791,0 118.775148,35.917251,0 118.805709,35.923854,0 118.80413,35.939731,0 118.813922,35.948761,0 118.837217,35.948883,0 118.883571,35.957305,0 118.893047,35.963257,0 118.897312,35.97605,0 118.87986,35.992321,0 118.896048,36.006404,0 118.956853,36.008427,0 118.981886,36.017409,0 118.999022,36.038404,0 119.012526,36.03533,0 119.024134,36.02631,0 119.035584,36.02275,0 119.047903,36.024813,0 119.052089,36.037838,0 119.040322,36.042934,0 119.042534,36.055512,0 119.049641,36.066632,0 119.063539,36.075042,0 119.066935,36.081631,0 119.048851,36.092707,0 119.038506,36.090444,0 119.020344,36.104307,0 119.013868,36.09881,0 119.000523,36.099497,0 118.988756,36.092343,0 118.970278,36.09873,0 118.970041,36.104671,0 118.958512,36.104145,0 118.954642,36.1115,0 118.943271,36.119582,0 118.936322,36.11344,0 118.916185,36.111702,0 118.920765,36.105721,0 118.908288,36.091292,0 118.886493,36.088584,0 118.880886,36.08438,0 118.875911,36.091535,0 118.860513,36.101316,0 118.865961,36.113682,0 118.860197,36.114733,0 118.858302,36.129966,0 118.863908,36.139298,0 118.858302,36.143256,0 118.859802,36.16232,0 118.85459,36.170194,0 118.846614,36.172092,0 118.844561,36.18473,0 118.848746,36.188606,0 118.847009,36.199263,0 118.835796,36.203138,0 118.809026,36.198738,0 118.802076,36.202855,0 118.78573,36.197487,0 118.766383,36.206649,0 118.745535,36.191754,0 118.751142,36.183115,0 118.741824,36.165551,0 118.733532,36.166802,0 118.73298,36.1519,0 118.736454,36.146528,0 118.72603,36.141035,0 118.714659,36.154485,0 118.703761,36.150446,0 118.701235,36.144509,0 118.679913,36.152062,0 118.683388,36.158564,0 118.675491,36.170194,0 118.666015,36.168983,0 118.653143,36.176695,0 118.644299,36.177018,0 118.640824,36.171042,0 118.622109,36.17718,0 118.606236,36.164218,0 118.581914,36.151456,0 118.572201,36.156424,0 118.563988,36.147094,0 118.565015,36.130087,0 118.556881,36.130935,0 118.541719,36.124996,0 118.535797,36.118531,0 118.515502,36.109884,0 118.509974,36.114612,0 118.504762,36.105802,0 118.526716,36.104671,0 118.529479,36.093879,0 118.522925,36.084784,0 118.507842,36.074961,0 118.516608,36.068573,0 118.513449,36.064085,0 118.522214,36.05349,0 118.522609,36.043622,0 118.516845,36.026107,0 118.507447,36.029789,0 118.503341,36.024246,0 118.489206,36.025784,0 118.476097,36.031407,0 118.469859,36.022992,0 118.476571,36.012797,0 118.487074,36.005797,0 118.49268,35.995437,0 118.486521,35.988759,0 118.499393,35.976212,0 118.505157,35.965808,0 118.502157,35.962488,0 118.470964,35.960868,0 118.459356,35.952689,0 118.430612,35.969694,0 118.415213,35.990783,0 118.387021,35.987586,0 118.382283,35.975078,0 118.360725,35.970908,0 118.352828,35.956698,0 118.344774,35.955888,0 118.320136,35.946575,0 118.314134,35.950827,0 118.303552,35.948923,0 118.293523,35.937503,0 118.281362,35.935964,0 118.26928,35.928512,0 118.257593,35.925717,0 118.257119,35.930699,0 118.245906,35.932157,0 118.236904,35.939245,0 118.236351,35.947749,0 118.22569,35.948235,0 118.209897,35.955767,0 118.207054,35.964391,0 118.193787,35.974026,0 118.206106,35.97864,0 118.197578,36.004947,0 118.178388,36.017005,0 118.135588,36.02364,0 118.132666,36.030436,0 118.10937,36.030031,0 118.096104,36.024246,0 118.093261,36.014618,0 118.084338,36.012149,0 118.078415,36.017652,0 118.075888,36.009034,0 118.066807,36.009155,0 118.058989,35.992968,0 118.042248,35.986371,0 118.032693,35.974268,0 118.03293,35.964998,0 118.02298,35.958965,0 118.021084,35.949004,0 117.988471,35.947709,0 117.997394,35.934587,0 117.99921,35.925393,0 117.988234,35.908703,0 117.981364,35.906191,0 117.97931,35.889699,0 117.968097,35.884066,0 117.960516,35.87057,0 117.937615,35.874826,0 117.924586,35.880946,0 117.906265,35.884634,0 117.883364,35.882648,0 117.86686,35.86984,0 117.85541,35.850219,0 117.842143,35.84507,0 117.827376,35.827754,0 117.828403,35.821792,0 117.840959,35.812058,0 117.846092,35.796398,0 117.831167,35.786661,0 117.828482,35.773837,0 117.833694,35.760484,0 117.837405,35.741445,0 117.823033,35.739496,0 117.811504,35.732919,0 117.781733,35.734096,0 117.769019,35.726625,0 117.754173,35.709609,0 117.732615,35.71237,0 117.707424,35.726016,0 117.679154,35.713305,0 117.663913,35.70969,0 117.634616,35.709324,0 117.62585,35.703841,0 117.605319,35.674834,0 117.599001,35.649149,0 117.596948,35.630449,0 117.588893,35.619878,0 117.585577,35.593972,0 117.592763,35.589701,0 117.590394,35.573551,0 117.593473,35.567448,0 117.582418,35.554141,0 117.528641,35.547182,0 117.515058,35.551008,0 117.499502,35.550845,0 117.496264,35.543031,0 117.50424,35.531675,0 117.516401,35.527319,0 117.520033,35.51991,0 117.513795,35.514576,0 117.501634,35.512947,0 117.498396,35.503093,0 117.481734,35.507898,0 117.472416,35.514372,0 117.467441,35.512255,0 117.462703,35.497922,0 117.452279,35.490306,0 117.442171,35.469247,0 117.42851,35.458614,0 117.453779,35.442396,0 117.455833,35.424953,0 117.467441,35.418186,0 117.474785,35.400941,0 117.463334,35.39038,0 117.463887,35.375617,0 117.439644,35.359668,0 117.439012,35.348939,0 117.446988,35.330292,0 117.453937,35.325027,0 117.478891,35.314375,0 117.463098,35.287472,0 117.439565,35.282368,0 117.419191,35.273997,0 117.426456,35.261786,0 117.439486,35.258927,0 117.449752,35.246795,0 117.448331,35.231842,0 117.468073,35.228369,0 117.480628,35.222771,0 117.494843,35.205893,0 117.507162,35.198986,0 117.526825,35.200621,0 117.528009,35.184351,0 117.548462,35.161741,0 117.556043,35.161291,0 117.570336,35.168365,0 117.58376,35.164317,0 117.586208,35.152989,0 117.591025,35.152539,0 117.600344,35.135524,0 117.604371,35.13401,0 117.623007,35.113063,0 117.650725,35.092724,0 117.656885,35.077497,0 117.676469,35.065543,0 117.69321,35.06018,0 117.707345,35.052318,0 117.704423,35.031227,0 117.736247,35.031514,0 117.744618,35.022748,0 117.737985,35.013203,0 117.728035,35.008041,0 117.726534,34.979561,0 117.719506,34.968331,0 117.724323,34.958329,0 117.714689,34.947833,0 117.712004,34.934999,0 117.704265,34.933605,0 117.698501,34.919989,0 117.70466,34.906699,0 117.715163,34.896238,0 117.729298,34.876994,0 117.742407,34.874163,0 117.75291,34.857623,0 117.763175,34.848839,0 117.795315,34.835907,0 117.803686,34.830734,0 117.798632,34.810653,0 117.77739,34.801248,0 117.784023,34.79484,0 117.784576,34.780667,0 117.79958,34.768875,0 117.830614,34.760246,0 117.830061,34.740888,0 117.823665,34.72868,0 117.825244,34.713139,0 117.831719,34.707793,0 117.825639,34.684392,0 117.819243,34.681842,0 117.805818,34.646254,0 117.820111,34.646172,0 117.831798,34.653455,0 117.834483,34.647324,0 117.847513,34.652386,0 117.849408,34.647201,0 117.863465,34.645184,0 117.877916,34.650205,0 117.880995,34.645184,0 117.903106,34.644567,0 117.90974,34.67016,0 117.939669,34.664852,0 117.951672,34.678469,0 117.96328,34.678552,0 117.991708,34.670077,0 117.99084,34.661726,0 118.007423,34.65613,0 118.007818,34.64753,0 118.018242,34.647036,0 118.02069,34.660409,0 118.053935,34.650945,0 118.05741,34.655019,0 118.077783,34.653702,0 118.084022,34.655924,0 118.102658,34.647736,0 118.094603,34.636583,0 118.100526,34.626582,0 118.113003,34.621437,0 118.11474,34.614397,0 118.102816,34.593441,0 118.082363,34.579893,0 118.078968,34.569761,0 118.100447,34.564736,0 118.126428,34.55522,0 118.137167,34.563253,0 118.140721,34.554025,0 118.153671,34.549164,0 118.163542,34.551471,0 118.184706,34.544179,0 118.16757,34.519701,0 118.164964,34.504904,0 118.141826,34.497154,0 118.132824,34.483425,0 118.139931,34.475344,0 118.177757,34.453238,0 118.178862,34.425186,0 118.177125,34.408722,0 118.170413,34.381356,0 118.179336,34.379416,0 118.183363,34.390355,0 118.189602,34.380654,0 118.204369,34.377352,0 118.217714,34.379127,0 118.220241,34.405957,0 118.230981,34.398693,0 118.242431,34.405709,0 118.277414,34.404677,0 118.279862,34.412188,0 118.28918,34.412271,0 118.290681,34.424567,0 118.320925,34.421349,0 118.352197,34.422834,0 118.353223,34.41747,0 118.379993,34.415531,0 118.395155,34.427084,0 118.404947,34.427744,0 118.405342,34.437027,0 118.411344,34.446391,0 118.41624,34.473859,0 118.421372,34.483219,0 118.430928,34.489074,0 118.439535,34.507996,0 118.440956,34.52477,0 118.428322,34.563253,0 118.42382,34.591094,0 118.439219,34.626294,0 118.452881,34.617691,0 118.46362,34.625265,0 118.473807,34.623412,0 118.474913,34.637201,0 118.466463,34.643127,0 118.460856,34.65757,0 118.468437,34.674315,0 118.484231,34.6709,0 118.500814,34.675178,0 118.508158,34.687066,0 118.522688,34.692289,0 118.525215,34.712563,0 118.53935,34.711494,0 118.546063,34.70619,0 118.558934,34.706847,0 118.570464,34.712522,0 118.60134,34.714167,0 118.604894,34.696484,0 118.633717,34.687025,0 118.650537,34.695086,0 118.664357,34.693441,0 118.681335,34.678346,0 118.690258,34.678593,0 118.704077,34.688752,0 118.720108,34.694222,0 118.739376,34.69377,0 118.758723,34.703434,0 118.78344,34.722061,0 118.768515,34.738093,0 118.759197,34.740847,0 118.740087,34.736901,0 118.730374,34.745451,0 118.719239,34.745533,0 118.716475,34.763821,0 118.727215,34.768752,0 118.738507,34.766862,0 118.740166,34.781243,0 118.728399,34.786871,0 118.73756,34.792088,0 118.756512,34.789541,0 118.773569,34.795333,0 118.779018,34.809627,0 118.776649,34.818785,0 118.78194,34.82749,0 118.768278,34.838822,0 118.768989,34.846129,0 118.802471,34.845637,0 118.805235,34.873055,0 118.829715,34.911129,0 118.86075,34.943979,0 118.859249,34.962633,0 118.865093,34.993208,0 118.862487,35.025697,0 118.86533,35.029834,0 118.885782,35.034258,0 118.903787,35.041343,0 118.911131,35.047773,0 118.928504,35.050885,0 118.945166,35.040811,0 118.965619,35.046462,0 118.992152,35.048182,0 118.999891,35.053055,0 119.027214,35.055307,0 119.037401,35.051335,0 119.061407,35.051581,0 119.073647,35.056659,0 119.114631,35.05498,0 119.120396,35.05801,0 119.120475,35.070088,0 119.129477,35.076187,0 119.138085,35.096285,0 119.159011,35.100991,0 119.171409,35.10717,0 119.203233,35.110894,0</coordinates></LinearRing></outerBoundaryIs>
      </Polygon>
    </MultiGeometry>
    </Placemark>
  </Document>
</kml>
