<?xml version="1.0" encoding="UTF-8"?>
<kml xmlns="http://www.opengis.net/kml/2.2">
  <Document>
    <name><![CDATA[济宁市]]></name>
    <Placemark>
      <name><![CDATA[济宁市]]></name>
      <description><![CDATA[省级目录：山东省]]></description>
      <ExtendedData>
        <Data name="adcode"><value>370800</value></Data>
      </ExtendedData>
      <MultiGeometry>
      <Polygon>
        <outerBoundaryIs><LinearRing><coordinates>116.409745,34.852944,0 116.436042,34.883026,0 116.445281,34.888648,0 116.445044,34.895418,0 116.455784,34.900628,0 116.480737,34.897387,0 116.500558,34.90112,0 116.502769,34.906125,0 116.523064,34.903951,0 116.546123,34.909406,0 116.5601,34.909324,0 116.613877,34.922778,0 116.622485,34.940043,0 116.631803,34.94074,0 116.640016,34.932579,0 116.657862,34.929012,0 116.658415,34.933441,0 116.675709,34.933154,0 116.677999,34.939182,0 116.696951,34.932743,0 116.706191,34.933974,0 116.720405,34.926141,0 116.735172,34.924623,0 116.764627,34.916462,0 116.78121,34.916585,0 116.786975,34.940453,0 116.797635,34.938771,0 116.796925,34.944143,0 116.785474,34.9473,0 116.781605,34.961895,0 116.789107,34.959804,0 116.789107,34.975094,0 116.801979,34.970503,0 116.803242,34.937377,0 116.798899,34.92852,0 116.812166,34.927986,0 116.806796,34.936926,0 116.805769,34.968372,0 116.815877,34.965298,0 116.822115,34.929299,0 116.858125,34.928355,0 116.876129,34.912524,0 116.89903,34.904689,0 116.922326,34.894515,0 116.922168,34.871413,0 116.945305,34.873794,0 116.945226,34.876789,0 116.966943,34.875599,0 116.976892,34.868541,0 116.933776,34.861933,0 116.930144,34.859675,0 116.92888,34.842886,0 116.966074,34.844487,0 116.979183,34.814966,0 116.971681,34.811885,0 116.951149,34.810571,0 116.951623,34.794553,0 116.965837,34.785063,0 116.96789,34.772984,0 116.976814,34.771259,0 116.978472,34.763616,0 116.989685,34.765136,0 116.995687,34.758274,0 117.021904,34.759219,0 117.043225,34.736531,0 117.061151,34.723993,0 117.070469,34.713714,0 117.069048,34.708287,0 117.07734,34.696484,0 117.072049,34.694181,0 117.061704,34.675713,0 117.062336,34.657735,0 117.072996,34.639094,0 117.081525,34.638188,0 117.095897,34.64753,0 117.103952,34.64897,0 117.115244,34.628146,0 117.123694,34.604682,0 117.133486,34.58607,0 117.147621,34.570255,0 117.151253,34.559257,0 117.140593,34.538699,0 117.139803,34.522875,0 117.145963,34.503956,0 117.156623,34.48091,0 117.159861,34.453115,0 117.166099,34.434675,0 117.199503,34.43451,0 117.200214,34.441606,0 117.222088,34.445731,0 117.222325,34.450599,0 117.234644,34.454476,0 117.24791,34.451052,0 117.255886,34.462023,0 117.255096,34.472539,0 117.242698,34.478519,0 117.252332,34.486518,0 117.256044,34.476292,0 117.263625,34.472622,0 117.267494,34.480003,0 117.259282,34.49736,0 117.274364,34.503544,0 117.269705,34.511664,0 117.275075,34.519619,0 117.268047,34.532806,0 117.285341,34.533012,0 117.302477,34.541253,0 117.30303,34.548999,0 117.288579,34.555797,0 117.279734,34.552748,0 117.272864,34.556703,0 117.281629,34.563829,0 117.3084,34.571903,0 117.30303,34.558927,0 117.32135,34.565436,0 117.333037,34.56177,0 117.325378,34.570996,0 117.344014,34.582075,0 117.352937,34.584052,0 117.364941,34.57771,0 117.370863,34.58467,0 117.392342,34.574909,0 117.393922,34.587676,0 117.398976,34.588335,0 117.397949,34.604393,0 117.407978,34.610651,0 117.4109,34.623454,0 117.402687,34.628434,0 117.384051,34.628228,0 117.376707,34.622301,0 117.374022,34.636172,0 117.366915,34.650246,0 117.354201,34.653538,0 117.35657,34.661643,0 117.346067,34.670982,0 117.329247,34.677359,0 117.335485,34.692454,0 117.324272,34.697307,0 117.326167,34.703434,0 117.310611,34.717333,0 117.304609,34.714866,0 117.278787,34.715647,0 117.271443,34.726501,0 117.253675,34.721444,0 117.242067,34.729995,0 117.236697,34.746355,0 117.22422,34.745533,0 117.212927,34.761027,0 117.191369,34.780914,0 117.180551,34.784201,0 117.176523,34.779065,0 117.162467,34.782105,0 117.172733,34.799194,0 117.180314,34.800221,0 117.194686,34.816239,0 117.17755,34.828722,0 117.156623,34.834306,0 117.140593,34.846499,0 117.139013,34.854052,0 117.125826,34.863451,0 117.12093,34.903581,0 117.110111,34.90514,0 117.111059,34.917774,0 117.103399,34.937459,0 117.082551,34.934917,0 117.073707,34.925485,0 117.06123,34.930406,0 117.05815,34.926961,0 117.041093,34.925157,0 117.043462,34.932825,0 117.038487,34.937869,0 117.017719,34.942503,0 116.989448,34.93873,0 116.980367,34.941027,0 116.9671,34.951072,0 116.955334,34.967142,0 116.943015,34.975627,0 116.954466,34.993331,0 116.956993,35.01054,0 116.951702,35.020618,0 116.937172,35.0275,0 116.907875,35.046995,0 116.900767,35.05977,0 116.881183,35.058133,0 116.880473,35.062595,0 116.900373,35.068737,0 116.888212,35.085193,0 116.888922,35.093829,0 116.863179,35.091496,0 116.848649,35.103774,0 116.832065,35.123783,0 116.825748,35.147631,0 116.81793,35.150699,0 116.813192,35.159573,0 116.81564,35.170777,0 116.811218,35.17736,0 116.832776,35.184392,0 116.85394,35.16861,0 116.86618,35.172617,0 116.876603,35.188031,0 116.898398,35.195757,0 116.904716,35.182471,0 116.913718,35.178791,0 116.925721,35.182266,0 116.938277,35.172168,0 116.962047,35.177319,0 116.969706,35.187377,0 116.995687,35.1978,0 117.014639,35.214844,0 117.028774,35.221219,0 117.053333,35.224202,0 117.065336,35.22792,0 117.092896,35.220361,0 117.104899,35.221464,0 117.123536,35.23078,0 117.152675,35.232047,0 117.176681,35.243159,0 117.199108,35.24749,0 117.204873,35.258518,0 117.220824,35.26489,0 117.269231,35.261296,0 117.262203,35.287472,0 117.284472,35.294331,0 117.290079,35.299394,0 117.305794,35.295229,0 117.311163,35.28588,0 117.314085,35.302129,0 117.308557,35.312579,0 117.318034,35.320252,0 117.347568,35.315109,0 117.359571,35.318375,0 117.399528,35.306374,0 117.403635,35.301394,0 117.406004,35.283348,0 117.419191,35.273997,0 117.439565,35.282368,0 117.463098,35.287472,0 117.478891,35.314375,0 117.453937,35.325027,0 117.446988,35.330292,0 117.439012,35.348939,0 117.439644,35.359668,0 117.463887,35.375617,0 117.463334,35.39038,0 117.474785,35.400941,0 117.467441,35.418186,0 117.455833,35.424953,0 117.453779,35.442396,0 117.42851,35.458614,0 117.442171,35.469247,0 117.452279,35.490306,0 117.462703,35.497922,0 117.467441,35.512255,0 117.472416,35.514372,0 117.481734,35.507898,0 117.498396,35.503093,0 117.501634,35.512947,0 117.513795,35.514576,0 117.520033,35.51991,0 117.516401,35.527319,0 117.50424,35.531675,0 117.496264,35.543031,0 117.499502,35.550845,0 117.515058,35.551008,0 117.528641,35.547182,0 117.582418,35.554141,0 117.593473,35.567448,0 117.590394,35.573551,0 117.592763,35.589701,0 117.585577,35.593972,0 117.588893,35.619878,0 117.596948,35.630449,0 117.576022,35.650206,0 117.529431,35.682879,0 117.520586,35.697626,0 117.530931,35.707131,0 117.511031,35.712411,0 117.49121,35.707903,0 117.488683,35.721102,0 117.478733,35.732675,0 117.452832,35.742298,0 117.440197,35.744571,0 117.431195,35.760971,0 117.415559,35.775177,0 117.391,35.767141,0 117.379155,35.775785,0 117.364467,35.770225,0 117.350331,35.782725,0 117.343382,35.784267,0 117.341013,35.793558,0 117.318428,35.793802,0 117.306504,35.798833,0 117.297581,35.788487,0 117.260308,35.771037,0 117.226984,35.773959,0 117.21806,35.778464,0 117.200214,35.775095,0 117.175023,35.780209,0 117.163651,35.775014,0 117.143436,35.771727,0 117.135381,35.767303,0 117.128353,35.769901,0 117.139566,35.777449,0 117.131275,35.786498,0 117.103241,35.790272,0 117.097318,35.802687,0 117.083815,35.80431,0 117.070864,35.790394,0 117.049622,35.801307,0 117.0268,35.799401,0 117.009506,35.807636,0 116.991423,35.805973,0 116.993397,35.794045,0 116.974366,35.760444,0 116.952412,35.7561,0 116.946253,35.744368,0 116.952412,35.737507,0 116.954939,35.719072,0 116.949649,35.715741,0 116.931012,35.713629,0 116.930538,35.709406,0 116.91814,35.706278,0 116.909849,35.699982,0 116.897135,35.701851,0 116.88071,35.696732,0 116.879367,35.685479,0 116.861994,35.679059,0 116.836882,35.697382,0 116.8233,35.696935,0 116.8218,35.705222,0 116.811376,35.706034,0 116.808296,35.69137,0 116.802137,35.684219,0 116.805137,35.679506,0 116.778762,35.679222,0 116.777341,35.690923,0 116.770076,35.703557,0 116.762732,35.708309,0 116.739673,35.703435,0 116.702242,35.709974,0 116.698847,35.72098,0 116.68866,35.724838,0 116.664969,35.716716,0 116.648939,35.713426,0 116.627539,35.705791,0 116.615615,35.705222,0 116.612061,35.71237,0 116.614588,35.74924,0 116.619563,35.756628,0 116.636699,35.764137,0 116.662679,35.758252,0 116.670497,35.761499,0 116.687317,35.798062,0 116.686607,35.814005,0 116.676736,35.822198,0 116.647281,35.832621,0 116.617036,35.855206,0 116.614904,35.865746,0 116.62438,35.878068,0 116.647518,35.884674,0 116.666944,35.898209,0 116.672392,35.92118,0 116.676973,35.925596,0 116.665996,35.940176,0 116.62817,35.938556,0 116.618536,35.935195,0 116.599663,35.916157,0 116.595715,35.905056,0 116.566023,35.899222,0 116.55702,35.890753,0 116.549834,35.857517,0 116.53641,35.847178,0 116.525275,35.847462,0 116.520616,35.853057,0 116.515325,35.841866,0 116.507508,35.84361,0 116.486976,35.84138,0 116.475841,35.83327,0 116.468024,35.836149,0 116.459732,35.828241,0 116.459811,35.81583,0 116.436989,35.807271,0 116.428698,35.796398,0 116.421196,35.799279,0 116.400822,35.794613,0 116.385581,35.801754,0 116.377921,35.796642,0 116.362838,35.795952,0 116.355652,35.800537,0 116.336621,35.796723,0 116.32983,35.787594,0 116.309377,35.77404,0 116.301875,35.777084,0 116.297295,35.795546,0 116.304007,35.799401,0 116.277395,35.806581,0 116.274868,35.803377,0 116.250072,35.823536,0 116.245808,35.834162,0 116.233963,35.851273,0 116.230804,35.860963,0 116.233963,35.888403,0 116.221091,35.892779,0 116.218485,35.879811,0 116.214774,35.889659,0 116.20814,35.886863,0 116.190057,35.892536,0 116.185398,35.900478,0 116.166998,35.90457,0 116.161155,35.900397,0 116.154284,35.886012,0 116.142834,35.895656,0 116.126172,35.891037,0 116.09261,35.904935,0 116.081634,35.914172,0 116.086767,35.923246,0 116.074606,35.927459,0 116.07279,35.940055,0 116.05897,35.936167,0 116.048704,35.948114,0 116.060392,35.956374,0 116.065367,35.964714,0 116.061892,35.97358,0 116.0506,35.981919,0 116.048704,35.970301,0 116.038596,35.963419,0 116.00851,35.973135,0 115.985135,35.974107,0 115.957654,35.967994,0 115.911853,35.960261,0 115.906325,35.9454,0 115.909958,35.935762,0 115.907826,35.926851,0 115.875133,35.920168,0 115.872369,35.909351,0 115.884767,35.909108,0 115.88911,35.897561,0 115.883267,35.895413,0 115.882872,35.879892,0 115.876081,35.875069,0 115.876002,35.867124,0 115.875212,35.835095,0 115.877107,35.820657,0 115.883583,35.808163,0 115.898192,35.805202,0 115.911932,35.811733,0 115.925988,35.804756,0 115.922119,35.799157,0 115.945493,35.791976,0 115.970289,35.782156,0 116.017591,35.756263,0 116.026909,35.749687,0 116.041518,35.733893,0 116.071052,35.719072,0 116.079897,35.712452,0 116.089847,35.699373,0 116.103034,35.687348,0 116.121829,35.67459,0 116.127514,35.649433,0 116.134384,35.638539,0 116.115906,35.618414,0 116.116222,35.606621,0 116.125145,35.59385,0 116.125145,35.587871,0 116.114327,35.577456,0 116.115274,35.566471,0 116.123408,35.540589,0 116.12554,35.516042,0 116.121276,35.497881,0 116.128778,35.489614,0 116.129567,35.475235,0 116.15002,35.469573,0 116.160918,35.471569,0 116.15689,35.446838,0 116.167946,35.452217,0 116.178685,35.450342,0 116.177817,35.466151,0 116.188319,35.477313,0 116.188319,35.467781,0 116.19669,35.46334,0 116.206798,35.465703,0 116.20206,35.458247,0 116.204429,35.436079,0 116.215484,35.435957,0 116.215958,35.419857,0 116.212642,35.409054,0 116.215879,35.393438,0 116.223855,35.371702,0 116.22117,35.358608,0 116.215169,35.350734,0 116.201744,35.345185,0 116.193452,35.337555,0 116.199612,35.304986,0 116.215642,35.29131,0 116.223539,35.260438,0 116.237201,35.261745,0 116.265866,35.271547,0 116.269656,35.269872,0 116.285608,35.242669,0 116.284265,35.22506,0 116.269104,35.191178,0 116.248256,35.195634,0 116.234437,35.208264,0 116.234516,35.200008,0 116.228356,35.194367,0 116.213115,35.196697,0 116.221881,35.181817,0 116.223618,35.173231,0 116.214537,35.155606,0 116.204903,35.145668,0 116.181765,35.11204,0 116.154284,35.113513,0 116.141018,35.09076,0 116.15389,35.088467,0 116.140228,35.06018,0 116.141413,35.055062,0 116.119381,35.053383,0 116.114564,35.039828,0 116.115748,35.025574,0 116.139754,34.995421,0 116.170789,34.974684,0 116.171499,34.964683,0 116.162023,34.957632,0 116.155153,34.947259,0 116.162181,34.94361,0 116.192505,34.939182,0 116.201586,34.919702,0 116.213826,34.913098,0 116.226935,34.911786,0 116.266261,34.89751,0 116.286713,34.88159,0 116.299032,34.877733,0 116.325803,34.874943,0 116.335042,34.868048,0 116.3352,34.862343,0 116.363865,34.861112,0 116.373815,34.86538,0 116.409745,34.852944,0</coordinates></LinearRing></outerBoundaryIs>
      </Polygon>
    </MultiGeometry>
    </Placemark>
  </Document>
</kml>
