<?xml version="1.0" encoding="UTF-8"?>
<kml xmlns="http://www.opengis.net/kml/2.2">
  <Document>
    <name><![CDATA[济南市]]></name>
    <Placemark>
      <name><![CDATA[济南市]]></name>
      <description><![CDATA[省级目录：山东省]]></description>
      <ExtendedData>
        <Data name="adcode"><value>370100</value></Data>
      </ExtendedData>
      <MultiGeometry>
      <Polygon>
        <outerBoundaryIs><LinearRing><coordinates>116.546202,36.40892,0 116.528592,36.387259,0 116.519984,36.384158,0 116.503717,36.369982,0 116.484607,36.336948,0 116.449071,36.337149,0 116.441411,36.321755,0 116.430593,36.318007,0 116.406745,36.319015,0 116.374526,36.3039,0 116.331251,36.290677,0 116.322644,36.284669,0 116.310799,36.270515,0 116.307166,36.259464,0 116.28624,36.239174,0 116.280159,36.221945,0 116.255047,36.203703,0 116.234911,36.180935,0 116.226066,36.173748,0 116.246677,36.149436,0 116.261444,36.122693,0 116.27171,36.109843,0 116.273368,36.093758,0 116.267287,36.074233,0 116.267998,36.052964,0 116.271552,36.043824,0 116.294689,36.031407,0 116.301244,36.031123,0 116.304718,36.046251,0 116.310404,36.052196,0 116.324855,36.054178,0 116.338753,36.060082,0 116.352731,36.070797,0 116.360233,36.084744,0 116.386845,36.090807,0 116.398058,36.084582,0 116.401059,36.074031,0 116.409508,36.068007,0 116.427829,36.067441,0 116.433357,36.059839,0 116.429566,36.052439,0 116.436121,36.046534,0 116.434541,36.038607,0 116.449387,36.047302,0 116.452072,36.058019,0 116.471182,36.06457,0 116.504112,36.064732,0 116.532303,36.074274,0 116.543359,36.086604,0 116.546597,36.101195,0 116.554651,36.108187,0 116.566891,36.108752,0 116.569024,36.118774,0 116.562153,36.121643,0 116.5586,36.133804,0 116.543122,36.13958,0 116.525275,36.135298,0 116.528513,36.145276,0 116.519748,36.141196,0 116.507192,36.141277,0 116.510192,36.148346,0 116.52188,36.157151,0 116.525986,36.168297,0 116.51035,36.176857,0 116.502059,36.192764,0 116.481922,36.197002,0 116.472604,36.21464,0 116.487529,36.228441,0 116.485239,36.236067,0 116.506402,36.240344,0 116.512325,36.253414,0 116.525591,36.255229,0 116.53641,36.245588,0 116.552361,36.247767,0 116.558837,36.261037,0 116.574393,36.263457,0 116.581264,36.255471,0 116.587502,36.268862,0 116.600611,36.273983,0 116.609613,36.291322,0 116.632277,36.296321,0 116.649018,36.295797,0 116.675709,36.276645,0 116.686528,36.275435,0 116.701058,36.280153,0 116.710376,36.279185,0 116.732961,36.294144,0 116.762574,36.305391,0 116.772761,36.312002,0 116.786659,36.311357,0 116.808612,36.299022,0 116.830644,36.294587,0 116.855756,36.301642,0 116.855519,36.289709,0 116.867759,36.28108,0 116.873129,36.264062,0 116.891133,36.255471,0 116.928722,36.26991,0 116.932828,36.261925,0 116.950201,36.257327,0 116.956835,36.259787,0 116.975471,36.243208,0 116.987632,36.250711,0 117.002794,36.254503,0 117.003347,36.265353,0 117.027353,36.268983,0 117.030275,36.277532,0 117.0482,36.283701,0 117.051201,36.288741,0 117.066995,36.296885,0 117.074102,36.296724,0 117.077655,36.307205,0 117.07734,36.321957,0 117.088711,36.346013,0 117.107347,36.338882,0 117.111691,36.340413,0 117.137039,36.335135,0 117.142567,36.345731,0 117.161361,36.351895,0 117.179603,36.353144,0 117.18292,36.360798,0 117.180945,36.37256,0 117.191685,36.378762,0 117.200924,36.389755,0 117.208742,36.405297,0 117.218297,36.406182,0 117.242145,36.41528,0 117.249726,36.436732,0 117.263862,36.449206,0 117.275786,36.451218,0 117.288973,36.468718,0 117.288184,36.476039,0 117.30682,36.472097,0 117.30682,36.467029,0 117.335328,36.466345,0 117.346383,36.46373,0 117.346936,36.455724,0 117.339118,36.438181,0 117.339434,36.425786,0 117.344962,36.403968,0 117.35041,36.393379,0 117.351753,36.377997,0 117.362729,36.360234,0 117.387762,36.337915,0 117.38871,36.326148,0 117.379707,36.315146,0 117.38792,36.296361,0 117.387604,36.285556,0 117.397791,36.283782,0 117.394553,36.266522,0 117.413901,36.267934,0 117.417217,36.243652,0 117.392895,36.237439,0 117.393211,36.222994,0 117.399528,36.215004,0 117.412716,36.210927,0 117.427878,36.221662,0 117.447383,36.218313,0 117.447778,36.203541,0 117.452437,36.203138,0 117.440434,36.191189,0 117.446988,36.18691,0 117.461202,36.170194,0 117.475653,36.173102,0 117.487972,36.15921,0 117.476601,36.150123,0 117.469178,36.154687,0 117.459623,36.1498,0 117.44683,36.120834,0 117.463571,36.116875,0 117.454885,36.111177,0 117.456148,36.100467,0 117.447067,36.09206,0 117.451963,36.087412,0 117.473758,36.089797,0 117.484893,36.10075,0 117.491052,36.096587,0 117.505898,36.098245,0 117.534879,36.111419,0 117.547672,36.106166,0 117.552884,36.087978,0 117.561649,36.079327,0 117.575943,36.074516,0 117.601844,36.075648,0 117.630588,36.059879,0 117.656569,36.049729,0 117.689972,36.052358,0 117.701186,36.04528,0 117.720454,36.038243,0 117.725824,36.029667,0 117.741696,36.036058,0 117.757016,36.019392,0 117.750304,36.011947,0 117.756542,36.002236,0 117.756621,35.991916,0 117.762307,35.990621,0 117.781022,35.995437,0 117.782286,36.007294,0 117.794763,36.015143,0 117.801159,36.012959,0 117.825244,36.013363,0 117.828719,36.008022,0 117.841827,36.011947,0 117.854462,36.006889,0 117.866386,36.007415,0 117.877047,36.016357,0 117.895052,36.020363,0 117.914557,36.020039,0 117.922848,36.015467,0 117.926165,36.005068,0 117.935088,36.004421,0 117.937536,35.99653,0 117.950803,35.996489,0 117.94338,36.017288,0 117.949855,36.018259,0 117.946855,36.04253,0 117.932798,36.052196,0 117.935799,36.061214,0 117.948829,36.062589,0 117.94188,36.071807,0 117.946223,36.08151,0 117.953172,36.081833,0 117.954041,36.090201,0 117.946618,36.100387,0 117.939984,36.094324,0 117.931535,36.094203,0 117.921111,36.110005,0 117.923875,36.1174,0 117.91203,36.132753,0 117.914162,36.140631,0 117.90666,36.152708,0 117.917873,36.16337,0 117.912109,36.171648,0 117.903027,36.172092,0 117.915899,36.192562,0 117.914636,36.200837,0 117.921664,36.203662,0 117.928534,36.196558,0 117.943933,36.207981,0 117.959332,36.204308,0 117.967781,36.21464,0 117.96328,36.224971,0 117.96707,36.248251,0 117.975362,36.262328,0 117.972993,36.268378,0 117.943696,36.274064,0 117.932719,36.271846,0 117.926797,36.277532,0 117.93114,36.283742,0 117.922533,36.300514,0 117.924823,36.313171,0 117.918347,36.317725,0 117.919611,36.324738,0 117.933509,36.334369,0 117.933904,36.341219,0 117.915346,36.352903,0 117.902633,36.352057,0 117.893472,36.339446,0 117.89521,36.359227,0 117.890314,36.366035,0 117.882101,36.35673,0 117.879732,36.370626,0 117.867492,36.386373,0 117.859279,36.389433,0 117.855094,36.412945,0 117.829508,36.417776,0 117.826823,36.427114,0 117.833062,36.44301,0 117.822717,36.44305,0 117.817268,36.436129,0 117.799343,36.432265,0 117.7965,36.43963,0 117.786471,36.434277,0 117.779838,36.441239,0 117.755752,36.445303,0 117.763491,36.452868,0 117.757016,36.459144,0 117.765544,36.469845,0 117.748566,36.478694,0 117.757332,36.484485,0 117.755673,36.496228,0 117.743118,36.498439,0 117.735853,36.504993,0 117.751646,36.509979,0 117.765544,36.509496,0 117.76586,36.512994,0 117.750777,36.524652,0 117.742486,36.525737,0 117.739406,36.539925,0 117.72377,36.54732,0 117.720849,36.560057,0 117.694315,36.568896,0 117.696132,36.575042,0 117.706792,36.581469,0 117.715321,36.578537,0 117.706792,36.593559,0 117.715163,36.600546,0 117.697869,36.599422,0 117.690525,36.604883,0 117.705055,36.605807,0 117.706555,36.611549,0 117.714926,36.610545,0 117.715321,36.627527,0 117.70853,36.635154,0 117.712241,36.642258,0 117.709003,36.651569,0 117.698027,36.652974,0 117.695184,36.666978,0 117.701265,36.685191,0 117.715637,36.691208,0 117.718006,36.697826,0 117.71848,36.704724,0 117.739959,36.721004,0 117.736642,36.729423,0 117.747303,36.748584,0 117.724165,36.755998,0 117.695974,36.754115,0 117.687603,36.763853,0 117.677811,36.783245,0 117.648119,36.805436,0 117.608556,36.821815,0 117.580523,36.85136,0 117.577364,36.862847,0 117.579891,36.878093,0 117.585024,36.886815,0 117.58376,36.894176,0 117.56923,36.915736,0 117.534248,36.931611,0 117.539538,36.941486,0 117.551305,36.93385,0 117.553674,36.940727,0 117.56465,36.945084,0 117.56544,36.959954,0 117.54933,36.96507,0 117.555253,36.970785,0 117.549094,36.979817,0 117.536854,36.978498,0 117.519875,36.957117,0 117.509847,36.969267,0 117.494527,36.972344,0 117.476522,36.968348,0 117.477628,36.961154,0 117.458754,36.957676,0 117.444461,36.958116,0 117.416901,36.95264,0 117.414927,36.957236,0 117.406162,36.950001,0 117.40403,36.955038,0 117.391632,36.952,0 117.378286,36.956997,0 117.365335,36.99496,0 117.35349,37.003349,0 117.328457,37.011218,0 117.317323,37.020923,0 117.315349,37.030547,0 117.326088,37.036178,0 117.33667,37.046838,0 117.339434,37.056419,0 117.336433,37.073941,0 117.365256,37.069272,0 117.391158,37.083479,0 117.409241,37.089425,0 117.442092,37.093574,0 117.459781,37.109931,0 117.455596,37.11767,0 117.4507,37.143711,0 117.4507,37.153957,0 117.444066,37.156868,0 117.442724,37.170859,0 117.436091,37.184251,0 117.417928,37.20003,0 117.404977,37.21716,0 117.402371,37.224808,0 117.408768,37.239703,0 117.429141,37.239783,0 117.424403,37.243367,0 117.431037,37.254396,0 117.443908,37.250056,0 117.438302,37.25786,0 117.43688,37.27235,0 117.432379,37.272032,0 117.430168,37.285166,0 117.417612,37.296587,0 117.409005,37.321692,0 117.413901,37.349333,0 117.407741,37.353667,0 117.415401,37.364203,0 117.401029,37.379071,0 117.368652,37.396399,0 117.360202,37.405697,0 117.368257,37.419563,0 117.369758,37.436048,0 117.353332,37.450901,0 117.309189,37.447486,0 117.295449,37.4538,0 117.307768,37.46194,0 117.304609,37.466069,0 117.283998,37.471587,0 117.285894,37.479328,0 117.312585,37.487068,0 117.317718,37.499371,0 117.307215,37.507744,0 117.286525,37.510046,0 117.284393,37.522266,0 117.275549,37.526193,0 117.273417,37.532619,0 117.260861,37.530081,0 117.238197,37.532897,0 117.230063,37.528891,0 117.22114,37.51318,0 117.199345,37.487148,0 117.176049,37.486116,0 117.163809,37.478971,0 117.135618,37.475239,0 117.124878,37.483853,0 117.109795,37.47901,0 117.098819,37.469721,0 117.104978,37.455309,0 117.102293,37.445778,0 117.089264,37.435055,0 117.038408,37.435452,0 117.03067,37.442958,0 117.01843,37.435849,0 117.012112,37.419643,0 117.019693,37.405379,0 117.008164,37.392464,0 116.99924,37.376964,0 117.009664,37.359671,0 117.006663,37.355138,0 116.987158,37.342692,0 116.986684,37.335335,0 116.993397,37.32201,0 117.002241,37.285962,0 117.024273,37.278918,0 117.038961,37.266538,0 117.030275,37.264229,0 117.032328,37.253241,0 117.041251,37.247667,0 117.042673,37.238867,0 117.036592,37.237393,0 117.03596,37.224091,0 117.022299,37.215089,0 117.037777,37.207361,0 117.037382,37.195169,0 117.045358,37.197161,0 117.05744,37.192141,0 117.06352,37.182656,0 117.061783,37.16496,0 117.050648,37.160894,0 117.054676,37.141717,0 117.059809,37.137251,0 117.047411,37.134739,0 117.044884,37.122615,0 117.024273,37.119664,0 117.004531,37.121219,0 116.982578,37.113601,0 116.931486,37.100477,0 116.919009,37.093056,0 116.91972,37.081364,0 116.925247,37.069831,0 116.928643,37.05103,0 116.944279,37.042327,0 116.948701,37.036537,0 116.943173,37.030907,0 116.907796,37.019046,0 116.891607,37.00271,0 116.875024,36.999274,0 116.885764,36.991444,0 116.886158,36.983573,0 116.899188,36.977499,0 116.897767,36.962712,0 116.907717,36.963272,0 116.933381,36.959595,0 116.931881,36.946204,0 116.935434,36.93457,0 116.922563,36.93453,0 116.934408,36.925973,0 116.957466,36.916495,0 116.963152,36.893896,0 116.96181,36.867529,0 116.962836,36.842674,0 116.948069,36.839231,0 116.9442,36.844916,0 116.934724,36.845116,0 116.935908,36.829743,0 116.933223,36.823697,0 116.919404,36.822776,0 116.892476,36.830023,0 116.887106,36.833427,0 116.882447,36.824058,0 116.887975,36.811404,0 116.872813,36.812004,0 116.868233,36.801872,0 116.865548,36.777877,0 116.87076,36.759164,0 116.883868,36.758243,0 116.88679,36.745538,0 116.873997,36.739846,0 116.861757,36.730345,0 116.842489,36.72786,0 116.830881,36.723851,0 116.802768,36.706729,0 116.799689,36.694417,0 116.780657,36.691048,0 116.780736,36.671552,0 116.777262,36.660718,0 116.763126,36.651971,0 116.759494,36.632746,0 116.742042,36.620381,0 116.71314,36.608858,0 116.693319,36.607895,0 116.694345,36.591149,0 116.682421,36.580586,0 116.661258,36.578376,0 116.662916,36.563111,0 116.658968,36.553026,0 116.646728,36.544105,0 116.629592,36.544587,0 116.622801,36.532651,0 116.60835,36.52011,0 116.610087,36.51609,0 116.627223,36.508853,0 116.624301,36.497233,0 116.602032,36.495223,0 116.593267,36.485973,0 116.595636,36.480383,0 116.613009,36.473425,0 116.611429,36.459104,0 116.620905,36.44144,0 116.6198,36.428522,0 116.612377,36.42333,0 116.591213,36.416286,0 116.546202,36.40892,0</coordinates></LinearRing></outerBoundaryIs>
      </Polygon>
    </MultiGeometry>
    </Placemark>
  </Document>
</kml>
