<?xml version="1.0" encoding="UTF-8"?>
<kml xmlns="http://www.opengis.net/kml/2.2">
  <Document>
    <name><![CDATA[淄博市]]></name>
    <Placemark>
      <name><![CDATA[淄博市]]></name>
      <description><![CDATA[省级目录：山东省]]></description>
      <ExtendedData>
        <Data name="adcode"><value>370300</value></Data>
      </ExtendedData>
      <MultiGeometry>
      <Polygon>
        <outerBoundaryIs><LinearRing><coordinates>117.988471,35.947709,0 118.021084,35.949004,0 118.02298,35.958965,0 118.03293,35.964998,0 118.032693,35.974268,0 118.042248,35.986371,0 118.058989,35.992968,0 118.066807,36.009155,0 118.075888,36.009034,0 118.078415,36.017652,0 118.084338,36.012149,0 118.093261,36.014618,0 118.096104,36.024246,0 118.10937,36.030031,0 118.132666,36.030436,0 118.135588,36.02364,0 118.178388,36.017005,0 118.197578,36.004947,0 118.206106,35.97864,0 118.193787,35.974026,0 118.207054,35.964391,0 118.209897,35.955767,0 118.22569,35.948235,0 118.236351,35.947749,0 118.236904,35.939245,0 118.245906,35.932157,0 118.257119,35.930699,0 118.257593,35.925717,0 118.26928,35.928512,0 118.281362,35.935964,0 118.293523,35.937503,0 118.303552,35.948923,0 118.314134,35.950827,0 118.320136,35.946575,0 118.344774,35.955888,0 118.352828,35.956698,0 118.360725,35.970908,0 118.382283,35.975078,0 118.387021,35.987586,0 118.415213,35.990783,0 118.430612,35.969694,0 118.459356,35.952689,0 118.470964,35.960868,0 118.502157,35.962488,0 118.505157,35.965808,0 118.499393,35.976212,0 118.486521,35.988759,0 118.49268,35.995437,0 118.487074,36.005797,0 118.476571,36.012797,0 118.469859,36.022992,0 118.476097,36.031407,0 118.489206,36.025784,0 118.503341,36.024246,0 118.507447,36.029789,0 118.516845,36.026107,0 118.522609,36.043622,0 118.522214,36.05349,0 118.513449,36.064085,0 118.516608,36.068573,0 118.507842,36.074961,0 118.496866,36.067683,0 118.48044,36.074071,0 118.482099,36.092546,0 118.478545,36.098245,0 118.484468,36.104064,0 118.479493,36.118814,0 118.492601,36.127057,0 118.487863,36.131784,0 118.462594,36.14059,0 118.457303,36.13247,0 118.447116,36.140913,0 118.440956,36.132511,0 118.428953,36.132672,0 118.412844,36.127218,0 118.402183,36.131622,0 118.405263,36.141641,0 118.402262,36.162926,0 118.387653,36.174555,0 118.374387,36.203097,0 118.382046,36.207335,0 118.386548,36.239053,0 118.379756,36.245265,0 118.368385,36.248412,0 118.350775,36.263538,0 118.31524,36.24938,0 118.306948,36.252123,0 118.315003,36.266361,0 118.31366,36.277371,0 118.317609,36.288903,0 118.310107,36.295716,0 118.315477,36.304464,0 118.30908,36.307125,0 118.304105,36.321393,0 118.291075,36.326189,0 118.300157,36.338116,0 118.269912,36.339849,0 118.261857,36.345852,0 118.262726,36.352218,0 118.256093,36.363175,0 118.239825,36.376748,0 118.235403,36.389634,0 118.251592,36.401995,0 118.250407,36.411214,0 118.227427,36.408034,0 118.224427,36.414234,0 118.228533,36.430736,0 118.232797,36.432869,0 118.22719,36.451379,0 118.233508,36.456609,0 118.229638,36.467793,0 118.216135,36.478573,0 118.212818,36.490075,0 118.218346,36.497354,0 118.210528,36.503466,0 118.213766,36.513075,0 118.210844,36.526099,0 118.221663,36.531887,0 118.214556,36.539322,0 118.191892,36.546074,0 118.183916,36.561142,0 118.180915,36.5607,0 118.180678,36.577412,0 118.176967,36.582996,0 118.180363,36.593599,0 118.189523,36.599141,0 118.200657,36.612071,0 118.214793,36.621144,0 118.20658,36.637482,0 118.199631,36.639047,0 118.215898,36.648921,0 118.221189,36.664169,0 118.230191,36.660357,0 118.226796,36.668382,0 118.215819,36.668262,0 118.21653,36.6811,0 118.228059,36.694016,0 118.245037,36.690647,0 118.238246,36.697305,0 118.227585,36.697625,0 118.237614,36.712704,0 118.227743,36.717957,0 118.234219,36.726457,0 118.254276,36.731789,0 118.264147,36.72373,0 118.277019,36.719801,0 118.284363,36.72337,0 118.276151,36.731749,0 118.27157,36.744015,0 118.279546,36.753033,0 118.298183,36.753914,0 118.297788,36.777677,0 118.307501,36.776234,0 118.318161,36.77972,0 118.321636,36.770905,0 118.350222,36.768301,0 118.388522,36.791217,0 118.419872,36.796304,0 118.424531,36.802673,0 118.438666,36.809682,0 118.44072,36.828142,0 118.435508,36.838391,0 118.450038,36.83747,0 118.453828,36.857564,0 118.461488,36.854322,0 118.460462,36.846597,0 118.480993,36.852641,0 118.479967,36.860166,0 118.465042,36.861366,0 118.476966,36.876893,0 118.482809,36.879214,0 118.483046,36.900777,0 118.474913,36.905297,0 118.481862,36.914136,0 118.48968,36.914096,0 118.496708,36.924733,0 118.492365,36.931611,0 118.494339,36.941846,0 118.467411,36.945484,0 118.439061,36.942206,0 118.40321,36.943125,0 118.401788,36.949802,0 118.386548,36.950481,0 118.387574,36.971305,0 118.384652,36.974382,0 118.352276,36.974582,0 118.3443,36.960714,0 118.324637,36.964751,0 118.322347,36.974502,0 118.312476,36.970905,0 118.294629,36.969666,0 118.291628,36.995878,0 118.288785,36.999993,0 118.271412,37.006744,0 118.262568,37.00271,0 118.250802,37.002949,0 118.247327,36.98613,0 118.235087,36.98557,0 118.231376,36.974822,0 118.222531,36.967109,0 118.209739,36.963152,0 118.195209,36.967348,0 118.192918,36.977739,0 118.160936,36.981934,0 118.161331,36.988567,0 118.15146,36.988527,0 118.153198,37.000512,0 118.138983,37.005985,0 118.139299,37.014693,0 118.134008,37.025955,0 118.139299,37.033103,0 118.139615,37.044363,0 118.15146,37.047038,0 118.150829,37.054743,0 118.15762,37.057776,0 118.156909,37.065281,0 118.13622,37.06536,0 118.136062,37.077773,0 118.130455,37.091101,0 118.115925,37.100636,0 118.111187,37.094652,0 118.086075,37.091899,0 118.063016,37.082841,0 118.056857,37.093654,0 118.045959,37.098202,0 118.045485,37.105982,0 118.057252,37.106141,0 118.068623,37.115875,0 118.079679,37.120781,0 118.065069,37.139564,0 118.059858,37.151087,0 118.062385,37.162528,0 118.074467,37.170341,0 118.071545,37.177675,0 118.082995,37.185605,0 118.077941,37.188953,0 118.074072,37.204094,0 118.064122,37.21007,0 118.048012,37.205568,0 118.046275,37.216324,0 118.036799,37.220905,0 118.022348,37.2221,0 118.019584,37.210309,0 118.010898,37.20756,0 117.994393,37.212699,0 117.984364,37.210349,0 117.98089,37.218674,0 117.973862,37.216483,0 117.981048,37.238429,0 117.996446,37.246273,0 117.990761,37.248981,0 117.990603,37.262358,0 117.963833,37.271753,0 117.947013,37.262159,0 117.948829,37.26829,0 117.941327,37.280549,0 117.909266,37.265065,0 117.888497,37.262319,0 117.8776,37.273027,0 117.850909,37.28246,0 117.83859,37.282659,0 117.818848,37.276012,0 117.782128,37.248702,0 117.773678,37.244959,0 117.760333,37.244959,0 117.729851,37.249101,0 117.693447,37.257661,0 117.675995,37.270121,0 117.659491,37.274101,0 117.644329,37.265862,0 117.63043,37.247269,0 117.627193,37.228074,0 117.615348,37.212699,0 117.598212,37.203058,0 117.592052,37.169624,0 117.586366,37.160216,0 117.574284,37.151366,0 117.551305,37.146781,0 117.557464,37.124211,0 117.574442,37.12106,0 117.576969,37.114758,0 117.567888,37.11029,0 117.575074,37.089185,0 117.590946,37.084996,0 117.608477,37.090622,0 117.619375,37.090103,0 117.644645,37.083878,0 117.673942,37.073143,0 117.703002,37.068673,0 117.726692,37.068753,0 117.739801,37.064921,0 117.761991,37.065839,0 117.771783,37.069032,0 117.800369,37.070789,0 117.847355,37.065959,0 117.840327,37.035539,0 117.841827,37.026354,0 117.865992,37.023719,0 117.870493,37.013375,0 117.866386,37.007024,0 117.866623,36.993282,0 117.870493,36.985451,0 117.906581,36.981695,0 117.911951,36.975141,0 117.910292,36.962592,0 117.913372,36.953679,0 117.931772,36.941886,0 117.936115,36.93489,0 117.935404,36.915736,0 117.94338,36.930012,0 117.949145,36.918375,0 117.96178,36.922494,0 117.960674,36.910376,0 117.950645,36.902137,0 117.9403,36.901177,0 117.940616,36.891616,0 117.929719,36.890216,0 117.9189,36.880094,0 117.917005,36.86973,0 117.891814,36.871811,0 117.891103,36.864408,0 117.875152,36.861246,0 117.865597,36.866529,0 117.856594,36.859926,0 117.832825,36.859966,0 117.828008,36.855883,0 117.831877,36.836629,0 117.822085,36.825139,0 117.820901,36.801511,0 117.814662,36.797306,0 117.815531,36.788573,0 117.824297,36.787933,0 117.825639,36.775834,0 117.840327,36.777516,0 117.850672,36.764735,0 117.852488,36.750708,0 117.832983,36.744816,0 117.834404,36.751871,0 117.826429,36.763011,0 117.820743,36.756359,0 117.810161,36.734394,0 117.795157,36.719761,0 117.793025,36.707451,0 117.78197,36.70304,0 117.777942,36.695219,0 117.754173,36.696944,0 117.725666,36.695219,0 117.718006,36.697826,0 117.715637,36.691208,0 117.701265,36.685191,0 117.695184,36.666978,0 117.698027,36.652974,0 117.709003,36.651569,0 117.712241,36.642258,0 117.70853,36.635154,0 117.715321,36.627527,0 117.714926,36.610545,0 117.706555,36.611549,0 117.705055,36.605807,0 117.690525,36.604883,0 117.697869,36.599422,0 117.715163,36.600546,0 117.706792,36.593559,0 117.715321,36.578537,0 117.706792,36.581469,0 117.696132,36.575042,0 117.694315,36.568896,0 117.720849,36.560057,0 117.72377,36.54732,0 117.739406,36.539925,0 117.742486,36.525737,0 117.750777,36.524652,0 117.76586,36.512994,0 117.765544,36.509496,0 117.751646,36.509979,0 117.735853,36.504993,0 117.743118,36.498439,0 117.755673,36.496228,0 117.757332,36.484485,0 117.748566,36.478694,0 117.765544,36.469845,0 117.757016,36.459144,0 117.763491,36.452868,0 117.755752,36.445303,0 117.779838,36.441239,0 117.786471,36.434277,0 117.7965,36.43963,0 117.799343,36.432265,0 117.817268,36.436129,0 117.822717,36.44305,0 117.833062,36.44301,0 117.826823,36.427114,0 117.829508,36.417776,0 117.855094,36.412945,0 117.859279,36.389433,0 117.867492,36.386373,0 117.879732,36.370626,0 117.882101,36.35673,0 117.890314,36.366035,0 117.89521,36.359227,0 117.893472,36.339446,0 117.902633,36.352057,0 117.915346,36.352903,0 117.933904,36.341219,0 117.933509,36.334369,0 117.919611,36.324738,0 117.918347,36.317725,0 117.924823,36.313171,0 117.922533,36.300514,0 117.93114,36.283742,0 117.926797,36.277532,0 117.932719,36.271846,0 117.943696,36.274064,0 117.972993,36.268378,0 117.975362,36.262328,0 117.96707,36.248251,0 117.96328,36.224971,0 117.967781,36.21464,0 117.959332,36.204308,0 117.943933,36.207981,0 117.928534,36.196558,0 117.921664,36.203662,0 117.914636,36.200837,0 117.915899,36.192562,0 117.903027,36.172092,0 117.912109,36.171648,0 117.917873,36.16337,0 117.90666,36.152708,0 117.914162,36.140631,0 117.91203,36.132753,0 117.923875,36.1174,0 117.921111,36.110005,0 117.931535,36.094203,0 117.939984,36.094324,0 117.946618,36.100387,0 117.954041,36.090201,0 117.953172,36.081833,0 117.946223,36.08151,0 117.94188,36.071807,0 117.948829,36.062589,0 117.935799,36.061214,0 117.932798,36.052196,0 117.946855,36.04253,0 117.949855,36.018259,0 117.94338,36.017288,0 117.950803,35.996489,0 117.937536,35.99653,0 117.937221,35.98119,0 117.947013,35.971111,0 117.947013,35.960382,0 117.953962,35.957913,0 117.971414,35.969937,0 117.992577,35.971273,0 117.984443,35.956293,0 117.988471,35.947709,0</coordinates></LinearRing></outerBoundaryIs>
      </Polygon>
    </MultiGeometry>
    </Placemark>
  </Document>
</kml>
