<?xml version="1.0" encoding="UTF-8"?>
<kml xmlns="http://www.opengis.net/kml/2.2">
  <Document>
    <name><![CDATA[滨州市]]></name>
    <Placemark>
      <name><![CDATA[滨州市]]></name>
      <description><![CDATA[省级目录：山东省]]></description>
      <ExtendedData>
        <Data name="adcode"><value>371600</value></Data>
      </ExtendedData>
      <MultiGeometry>
      <Polygon>
        <outerBoundaryIs><LinearRing><coordinates>117.273417,37.532619,0 117.275549,37.526193,0 117.284393,37.522266,0 117.286525,37.510046,0 117.307215,37.507744,0 117.317718,37.499371,0 117.312585,37.487068,0 117.285894,37.479328,0 117.283998,37.471587,0 117.304609,37.466069,0 117.307768,37.46194,0 117.295449,37.4538,0 117.309189,37.447486,0 117.353332,37.450901,0 117.369758,37.436048,0 117.368257,37.419563,0 117.360202,37.405697,0 117.368652,37.396399,0 117.401029,37.379071,0 117.415401,37.364203,0 117.407741,37.353667,0 117.413901,37.349333,0 117.409005,37.321692,0 117.417612,37.296587,0 117.430168,37.285166,0 117.432379,37.272032,0 117.43688,37.27235,0 117.438302,37.25786,0 117.443908,37.250056,0 117.431037,37.254396,0 117.424403,37.243367,0 117.429141,37.239783,0 117.408768,37.239703,0 117.402371,37.224808,0 117.404977,37.21716,0 117.417928,37.20003,0 117.436091,37.184251,0 117.442724,37.170859,0 117.444066,37.156868,0 117.4507,37.153957,0 117.4507,37.143711,0 117.455596,37.11767,0 117.459781,37.109931,0 117.442092,37.093574,0 117.409241,37.089425,0 117.391158,37.083479,0 117.365256,37.069272,0 117.336433,37.073941,0 117.339434,37.056419,0 117.33667,37.046838,0 117.326088,37.036178,0 117.315349,37.030547,0 117.317323,37.020923,0 117.328457,37.011218,0 117.35349,37.003349,0 117.365335,36.99496,0 117.378286,36.956997,0 117.391632,36.952,0 117.40403,36.955038,0 117.406162,36.950001,0 117.414927,36.957236,0 117.416901,36.95264,0 117.444461,36.958116,0 117.458754,36.957676,0 117.477628,36.961154,0 117.476522,36.968348,0 117.494527,36.972344,0 117.509847,36.969267,0 117.519875,36.957117,0 117.536854,36.978498,0 117.549094,36.979817,0 117.555253,36.970785,0 117.54933,36.96507,0 117.56544,36.959954,0 117.56465,36.945084,0 117.553674,36.940727,0 117.551305,36.93385,0 117.539538,36.941486,0 117.534248,36.931611,0 117.56923,36.915736,0 117.58376,36.894176,0 117.585024,36.886815,0 117.579891,36.878093,0 117.577364,36.862847,0 117.580523,36.85136,0 117.608556,36.821815,0 117.648119,36.805436,0 117.677811,36.783245,0 117.687603,36.763853,0 117.695974,36.754115,0 117.724165,36.755998,0 117.747303,36.748584,0 117.736642,36.729423,0 117.739959,36.721004,0 117.71848,36.704724,0 117.718006,36.697826,0 117.725666,36.695219,0 117.754173,36.696944,0 117.777942,36.695219,0 117.78197,36.70304,0 117.793025,36.707451,0 117.795157,36.719761,0 117.810161,36.734394,0 117.820743,36.756359,0 117.826429,36.763011,0 117.834404,36.751871,0 117.832983,36.744816,0 117.852488,36.750708,0 117.850672,36.764735,0 117.840327,36.777516,0 117.825639,36.775834,0 117.824297,36.787933,0 117.815531,36.788573,0 117.814662,36.797306,0 117.820901,36.801511,0 117.822085,36.825139,0 117.831877,36.836629,0 117.828008,36.855883,0 117.832825,36.859966,0 117.856594,36.859926,0 117.865597,36.866529,0 117.875152,36.861246,0 117.891103,36.864408,0 117.891814,36.871811,0 117.917005,36.86973,0 117.9189,36.880094,0 117.929719,36.890216,0 117.940616,36.891616,0 117.9403,36.901177,0 117.950645,36.902137,0 117.960674,36.910376,0 117.96178,36.922494,0 117.949145,36.918375,0 117.94338,36.930012,0 117.935404,36.915736,0 117.936115,36.93489,0 117.931772,36.941886,0 117.913372,36.953679,0 117.910292,36.962592,0 117.911951,36.975141,0 117.906581,36.981695,0 117.870493,36.985451,0 117.866623,36.993282,0 117.866386,37.007024,0 117.870493,37.013375,0 117.865992,37.023719,0 117.841827,37.026354,0 117.840327,37.035539,0 117.847355,37.065959,0 117.800369,37.070789,0 117.771783,37.069032,0 117.761991,37.065839,0 117.739801,37.064921,0 117.726692,37.068753,0 117.703002,37.068673,0 117.673942,37.073143,0 117.644645,37.083878,0 117.619375,37.090103,0 117.608477,37.090622,0 117.590946,37.084996,0 117.575074,37.089185,0 117.567888,37.11029,0 117.576969,37.114758,0 117.574442,37.12106,0 117.557464,37.124211,0 117.551305,37.146781,0 117.574284,37.151366,0 117.586366,37.160216,0 117.592052,37.169624,0 117.598212,37.203058,0 117.615348,37.212699,0 117.627193,37.228074,0 117.63043,37.247269,0 117.644329,37.265862,0 117.659491,37.274101,0 117.675995,37.270121,0 117.693447,37.257661,0 117.729851,37.249101,0 117.760333,37.244959,0 117.773678,37.244959,0 117.782128,37.248702,0 117.818848,37.276012,0 117.83859,37.282659,0 117.850909,37.28246,0 117.8776,37.273027,0 117.888497,37.262319,0 117.909266,37.265065,0 117.941327,37.280549,0 117.948829,37.26829,0 117.947013,37.262159,0 117.963833,37.271753,0 117.990603,37.262358,0 117.990761,37.248981,0 117.996446,37.246273,0 117.981048,37.238429,0 117.973862,37.216483,0 117.98089,37.218674,0 117.984364,37.210349,0 117.994393,37.212699,0 118.010898,37.20756,0 118.019584,37.210309,0 118.022348,37.2221,0 118.036799,37.220905,0 118.046275,37.216324,0 118.048012,37.205568,0 118.064122,37.21007,0 118.074072,37.204094,0 118.077941,37.188953,0 118.082995,37.185605,0 118.071545,37.177675,0 118.074467,37.170341,0 118.062385,37.162528,0 118.059858,37.151087,0 118.065069,37.139564,0 118.079679,37.120781,0 118.068623,37.115875,0 118.057252,37.106141,0 118.045485,37.105982,0 118.045959,37.098202,0 118.056857,37.093654,0 118.063016,37.082841,0 118.086075,37.091899,0 118.111187,37.094652,0 118.115925,37.100636,0 118.130455,37.091101,0 118.136062,37.077773,0 118.13622,37.06536,0 118.156909,37.065281,0 118.15762,37.057776,0 118.150829,37.054743,0 118.15146,37.047038,0 118.139615,37.044363,0 118.139299,37.033103,0 118.134008,37.025955,0 118.139299,37.014693,0 118.138983,37.005985,0 118.153198,37.000512,0 118.15146,36.988527,0 118.161331,36.988567,0 118.160936,36.981934,0 118.192918,36.977739,0 118.195209,36.967348,0 118.209739,36.963152,0 118.222531,36.967109,0 118.231376,36.974822,0 118.235087,36.98557,0 118.247327,36.98613,0 118.250802,37.002949,0 118.262568,37.00271,0 118.271412,37.006744,0 118.288785,36.999993,0 118.28997,37.00946,0 118.308212,37.019885,0 118.310186,37.028231,0 118.3259,37.035459,0 118.324558,37.046279,0 118.337588,37.053904,0 118.338535,37.072265,0 118.332928,37.081923,0 118.338851,37.093894,0 118.338298,37.10311,0 118.349354,37.101753,0 118.338219,37.123134,0 118.346116,37.123931,0 118.340667,37.131748,0 118.347616,37.139803,0 118.356224,37.139325,0 118.361594,37.148495,0 118.366569,37.146781,0 118.377545,37.154157,0 118.380467,37.175164,0 118.387574,37.177834,0 118.383389,37.190587,0 118.376598,37.196962,0 118.375966,37.206126,0 118.3642,37.210189,0 118.346669,37.233252,0 118.350459,37.243765,0 118.36033,37.244561,0 118.368385,37.258576,0 118.375729,37.258497,0 118.372096,37.273703,0 118.36262,37.273783,0 118.368069,37.279594,0 118.358277,37.280669,0 118.355197,37.286997,0 118.342168,37.287076,0 118.342168,37.295075,0 118.325584,37.296866,0 118.326058,37.306535,0 118.319741,37.305978,0 118.31524,37.31477,0 118.315398,37.352514,0 118.287285,37.352434,0 118.291865,37.358518,0 118.286495,37.362772,0 118.273624,37.360029,0 118.262015,37.364283,0 118.258541,37.37911,0 118.245827,37.376646,0 118.245353,37.367781,0 118.222768,37.367861,0 118.217951,37.371478,0 118.216925,37.385191,0 118.202,37.382409,0 118.161015,37.362573,0 118.156198,37.364322,0 118.154935,37.377401,0 118.141668,37.376487,0 118.135509,37.384834,0 118.144037,37.392822,0 118.16141,37.389961,0 118.160147,37.399618,0 118.165596,37.4082,0 118.163937,37.416742,0 118.14996,37.438351,0 118.136141,37.441688,0 118.114898,37.439742,0 118.118531,37.456182,0 118.125322,37.45912,0 118.112766,37.463528,0 118.120426,37.480757,0 118.128481,37.483694,0 118.127849,37.491831,0 118.135035,37.496752,0 118.134245,37.507387,0 118.139378,37.507427,0 118.136772,37.516791,0 118.142537,37.518933,0 118.150987,37.530517,0 118.156988,37.530358,0 118.159831,37.539164,0 118.173255,37.546858,0 118.176098,37.557129,0 118.173176,37.563593,0 118.141431,37.556297,0 118.134166,37.558478,0 118.13922,37.571364,0 118.131324,37.571285,0 118.127612,37.578103,0 118.134877,37.590035,0 118.148696,37.594078,0 118.146722,37.599943,0 118.154935,37.605491,0 118.157462,37.62035,0 118.154935,37.628036,0 118.163542,37.63069,0 118.165596,37.644633,0 118.172545,37.644079,0 118.177125,37.657623,0 118.195445,37.661742,0 118.200657,37.667404,0 118.207449,37.661583,0 118.22569,37.663682,0 118.239431,37.65596,0 118.246459,37.658376,0 118.260989,37.654614,0 118.2846,37.662058,0 118.293129,37.670096,0 118.294076,37.678529,0 118.305132,37.683122,0 118.3045,37.690722,0 118.316187,37.714151,0 118.319425,37.712924,0 118.31753,37.728395,0 118.337509,37.729502,0 118.341931,37.74667,0 118.353697,37.750151,0 118.353065,37.75814,0 118.340667,37.763913,0 118.340588,37.774391,0 118.348406,37.790719,0 118.36191,37.792063,0 118.352355,37.814274,0 118.356382,37.820834,0 118.344932,37.824627,0 118.346116,37.832371,0 118.334271,37.832134,0 118.340193,37.838059,0 118.328111,37.865272,0 118.313265,37.861521,0 118.301657,37.870208,0 118.286337,37.8569,0 118.269754,37.853109,0 118.258304,37.844182,0 118.258146,37.854886,0 118.247643,37.871788,0 118.248749,37.858164,0 118.239115,37.868708,0 118.236588,37.884501,0 118.243142,37.895673,0 118.235403,37.905343,0 118.232718,37.922509,0 118.225611,37.923417,0 118.226954,37.939672,0 118.224742,37.950559,0 118.215503,37.949376,0 118.213529,37.95541,0 118.223479,37.959788,0 118.220873,37.98258,0 118.22956,37.986444,0 118.2234,38.00095,0 118.227585,38.037874,0 118.230665,38.056743,0 118.226638,38.079583,0 118.235324,38.082969,0 118.245511,38.103322,0 118.241247,38.112138,0 118.227664,38.119262,0 118.236272,38.125754,0 118.245432,38.144286,0 118.216846,38.146921,0 118.177915,38.186406,0 118.112134,38.210227,0 118.04517,38.214001,0 118.033009,38.205904,0 118.018794,38.202641,0 117.997631,38.211918,0 117.935404,38.255098,0 117.89671,38.279605,0 117.893393,38.287968,0 117.895683,38.301629,0 117.860859,38.274578,0 117.847513,38.25392,0 117.823586,38.235652,0 117.808582,38.228383,0 117.805897,38.217734,0 117.797842,38.207712,0 117.796105,38.1936,0 117.789235,38.180744,0 117.801317,38.175239,0 117.79421,38.167846,0 117.771704,38.166076,0 117.766966,38.158682,0 117.772099,38.138817,0 117.768782,38.131893,0 117.743197,38.123393,0 117.730641,38.108321,0 117.729219,38.093796,0 117.704502,38.07604,0 117.679469,38.079544,0 117.666045,38.072535,0 117.644961,38.072377,0 117.616769,38.06903,0 117.605082,38.073008,0 117.58376,38.070645,0 117.57618,38.065132,0 117.564887,38.063674,0 117.556517,38.057215,0 117.560386,38.040987,0 117.545935,38.026842,0 117.541039,38.011237,0 117.54933,38.010252,0 117.563545,37.998585,0 117.570652,37.957264,0 117.567809,37.946772,0 117.529036,37.932295,0 117.539302,37.913552,0 117.542776,37.890146,0 117.547198,37.883198,0 117.568835,37.882409,0 117.580602,37.875302,0 117.581076,37.858993,0 117.595685,37.853504,0 117.606582,37.845209,0 117.605003,37.838968,0 117.59529,37.834741,0 117.588025,37.82273,0 117.56623,37.812733,0 117.568599,37.804987,0 117.559912,37.800008,0 117.546567,37.776368,0 117.547356,37.767512,0 117.526509,37.762964,0 117.522165,37.755371,0 117.531563,37.748213,0 117.544119,37.747699,0 117.547198,37.737494,0 117.542618,37.726258,0 117.556201,37.716683,0 117.539775,37.713993,0 117.543092,37.703625,0 117.531247,37.688901,0 117.506451,37.686803,0 117.50345,37.680548,0 117.488604,37.677025,0 117.477075,37.654416,0 117.465625,37.655564,0 117.451963,37.669978,0 117.444224,37.671918,0 117.428825,37.665741,0 117.415401,37.669582,0 117.407188,37.678846,0 117.392974,37.660039,0 117.373074,37.648594,0 117.363835,37.649624,0 117.357596,37.658495,0 117.358149,37.672947,0 117.363598,37.679559,0 117.36573,37.698361,0 117.352543,37.707345,0 117.344567,37.693136,0 117.347489,37.683319,0 117.329405,37.673343,0 117.318428,37.662019,0 117.312506,37.64194,0 117.304925,37.640514,0 117.312585,37.633701,0 117.317797,37.615081,0 117.314875,37.600458,0 117.308321,37.589956,0 117.288973,37.577112,0 117.280682,37.56621,0 117.277681,37.545391,0 117.273417,37.532619,0</coordinates></LinearRing></outerBoundaryIs>
      </Polygon>
      <Polygon>
        <outerBoundaryIs><LinearRing><coordinates>118.40779,38.026212,0 118.419951,38.025503,0 118.419319,38.053119,0 118.410001,38.053277,0 118.40779,38.026212,0</coordinates></LinearRing></outerBoundaryIs>
      </Polygon>
    </MultiGeometry>
    </Placemark>
  </Document>
</kml>
