<?xml version="1.0" encoding="UTF-8"?>
<kml xmlns="http://www.opengis.net/kml/2.2">
<Document>
<name>兰州市</name>
<Placemark><name>兰州市</name><MultiGeometry><Polygon><outerBoundaryIs><LinearRing><coordinates>102.809742,36.407916,0 102.793531999999999,36.427061000000002,0 102.787965999999997,36.447448000000001,0 102.766679999999994,36.465542999999997,0 102.788784000000007,36.481867000000001,0 102.793041000000002,36.499434000000001,0 102.779123999999996,36.502136,0 102.777322999999996,36.516893000000003,0 102.75309,36.525933000000002,0 102.734425000000002,36.562289,0 102.737699000000006,36.571219999999997,0 102.764551999999995,36.575476999999999,0 102.714776999999998,36.600288999999997,0 102.724272999999997,36.613990000000001,0 102.684486000000007,36.618971000000002,0 102.665819999999997,36.633913,0 102.630617999999998,36.650927000000003,0 102.609004999999996,36.678100000000001,0 102.601309000000001,36.709927999999998,0 102.613426000000004,36.738633999999998,0 102.636675999999994,36.733142999999998,0 102.692509000000001,36.775305000000003,0 102.720670999999996,36.770023000000002,0 102.731476999999998,36.762357999999999,0 102.715267999999995,36.745576,0 102.684977000000003,36.743918000000001,0 102.666475000000005,36.707647999999999,0 102.688743000000002,36.684218000000001,0 102.730659000000003,36.672811000000003,0 102.772575000000003,36.673434,0 102.778142000000003,36.691578999999997,0 102.756855999999999,36.717598000000002,0 102.778305000000003,36.761736999999997,0 102.807614000000001,36.773544000000001,0 102.813507999999999,36.762773000000003,0 102.833156000000002,36.762357999999999,0 102.842979999999997,36.77458,0 102.822676999999999,36.794876000000002,0 102.846254999999999,36.808644999999999,0 102.810396999999995,36.841143000000002,0 102.843470999999994,36.845179000000002,0 102.863446999999994,36.838141999999998,0 102.877854999999997,36.856042000000002,0 102.902415000000005,36.865146000000003,0 102.903397999999996,36.878695,0 102.883094999999997,36.901342,0 102.919606999999999,36.935454,0 102.954974000000007,36.928840000000001,0 102.975932,36.947854999999997,0 103.004420999999994,36.946925,0 103.068113999999994,36.959736999999997,0 103.074336000000002,36.945272000000003,0 103.128694999999993,36.951678000000001,0 103.180271000000005,36.945684999999997,0 103.176833000000002,36.932974000000002,0 103.201392999999996,36.929769999999998,0 103.206141000000002,36.941242000000003,0 103.230536999999998,36.937210999999998,0 103.258207999999996,36.958703999999997,0 103.276218999999998,36.954158,0 103.248057000000003,36.916643000000001,0 103.265739999999994,36.907958999999998,0 103.281131000000002,36.915196000000002,0 103.313222999999994,36.907131999999997,0 103.347606999999996,36.916125999999998,0 103.348425000000006,36.895862000000001,0 103.380352999999999,36.878901999999997,0 103.377897000000004,36.853352000000001,0 103.399018999999996,36.826034,0 103.450759000000005,36.831209000000001,0 103.472534999999993,36.861732000000003,0 103.473190000000002,36.874248000000001,0 103.518052999999995,36.849938000000002,0 103.541630999999995,36.878799000000001,0 103.519690999999995,36.902686000000003,0 103.501352999999995,36.895448000000002,0 103.499879000000007,36.913334999999996,0 103.479575999999994,36.940207999999998,0 103.455997999999994,36.935867999999999,0 103.441590000000005,36.950541999999999,0 103.407860999999997,36.923465,0 103.383464000000004,36.920363999999999,0 103.368236999999993,36.907856000000002,0 103.348589000000004,36.926772999999997,0 103.348097999999993,36.958291000000003,0 103.323701999999997,36.946717999999997,0 103.309456999999995,36.949818,0 103.317151999999993,36.986696999999999,0 103.359396000000004,36.996715000000002,0 103.404585999999995,36.999192999999998,0 103.440607,36.995992000000001,0 103.450103999999996,36.981946000000001,0 103.483669000000006,36.966451999999997,0 103.511831999999998,36.961492999999997,0 103.528531999999998,36.970480999999999,0 103.564881,36.973787000000002,0 103.547689000000005,36.950024999999997,0 103.575196000000005,36.923465,0 103.592388,36.882418999999999,0 103.623170000000002,36.868870000000001,0 103.604505000000003,36.847248,0 103.628246000000004,36.822101000000004,0 103.669506999999996,36.812888999999998,0 103.676874999999995,36.790630999999998,0 103.712078000000005,36.783900000000003,0 103.731234000000001,36.805124999999997,0 103.740894999999995,36.799328000000003,0 103.800494,36.791665999999999,0 103.796400000000006,36.803780000000003,0 103.761853000000002,36.828104000000003,0 103.757923000000005,36.844247000000003,0 103.777243999999996,36.851489999999998,0 103.790014999999997,36.829656999999997,0 103.815066000000002,36.823239999999998,0 103.825709000000003,36.798499999999997,0 103.832421999999994,36.812474999999999,0 103.859764999999996,36.803676000000003,0 103.903481999999997,36.803469,0 103.891366000000005,36.787731000000001,0 103.897097000000002,36.770229999999998,0 103.920509999999993,36.766812000000002,0 103.922639000000004,36.751998999999998,0 103.940813000000006,36.748683999999997,0 103.930661999999998,36.719774000000001,0 103.897424000000001,36.715629,0 103.897260000000003,36.704227000000003,0 103.915435000000002,36.693238000000001,0 103.899225000000001,36.671773999999999,0 103.924767000000003,36.656216999999998,0 103.942122999999995,36.635573000000001,0 103.960789000000005,36.625819999999997,0 103.951455999999993,36.611809999999998,0 103.974051000000003,36.584510000000002,0 104.040854999999993,36.573712,0 104.028575000000004,36.554291999999997,0 104.034141000000005,36.535699000000001,0 104.022024999999999,36.520634000000001,0 104.016621999999998,36.495899999999999,0 104.041017999999994,36.481242999999999,0 104.051824999999994,36.464295,0 104.042491999999996,36.457223999999997,0 104.050023999999993,36.414056000000002,0 104.095213999999999,36.371696,0 104.128615999999994,36.335979000000002,0 104.111096000000003,36.327438000000001,0 104.114371000000006,36.306913999999999,0 104.125669000000002,36.298369999999998,0 104.113388999999998,36.260429999999999,0 104.130252999999996,36.250942000000002,0 104.141551000000007,36.293785,0 104.163326999999995,36.305351000000002,0 104.164964999999995,36.322749999999999,0 104.184121000000005,36.341915,0 104.221452999999997,36.337541000000002,0 104.218177999999995,36.349621999999997,0 104.232095000000001,36.359305999999997,0 104.258948000000004,36.362220999999998,0 104.296278999999998,36.354308000000003,0 104.313962000000004,36.363886999999998,0 104.318055000000001,36.377420999999998,0 104.349164999999999,36.375546999999997,0 104.415476999999996,36.391368999999997,0 104.429067000000003,36.386581,0 104.439381999999995,36.408541,0 104.489812000000001,36.44256,0 104.507167999999993,36.428621,0 104.510441999999998,36.373153000000002,0 104.501763999999994,36.350766999999998,0 104.502419000000003,36.316082999999999,0 104.517155000000002,36.290241000000002,0 104.522231000000005,36.262098000000002,0 104.531728000000001,36.261159999999997,0 104.543025,36.237698999999999,0 104.512570999999994,36.202547000000003,0 104.530908999999994,36.168005000000001,0 104.577246000000002,36.168109000000001,0 104.568894999999998,36.139296000000002,0 104.559398999999999,36.130105999999998,0 104.567421999999993,36.112456000000002,0 104.561199999999999,36.092190000000002,0 104.537949999999995,36.084040000000002,0 104.519283999999999,36.060212,0 104.522722000000002,36.043695999999997,0 104.507330999999994,36.037945999999998,0 104.500618000000003,36.02017,0 104.484572,36.020693000000001,0 104.483754000000005,35.993707999999998,0 104.441018999999997,35.974770999999997,0 104.426119999999997,35.916153999999999,0 104.442819999999998,35.896569999999997,0 104.448879000000005,35.875619,0 104.439054999999996,35.864618,0 104.421370999999994,35.865456000000002,0 104.398612,35.808855000000001,0 104.401067999999995,35.793964000000003,0 104.384694999999994,35.767426,0 104.369958999999994,35.766691999999999,0 104.357350999999994,35.74109,0 104.331153999999998,35.732379000000002,0 104.316745999999995,35.705295999999997,0 104.317564000000004,35.667909999999999,0 104.331809000000007,35.658560999999999,0 104.305938999999995,35.643326999999999,0 104.310196000000005,35.601812000000002,0 104.290057000000004,35.589615999999999,0 104.282197999999994,35.571109,0 104.225381999999996,35.578575000000001,0 104.198038999999994,35.598973000000001,0 104.202787000000001,35.614111000000001,0 104.173151000000004,35.649420999999997,0 104.148590999999996,35.635024999999999,0 104.138930999999999,35.618524999999998,0 104.110769000000005,35.638178000000003,0 104.101436000000007,35.636076000000003,0 104.092431000000005,35.657615,0 104.067543000000001,35.664758999999997,0 104.053134999999997,35.686079999999997,0 104.040036000000001,35.689019999999999,0 104.019569000000004,35.713588999999999,0 103.997956000000002,35.716109000000003,0 103.980928000000006,35.735737,0 103.963735999999997,35.735317999999999,0 103.952111000000002,35.746755999999998,0 103.919854999999998,35.757353999999999,0 103.901353999999998,35.774979000000002,0 103.865004999999996,35.794803000000002,0 103.848958999999994,35.774979000000002,0 103.849614000000003,35.803927000000002,0 103.837497999999997,35.815984999999998,0 103.837333999999998,35.841773000000003,0 103.799183999999997,35.841039000000002,0 103.795908999999995,35.852463,0 103.779863000000006,35.848165999999999,0 103.776425000000003,35.896256000000001,0 103.767420000000001,35.890389999999996,0 103.714697000000001,35.909975000000003,0 103.702580999999995,35.927253,0 103.660993000000005,35.914268999999997,0 103.643800999999996,35.931336000000002,0 103.623988999999995,35.934894999999997,0 103.616784999999993,35.959283999999997,0 103.632830999999996,35.982408999999997,0 103.622352000000006,35.994439999999997,0 103.633322000000007,36.017451000000001,0 103.621696999999998,36.025922000000001,0 103.596317999999997,36.069513999999998,0 103.575033000000005,36.062930000000001,0 103.571267000000006,36.091875999999999,0 103.538848000000002,36.105038999999998,0 103.521818999999994,36.101697000000001,0 103.496604000000005,36.108381999999999,0 103.483341999999993,36.098354,0 103.475645999999998,36.110785,0 103.438315000000003,36.069201,0 103.410480000000007,36.077770000000001,0 103.412282000000005,36.123004999999999,0 103.396726999999998,36.128957999999997,0 103.365617,36.119872000000001,0 103.343022000000005,36.125197999999997,0 103.312894999999997,36.152555999999997,0 103.298322999999996,36.145038,0 103.278183999999996,36.151929000000003,0 103.259845999999996,36.146605000000001,0 103.257880999999998,36.159550000000003,0 103.230373999999998,36.168317999999999,0 103.200901999999999,36.170301000000002,0 103.190749999999994,36.180320999999999,0 103.165863000000002,36.176146000000003,0 103.155710999999997,36.190130000000003,0 103.123127999999994,36.195661000000001,0 103.107410000000002,36.221637000000001,0 103.102660999999998,36.211623000000003,0 103.070897000000002,36.206929000000002,0 103.048302000000007,36.226435000000002,0 103.021450000000002,36.232692999999998,0 103.023578000000001,36.257407000000001,0 102.991650000000007,36.264392000000001,0 102.971346999999994,36.283571000000002,0 102.923700999999994,36.297640000000001,0 102.915841,36.315145000000001,0 102.896685000000005,36.331811999999999,0 102.845436000000007,36.332228999999998,0 102.836431000000005,36.344622999999999,0 102.829718,36.365344999999998,0 102.813017000000002,36.388455,0 102.826279,36.406250999999997,0 102.809742,36.407916,0</coordinates></LinearRing></outerBoundaryIs><innerBoundaryIs><LinearRing><coordinates>102.838887,36.345768999999997,0 102.847401000000005,36.355974000000003,0 102.831845999999999,36.365344999999998,0 102.838887,36.345768999999997,0</coordinates></LinearRing></innerBoundaryIs></Polygon></MultiGeometry></Placemark>
</Document>
</kml>