<?xml version="1.0" encoding="UTF-8"?>
<kml xmlns="http://www.opengis.net/kml/2.2">
  <Document>
    <name>嘉峪关市</name>
    <Placemark>
      <name>嘉峪关市</name>
      <Polygon><outerBoundaryIs><LinearRing><coordinates>97.862533000000,39.715005000000,0 97.857458000000,39.711823000000,0 97.855657000000,39.710430000000,0 97.939979000000,39.695807000000,0 97.969288000000,39.662770000000,0 98.038383000000,39.698593000000,0 98.157581000000,39.696902000000,0 98.166259000000,39.713116000000,0 98.188199000000,39.725945000000,0 98.217671000000,39.727436000000,0 98.246325000000,39.718884000000,0 98.243378000000,39.707943000000,0 98.281036000000,39.690932000000,0 98.320824000000,39.665258000000,0 98.335560000000,39.667547000000,0 98.370762000000,39.654309000000,0 98.381732000000,39.663765000000,0 98.391229000000,39.690733000000,0 98.413824000000,39.710331000000,0 98.406947000000,39.731016000000,0 98.361102000000,39.756169000000,0 98.355535000000,39.780020000000,0 98.456395000000,39.823429000000,0 98.491106000000,39.840705000000,0 98.484557000000,39.864428000000,0 98.518777000000,39.892905000000,0 98.520087000000,39.909469000000,0 98.497328000000,39.916114000000,0 98.497001000000,39.950219000000,0 98.474897000000,39.969247000000,0 98.444115000000,39.955769000000,0 98.420701000000,39.955373000000,0 98.392539000000,39.965779000000,0 98.371745000000,39.957454000000,0 98.329501000000,39.955868000000,0 98.296591000000,39.962806000000,0 98.162002000000,39.971625000000,0 98.062943000000,39.999760000000,0 98.068674000000,39.983217000000,0 98.066382000000,39.954084000000,0 98.024793000000,39.946551000000,0 98.004818000000,39.922956000000,0 98.036255000000,39.914725000000,0 97.990901000000,39.891913000000,0 97.983860000000,39.882785000000,0 98.031179000000,39.827996000000,0 97.992210000000,39.808631000000,0 97.974363000000,39.780616000000,0 97.862533000000,39.715005000000,0</coordinates></LinearRing></outerBoundaryIs></Polygon>
    </Placemark>
  </Document>
</kml>
