<?xml version="1.0" encoding="UTF-8"?>
<kml xmlns="http://www.opengis.net/kml/2.2">
<Document>
<name>白银市</name>
<Placemark><name>白银市</name><MultiGeometry><Polygon><outerBoundaryIs><LinearRing><coordinates>105.485967000000002,35.726396000000001,0 105.472703999999993,35.750639,0 105.453874999999996,35.747596000000001,0 105.457312999999999,35.771622999999998,0 105.431770999999998,35.787565999999998,0 105.430625000000006,35.813048999999999,0 105.408683999999994,35.822274999999998,0 105.383960999999999,35.792496,0 105.374955,35.804346000000002,0 105.386252999999996,35.817661999999999,0 105.371026000000001,35.844287999999999,0 105.398369000000002,35.855187000000001,0 105.390838000000002,35.866503999999999,0 105.350232000000005,35.875934000000001,0 105.334513000000001,35.886409999999998,0 105.329273999999998,35.907881000000003,0 105.340243999999998,35.909241999999999,0 105.325017000000003,35.941803999999998,0 105.331729999999993,35.951433999999999,0 105.333202999999997,36.000611999999997,0 105.341881000000001,36.005946999999999,0 105.344009999999997,36.033867999999998,0 105.365949999999998,36.034705000000002,0 105.360382999999999,36.044218999999998,0 105.391328999999999,36.074843999999999,0 105.408029999999997,36.075785000000003,0 105.431280000000001,36.104098999999998,0 105.491370000000003,36.10107,0 105.514948000000004,36.147334999999998,0 105.502013000000005,36.157671000000001,0 105.479089999999999,36.212874999999997,0 105.462062000000003,36.222158999999998,0 105.465827000000004,36.251984999999998,0 105.459768999999994,36.264496000000001,0 105.473195000000004,36.275545999999999,0 105.475324000000001,36.295034999999999,0 105.454201999999995,36.322749999999999,0 105.425713000000002,36.330145999999999,0 105.401644000000005,36.369926,0 105.419490999999994,36.377316999999998,0 105.402135000000001,36.385123999999998,0 105.399514999999994,36.428829,0 105.384778999999995,36.440480000000001,0 105.368241999999995,36.432158000000001,0 105.371026000000001,36.461696000000003,0 105.361365000000006,36.498185999999997,0 105.320104999999998,36.536009999999997,0 105.303894999999997,36.524686000000003,0 105.281136000000004,36.522607999999998,0 105.260177999999996,36.533620999999997,0 105.252155000000002,36.553150000000002,0 105.275897000000001,36.563119999999998,0 105.261161000000001,36.602677,0 105.250027000000003,36.601430999999998,0 105.241512999999998,36.625819999999997,0 105.221864999999994,36.62997,0 105.225466999999995,36.664515000000002,0 105.208601999999999,36.680174000000001,0 105.200907000000001,36.702154,0 105.215315000000004,36.727857999999998,0 105.240038999999996,36.741432000000003,0 105.272294000000002,36.739359999999998,0 105.275897000000001,36.752310000000001,0 105.319613000000004,36.742882000000002,0 105.341063000000005,36.764741000000001,0 105.332712000000001,36.806057000000003,0 105.300128999999998,36.824171,0 105.296690999999996,36.844247000000003,0 105.278679999999994,36.852628000000003,0 105.274586999999997,36.870835,0 105.240694000000005,36.896793000000002,0 105.226285000000004,36.886451999999998,0 105.207783000000006,36.897516000000003,0 105.178966000000003,36.892243000000001,0 105.184042000000005,36.902375999999997,0 105.177655999999999,36.92915,0 105.185678999999993,36.942067999999999,0 105.168650999999997,36.967278999999998,0 105.165375999999995,36.994855999999999,0 105.129355000000004,36.996302,0 105.075978000000006,37.013131999999999,0 105.059605000000005,37.022835999999998,0 105.039793000000003,37.007247,0 105.010975999999999,37.017260999999998,0 105.004425999999995,37.035429000000001,0 104.965294,37.031713000000003,0 104.954487999999998,37.040280000000003,0 104.953833000000003,37.077320999999998,0 104.914699999999996,37.097845999999997,0 104.915519000000003,37.116200999999997,0 104.898982000000004,37.127128999999996,0 104.887521000000007,37.159182000000001,0 104.866072000000003,37.171340000000001,0 104.856410999999994,37.211714999999998,0 104.806635999999997,37.234675000000003,0 104.793700999999999,37.229219000000001,0 104.775199000000001,37.246820999999997,0 104.717237999999995,37.208523,0 104.683181000000005,37.202961999999999,0 104.663696999999999,37.208317000000001,0 104.626037999999994,37.205846000000001,0 104.600660000000005,37.242704000000003,0 104.603606999999997,37.262462999999997,0 104.619816,37.290550000000003,0 104.632424,37.298881999999999,0 104.644375999999994,37.291167999999999,0 104.664679000000007,37.299602,0 104.665988999999996,37.310811999999999,0 104.714618000000002,37.330348000000001,0 104.717729000000006,37.350392999999997,0 104.702828999999994,37.345460000000003,0 104.668280999999993,37.356045999999999,0 104.661405000000002,37.376598000000001,0 104.679907,37.407826999999997,0 104.605243999999999,37.426208000000003,0 104.564802,37.430418000000003,0 104.544335000000004,37.423229999999997,0 104.521084999999999,37.434832999999998,0 104.499471999999997,37.421177,0 104.450680000000006,37.423641000000003,0 104.437745000000007,37.445816999999998,0 104.404833999999994,37.438322999999997,0 104.365538000000001,37.418095999999998,0 104.345071000000004,37.420458000000004,0 104.298406999999997,37.413988000000003,0 104.285308999999998,37.430520000000001,0 104.237825999999998,37.411935,0 104.183629999999994,37.406798999999999,0 104.082933999999995,37.469321000000001,0 103.933609000000004,37.574123,0 103.871390000000005,37.605781,0 103.850268999999997,37.633125999999997,0 103.790670000000006,37.586317000000001,0 103.762670999999997,37.541938999999999,0 103.759232999999995,37.521842999999997,0 103.771512999999999,37.506767000000004,0 103.773477999999997,37.473835999999999,0 103.764471999999998,37.446330000000003,0 103.767747,37.425488999999999,0 103.746953000000005,37.421793000000001,0 103.732708000000002,37.394781999999999,0 103.735983000000004,37.378242,0 103.770038999999997,37.355018000000001,0 103.763654000000002,37.342170000000003,0 103.775934000000007,37.329731000000002,0 103.765127000000007,37.302070000000001,0 103.747608,37.307417999999998,0 103.757596000000007,37.277279999999998,0 103.743351000000004,37.283555,0 103.723048000000006,37.261330999999998,0 103.746297999999996,37.242806000000002,0 103.725013000000004,37.229424999999999,0 103.692757,37.238276999999997,0 103.675565000000006,37.209553,0 103.655590000000004,37.148567999999997,0 103.646420000000006,37.133004,0 103.622187999999994,37.125478999999999,0 103.634304,37.113211,0 103.634958999999995,37.084851,0 103.618585999999993,37.063600000000001,0 103.590586999999999,37.068759,0 103.581417999999999,37.047606999999999,0 103.559641999999997,37.027275000000003,0 103.580927000000003,37.002496999999998,0 103.578470999999993,36.985973999999999,0 103.564881,36.973787000000002,0 103.547689000000005,36.950024999999997,0 103.575196000000005,36.923465,0 103.592388,36.882418999999999,0 103.623170000000002,36.868870000000001,0 103.604505000000003,36.847248,0 103.628246000000004,36.822101000000004,0 103.669506999999996,36.812888999999998,0 103.676874999999995,36.790630999999998,0 103.712078000000005,36.783900000000003,0 103.731234000000001,36.805124999999997,0 103.740894999999995,36.799328000000003,0 103.800494,36.791665999999999,0 103.796400000000006,36.803780000000003,0 103.761853000000002,36.828104000000003,0 103.757923000000005,36.844247000000003,0 103.777243999999996,36.851489999999998,0 103.790014999999997,36.829656999999997,0 103.815066000000002,36.823239999999998,0 103.825709000000003,36.798499999999997,0 103.832421999999994,36.812474999999999,0 103.859764999999996,36.803676000000003,0 103.903481999999997,36.803469,0 103.891366000000005,36.787731000000001,0 103.897097000000002,36.770229999999998,0 103.920509999999993,36.766812000000002,0 103.922639000000004,36.751998999999998,0 103.940813000000006,36.748683999999997,0 103.930661999999998,36.719774000000001,0 103.897424000000001,36.715629,0 103.897260000000003,36.704227000000003,0 103.915435000000002,36.693238000000001,0 103.899225000000001,36.671773999999999,0 103.924767000000003,36.656216999999998,0 103.942122999999995,36.635573000000001,0 103.960789000000005,36.625819999999997,0 103.951455999999993,36.611809999999998,0 103.974051000000003,36.584510000000002,0 104.040854999999993,36.573712,0 104.028575000000004,36.554291999999997,0 104.034141000000005,36.535699000000001,0 104.022024999999999,36.520634000000001,0 104.016621999999998,36.495899999999999,0 104.041017999999994,36.481242999999999,0 104.051824999999994,36.464295,0 104.042491999999996,36.457223999999997,0 104.050023999999993,36.414056000000002,0 104.095213999999999,36.371696,0 104.128615999999994,36.335979000000002,0 104.111096000000003,36.327438000000001,0 104.114371000000006,36.306913999999999,0 104.125669000000002,36.298369999999998,0 104.113388999999998,36.260429999999999,0 104.130252999999996,36.250942000000002,0 104.141551000000007,36.293785,0 104.163326999999995,36.305351000000002,0 104.164964999999995,36.322749999999999,0 104.184121000000005,36.341915,0 104.221452999999997,36.337541000000002,0 104.218177999999995,36.349621999999997,0 104.232095000000001,36.359305999999997,0 104.258948000000004,36.362220999999998,0 104.296278999999998,36.354308000000003,0 104.313962000000004,36.363886999999998,0 104.318055000000001,36.377420999999998,0 104.349164999999999,36.375546999999997,0 104.415476999999996,36.391368999999997,0 104.429067000000003,36.386581,0 104.439381999999995,36.408541,0 104.489812000000001,36.44256,0 104.507167999999993,36.428621,0 104.510441999999998,36.373153000000002,0 104.501763999999994,36.350766999999998,0 104.502419000000003,36.316082999999999,0 104.517155000000002,36.290241000000002,0 104.522231000000005,36.262098000000002,0 104.531728000000001,36.261159999999997,0 104.543025,36.237698999999999,0 104.512570999999994,36.202547000000003,0 104.530908999999994,36.168005000000001,0 104.577246000000002,36.168109000000001,0 104.568894999999998,36.139296000000002,0 104.559398999999999,36.130105999999998,0 104.567421999999993,36.112456000000002,0 104.561199999999999,36.092190000000002,0 104.537949999999995,36.084040000000002,0 104.519283999999999,36.060212,0 104.522722000000002,36.043695999999997,0 104.507330999999994,36.037945999999998,0 104.500618000000003,36.02017,0 104.532382999999996,36.014626999999997,0 104.561854999999994,36.028013000000001,0 104.584941000000001,36.029477,0 104.618669999999995,36.044846,0 104.633241999999996,36.035541000000002,0 104.663369000000003,36.041500999999997,0 104.680724999999995,36.033763999999998,0 104.676141000000001,36.022993999999997,0 104.648797000000002,36.010758000000003,0 104.646505000000005,35.996532999999999,0 104.676958999999997,35.986803999999999,0 104.709378999999998,35.949550000000002,0 104.727879999999999,35.951957999999998,0 104.738032000000004,35.931753999999998,0 104.769305000000003,35.917409999999997,0 104.768978000000004,35.887456999999998,0 104.811385000000001,35.877924,0 104.807291000000006,35.865875000000003,0 104.853628,35.854872999999998,0 104.865744000000007,35.832444000000002,0 104.864761999999999,35.804031000000002,0 104.884246000000005,35.793439999999997,0 104.891941000000003,35.767111999999997,0 104.937296000000003,35.738256,0 104.980357999999995,35.716633999999999,0 104.985596999999999,35.700361000000001,0 104.986743000000004,35.635024999999999,0 104.967095,35.608435,0 104.954978999999994,35.572159999999997,0 104.952849999999998,35.548178999999998,0 104.937132000000005,35.544601999999998,0 104.933201999999994,35.512929999999997,0 104.946465000000003,35.491562000000002,0 104.966768000000002,35.489983000000002,0 104.975446000000005,35.476402,0 104.996730999999997,35.471347000000002,0 105.000332999999998,35.456183000000003,0 105.044540999999995,35.448915999999997,0 105.070738000000006,35.454813999999999,0 105.083673000000005,35.418574999999997,0 105.123461000000006,35.420155999999999,0 105.117894000000007,35.440277999999999,0 105.135413,35.449126,0 105.175200000000004,35.441858000000003,0 105.232997999999995,35.482719000000003,0 105.271476000000007,35.475138000000001,0 105.303404,35.500298999999998,0 105.319777000000002,35.482824000000001,0 105.345483000000002,35.485351000000001,0 105.355470999999994,35.495668000000002,0 105.384287999999998,35.490088,0 105.415397999999996,35.497456999999997,0 105.406064999999998,35.514403000000001,0 105.414250999999993,35.526820999999998,0 105.447326000000004,35.537553000000003,0 105.451582999999999,35.551124000000002,0 105.473686999999998,35.553859000000003,0 105.476142999999993,35.600340000000003,0 105.520678000000004,35.608013999999997,0 105.456658000000004,35.689019999999999,0 105.457312999999999,35.715373999999997,0 105.485967000000002,35.726396000000001,0</coordinates></LinearRing></outerBoundaryIs></Polygon></MultiGeometry></Placemark>
</Document>
</kml>