<?xml version="1.0" encoding="UTF-8"?>
<kml xmlns="http://www.opengis.net/kml/2.2">
  <Document>
    <name><![CDATA[澳门特别行政区]]></name>
    <Placemark>
      <name><![CDATA[澳门特别行政区]]></name>
      <description><![CDATA[由 8 个下级区县合并]]></description>
      <ExtendedData>
        <Data name="adcode"><value>820000</value></Data>
      </ExtendedData>
      <MultiGeometry>
      <Polygon>
        <outerBoundaryIs><LinearRing><coordinates>113.540624,22.201871,0 113.544801,22.202859,0 113.547856,22.203799,0 113.547893,22.203796,0 113.548935,22.204118,0 113.548947,22.204136,0 113.550298,22.204553,0 113.550558,22.204553,0 113.550862,22.204447,0 113.554611,22.201432,0 113.55462,22.201399,0 113.555433,22.200742,0 113.555796,22.200429,0 113.555852,22.200424,0 113.557631,22.198945,0 113.557831,22.198878,0 113.558317,22.198833,0 113.558679,22.198708,0 113.559087,22.198448,0 113.559382,22.198211,0 113.559632,22.197815,0 113.559718,22.197413,0 113.559753,22.196629,0 113.559753,22.195816,0 113.559666,22.195555,0 113.559538,22.195372,0 113.559596,22.195368,0 113.560671,22.194629,0 113.560667,22.194582,0 113.561481,22.194029,0 113.561519,22.194054,0 113.582019,22.182646,0 113.575698,22.194265,0 113.575472,22.199781,0 113.573697,22.205587,0 113.567629,22.209102,0 113.567336,22.209241,0 113.55711,22.213036,0 113.556008,22.212463,0 113.555864,22.212561,0 113.555807,22.212703,0 113.555932,22.214074,0 113.555089,22.213974,0 113.55474,22.213773,0 113.554289,22.213656,0 113.553843,22.213659,0 113.553427,22.213776,0 113.552808,22.213703,0 113.552722,22.213604,0 113.552132,22.213827,0 113.550576,22.213861,0 113.550287,22.213973,0 113.549457,22.214005,0 113.548496,22.213368,0 113.54757,22.211492,0 113.547515,22.211343,0 113.547122,22.210753,0 113.547063,22.210731,0 113.546825,22.210294,0 113.546644,22.210384,0 113.54644,22.210146,0 113.546291,22.210083,0 113.546011,22.210094,0 113.543261,22.210709,0 113.541458,22.210708,0 113.540832,22.210632,0 113.540566,22.210549,0 113.540073,22.210601,0 113.538217,22.209386,0 113.5391,22.206724,0 113.539782,22.204445,0 113.540515,22.203771,0 113.540624,22.201871,0</coordinates></LinearRing></outerBoundaryIs>
      </Polygon>
      <Polygon>
        <outerBoundaryIs><LinearRing><coordinates>113.586501,22.201059,0 113.576151,22.201038,0 113.576045,22.20007,0 113.576045,22.194495,0 113.57635,22.193843,0 113.577001,22.193432,0 113.583971,22.193289,0 113.586193,22.194792,0 113.586499,22.195613,0 113.586501,22.201059,0</coordinates></LinearRing></outerBoundaryIs>
      </Polygon>
      <Polygon>
        <outerBoundaryIs><LinearRing><coordinates>113.53954,22.194664,0 113.540439,22.194489,0 113.542568,22.194084,0 113.542809,22.194007,0 113.544126,22.193404,0 113.545017,22.192899,0 113.545848,22.19224,0 113.545951,22.192252,0 113.546852,22.192922,0 113.547129,22.193039,0 113.547173,22.193356,0 113.548246,22.193533,0 113.548575,22.193276,0 113.548731,22.193482,0 113.548748,22.193801,0 113.548645,22.194912,0 113.548722,22.195229,0 113.548825,22.195338,0 113.55049,22.196665,0 113.550536,22.196663,0 113.551511,22.197419,0 113.551504,22.19745,0 113.553139,22.198685,0 113.55448,22.199812,0 113.555433,22.200742,0 113.55462,22.201399,0 113.554611,22.201432,0 113.550862,22.204447,0 113.550558,22.204553,0 113.550298,22.204553,0 113.548947,22.204136,0 113.548935,22.204118,0 113.547893,22.203796,0 113.547856,22.203799,0 113.544801,22.202859,0 113.540624,22.201871,0 113.540764,22.199383,0 113.53954,22.194664,0</coordinates></LinearRing></outerBoundaryIs>
      </Polygon>
      <Polygon>
        <outerBoundaryIs><LinearRing><coordinates>113.559538,22.195372,0 113.559666,22.195555,0 113.559753,22.195816,0 113.559753,22.196629,0 113.559718,22.197413,0 113.559632,22.197815,0 113.559382,22.198211,0 113.559087,22.198448,0 113.558679,22.198708,0 113.558317,22.198833,0 113.557831,22.198878,0 113.557631,22.198945,0 113.555852,22.200424,0 113.555796,22.200429,0 113.555433,22.200742,0 113.55448,22.199812,0 113.553139,22.198685,0 113.551504,22.19745,0 113.551511,22.197419,0 113.550536,22.196663,0 113.55049,22.196665,0 113.548825,22.195338,0 113.548722,22.195229,0 113.548645,22.194912,0 113.548748,22.193801,0 113.548731,22.193482,0 113.548575,22.193276,0 113.549882,22.192716,0 113.550012,22.192702,0 113.550782,22.192859,0 113.551241,22.192898,0 113.5519,22.192896,0 113.55299,22.192841,0 113.553484,22.192765,0 113.554297,22.192585,0 113.555613,22.192221,0 113.556316,22.191999,0 113.556973,22.193012,0 113.557198,22.193303,0 113.558913,22.194906,0 113.559538,22.195372,0</coordinates></LinearRing></outerBoundaryIs>
      </Polygon>
      <Polygon>
        <outerBoundaryIs><LinearRing><coordinates>113.540985,22.161571,0 113.544576,22.162559,0 113.544681,22.162679,0 113.544778,22.162616,0 113.559694,22.166727,0 113.586631,22.174165,0 113.582019,22.182646,0 113.561519,22.194054,0 113.561481,22.194029,0 113.560667,22.194582,0 113.560671,22.194629,0 113.559596,22.195368,0 113.559538,22.195372,0 113.558913,22.194906,0 113.557198,22.193303,0 113.556973,22.193012,0 113.556316,22.191999,0 113.555613,22.192221,0 113.554297,22.192585,0 113.553484,22.192765,0 113.55299,22.192841,0 113.5519,22.192896,0 113.551241,22.192898,0 113.550782,22.192859,0 113.550012,22.192702,0 113.549882,22.192716,0 113.548575,22.193276,0 113.548246,22.193533,0 113.547173,22.193356,0 113.547129,22.193039,0 113.546852,22.192922,0 113.545951,22.192252,0 113.545848,22.19224,0 113.545017,22.192899,0 113.544126,22.193404,0 113.542809,22.194007,0 113.542568,22.194084,0 113.540439,22.194489,0 113.543813,22.191402,0 113.544904,22.190468,0 113.545826,22.189594,0 113.545858,22.189537,0 113.545467,22.189246,0 113.544628,22.188373,0 113.544516,22.188227,0 113.544307,22.187732,0 113.544108,22.187427,0 113.543528,22.18665,0 113.54332,22.186298,0 113.543,22.185487,0 113.542792,22.184526,0 113.54274,22.184083,0 113.542723,22.183006,0 113.542693,22.182878,0 113.542541,22.182834,0 113.541053,22.182558,0 113.540784,22.182467,0 113.540612,22.182325,0 113.540524,22.182133,0 113.540334,22.181321,0 113.540213,22.181147,0 113.539972,22.180985,0 113.539123,22.180548,0 113.539001,22.180295,0 113.539053,22.179656,0 113.53895,22.179145,0 113.538724,22.17867,0 113.538499,22.178441,0 113.538066,22.178252,0 113.537686,22.17819,0 113.537253,22.178242,0 113.535557,22.178775,0 113.535064,22.178014,0 113.533314,22.179271,0 113.53456,22.174104,0 113.535723,22.172545,0 113.537107,22.170402,0 113.537273,22.16918,0 113.540985,22.161571,0</coordinates></LinearRing></outerBoundaryIs>
      </Polygon>
      <Polygon>
        <outerBoundaryIs><LinearRing><coordinates>113.533314,22.179271,0 113.535064,22.178014,0 113.535557,22.178775,0 113.537253,22.178242,0 113.537686,22.17819,0 113.538066,22.178252,0 113.538499,22.178441,0 113.538724,22.17867,0 113.53895,22.179145,0 113.539053,22.179656,0 113.539001,22.180295,0 113.539123,22.180548,0 113.539972,22.180985,0 113.540213,22.181147,0 113.540334,22.181321,0 113.540524,22.182133,0 113.540612,22.182325,0 113.540784,22.182467,0 113.541053,22.182558,0 113.542541,22.182834,0 113.542693,22.182878,0 113.542723,22.183006,0 113.54274,22.184083,0 113.542792,22.184526,0 113.543,22.185487,0 113.54332,22.186298,0 113.543528,22.18665,0 113.544108,22.187427,0 113.544307,22.187732,0 113.544516,22.188227,0 113.544628,22.188373,0 113.545467,22.189246,0 113.545858,22.189537,0 113.545826,22.189594,0 113.544904,22.190468,0 113.543813,22.191402,0 113.540439,22.194489,0 113.53954,22.194664,0 113.538742,22.191586,0 113.534366,22.185627,0 113.535335,22.185013,0 113.534311,22.183656,0 113.533508,22.181603,0 113.533314,22.179271,0</coordinates></LinearRing></outerBoundaryIs>
      </Polygon>
      <Polygon>
        <outerBoundaryIs><LinearRing><coordinates>113.549079,22.149234,0 113.551557,22.149168,0 113.554042,22.149194,0 113.556269,22.149081,0 113.556753,22.148961,0 113.55948,22.147904,0 113.559811,22.147805,0 113.560165,22.147866,0 113.560659,22.148274,0 113.560936,22.148388,0 113.561672,22.148306,0 113.562044,22.14832,0 113.562382,22.148377,0 113.563032,22.148573,0 113.563335,22.148727,0 113.5635,22.148868,0 113.563725,22.149183,0 113.563855,22.149476,0 113.563968,22.149999,0 113.564036,22.150455,0 113.564201,22.150787,0 113.564357,22.150883,0 113.565528,22.151392,0 113.565881,22.151391,0 113.566428,22.15116,0 113.566713,22.150915,0 113.566852,22.150494,0 113.567061,22.150276,0 113.567987,22.149961,0 113.568195,22.149819,0 113.56835,22.149605,0 113.568611,22.149024,0 113.568663,22.148702,0 113.568636,22.148547,0 113.568481,22.148172,0 113.568489,22.147816,0 113.568777,22.147547,0 113.569179,22.147555,0 113.56939,22.147639,0 113.571235,22.148645,0 113.571358,22.148748,0 113.571377,22.14902,0 113.571106,22.149549,0 113.571106,22.149712,0 113.571227,22.149876,0 113.571513,22.150105,0 113.571981,22.150426,0 113.573593,22.151359,0 113.573965,22.151521,0 113.574199,22.151531,0 113.574502,22.151311,0 113.575022,22.15065,0 113.57531,22.15041,0 113.575724,22.150234,0 113.589178,22.144281,0 113.601946,22.138113,0 113.593091,22.162285,0 113.586631,22.174165,0 113.559694,22.166727,0 113.544778,22.162616,0 113.544681,22.162679,0 113.544576,22.162559,0 113.540985,22.161571,0 113.544638,22.154083,0 113.549079,22.149234,0</coordinates></LinearRing></outerBoundaryIs>
      </Polygon>
      <Polygon>
        <outerBoundaryIs><LinearRing><coordinates>113.553916,22.125215,0 113.563949,22.127289,0 113.56407,22.127443,0 113.564391,22.128296,0 113.564529,22.128445,0 113.564798,22.128485,0 113.567266,22.128386,0 113.567631,22.128485,0 113.567856,22.128712,0 113.56789,22.128884,0 113.568003,22.131993,0 113.568107,22.132223,0 113.568324,22.132349,0 113.568618,22.132386,0 113.571408,22.132305,0 113.572257,22.132331,0 113.573184,22.13248,0 113.574068,22.132806,0 113.574848,22.133293,0 113.575827,22.134051,0 113.57659,22.134553,0 113.577257,22.134855,0 113.57802,22.135011,0 113.579329,22.135134,0 113.580612,22.135239,0 113.581374,22.135379,0 113.582312,22.135821,0 113.583056,22.136473,0 113.584062,22.137923,0 113.589178,22.144281,0 113.575724,22.150234,0 113.57531,22.15041,0 113.575022,22.15065,0 113.574502,22.151311,0 113.574199,22.151531,0 113.573965,22.151521,0 113.573593,22.151359,0 113.571981,22.150426,0 113.571513,22.150105,0 113.571227,22.149876,0 113.571106,22.149712,0 113.571106,22.149549,0 113.571377,22.14902,0 113.571358,22.148748,0 113.571235,22.148645,0 113.56939,22.147639,0 113.569179,22.147555,0 113.568777,22.147547,0 113.568489,22.147816,0 113.568481,22.148172,0 113.568636,22.148547,0 113.568663,22.148702,0 113.568611,22.149024,0 113.56835,22.149605,0 113.568195,22.149819,0 113.567987,22.149961,0 113.567061,22.150276,0 113.566852,22.150494,0 113.566713,22.150915,0 113.566428,22.15116,0 113.565881,22.151391,0 113.565528,22.151392,0 113.564357,22.150883,0 113.564201,22.150787,0 113.564036,22.150455,0 113.563968,22.149999,0 113.563855,22.149476,0 113.563725,22.149183,0 113.5635,22.148868,0 113.563335,22.148727,0 113.563032,22.148573,0 113.562382,22.148377,0 113.562044,22.14832,0 113.561672,22.148306,0 113.560936,22.148388,0 113.560659,22.148274,0 113.560165,22.147866,0 113.559811,22.147805,0 113.55948,22.147904,0 113.556753,22.148961,0 113.556269,22.149081,0 113.554042,22.149194,0 113.551557,22.149168,0 113.549079,22.149234,0 113.550344,22.14785,0 113.554638,22.142429,0 113.553916,22.125215,0</coordinates></LinearRing></outerBoundaryIs>
      </Polygon>
      <Polygon>
        <outerBoundaryIs><LinearRing><coordinates>113.553916,22.125215,0 113.553389,22.112664,0 113.554447,22.107312,0 113.559643,22.106216,0 113.561045,22.106214,0 113.576328,22.108147,0 113.578953,22.108929,0 113.580194,22.109694,0 113.597564,22.125115,0 113.603681,22.132371,0 113.603873,22.132864,0 113.601946,22.138113,0 113.589178,22.144281,0 113.584062,22.137923,0 113.583056,22.136473,0 113.582312,22.135821,0 113.581374,22.135379,0 113.580612,22.135239,0 113.579329,22.135134,0 113.57802,22.135011,0 113.577257,22.134855,0 113.57659,22.134553,0 113.575827,22.134051,0 113.574848,22.133293,0 113.574068,22.132806,0 113.573184,22.13248,0 113.572257,22.132331,0 113.571408,22.132305,0 113.568618,22.132386,0 113.568324,22.132349,0 113.568107,22.132223,0 113.568003,22.131993,0 113.56789,22.128884,0 113.567856,22.128712,0 113.567631,22.128485,0 113.567266,22.128386,0 113.564798,22.128485,0 113.564529,22.128445,0 113.564391,22.128296,0 113.56407,22.127443,0 113.563949,22.127289,0 113.553916,22.125215,0</coordinates></LinearRing></outerBoundaryIs>
      </Polygon>
    </MultiGeometry>
    </Placemark>
  </Document>
</kml>
