<?xml version="1.0" encoding="UTF-8"?>
<kml xmlns="http://www.opengis.net/kml/2.2">
  <Document>
    <name><![CDATA[天门市]]></name>
    <Placemark>
      <name><![CDATA[天门市]]></name>
      <description><![CDATA[省级目录：湖北省]]></description>
      <ExtendedData>
        <Data name="adcode"><value>429006</value></Data>
      </ExtendedData>
      <MultiGeometry>
      <Polygon>
        <outerBoundaryIs><LinearRing><coordinates>113.440131,30.489407,0 113.436558,30.49471,0 113.447822,30.514254,0 113.447667,30.530161,0 113.43516,30.538369,0 113.435626,30.566111,0 113.452871,30.598374,0 113.44922,30.605081,0 113.460407,30.614736,0 113.462426,30.633871,0 113.455202,30.636349,0 113.453027,30.645274,0 113.435548,30.654071,0 113.433373,30.670722,0 113.390803,30.676059,0 113.387152,30.678578,0 113.38552,30.678706,0 113.384976,30.682292,0 113.393832,30.715668,0 113.394454,30.722581,0 113.439743,30.722751,0 113.435781,30.73009,0 113.424051,30.736405,0 113.437956,30.757009,0 113.433373,30.761872,0 113.437257,30.781959,0 113.428867,30.794367,0 113.388084,30.842835,0 113.371615,30.850293,0 113.367342,30.863885,0 113.359108,30.871128,0 113.344348,30.870958,0 113.3386,30.878584,0 113.338677,30.889659,0 113.329977,30.894685,0 113.32617,30.888935,0 113.291912,30.903332,0 113.280337,30.901798,0 113.25812,30.886464,0 113.25711,30.88033,0 113.246701,30.869722,0 113.230776,30.866484,0 113.237534,30.85988,0 113.230931,30.85319,0 113.220366,30.858985,0 113.217103,30.851187,0 113.199236,30.825701,0 113.188594,30.816281,0 113.166532,30.811933,0 113.143693,30.80234,0 113.123962,30.809844,0 113.094131,30.817134,0 113.082323,30.823996,0 113.07642,30.821141,0 113.075021,30.810355,0 113.078905,30.795817,0 113.075953,30.785072,0 113.067874,30.779955,0 113.046201,30.778036,0 113.036957,30.77134,0 113.021032,30.775605,0 113.011477,30.787545,0 112.995474,30.785285,0 112.978694,30.764175,0 112.947155,30.748606,0 112.930608,30.73649,0 112.921287,30.717375,0 112.9101,30.714345,0 112.89635,30.717289,0 112.891301,30.711102,0 112.892388,30.700176,0 112.880192,30.697743,0 112.871492,30.705298,0 112.849197,30.716137,0 112.848264,30.719167,0 112.826436,30.722922,0 112.827989,30.727189,0 112.829776,30.728981,0 112.834903,30.730815,0 112.828067,30.753383,0 112.834204,30.757777,0 112.829465,30.772278,0 112.832417,30.777737,0 112.820687,30.78972,0 112.823484,30.801616,0 112.813929,30.813595,0 112.811598,30.823528,0 112.798392,30.826,0 112.780292,30.813894,0 112.771125,30.80315,0 112.726535,30.780083,0 112.699501,30.762895,0 112.689247,30.753767,0 112.654834,30.731754,0 112.648464,30.721514,0 112.632927,30.706877,0 112.616458,30.70167,0 112.605427,30.702566,0 112.593076,30.676315,0 112.593231,30.665386,0 112.61405,30.649843,0 112.63619,30.640961,0 112.658563,30.643096,0 112.694607,30.655224,0 112.704473,30.656334,0 112.71698,30.651765,0 112.721408,30.641687,0 112.717602,30.634,0 112.71162,30.629216,0 112.689713,30.622382,0 112.682334,30.616444,0 112.676119,30.599228,0 112.677206,30.584102,0 112.68412,30.572735,0 112.702764,30.553673,0 112.711309,30.554143,0 112.722573,30.568932,0 112.738421,30.574017,0 112.765299,30.569103,0 112.785652,30.575983,0 112.791401,30.573462,0 112.800256,30.554485,0 112.805617,30.532213,0 112.818512,30.511475,0 112.833893,30.500313,0 112.871647,30.491545,0 112.884931,30.504889,0 112.884776,30.518103,0 112.875997,30.538155,0 112.877007,30.549313,0 112.883222,30.559358,0 112.897438,30.571453,0 112.908857,30.574445,0 112.938299,30.558888,0 112.950495,30.530588,0 112.954535,30.525714,0 112.961526,30.521609,0 112.992366,30.530417,0 113.023129,30.529305,0 113.049153,30.51357,0 113.059019,30.510406,0 113.075099,30.511133,0 113.077662,30.504034,0 113.069195,30.485343,0 113.072535,30.472767,0 113.083411,30.471697,0 113.110988,30.485386,0 113.12435,30.484017,0 113.127535,30.479269,0 113.124039,30.467761,0 113.135692,30.447223,0 113.158453,30.430191,0 113.15822,30.43156,0 113.165134,30.437424,0 113.166687,30.436482,0 113.174455,30.447009,0 113.181292,30.448079,0 113.194187,30.441361,0 113.199159,30.426382,0 113.207859,30.42193,0 113.228756,30.426211,0 113.276842,30.428693,0 113.293077,30.427623,0 113.325161,30.419619,0 113.345047,30.425226,0 113.365323,30.420432,0 113.380626,30.410116,0 113.393755,30.408404,0 113.410301,30.396288,0 113.437956,30.394233,0 113.446346,30.382673,0 113.45458,30.378305,0 113.463436,30.380532,0 113.465611,30.391921,0 113.462582,30.406263,0 113.464369,30.42193,0 113.461417,30.430148,0 113.466155,30.444442,0 113.466155,30.460317,0 113.447589,30.467077,0 113.441996,30.473323,0 113.440131,30.489407,0</coordinates></LinearRing></outerBoundaryIs>
      </Polygon>
      <Polygon>
        <outerBoundaryIs><LinearRing><coordinates>113.439743,30.722751,0 113.394454,30.722581,0 113.393832,30.715668,0 113.384976,30.682292,0 113.38552,30.678706,0 113.387152,30.678578,0 113.389793,30.685237,0 113.398571,30.684554,0 113.390803,30.676059,0 113.433373,30.670722,0 113.441141,30.677126,0 113.441996,30.694158,0 113.425527,30.696634,0 113.432752,30.703548,0 113.439743,30.722751,0</coordinates></LinearRing></outerBoundaryIs>
      </Polygon>
      <Polygon>
        <outerBoundaryIs><LinearRing><coordinates>113.453881,30.506856,0 113.448133,30.492999,0 113.458154,30.506044,0 113.453881,30.506856,0</coordinates></LinearRing></outerBoundaryIs>
      </Polygon>
      <Polygon>
        <outerBoundaryIs><LinearRing><coordinates>112.829776,30.728981,0 112.827989,30.727189,0 112.826436,30.722922,0 112.848264,30.719167,0 112.841195,30.729322,0 112.829776,30.728981,0</coordinates></LinearRing></outerBoundaryIs>
      </Polygon>
      <Polygon>
        <outerBoundaryIs><LinearRing><coordinates>112.614594,30.703932,0 112.607214,30.710888,0 112.605816,30.704231,0 112.614594,30.703932,0</coordinates></LinearRing></outerBoundaryIs>
      </Polygon>
      <Polygon>
        <outerBoundaryIs><LinearRing><coordinates>113.166687,30.436482,0 113.165134,30.437424,0 113.15822,30.43156,0 113.158453,30.430191,0 113.166687,30.436482,0</coordinates></LinearRing></outerBoundaryIs>
      </Polygon>
    </MultiGeometry>
    </Placemark>
  </Document>
</kml>
