<?xml version="1.0" encoding="UTF-8"?>
<kml xmlns="http://www.opengis.net/kml/2.2">
  <Document>
    <name><![CDATA[孝感市]]></name>
    <Placemark>
      <name><![CDATA[孝感市]]></name>
      <description><![CDATA[省级目录：湖北省]]></description>
      <ExtendedData>
        <Data name="adcode"><value>420900</value></Data>
      </ExtendedData>
      <MultiGeometry>
      <Polygon>
        <outerBoundaryIs><LinearRing><coordinates>113.465611,30.391921,0 113.473535,30.394319,0 113.487363,30.381987,0 113.501268,30.384343,0 113.501423,30.398386,0 113.515251,30.414953,0 113.536924,30.420561,0 113.542207,30.428393,0 113.545703,30.449235,0 113.554947,30.459718,0 113.562948,30.474948,0 113.570406,30.479911,0 113.5847,30.482049,0 113.595187,30.490775,0 113.600236,30.479782,0 113.611034,30.475162,0 113.621754,30.486027,0 113.626493,30.482691,0 113.636592,30.460188,0 113.629367,30.453385,0 113.62191,30.430662,0 113.621211,30.421246,0 113.651973,30.418378,0 113.663004,30.414354,0 113.682192,30.391921,0 113.710002,30.388924,0 113.702312,30.395304,0 113.716994,30.408404,0 113.723131,30.423557,0 113.752806,30.425526,0 113.774635,30.432716,0 113.779995,30.44932,0 113.790171,30.457108,0 113.811767,30.486327,0 113.820623,30.49424,0 113.831421,30.495224,0 113.838102,30.516307,0 113.852784,30.530075,0 113.863038,30.530246,0 113.868087,30.517633,0 113.882148,30.525928,0 113.879584,30.537471,0 113.881138,30.551707,0 113.890538,30.568547,0 113.921067,30.571154,0 113.939711,30.586282,0 113.940565,30.608584,0 113.926583,30.619221,0 113.940565,30.634597,0 113.924485,30.642242,0 113.92534,30.647836,0 113.939944,30.659536,0 113.95719,30.683017,0 113.94445,30.687457,0 113.937847,30.697615,0 113.924407,30.693134,0 113.917882,30.699408,0 113.913143,30.713534,0 113.896985,30.708242,0 113.894422,30.725909,0 113.902501,30.727658,0 113.906463,30.721386,0 113.915862,30.725397,0 113.910347,30.732266,0 113.917338,30.753511,0 113.905919,30.755815,0 113.905297,30.764047,0 113.91594,30.769634,0 113.924174,30.76153,0 113.94041,30.776842,0 113.949266,30.779699,0 113.976533,30.77778,0 113.994944,30.786266,0 114.006208,30.785711,0 114.021977,30.780083,0 114.030289,30.785328,0 114.087153,30.782087,0 114.110303,30.775264,0 114.113876,30.767757,0 114.125606,30.77198,0 114.149533,30.768781,0 114.165458,30.755815,0 114.178353,30.75799,0 114.180917,30.767971,0 114.173537,30.798503,0 114.180218,30.818711,0 114.170973,30.830177,0 114.16639,30.875218,0 114.157534,30.885698,0 114.164603,30.89213,0 114.159243,30.906015,0 114.162661,30.91334,0 114.161185,30.942591,0 114.157845,30.953659,0 114.163749,30.955192,0 114.175401,30.967663,0 114.173381,30.978516,0 114.179441,30.986814,0 114.166157,31.007279,0 114.170663,31.012299,0 114.159399,31.021148,0 114.157923,31.029144,0 114.167866,31.038459,0 114.166002,31.046794,0 114.186355,31.054023,0 114.191482,31.073837,0 114.182548,31.084465,0 114.186432,31.094241,0 114.181849,31.112644,0 114.206086,31.126114,0 114.222866,31.142939,0 114.232654,31.16078,0 114.243607,31.169699,0 114.248346,31.179807,0 114.243218,31.191867,0 114.233197,31.203627,0 114.212145,31.199297,0 114.212301,31.206896,0 114.20259,31.217849,0 114.192103,31.223749,0 114.184102,31.240557,0 114.179985,31.256767,0 114.183558,31.267502,0 114.200726,31.268053,0 114.196065,31.278574,0 114.19723,31.288585,0 114.203911,31.301649,0 114.21937,31.302879,0 114.229003,31.318315,0 114.239179,31.323701,0 114.240111,31.339176,0 114.267456,31.350367,0 114.282915,31.361261,0 114.297286,31.349265,0 114.301558,31.336759,0 114.31189,31.335233,0 114.31826,31.325693,0 114.332942,31.316619,0 114.347314,31.323192,0 114.357568,31.32264,0 114.366501,31.310555,0 114.376523,31.31276,0 114.397497,31.311234,0 114.407363,31.314626,0 114.431833,31.312124,0 114.440067,31.307968,0 114.441233,31.327432,0 114.437581,31.336335,0 114.440999,31.342143,0 114.429114,31.352402,0 114.428182,31.361091,0 114.43696,31.381307,0 114.450321,31.387493,0 114.454361,31.398594,0 114.450943,31.414481,0 114.46547,31.406347,0 114.477821,31.405288,0 114.481705,31.409271,0 114.481705,31.440487,0 114.489707,31.463861,0 114.512002,31.461532,0 114.512312,31.479186,0 114.50369,31.499333,0 114.503068,31.514018,0 114.510992,31.524258,0 114.513788,31.536147,0 114.521246,31.541815,0 114.51977,31.557466,0 114.527849,31.550276,0 114.542065,31.549049,0 114.551698,31.553279,0 114.558689,31.568928,0 114.55364,31.59544,0 114.548901,31.609772,0 114.54828,31.625115,0 114.552941,31.635174,0 114.549678,31.642485,0 114.559155,31.656048,0 114.570808,31.660104,0 114.574226,31.689167,0 114.586111,31.692546,0 114.591394,31.700359,0 114.57912,31.708172,0 114.579741,31.724681,0 114.584092,31.731901,0 114.581606,31.742539,0 114.588053,31.756594,0 114.58448,31.764106,0 114.57275,31.762587,0 114.55496,31.768537,0 114.549523,31.765457,0 114.550299,31.753175,0 114.545328,31.746127,0 114.532122,31.740808,0 114.521246,31.766934,0 114.509671,31.766892,0 114.504311,31.756425,0 114.508661,31.740681,0 114.488852,31.7357,0 114.471995,31.740977,0 114.463372,31.733758,0 114.450865,31.737642,0 114.446593,31.728059,0 114.430901,31.73494,0 114.419171,31.733167,0 114.416296,31.742074,0 114.401692,31.74714,0 114.390039,31.741019,0 114.373804,31.744269,0 114.350421,31.755412,0 114.321523,31.755075,0 114.31391,31.751951,0 114.29278,31.752289,0 114.287498,31.762038,0 114.264348,31.788496,0 114.260309,31.798706,0 114.248501,31.810517,0 114.23545,31.833376,0 114.23646,31.841936,0 114.221312,31.832364,0 114.208883,31.842738,0 114.194977,31.850158,0 114.180295,31.854037,0 114.167011,31.851044,0 114.16336,31.841683,0 114.150077,31.839238,0 114.134074,31.84278,0 114.12716,31.8354,0 114.127937,31.826333,0 114.118149,31.805708,0 114.107895,31.787061,0 114.120324,31.771407,0 114.100515,31.7525,0 114.100592,31.746886,0 114.113488,31.731901,0 114.105253,31.724935,0 114.097407,31.71155,0 114.097252,31.70378,0 114.114265,31.682874,0 114.127704,31.675947,0 114.126383,31.659175,0 114.112478,31.634455,0 114.108982,31.620973,0 114.109215,31.605756,0 114.097485,31.603473,0 114.10168,31.592185,0 114.094456,31.578908,0 114.095776,31.573833,0 114.088552,31.556536,0 114.089018,31.543973,0 114.11007,31.535977,0 114.106962,31.528151,0 114.095621,31.517234,0 114.083114,31.511352,0 114.081638,31.500095,0 114.063615,31.487694,0 114.061673,31.473683,0 114.071228,31.463056,0 114.063305,31.439809,0 114.054837,31.432101,0 114.041631,31.438115,0 114.02524,31.436252,0 114.012112,31.422529,0 113.999061,31.41859,0 113.989273,31.429094,0 113.979718,31.430196,0 113.976144,31.4177,0 113.977853,31.400713,0 113.981815,31.3944,0 113.966434,31.396179,0 113.94445,31.384019,0 113.934428,31.382408,0 113.928602,31.389866,0 113.930622,31.396942,0 113.949421,31.400077,0 113.95214,31.411643,0 113.928447,31.415964,0 113.918659,31.43405,0 113.911046,31.43748,0 113.901258,31.432906,0 113.892868,31.413591,0 113.87904,31.416048,0 113.874146,31.436125,0 113.862882,31.450438,0 113.84789,31.448533,0 113.83414,31.432948,0 113.831887,31.425198,0 113.827226,31.432525,0 113.81837,31.433668,0 113.813243,31.441461,0 113.797939,31.438158,0 113.774712,31.453699,0 113.728335,31.465385,0 113.69967,31.444468,0 113.690115,31.42812,0 113.671005,31.418209,0 113.664247,31.40783,0 113.651274,31.397154,0 113.640864,31.395163,0 113.63465,31.387027,0 113.624085,31.389104,0 113.613986,31.397917,0 113.608082,31.415455,0 113.593167,31.421004,0 113.57965,31.417489,0 113.570406,31.404738,0 113.560229,31.405331,0 113.557044,31.396815,0 113.545159,31.398467,0 113.540187,31.38868,0 113.534672,31.393341,0 113.521621,31.391392,0 113.506473,31.406136,0 113.484411,31.420496,0 113.4747,31.432313,0 113.462116,31.431466,0 113.459474,31.42452,0 113.447434,31.421089,0 113.435548,31.424054,0 113.430965,31.418505,0 113.416283,31.421216,0 113.40362,31.418505,0 113.392512,31.410584,0 113.379927,31.411643,0 113.35802,31.426468,0 113.336036,31.4202,0 113.333007,31.411812,0 113.342173,31.369102,0 113.33355,31.354903,0 113.322597,31.358591,0 113.316693,31.340109,0 113.331531,31.324379,0 113.330132,31.319163,0 113.343416,31.315135,0 113.349941,31.304151,0 113.358487,31.307756,0 113.365944,31.298935,0 113.369362,31.284089,0 113.377053,31.275478,0 113.380005,31.285022,0 113.388783,31.291936,0 113.393599,31.286931,0 113.406262,31.291512,0 113.412554,31.283029,0 113.423041,31.280229,0 113.433684,31.254391,0 113.437568,31.253839,0 113.444715,31.234573,0 113.465223,31.224428,0 113.474079,31.231389,0 113.487363,31.226296,0 113.49047,31.212161,0 113.491169,31.148377,0 113.477497,31.13219,0 113.478662,31.127389,0 113.49482,31.117106,0 113.480682,31.113111,0 113.46833,31.102657,0 113.469185,31.07035,0 113.459008,31.045221,0 113.436403,31.027145,0 113.429333,31.013618,0 113.413642,31.003791,0 113.408825,31.004727,0 113.39391,30.985367,0 113.381791,30.99209,0 113.386841,30.972685,0 113.391968,30.966557,0 113.371848,30.966259,0 113.366255,30.959959,0 113.364468,30.947402,0 113.35802,30.945188,0 113.362914,30.929563,0 113.345747,30.931905,0 113.343338,30.937908,0 113.328967,30.930968,0 113.334172,30.918194,0 113.32819,30.911168,0 113.329977,30.894685,0 113.338677,30.889659,0 113.3386,30.878584,0 113.344348,30.870958,0 113.359108,30.871128,0 113.367342,30.863885,0 113.371615,30.850293,0 113.388084,30.842835,0 113.428867,30.794367,0 113.437257,30.781959,0 113.433373,30.761872,0 113.437956,30.757009,0 113.424051,30.736405,0 113.435781,30.73009,0 113.439743,30.722751,0 113.432752,30.703548,0 113.425527,30.696634,0 113.441996,30.694158,0 113.441141,30.677126,0 113.433373,30.670722,0 113.435548,30.654071,0 113.453027,30.645274,0 113.455202,30.636349,0 113.462426,30.633871,0 113.460407,30.614736,0 113.44922,30.605081,0 113.452871,30.598374,0 113.435626,30.566111,0 113.43516,30.538369,0 113.447667,30.530161,0 113.447822,30.514254,0 113.453881,30.506856,0 113.458154,30.506044,0 113.448133,30.492999,0 113.440131,30.489407,0 113.441996,30.473323,0 113.447589,30.467077,0 113.466155,30.460317,0 113.466155,30.444442,0 113.461417,30.430148,0 113.464369,30.42193,0 113.462582,30.406263,0 113.465611,30.391921,0</coordinates></LinearRing></outerBoundaryIs>
      </Polygon>
      <Polygon>
        <outerBoundaryIs><LinearRing><coordinates>113.440131,30.489407,0 113.448133,30.492999,0 113.453881,30.506856,0 113.447822,30.514254,0 113.436558,30.49471,0 113.440131,30.489407,0</coordinates></LinearRing></outerBoundaryIs>
      </Polygon>
      <Polygon>
        <outerBoundaryIs><LinearRing><coordinates>113.390803,30.676059,0 113.398571,30.684554,0 113.389793,30.685237,0 113.387152,30.678578,0 113.390803,30.676059,0</coordinates></LinearRing></outerBoundaryIs>
      </Polygon>
    </MultiGeometry>
    </Placemark>
  </Document>
</kml>
