<?xml version="1.0" encoding="UTF-8"?>
<kml xmlns="http://www.opengis.net/kml/2.2">
  <Document>
    <name><![CDATA[宜昌市]]></name>
    <Placemark>
      <name><![CDATA[宜昌市]]></name>
      <description><![CDATA[省级目录：湖北省]]></description>
      <ExtendedData>
        <Data name="adcode"><value>420500</value></Data>
      </ExtendedData>
      <MultiGeometry>
      <Polygon>
        <outerBoundaryIs><LinearRing><coordinates>112.079824,30.659323,0 112.086427,30.670082,0 112.079902,30.683914,0 112.070269,30.687329,0 112.060714,30.688396,0 112.069881,30.696335,0 112.072755,30.699152,0 112.055898,30.723007,0 112.066851,30.731541,0 112.069181,30.740543,0 112.063122,30.760805,0 112.046653,30.768056,0 112.049217,30.785584,0 112.045333,30.79441,0 112.052713,30.796457,0 112.047586,30.806476,0 112.049139,30.818839,0 112.046032,30.829452,0 112.033758,30.84113,0 112.015192,30.865419,0 112.024436,30.873216,0 112.027388,30.881438,0 112.028476,30.902054,0 112.031428,30.907377,0 112.027776,30.920962,0 112.031117,30.927647,0 112.025524,30.933182,0 112.015891,30.923389,0 112.015036,30.934034,0 112.0082,30.957533,0 112.011152,30.968004,0 112.02094,30.984473,0 112.013017,30.984941,0 112.004005,30.993196,0 112.002685,31.002514,0 111.989634,31.005152,0 111.988935,31.014171,0 111.976195,31.015405,0 111.973631,31.027655,0 111.964853,31.034886,0 111.969825,31.050068,0 111.961746,31.056574,0 111.945355,31.055767,0 111.935489,31.04875,0 111.919331,31.050324,0 111.917,31.058871,0 111.905736,31.076302,0 111.911873,31.081149,0 111.919564,31.074262,0 111.928653,31.074559,0 111.942558,31.098619,0 111.949317,31.099001,0 111.962678,31.117021,0 111.952968,31.123267,0 111.944578,31.123097,0 111.937664,31.138096,0 111.928187,31.141197,0 111.934013,31.15237,0 111.934634,31.173479,0 111.926944,31.173352,0 111.918088,31.180401,0 111.90931,31.170549,0 111.902784,31.175475,0 111.908378,31.186898,0 111.901775,31.193013,0 111.899755,31.184775,0 111.88515,31.174031,0 111.883752,31.189319,0 111.877537,31.197004,0 111.883907,31.207873,0 111.869847,31.211948,0 111.871711,31.222433,0 111.861535,31.2288,0 111.849028,31.23279,0 111.837142,31.228758,0 111.830617,31.240684,0 111.810342,31.250657,0 111.799699,31.246328,0 111.800165,31.253627,0 111.787503,31.273484,0 111.782453,31.264192,0 111.77554,31.264871,0 111.774141,31.277811,0 111.767228,31.281544,0 111.754954,31.280356,0 111.752934,31.289307,0 111.744311,31.288585,0 111.749283,31.295669,0 111.737475,31.294778,0 111.741592,31.306484,0 111.750137,31.309919,0 111.748273,31.317722,0 111.757362,31.318612,0 111.754021,31.324718,0 111.745166,31.324252,0 111.753478,31.343034,0 111.743767,31.350706,0 111.748195,31.353419,0 111.740815,31.36711,0 111.72155,31.357361,0 111.710286,31.35876,0 111.702595,31.351258,0 111.695371,31.358167,0 111.676105,31.350155,0 111.660336,31.349562,0 111.647518,31.362151,0 111.628719,31.373001,0 111.596869,31.340066,0 111.518953,31.302243,0 111.507145,31.302582,0 111.507145,31.302582,0 111.467604,31.306696,0 111.438318,31.31293,0 111.433424,31.320817,0 111.435133,31.335742,0 111.431715,31.344772,0 111.43086,31.36444,0 111.409031,31.369949,0 111.391319,31.360286,0 111.376249,31.358718,0 111.361489,31.347103,0 111.349759,31.346467,0 111.32459,31.356344,0 111.314258,31.366728,0 111.315345,31.374865,0 111.298333,31.383553,0 111.276115,31.383892,0 111.266794,31.397239,0 111.262832,31.417065,0 111.271066,31.421428,0 111.275727,31.436337,0 111.271998,31.445738,0 111.263919,31.452217,0 111.236264,31.461617,0 111.218863,31.462844,0 111.212105,31.458102,0 111.202394,31.439428,0 111.195636,31.438369,0 111.18274,31.4465,0 111.176448,31.442138,0 111.16868,31.451412,0 111.157494,31.441207,0 111.145064,31.434473,0 111.12611,31.437946,0 111.116088,31.430111,0 111.108864,31.414396,0 111.088744,31.417997,0 111.091696,31.424139,0 111.060545,31.430873,0 111.045475,31.42075,0 111.039726,31.423334,0 111.051534,31.438369,0 111.052699,31.441461,0 111.04563,31.447262,0 111.039027,31.461151,0 111.040581,31.482234,0 111.052311,31.497429,0 111.062099,31.503904,0 111.055806,31.513468,0 111.055185,31.524385,0 111.036075,31.538008,0 111.046407,31.547484,0 111.043999,31.565079,0 111.007643,31.563937,0 111.000496,31.568632,0 110.989854,31.566263,0 110.976414,31.569393,0 110.947827,31.566433,0 110.914035,31.55146,0 110.908908,31.532424,0 110.892284,31.529039,0 110.884438,31.518927,0 110.856239,31.499757,0 110.84816,31.499503,0 110.840858,31.513553,0 110.829827,31.523412,0 110.829516,31.538346,0 110.824932,31.542027,0 110.81227,31.536654,0 110.796578,31.55311,0 110.789509,31.552983,0 110.769234,31.541689,0 110.743676,31.538685,0 110.733189,31.531028,0 110.733267,31.516261,0 110.709262,31.482615,0 110.707864,31.477154,0 110.695435,31.477789,0 110.68588,31.485451,0 110.677879,31.48198,0 110.656749,31.482911,0 110.637173,31.479609,0 110.616587,31.485662,0 110.611926,31.483123,0 110.613712,31.466824,0 110.606332,31.458399,0 110.606488,31.4501,0 110.598564,31.438073,0 110.587844,31.409101,0 110.578522,31.399823,0 110.580852,31.381519,0 110.566481,31.366093,0 110.567724,31.356556,0 110.576658,31.34439,0 110.573861,31.330145,0 110.567258,31.326117,0 110.53735,31.317298,0 110.525464,31.324718,0 110.522668,31.336717,0 110.508063,31.347697,0 110.512569,31.356302,0 110.503325,31.368381,0 110.490818,31.369822,0 110.490662,31.356344,0 110.483438,31.339515,0 110.467591,31.328873,0 110.447781,31.329128,0 110.443509,31.319757,0 110.42704,31.310258,0 110.43644,31.301861,0 110.438615,31.2899,0 110.434498,31.282944,0 110.438537,31.276199,0 110.45019,31.26958,0 110.45252,31.260798,0 110.464328,31.262198,0 110.473728,31.253033,0 110.498198,31.254136,0 110.505189,31.249171,0 110.485069,31.23313,0 110.483826,31.225829,0 110.488876,31.212458,0 110.487555,31.205495,0 110.476524,31.204859,0 110.476136,31.186177,0 110.50014,31.182695,0 110.499208,31.163031,0 110.512103,31.153771,0 110.514744,31.143874,0 110.538826,31.132615,0 110.536107,31.12076,0 110.517541,31.107502,0 110.512647,31.097301,0 110.498275,31.085612,0 110.479088,31.084932,0 110.465959,31.081404,0 110.464561,31.074517,0 110.477689,31.037778,0 110.4599,31.031696,0 110.446305,31.030675,0 110.443509,31.023444,0 110.442887,30.999281,0 110.444907,30.969578,0 110.425486,30.910912,0 110.430769,30.910188,0 110.440324,30.892641,0 110.44312,30.881012,0 110.421214,30.870745,0 110.413756,30.875644,0 110.404667,30.872875,0 110.376002,30.847096,0 110.362097,30.841471,0 110.35697,30.833118,0 110.335996,30.82698,0 110.332811,30.813425,0 110.339336,30.806305,0 110.336617,30.797011,0 110.324965,30.783366,0 110.318284,30.762213,0 110.326052,30.754535,0 110.339181,30.752573,0 110.360388,30.756924,0 110.37507,30.76763,0 110.38478,30.781831,0 110.422379,30.782087,0 110.433643,30.771639,0 110.442577,30.743273,0 110.454229,30.731071,0 110.460988,30.730773,0 110.460521,30.721044,0 110.465571,30.713406,0 110.457803,30.70359,0 110.452442,30.669655,0 110.463706,30.666069,0 110.469222,30.64916,0 110.44918,30.649502,0 110.447393,30.63101,0 110.432866,30.617384,0 110.441489,30.605765,0 110.449413,30.604227,0 110.466037,30.594272,0 110.471941,30.577992,0 110.467435,30.562606,0 110.484215,30.565384,0 110.487633,30.553929,0 110.472407,30.551707,0 110.474194,30.541704,0 110.466581,30.522806,0 110.45151,30.521267,0 110.445762,30.512587,0 110.439547,30.489578,0 110.411814,30.48299,0 110.387111,30.469173,0 110.373827,30.474478,0 110.367224,30.466563,0 110.377867,30.44564,0 110.373283,30.441318,0 110.37507,30.423557,0 110.367224,30.416366,0 110.369399,30.40545,0 110.377944,30.401083,0 110.375614,30.390936,0 110.363418,30.381431,0 110.354873,30.3667,0 110.353474,30.346869,0 110.367146,30.336245,0 110.350911,30.331275,0 110.36769,30.315337,0 110.373439,30.304324,0 110.35798,30.273893,0 110.351998,30.258588,0 110.350212,30.243452,0 110.323489,30.25027,0 110.298475,30.243495,0 110.27618,30.243624,0 110.255671,30.234404,0 110.266159,30.221752,0 110.279209,30.220852,0 110.297076,30.212145,0 110.300572,30.200133,0 110.276956,30.192068,0 110.275791,30.182157,0 110.284259,30.176407,0 110.303524,30.169627,0 110.304845,30.151516,0 110.342055,30.135033,0 110.348114,30.127435,0 110.318905,30.100728,0 110.341356,30.093728,0 110.343375,30.081574,0 110.324965,30.069289,0 110.320304,30.063146,0 110.32411,30.044543,0 110.318206,30.037668,0 110.316963,30.01704,0 110.305621,30.001739,0 110.313312,29.977836,0 110.302592,29.962786,0 110.307253,29.954486,0 110.339957,29.943089,0 110.354639,29.955131,0 110.370254,29.959389,0 110.382683,29.955647,0 110.423389,29.95741,0 110.43007,29.962614,0 110.441878,29.98364,0 110.46627,30.006725,0 110.491595,30.019705,0 110.499829,30.026968,0 110.495945,30.040246,0 110.496333,30.054597,0 110.508219,30.050429,0 110.52127,30.058936,0 110.531368,30.061127,0 110.5511,30.055628,0 110.568035,30.054339,0 110.576347,30.059065,0 110.597632,30.054468,0 110.626608,30.06379,0 110.651,30.077622,0 110.659623,30.071222,0 110.686346,30.059151,0 110.682151,30.053866,0 110.694037,30.041535,0 110.71237,30.033156,0 110.722391,30.039645,0 110.735675,30.039902,0 110.748259,30.045875,0 110.756183,30.054296,0 110.754163,30.064091,0 110.756028,30.082991,0 110.748959,30.088317,0 110.753153,30.101286,0 110.746395,30.112623,0 110.763019,30.11902,0 110.788344,30.120008,0 110.802948,30.114426,0 110.814368,30.125975,0 110.836119,30.122712,0 110.848626,30.126104,0 110.858025,30.118548,0 110.87395,30.113438,0 110.897877,30.109789,0 110.924289,30.111334,0 110.925221,30.094501,0 110.922968,30.075732,0 110.929882,30.063447,0 110.970899,30.058979,0 110.998399,30.059366,0 111.005856,30.054468,0 111.031569,30.048883,0 111.086258,30.049441,0 111.124012,30.044457,0 111.133489,30.045273,0 111.178934,30.040504,0 111.179711,30.044242,0 111.199753,30.040977,0 111.213348,30.04175,0 111.243799,30.039559,0 111.251102,30.043727,0 111.27899,30.04682,0 111.306257,30.046434,0 111.31721,30.050687,0 111.324046,30.074658,0 111.331426,30.084409,0 111.352245,30.090808,0 111.375705,30.105623,0 111.388212,30.123829,0 111.403593,30.123313,0 111.424801,30.116272,0 111.436531,30.109874,0 111.45735,30.111034,0 111.470556,30.102274,0 111.484228,30.100342,0 111.507222,30.110261,0 111.526721,30.096563,0 111.54218,30.103391,0 111.558571,30.114984,0 111.573253,30.121682,0 111.575972,30.136364,0 111.573875,30.147954,0 111.583663,30.166194,0 111.578302,30.169541,0 111.579701,30.189537,0 111.590266,30.193612,0 111.592285,30.213474,0 111.5985,30.216091,0 111.606967,30.231831,0 111.594849,30.240365,0 111.594305,30.233632,0 111.576283,30.239422,0 111.573952,30.254601,0 111.587158,30.257516,0 111.602073,30.268106,0 111.609376,30.281737,0 111.633846,30.315465,0 111.680067,30.337187,0 111.693429,30.345541,0 111.715413,30.363316,0 111.736387,30.373766,0 111.764353,30.373123,0 111.779035,30.361646,0 111.781987,30.345926,0 111.788435,30.330419,0 111.814148,30.29751,0 111.825024,30.301238,0 111.831627,30.283452,0 111.857884,30.288081,0 111.89253,30.279037,0 111.900842,30.281609,0 111.907756,30.317779,0 111.913349,30.327162,0 111.914126,30.341943,0 111.929663,30.35415,0 111.939606,30.347768,0 111.958794,30.316665,0 111.991498,30.282937,0 112.013716,30.274793,0 112.043779,30.276551,0 112.041371,30.283923,0 112.048673,30.288981,0 112.049761,30.298324,0 112.027388,30.308566,0 111.996392,30.33556,0 111.976972,30.36246,0 111.977671,30.38734,0 111.980778,30.407548,0 111.978603,30.420347,0 111.971845,30.435883,0 111.956463,30.448036,0 111.952191,30.441147,0 111.942636,30.439221,0 111.92205,30.444485,0 111.90931,30.456637,0 111.927643,30.475077,0 111.913505,30.479526,0 111.924147,30.505916,0 111.974719,30.503777,0 111.981555,30.524132,0 111.999966,30.546791,0 112.002141,30.557862,0 111.997402,30.567222,0 111.976661,30.572778,0 111.989013,30.589016,0 111.986604,30.600809,0 112.011618,30.615676,0 112.018299,30.626824,0 112.021251,30.645146,0 112.061646,30.65706,0 112.06654,30.652064,0 112.079824,30.659323,0</coordinates></LinearRing></outerBoundaryIs>
      </Polygon>
      <Polygon>
        <outerBoundaryIs><LinearRing><coordinates>111.052699,31.441461,0 111.051534,31.438369,0 111.060545,31.430873,0 111.091696,31.424139,0 111.089521,31.431297,0 111.073674,31.442393,0 111.065361,31.437692,0 111.052699,31.441461,0</coordinates></LinearRing></outerBoundaryIs>
      </Polygon>
      <Polygon>
        <outerBoundaryIs><LinearRing><coordinates>111.596869,30.155336,0 111.601297,30.155336,0 111.597646,30.167782,0 111.588246,30.166924,0 111.596869,30.155336,0</coordinates></LinearRing></outerBoundaryIs>
      </Polygon>
      <Polygon>
        <outerBoundaryIs><LinearRing><coordinates>112.079902,30.683914,0 112.072755,30.699152,0 112.069881,30.696335,0 112.070269,30.687329,0 112.079902,30.683914,0</coordinates></LinearRing></outerBoundaryIs>
      </Polygon>
    </MultiGeometry>
    </Placemark>
  </Document>
</kml>
