<?xml version="1.0" encoding="UTF-8"?>
<kml xmlns="http://www.opengis.net/kml/2.2">
  <Document>
    <name><![CDATA[恩施土家族苗族自治州]]></name>
    <Placemark>
      <name><![CDATA[恩施土家族苗族自治州]]></name>
      <description><![CDATA[省级目录：湖北省]]></description>
      <ExtendedData>
        <Data name="adcode"><value>422800</value></Data>
      </ExtendedData>
      <MultiGeometry>
      <Polygon>
        <outerBoundaryIs><LinearRing><coordinates>110.447781,31.329128,0 110.446772,31.336081,0 110.437993,31.343076,0 110.438537,31.358336,0 110.425409,31.36232,0 110.403968,31.375543,0 110.387033,31.37673,0 110.378333,31.387366,0 110.359223,31.391349,0 110.349668,31.388256,0 110.343842,31.394866,0 110.321702,31.394866,0 110.272839,31.343966,0 110.256215,31.339303,0 110.239746,31.329764,0 110.227317,31.314965,0 110.213878,31.30589,0 110.181096,31.295584,0 110.164005,31.303218,0 110.162219,31.291003,0 110.155926,31.279508,0 110.162452,31.25193,0 110.171385,31.250572,0 110.174881,31.243527,0 110.169599,31.227951,0 110.175658,31.215005,0 110.180163,31.179595,0 110.186456,31.169572,0 110.196943,31.163583,0 110.198885,31.156532,0 110.186844,31.145318,0 110.189408,31.129471,0 110.180241,31.121653,0 110.162529,31.116043,0 110.146915,31.116893,0 110.145828,31.108182,0 110.135418,31.106269,0 110.120192,31.088375,0 110.122134,31.072901,0 110.133088,31.059806,0 110.12664,31.054661,0 110.120814,31.031994,0 110.140157,31.030633,0 110.140933,31.005024,0 110.136039,30.986771,0 110.163539,30.991622,0 110.171541,30.987537,0 110.17325,30.979622,0 110.161675,30.967918,0 110.164005,30.96213,0 110.153907,30.95383,0 110.145128,30.925816,0 110.151731,30.911508,0 110.123999,30.867975,0 110.115376,30.84488,0 110.0958,30.829879,0 110.095644,30.821268,0 110.08943,30.815897,0 110.081739,30.799271,0 110.052996,30.799569,0 110.042509,30.806689,0 110.039169,30.820501,0 110.031944,30.820458,0 110.019593,30.82958,0 110.017961,30.855321,0 110.005066,30.870404,0 110.008251,30.881864,0 109.995045,30.887828,0 109.975935,30.888679,0 109.958378,30.877476,0 109.943696,30.878967,0 109.9409,30.889702,0 109.932277,30.887657,0 109.905632,30.899796,0 109.894523,30.899796,0 109.87821,30.889191,0 109.85607,30.880245,0 109.819403,30.860221,0 109.797652,30.855619,0 109.780795,30.848588,0 109.759044,30.832819,0 109.729602,30.815386,0 109.716551,30.801701,0 109.718105,30.778675,0 109.702646,30.770231,0 109.702102,30.783665,0 109.692159,30.778931,0 109.6854,30.768653,0 109.656658,30.760464,0 109.660775,30.737258,0 109.649045,30.718911,0 109.625429,30.702652,0 109.602279,30.69881,0 109.590627,30.693432,0 109.581616,30.670851,0 109.587986,30.66466,0 109.57711,30.655309,0 109.574158,30.646854,0 109.562894,30.646726,0 109.538812,30.638441,0 109.533685,30.641559,0 109.541376,30.651637,0 109.53788,30.663977,0 109.528714,30.663891,0 109.514653,30.655394,0 109.493368,30.637203,0 109.482803,30.623194,0 109.465868,30.61952,0 109.456468,30.613796,0 109.449322,30.603714,0 109.437824,30.598074,0 109.428036,30.576154,0 109.418093,30.559999,0 109.393778,30.531144,0 109.380805,30.518317,0 109.368687,30.50027,0 109.352529,30.487011,0 109.342818,30.49471,0 109.341575,30.512715,0 109.337536,30.518616,0 109.345304,30.533495,0 109.361074,30.55098,0 109.361151,30.554742,0 109.344294,30.577137,0 109.314542,30.599783,0 109.32332,30.604141,0 109.328136,30.61606,0 109.313609,30.610165,0 109.299549,30.630583,0 109.278807,30.610165,0 109.251152,30.592905,0 109.234217,30.589273,0 109.227847,30.580897,0 109.247734,30.583205,0 109.222798,30.569615,0 109.192113,30.545637,0 109.168964,30.545979,0 109.163836,30.537129,0 109.147523,30.521652,0 109.141153,30.525073,0 109.139444,30.534564,0 109.124373,30.5317,0 109.12484,30.538925,0 109.113498,30.548672,0 109.104487,30.565085,0 109.096796,30.57218,0 109.08359,30.598245,0 109.093145,30.609011,0 109.112488,30.612685,0 109.121732,30.628746,0 109.114741,30.643908,0 109.107206,30.64553,0 109.097884,30.6381,0 109.088018,30.646641,0 109.071549,30.640534,0 109.055546,30.64237,0 109.045214,30.653943,0 109.022065,30.642968,0 109.009713,30.627251,0 108.99876,30.632291,0 108.987496,30.623279,0 108.978019,30.629814,0 108.967454,30.624817,0 108.943838,30.601834,0 108.919523,30.589358,0 108.894665,30.567008,0 108.893111,30.557819,0 108.871671,30.532726,0 108.854425,30.521909,0 108.843782,30.505916,0 108.811544,30.492016,0 108.806028,30.492016,0 108.79927,30.505916,0 108.78855,30.512929,0 108.772935,30.503478,0 108.761516,30.505317,0 108.744892,30.494625,0 108.723995,30.507541,0 108.726015,30.515708,0 108.713974,30.520754,0 108.715838,30.530374,0 108.710711,30.537984,0 108.69937,30.544397,0 108.699991,30.561794,0 108.690436,30.586709,0 108.666199,30.588589,0 108.654469,30.585,0 108.639864,30.574744,0 108.64336,30.562179,0 108.649886,30.553929,0 108.649342,30.537856,0 108.6286,30.525201,0 108.620133,30.522892,0 108.621764,30.515452,0 108.604519,30.510833,0 108.611432,30.502195,0 108.598537,30.493898,0 108.590536,30.494625,0 108.591235,30.487781,0 108.58168,30.485899,0 108.56995,30.470414,0 108.564978,30.468574,0 108.555035,30.487995,0 108.543926,30.491716,0 108.528312,30.487482,0 108.510911,30.502537,0 108.491723,30.501511,0 108.479138,30.488936,0 108.469273,30.486926,0 108.455057,30.489321,0 108.456066,30.495395,0 108.440996,30.491032,0 108.427557,30.492443,0 108.414273,30.476446,0 108.421187,30.464381,0 108.421808,30.448849,0 108.412098,30.436183,0 108.422352,30.428393,0 108.430431,30.415595,0 108.421653,30.410544,0 108.425304,30.399071,0 108.41839,30.393463,0 108.399591,30.390166,0 108.40332,30.374751,0 108.421886,30.366485,0 108.432684,30.354108,0 108.451017,30.355607,0 108.459873,30.359804,0 108.46904,30.343827,0 108.482789,30.336031,0 108.499336,30.315722,0 108.51495,30.315165,0 108.52637,30.305267,0 108.524894,30.294724,0 108.533905,30.291595,0 108.534837,30.282423,0 108.546179,30.276293,0 108.545247,30.269949,0 108.562026,30.262875,0 108.567309,30.254901,0 108.58168,30.255887,0 108.573523,30.237192,0 108.567464,30.234361,0 108.568862,30.225612,0 108.553792,30.174519,0 108.552238,30.163319,0 108.567464,30.155722,0 108.561482,30.144134,0 108.546101,30.104378,0 108.533206,30.084194,0 108.532351,30.07367,0 108.525282,30.073842,0 108.516271,30.06422,0 108.516426,30.053007,0 108.524194,30.058678,0 108.531807,30.055069,0 108.526137,30.049527,0 108.530642,30.043082,0 108.528855,30.005478,0 108.542605,29.997354,0 108.533361,29.96915,0 108.519456,29.943519,0 108.515882,29.9304,0 108.524039,29.911643,0 108.524272,29.896798,0 108.516193,29.885609,0 108.517048,29.865467,0 108.509046,29.878637,0 108.497471,29.878723,0 108.491878,29.868867,0 108.46803,29.864218,0 108.457387,29.865423,0 108.453114,29.871708,0 108.433771,29.880058,0 108.402776,29.85591,0 108.392755,29.86353,0 108.386929,29.860043,0 108.39159,29.853198,0 108.37147,29.841617,0 108.366964,29.820432,0 108.394231,29.81647,0 108.395474,29.832058,0 108.404718,29.834125,0 108.409379,29.820432,0 108.424527,29.815307,0 108.425537,29.804195,0 108.416992,29.787353,0 108.425071,29.772749,0 108.441384,29.778694,0 108.445502,29.76439,0 108.438588,29.756203,0 108.437112,29.740775,0 108.460494,29.740904,0 108.467641,29.729698,0 108.487528,29.724224,0 108.503608,29.708489,0 108.512853,29.711291,0 108.514562,29.720344,0 108.504152,29.729439,0 108.516659,29.735646,0 108.521009,29.730172,0 108.547033,29.742585,0 108.548509,29.749523,0 108.540119,29.756763,0 108.522485,29.763787,0 108.534449,29.787482,0 108.557443,29.819054,0 108.565833,29.820862,0 108.579893,29.831197,0 108.57733,29.844674,0 108.588128,29.848075,0 108.587972,29.853887,0 108.601411,29.865596,0 108.608403,29.86297,0 108.62293,29.867317,0 108.632951,29.864692,0 108.632795,29.856728,0 108.648099,29.852768,0 108.658664,29.854619,0 108.657732,29.848075,0 108.666898,29.842392,0 108.670316,29.819054,0 108.657654,29.815221,0 108.671015,29.811819,0 108.680648,29.801309,0 108.678395,29.777875,0 108.681813,29.770465,0 108.677308,29.76146,0 108.677618,29.748532,0 108.686707,29.740042,0 108.681036,29.721379,0 108.693155,29.704479,0 108.684765,29.693528,0 108.691135,29.68969,0 108.710323,29.699219,0 108.718247,29.691932,0 108.710944,29.679168,0 108.733628,29.671492,0 108.740619,29.665713,0 108.743028,29.655921,0 108.75266,29.64902,0 108.762992,29.653376,0 108.765866,29.661054,0 108.774567,29.651737,0 108.783267,29.653808,0 108.773013,29.661529,0 108.775965,29.675373,0 108.765089,29.68223,0 108.758176,29.678694,0 108.752583,29.689345,0 108.760662,29.693528,0 108.786297,29.691501,0 108.784666,29.677185,0 108.794143,29.67119,0 108.797483,29.660062,0 108.792279,29.647337,0 108.785909,29.650702,0 108.779694,29.644404,0 108.785675,29.633834,0 108.804397,29.640564,0 108.813641,29.631547,0 108.819856,29.63241,0 108.817681,29.647812,0 108.82809,29.671276,0 108.835393,29.66843,0 108.827314,29.654369,0 108.832984,29.651306,0 108.844482,29.65838,0 108.855746,29.636379,0 108.869729,29.64298,0 108.886586,29.633057,0 108.885887,29.621149,0 108.87035,29.596551,0 108.885887,29.588479,0 108.897617,29.596507,0 108.901268,29.604794,0 108.909192,29.59327,0 108.900258,29.583084,0 108.912532,29.572162,0 108.886896,29.553122,0 108.878429,29.539347,0 108.886974,29.53058,0 108.88744,29.499869,0 108.871438,29.488549,0 108.866466,29.472475,0 108.873768,29.462752,0 108.87369,29.449656,0 108.884488,29.440925,0 108.898083,29.441962,0 108.90958,29.436818,0 108.921232,29.436905,0 108.93203,29.431717,0 108.943683,29.410748,0 108.934128,29.399462,0 108.934516,29.386229,0 108.924417,29.350238,0 108.916649,29.334618,0 108.919756,29.32631,0 108.956112,29.33094,0 108.972348,29.329209,0 108.986175,29.336739,0 108.985088,29.350455,0 108.994721,29.355041,0 108.999459,29.363909,0 109.009791,29.360189,0 109.034727,29.360275,0 109.033484,29.378227,0 109.039932,29.389818,0 109.053216,29.402705,0 109.065723,29.40063,0 109.080793,29.39064,0 109.090348,29.37866,0 109.099282,29.375113,0 109.111944,29.361833,0 109.113731,29.352315,0 109.109924,29.342061,0 109.114275,29.331676,0 109.108526,29.319905,0 109.113886,29.314192,0 109.104642,29.293156,0 109.106429,29.288567,0 109.129967,29.282463,0 109.142008,29.27047,0 109.118547,29.232403,0 109.119479,29.227855,0 109.110391,29.215119,0 109.122975,29.199261,0 109.123053,29.191288,0 109.138823,29.16949,0 109.152883,29.171744,0 109.162516,29.180671,0 109.170983,29.177898,0 109.203066,29.151805,0 109.215496,29.145302,0 109.228546,29.129955,0 109.232586,29.119461,0 109.245326,29.115082,0 109.255969,29.123234,0 109.274146,29.122107,0 109.277176,29.134074,0 109.264048,29.144002,0 109.261484,29.161038,0 109.273913,29.172567,0 109.271039,29.183228,0 109.276088,29.200301,0 109.257833,29.22257,0 109.261406,29.227811,0 109.28611,29.242061,0 109.315085,29.252109,0 109.326815,29.260684,0 109.352218,29.284627,0 109.352295,29.305233,0 109.344139,29.306445,0 109.345304,29.314668,0 109.340177,29.33596,0 109.343983,29.369446,0 109.347401,29.373815,0 109.368764,29.382898,0 109.376766,29.37654,0 109.391525,29.372258,0 109.382048,29.382898,0 109.385311,29.393581,0 109.368609,29.411354,0 109.372881,29.425016,0 109.397041,29.439109,0 109.404731,29.434397,0 109.402246,29.444599,0 109.417161,29.4548,0 109.40512,29.468759,0 109.412811,29.484704,0 109.410014,29.49058,0 109.418326,29.498011,0 109.434873,29.489068,0 109.440621,29.493172,0 109.431299,29.505269,0 109.430988,29.529069,0 109.445282,29.529371,0 109.447613,29.520733,0 109.458566,29.513174,0 109.465091,29.516932,0 109.458566,29.530537,0 109.461829,29.554245,0 109.467033,29.559987,0 109.479929,29.552734,0 109.488707,29.553165,0 109.49764,29.568104,0 109.50401,29.588609,0 109.503622,29.597716,0 109.495931,29.598709,0 109.501447,29.605441,0 109.514498,29.600262,0 109.525062,29.608807,0 109.514265,29.617999,0 109.516517,29.625981,0 109.529801,29.625205,0 109.531277,29.61528,0 109.550387,29.612777,0 109.558622,29.607038,0 109.575867,29.62089,0 109.575401,29.62788,0 109.609426,29.634481,0 109.641432,29.623867,0 109.650831,29.626456,0 109.651064,29.610102,0 109.663494,29.599658,0 109.678797,29.607987,0 109.704976,29.608376,0 109.717794,29.615021,0 109.71088,29.629606,0 109.701248,29.636293,0 109.715774,29.649494,0 109.718416,29.658639,0 109.71492,29.673346,0 109.737059,29.678392,0 109.760131,29.68913,0 109.766191,29.702884,0 109.760209,29.71336,0 109.772949,29.724224,0 109.753528,29.734094,0 109.755237,29.743145,0 109.769298,29.744481,0 109.779474,29.757754,0 109.791904,29.763399,0 109.820879,29.769905,0 109.836649,29.769819,0 109.86982,29.774687,0 109.888464,29.765898,0 109.896853,29.770422,0 109.907884,29.764174,0 109.940201,29.77417,0 109.946493,29.779125,0 109.949756,29.772964,0 109.96972,29.771801,0 109.976012,29.768138,0 109.99085,29.772231,0 110.024176,29.769646,0 110.064105,29.78283,0 110.113511,29.789679,0 110.131068,29.781063,0 110.144895,29.771111,0 110.16082,29.75379,0 110.188165,29.754479,0 110.219859,29.746636,0 110.245806,29.732241,0 110.26041,29.719525,0 110.278199,29.709092,0 110.28993,29.696374,0 110.292027,29.671837,0 110.299873,29.662391,0 110.31572,29.661141,0 110.321236,29.665022,0 110.339491,29.668128,0 110.352387,29.654714,0 110.355805,29.638839,0 110.373439,29.633834,0 110.413601,29.654153,0 110.417019,29.661874,0 110.447005,29.664634,0 110.449335,29.690811,0 110.465182,29.713059,0 110.493847,29.700987,0 110.507131,29.692105,0 110.525231,29.693485,0 110.545351,29.705428,0 110.56283,29.712541,0 110.57456,29.723448,0 110.60206,29.742025,0 110.614412,29.74711,0 110.623733,29.755944,0 110.634998,29.760426,0 110.642455,29.772145,0 110.640047,29.782485,0 110.629715,29.798424,0 110.629249,29.805143,0 110.618373,29.82659,0 110.597787,29.840024,0 110.584037,29.835072,0 110.575415,29.844846,0 110.549935,29.847989,0 110.547604,29.8634,0 110.535719,29.880316,0 110.537894,29.896798,0 110.52694,29.904672,0 110.515521,29.902478,0 110.50783,29.908932,0 110.49812,29.910051,0 110.506743,29.919043,0 110.508063,29.944121,0 110.517385,29.961367,0 110.53533,29.975084,0 110.5511,29.979684,0 110.557159,29.98695,0 110.547293,29.999589,0 110.520104,30.001782,0 110.504645,30.008788,0 110.491595,30.019705,0 110.46627,30.006725,0 110.441878,29.98364,0 110.43007,29.962614,0 110.423389,29.95741,0 110.382683,29.955647,0 110.370254,29.959389,0 110.354639,29.955131,0 110.339957,29.943089,0 110.307253,29.954486,0 110.302592,29.962786,0 110.313312,29.977836,0 110.305621,30.001739,0 110.316963,30.01704,0 110.318206,30.037668,0 110.32411,30.044543,0 110.320304,30.063146,0 110.324965,30.069289,0 110.343375,30.081574,0 110.341356,30.093728,0 110.318905,30.100728,0 110.348114,30.127435,0 110.342055,30.135033,0 110.304845,30.151516,0 110.303524,30.169627,0 110.284259,30.176407,0 110.275791,30.182157,0 110.276956,30.192068,0 110.300572,30.200133,0 110.297076,30.212145,0 110.279209,30.220852,0 110.266159,30.221752,0 110.255671,30.234404,0 110.27618,30.243624,0 110.298475,30.243495,0 110.323489,30.25027,0 110.350212,30.243452,0 110.351998,30.258588,0 110.35798,30.273893,0 110.373439,30.304324,0 110.36769,30.315337,0 110.350911,30.331275,0 110.367146,30.336245,0 110.353474,30.346869,0 110.354873,30.3667,0 110.363418,30.381431,0 110.375614,30.390936,0 110.377944,30.401083,0 110.369399,30.40545,0 110.367224,30.416366,0 110.37507,30.423557,0 110.373283,30.441318,0 110.377867,30.44564,0 110.367224,30.466563,0 110.373827,30.474478,0 110.387111,30.469173,0 110.411814,30.48299,0 110.439547,30.489578,0 110.445762,30.512587,0 110.45151,30.521267,0 110.466581,30.522806,0 110.474194,30.541704,0 110.472407,30.551707,0 110.487633,30.553929,0 110.484215,30.565384,0 110.467435,30.562606,0 110.471941,30.577992,0 110.466037,30.594272,0 110.449413,30.604227,0 110.441489,30.605765,0 110.432866,30.617384,0 110.447393,30.63101,0 110.44918,30.649502,0 110.469222,30.64916,0 110.463706,30.666069,0 110.452442,30.669655,0 110.457803,30.70359,0 110.465571,30.713406,0 110.460521,30.721044,0 110.460988,30.730773,0 110.454229,30.731071,0 110.442577,30.743273,0 110.433643,30.771639,0 110.422379,30.782087,0 110.38478,30.781831,0 110.37507,30.76763,0 110.360388,30.756924,0 110.339181,30.752573,0 110.326052,30.754535,0 110.318284,30.762213,0 110.324965,30.783366,0 110.336617,30.797011,0 110.339336,30.806305,0 110.332811,30.813425,0 110.335996,30.82698,0 110.35697,30.833118,0 110.362097,30.841471,0 110.376002,30.847096,0 110.404667,30.872875,0 110.413756,30.875644,0 110.421214,30.870745,0 110.44312,30.881012,0 110.440324,30.892641,0 110.430769,30.910188,0 110.425486,30.910912,0 110.444907,30.969578,0 110.442887,30.999281,0 110.443509,31.023444,0 110.446305,31.030675,0 110.4599,31.031696,0 110.477689,31.037778,0 110.464561,31.074517,0 110.465959,31.081404,0 110.479088,31.084932,0 110.498275,31.085612,0 110.512647,31.097301,0 110.517541,31.107502,0 110.536107,31.12076,0 110.538826,31.132615,0 110.514744,31.143874,0 110.512103,31.153771,0 110.499208,31.163031,0 110.50014,31.182695,0 110.476136,31.186177,0 110.476524,31.204859,0 110.487555,31.205495,0 110.488876,31.212458,0 110.483826,31.225829,0 110.485069,31.23313,0 110.505189,31.249171,0 110.498198,31.254136,0 110.473728,31.253033,0 110.464328,31.262198,0 110.45252,31.260798,0 110.45019,31.26958,0 110.438537,31.276199,0 110.434498,31.282944,0 110.438615,31.2899,0 110.43644,31.301861,0 110.42704,31.310258,0 110.443509,31.319757,0 110.447781,31.329128,0</coordinates></LinearRing></outerBoundaryIs>
      </Polygon>
    </MultiGeometry>
    </Placemark>
  </Document>
</kml>
