<?xml version="1.0" encoding="UTF-8"?>
<kml xmlns="http://www.opengis.net/kml/2.2">
  <Document>
    <name><![CDATA[武汉市]]></name>
    <Placemark>
      <name><![CDATA[武汉市]]></name>
      <description><![CDATA[省级目录：湖北省]]></description>
      <ExtendedData>
        <Data name="adcode"><value>420100</value></Data>
      </ExtendedData>
      <MultiGeometry>
      <Polygon>
        <outerBoundaryIs><LinearRing><coordinates>113.710002,30.388924,0 113.709614,30.377791,0 113.73657,30.372824,0 113.751718,30.375393,0 113.741153,30.34901,0 113.746047,30.337016,0 113.763293,30.324378,0 113.759564,30.31945,0 113.76407,30.304495,0 113.761817,30.298196,0 113.762128,30.296353,0 113.76438,30.288981,0 113.776421,30.283709,0 113.789627,30.287824,0 113.792735,30.28388,0 113.78318,30.263776,0 113.779373,30.249627,0 113.764924,30.245682,0 113.755913,30.232045,0 113.769585,30.215447,0 113.800891,30.203308,0 113.811223,30.204166,0 113.817282,30.198246,0 113.820157,30.178982,0 113.84284,30.186748,0 113.851385,30.183444,0 113.866223,30.189665,0 113.863504,30.200005,0 113.867233,30.209528,0 113.888518,30.238307,0 113.911978,30.274793,0 113.929457,30.289195,0 113.953616,30.296481,0 113.975678,30.295196,0 114.000071,30.278994,0 114.01452,30.267248,0 114.02757,30.244138,0 114.035572,30.225355,0 114.048467,30.219651,0 114.044738,30.210171,0 114.036737,30.208241,0 114.038524,30.197431,0 114.0487,30.198203,0 114.056002,30.205367,0 114.075345,30.208413,0 114.10603,30.202364,0 114.115275,30.194428,0 114.129413,30.168726,0 114.151397,30.143876,0 114.154893,30.127778,0 114.150465,30.117174,0 114.162195,30.110046,0 114.167788,30.090679,0 114.192725,30.086685,0 114.197386,30.071093,0 114.195676,30.053995,0 114.198939,30.040633,0 114.208805,30.031781,0 114.214087,30.020736,0 114.212145,30.003243,0 114.237548,29.995892,0 114.265436,29.99946,0 114.297907,30.006424,0 114.305986,30.011754,0 114.324941,30.017513,0 114.334496,30.027441,0 114.347158,30.02628,0 114.361996,30.033027,0 114.372483,30.028042,0 114.406508,30.020951,0 114.423132,30.011023,0 114.43999,30.004876,0 114.451021,30.004833,0 114.461119,29.995591,0 114.481239,29.988154,0 114.487765,29.994087,0 114.497475,29.991894,0 114.497242,29.983898,0 114.514099,29.975428,0 114.524353,29.976073,0 114.532277,29.969322,0 114.5409,29.975084,0 114.533831,29.984156,0 114.534374,29.99284,0 114.543929,30.007885,0 114.534297,30.022026,0 114.537948,30.027183,0 114.548901,30.021295,0 114.549989,30.031566,0 114.562185,30.026882,0 114.565137,30.030277,0 114.553718,30.037711,0 114.545017,30.05421,0 114.54626,30.062802,0 114.54292,30.077794,0 114.536394,30.082003,0 114.533908,30.094673,0 114.518682,30.101973,0 114.519925,30.107384,0 114.505476,30.123829,0 114.508118,30.138382,0 114.506486,30.149842,0 114.515964,30.162933,0 114.513089,30.172588,0 114.519848,30.176364,0 114.521479,30.192797,0 114.534841,30.194599,0 114.540589,30.202579,0 114.544396,30.218621,0 114.544473,30.234619,0 114.567778,30.254086,0 114.570264,30.273336,0 114.590772,30.284481,0 114.595045,30.296396,0 114.592947,30.313923,0 114.598696,30.339244,0 114.59722,30.347126,0 114.586577,30.363059,0 114.593025,30.410287,0 114.591161,30.421417,0 114.583237,30.437466,0 114.591083,30.445298,0 114.590539,30.457407,0 114.608173,30.456851,0 114.619981,30.451331,0 114.626662,30.469772,0 114.635052,30.470157,0 114.640956,30.4779,0 114.633265,30.499971,0 114.637304,30.50737,0 114.633343,30.526697,0 114.624021,30.530716,0 114.630857,30.538668,0 114.625963,30.54149,0 114.621146,30.556879,0 114.630235,30.556494,0 114.66628,30.571923,0 114.692848,30.577009,0 114.71926,30.584102,0 114.739225,30.592862,0 114.760044,30.60914,0 114.784902,30.616829,0 114.791738,30.616829,0 114.803235,30.621485,0 114.85101,30.628191,0 114.859556,30.636349,0 114.855283,30.642669,0 114.848136,30.641046,0 114.840213,30.658383,0 114.830813,30.668374,0 114.815587,30.659707,0 114.805954,30.671576,0 114.81279,30.685578,0 114.795467,30.708285,0 114.791428,30.718783,0 114.79873,30.73201,0 114.811004,30.72625,0 114.829415,30.735295,0 114.848214,30.741695,0 114.875558,30.764516,0 114.877966,30.776458,0 114.875947,30.793387,0 114.883404,30.797309,0 114.900106,30.793984,0 114.900728,30.788568,0 114.917662,30.783451,0 114.924887,30.791297,0 114.933898,30.792918,0 114.952231,30.774368,0 114.958135,30.788654,0 114.946949,30.801147,0 114.970099,30.810867,0 114.972196,30.805666,0 114.983848,30.815769,0 114.989752,30.808778,0 114.993248,30.82438,0 115.000861,30.834524,0 114.992704,30.843602,0 114.999385,30.857537,0 115.010571,30.85221,0 115.011271,30.858644,0 115.029914,30.857579,0 115.03442,30.846841,0 115.056327,30.855832,0 115.051899,30.860136,0 115.062153,30.869083,0 115.081651,30.87803,0 115.079399,30.89098,0 115.057026,30.896219,0 115.059822,30.903246,0 115.05454,30.908783,0 115.036828,30.909549,0 115.028283,30.916576,0 115.035896,30.926923,0 115.009562,30.926114,0 114.990529,30.945146,0 114.9868,30.957022,0 114.994103,30.965067,0 114.983072,30.971749,0 114.983848,30.979665,0 114.991228,30.981963,0 114.988976,30.99643,0 114.985713,30.99443,0 114.977634,30.995111,0 114.969089,30.99392,0 114.964661,30.985878,0 114.954484,30.990558,0 114.957359,31.000004,0 114.942754,30.993622,0 114.93786,31.001834,0 114.931878,30.994856,0 114.921469,31.014341,0 114.905699,31.005748,0 114.883482,31.006471,0 114.863906,30.991026,0 114.855205,30.991367,0 114.855516,30.984175,0 114.870509,30.980175,0 114.876257,30.968897,0 114.862352,30.945699,0 114.843009,30.944805,0 114.8413,30.949573,0 114.825608,30.948807,0 114.825453,30.956426,0 114.818151,30.956256,0 114.808829,30.974175,0 114.80712,30.993622,0 114.795312,30.988899,0 114.798497,31.000855,0 114.778765,30.986643,0 114.777988,30.978516,0 114.767967,30.96047,0 114.762996,30.966386,0 114.764472,30.979196,0 114.77022,30.985622,0 114.760743,30.987154,0 114.757869,30.995069,0 114.750566,30.994005,0 114.730524,30.980048,0 114.713589,30.980558,0 114.702481,30.973792,0 114.704112,30.957831,0 114.70116,30.953106,0 114.708617,30.939909,0 114.693625,30.947615,0 114.682594,30.948679,0 114.655405,30.932246,0 114.650744,30.941868,0 114.642975,30.933395,0 114.628604,30.927945,0 114.615942,30.927264,0 114.614233,30.940079,0 114.608562,30.944166,0 114.604367,30.960555,0 114.576246,30.969876,0 114.559932,30.984175,0 114.551775,30.998004,0 114.544007,30.990814,0 114.540978,31.000132,0 114.525286,31.01264,0 114.512157,31.01349,0 114.500427,31.03344,0 114.504855,31.045008,0 114.515575,31.050834,0 114.515653,31.063675,0 114.534064,31.094369,0 114.528548,31.108224,0 114.53453,31.117021,0 114.527616,31.122375,0 114.525674,31.135462,0 114.518139,31.144978,0 114.493591,31.149184,0 114.486522,31.159761,0 114.471218,31.170167,0 114.461585,31.168553,0 114.459177,31.183077,0 114.472228,31.183884,0 114.472306,31.190932,0 114.45273,31.195943,0 114.454982,31.204052,0 114.434785,31.206047,0 114.424453,31.211779,0 114.405887,31.229564,0 114.402236,31.249341,0 114.411868,31.258719,0 114.440067,31.307968,0 114.431833,31.312124,0 114.407363,31.314626,0 114.397497,31.311234,0 114.376523,31.31276,0 114.366501,31.310555,0 114.357568,31.32264,0 114.347314,31.323192,0 114.332942,31.316619,0 114.31826,31.325693,0 114.31189,31.335233,0 114.301558,31.336759,0 114.297286,31.349265,0 114.282915,31.361261,0 114.267456,31.350367,0 114.240111,31.339176,0 114.239179,31.323701,0 114.229003,31.318315,0 114.21937,31.302879,0 114.203911,31.301649,0 114.19723,31.288585,0 114.196065,31.278574,0 114.200726,31.268053,0 114.183558,31.267502,0 114.179985,31.256767,0 114.184102,31.240557,0 114.192103,31.223749,0 114.20259,31.217849,0 114.212301,31.206896,0 114.212145,31.199297,0 114.233197,31.203627,0 114.243218,31.191867,0 114.248346,31.179807,0 114.243607,31.169699,0 114.232654,31.16078,0 114.222866,31.142939,0 114.206086,31.126114,0 114.181849,31.112644,0 114.186432,31.094241,0 114.182548,31.084465,0 114.191482,31.073837,0 114.186355,31.054023,0 114.166002,31.046794,0 114.167866,31.038459,0 114.157923,31.029144,0 114.159399,31.021148,0 114.170663,31.012299,0 114.166157,31.007279,0 114.179441,30.986814,0 114.173381,30.978516,0 114.175401,30.967663,0 114.163749,30.955192,0 114.157845,30.953659,0 114.161185,30.942591,0 114.162661,30.91334,0 114.159243,30.906015,0 114.164603,30.89213,0 114.157534,30.885698,0 114.16639,30.875218,0 114.170973,30.830177,0 114.180218,30.818711,0 114.173537,30.798503,0 114.180917,30.767971,0 114.178353,30.75799,0 114.165458,30.755815,0 114.149533,30.768781,0 114.125606,30.77198,0 114.113876,30.767757,0 114.110303,30.775264,0 114.087153,30.782087,0 114.030289,30.785328,0 114.021977,30.780083,0 114.006208,30.785711,0 113.994944,30.786266,0 113.976533,30.77778,0 113.949266,30.779699,0 113.94041,30.776842,0 113.924174,30.76153,0 113.91594,30.769634,0 113.905297,30.764047,0 113.905919,30.755815,0 113.917338,30.753511,0 113.910347,30.732266,0 113.915862,30.725397,0 113.906463,30.721386,0 113.902501,30.727658,0 113.894422,30.725909,0 113.896985,30.708242,0 113.913143,30.713534,0 113.917882,30.699408,0 113.924407,30.693134,0 113.937847,30.697615,0 113.94445,30.687457,0 113.95719,30.683017,0 113.939944,30.659536,0 113.92534,30.647836,0 113.924485,30.642242,0 113.940565,30.634597,0 113.926583,30.619221,0 113.940565,30.608584,0 113.939711,30.586282,0 113.921067,30.571154,0 113.890538,30.568547,0 113.881138,30.551707,0 113.879584,30.537471,0 113.882148,30.525928,0 113.868087,30.517633,0 113.863038,30.530246,0 113.852784,30.530075,0 113.838102,30.516307,0 113.831421,30.495224,0 113.820623,30.49424,0 113.811767,30.486327,0 113.790171,30.457108,0 113.779995,30.44932,0 113.774635,30.432716,0 113.752806,30.425526,0 113.723131,30.423557,0 113.716994,30.408404,0 113.702312,30.395304,0 113.710002,30.388924,0</coordinates></LinearRing></outerBoundaryIs>
      </Polygon>
      <Polygon>
        <outerBoundaryIs><LinearRing><coordinates>114.939258,31.019914,0 114.947726,31.023317,0 114.946328,31.034035,0 114.93351,31.03714,0 114.929004,31.025188,0 114.939258,31.019914,0</coordinates></LinearRing></outerBoundaryIs>
      </Polygon>
      <Polygon>
        <outerBoundaryIs><LinearRing><coordinates>114.969089,30.99392,0 114.977634,30.995111,0 114.985713,30.99443,0 114.988976,30.99643,0 114.982916,31.002387,0 114.98548,31.017659,0 114.980663,31.025231,0 114.971575,31.021148,0 114.977867,31.006131,0 114.969089,30.99392,0</coordinates></LinearRing></outerBoundaryIs>
      </Polygon>
    </MultiGeometry>
    </Placemark>
  </Document>
</kml>
