<?xml version="1.0" encoding="UTF-8"?>
<kml xmlns="http://www.opengis.net/kml/2.2">
  <Document>
    <name><![CDATA[神农架林区]]></name>
    <Placemark>
      <name><![CDATA[神农架林区]]></name>
      <description><![CDATA[省级目录：湖北省]]></description>
      <ExtendedData>
        <Data name="adcode"><value>429021</value></Data>
      </ExtendedData>
      <MultiGeometry>
      <Polygon>
        <outerBoundaryIs><LinearRing><coordinates>109.982305,31.512537,0 109.96133,31.499291,0 109.957213,31.490784,0 109.949289,31.488625,0 109.940589,31.47872,0 109.946027,31.469449,0 109.954727,31.468391,0 109.967933,31.474318,0 109.98782,31.474656,0 109.996365,31.469364,0 110.003668,31.453656,0 110.02068,31.442096,0 110.033498,31.439682,0 110.03443,31.430831,0 110.049811,31.418378,0 110.054006,31.41088,0 110.106287,31.408211,0 110.114521,31.412109,0 110.118872,31.400628,0 110.127339,31.393383,0 110.140001,31.390502,0 110.145284,31.381307,0 110.140001,31.368296,0 110.149168,31.355835,0 110.147537,31.346425,0 110.158024,31.333495,0 110.151731,31.317891,0 110.159655,31.315347,0 110.164005,31.303218,0 110.181096,31.295584,0 110.213878,31.30589,0 110.227317,31.314965,0 110.239746,31.329764,0 110.256215,31.339303,0 110.272839,31.343966,0 110.321702,31.394866,0 110.343842,31.394866,0 110.349668,31.388256,0 110.359223,31.391349,0 110.378333,31.387366,0 110.387033,31.37673,0 110.403968,31.375543,0 110.425409,31.36232,0 110.438537,31.358336,0 110.437993,31.343076,0 110.446772,31.336081,0 110.447781,31.329128,0 110.467591,31.328873,0 110.483438,31.339515,0 110.490662,31.356344,0 110.490818,31.369822,0 110.503325,31.368381,0 110.512569,31.356302,0 110.508063,31.347697,0 110.522668,31.336717,0 110.525464,31.324718,0 110.53735,31.317298,0 110.567258,31.326117,0 110.573861,31.330145,0 110.576658,31.34439,0 110.567724,31.356556,0 110.566481,31.366093,0 110.580852,31.381519,0 110.578522,31.399823,0 110.587844,31.409101,0 110.598564,31.438073,0 110.606488,31.4501,0 110.606332,31.458399,0 110.613712,31.466824,0 110.611926,31.483123,0 110.616587,31.485662,0 110.637173,31.479609,0 110.656749,31.482911,0 110.677879,31.48198,0 110.68588,31.485451,0 110.695435,31.477789,0 110.707864,31.477154,0 110.709262,31.482615,0 110.733267,31.516261,0 110.733189,31.531028,0 110.743676,31.538685,0 110.769234,31.541689,0 110.789509,31.552983,0 110.796578,31.55311,0 110.81227,31.536654,0 110.824932,31.542027,0 110.829516,31.538346,0 110.829827,31.523412,0 110.840858,31.513553,0 110.84816,31.499503,0 110.856239,31.499757,0 110.884438,31.518927,0 110.892284,31.529039,0 110.908908,31.532424,0 110.914035,31.55146,0 110.947827,31.566433,0 110.941612,31.593622,0 110.957382,31.615478,0 110.970666,31.638174,0 110.982318,31.643203,0 110.976414,31.650344,0 110.95241,31.660611,0 110.946739,31.665681,0 110.914656,31.657696,0 110.906966,31.666019,0 110.891429,31.675778,0 110.880709,31.69546,0 110.878922,31.711677,0 110.872708,31.71611,0 110.875504,31.732998,0 110.868357,31.746464,0 110.852588,31.763347,0 110.848704,31.771491,0 110.835497,31.782589,0 110.81126,31.782462,0 110.802249,31.789424,0 110.777701,31.816464,0 110.775138,31.827894,0 110.766826,31.832069,0 110.760766,31.828147,0 110.752687,31.839702,0 110.723478,31.842527,0 110.708641,31.845858,0 110.700873,31.852351,0 110.685025,31.85408,0 110.670809,31.860403,0 110.664595,31.857832,0 110.660555,31.844888,0 110.652321,31.842991,0 110.636473,31.848598,0 110.627074,31.845816,0 110.618296,31.849568,0 110.611149,31.844382,0 110.598642,31.84805,0 110.58598,31.844719,0 110.536806,31.84999,0 110.530514,31.840798,0 110.518861,31.838563,0 110.51824,31.854501,0 110.509229,31.856778,0 110.482894,31.847376,0 110.489186,31.836117,0 110.472019,31.828653,0 110.472562,31.814651,0 110.464017,31.813596,0 110.451044,31.805961,0 110.432556,31.812246,0 110.428283,31.820429,0 110.405056,31.81773,0 110.399152,31.806974,0 110.387266,31.802587,0 110.368622,31.800815,0 110.370176,31.771702,0 110.348269,31.762207,0 110.330169,31.763178,0 110.314244,31.760857,0 110.298863,31.763516,0 110.283482,31.762714,0 110.271829,31.753133,0 110.249457,31.745747,0 110.233454,31.732787,0 110.233532,31.716532,0 110.222889,31.686169,0 110.217374,31.675355,0 110.233143,31.667456,0 110.237882,31.659935,0 110.236173,31.645696,0 110.212013,31.632638,0 110.206187,31.619029,0 110.223511,31.612815,0 110.234075,31.599161,0 110.233842,31.59172,0 110.223044,31.58673,0 110.219393,31.570746,0 110.215509,31.569097,0 110.202691,31.57895,0 110.191505,31.581445,0 110.180163,31.599119,0 110.168666,31.60398,0 110.129436,31.603896,0 110.098208,31.586096,0 110.083836,31.572057,0 110.064959,31.563895,0 110.069931,31.549641,0 110.065892,31.544861,0 110.048646,31.537585,0 110.041266,31.529377,0 110.025186,31.519604,0 110.012601,31.523666,0 109.994656,31.521338,0 109.982305,31.512537,0</coordinates></LinearRing></outerBoundaryIs>
      </Polygon>
    </MultiGeometry>
    </Placemark>
  </Document>
</kml>
