<?xml version="1.0" encoding="UTF-8"?>
<kml xmlns="http://www.opengis.net/kml/2.2">
  <Document>
    <name><![CDATA[荆州市]]></name>
    <Placemark>
      <name><![CDATA[荆州市]]></name>
      <description><![CDATA[省级目录：湖北省]]></description>
      <ExtendedData>
        <Data name="adcode"><value>421000</value></Data>
      </ExtendedData>
      <MultiGeometry>
      <Polygon>
        <outerBoundaryIs><LinearRing><coordinates>111.583663,30.166194,0 111.588246,30.166924,0 111.597646,30.167782,0 111.601297,30.155336,0 111.596869,30.155336,0 111.573875,30.147954,0 111.575972,30.136364,0 111.573253,30.121682,0 111.558571,30.114984,0 111.54218,30.103391,0 111.526721,30.096563,0 111.507222,30.110261,0 111.484228,30.100342,0 111.470556,30.102274,0 111.45735,30.111034,0 111.436531,30.109874,0 111.424801,30.116272,0 111.403593,30.123313,0 111.388212,30.123829,0 111.375705,30.105623,0 111.352245,30.090808,0 111.331426,30.084409,0 111.324046,30.074658,0 111.31721,30.050687,0 111.306257,30.046434,0 111.27899,30.04682,0 111.251102,30.043727,0 111.243799,30.039559,0 111.257938,30.031523,0 111.267027,30.01141,0 111.285671,30.011324,0 111.297711,30.004619,0 111.297245,29.990218,0 111.318763,29.971902,0 111.324124,29.97818,0 111.342068,29.945368,0 111.348904,29.942272,0 111.351468,29.951304,0 111.375394,29.954228,0 111.382852,29.949755,0 111.378113,29.936809,0 111.388678,29.937669,0 111.382852,29.923646,0 111.390853,29.914826,0 111.404292,29.910997,0 111.41812,29.915171,0 111.437774,29.930013,0 111.445542,29.924721,0 111.462089,29.927345,0 111.475683,29.918828,0 111.514525,29.92769,0 111.52742,29.925668,0 111.538451,29.904672,0 111.546142,29.904199,0 111.551346,29.895249,0 111.56766,29.898261,0 111.577914,29.894431,0 111.583973,29.898046,0 111.597801,29.889483,0 111.620018,29.891419,0 111.62165,29.894948,0 111.651402,29.893097,0 111.662355,29.885825,0 111.668881,29.888837,0 111.681776,29.884577,0 111.699488,29.887632,0 111.723803,29.906092,0 111.730173,29.918053,0 111.757439,29.920075,0 111.79465,29.905705,0 111.809642,29.902263,0 111.810342,29.893786,0 111.830695,29.887933,0 111.828986,29.873989,0 111.839628,29.87683,0 111.852757,29.86835,0 111.863399,29.856556,0 111.880645,29.86,0 111.914592,29.852681,0 111.919253,29.842435,0 111.937043,29.832403,0 111.960969,29.837441,0 111.965242,29.831154,0 111.951569,29.81423,0 111.954832,29.796744,0 111.977049,29.790498,0 111.987071,29.793987,0 111.991265,29.782787,0 112.009754,29.778048,0 112.031194,29.762278,0 112.045566,29.7584,0 112.050693,29.749178,0 112.064676,29.745946,0 112.05481,29.757237,0 112.064443,29.769819,0 112.066152,29.753703,0 112.075707,29.744222,0 112.07291,29.715085,0 112.06452,29.710343,0 112.059937,29.69577,0 112.065453,29.681756,0 112.087515,29.681756,0 112.091865,29.68568,0 112.107479,29.67119,0 112.112606,29.659243,0 112.11851,29.662693,0 112.124958,29.657,0 112.14399,29.657431,0 112.150593,29.654541,0 112.164576,29.662348,0 112.178171,29.656655,0 112.183997,29.648027,0 112.185861,29.634352,0 112.198291,29.617438,0 112.199456,29.629865,0 112.20668,29.635085,0 112.22043,29.637242,0 112.219498,29.64738,0 112.236122,29.658466,0 112.244201,29.659631,0 112.231461,29.639658,0 112.228432,29.627707,0 112.234413,29.615798,0 112.242337,29.609972,0 112.255543,29.609929,0 112.282033,29.596248,0 112.294307,29.59586,0 112.302852,29.586192,0 112.303163,29.567241,0 112.291588,29.542759,0 112.282732,29.537533,0 112.279314,29.529155,0 112.278226,29.508465,0 112.282654,29.49503,0 112.290733,29.516932,0 112.298424,29.516932,0 112.315747,29.524275,0 112.32002,29.540556,0 112.332061,29.544745,0 112.370281,29.542197,0 112.391799,29.567845,0 112.397237,29.564132,0 112.402209,29.576393,0 112.408967,29.578638,0 112.423571,29.595687,0 112.4273,29.616963,0 112.439652,29.633791,0 112.456664,29.635948,0 112.468472,29.631332,0 112.481989,29.633489,0 112.499079,29.629261,0 112.505216,29.611008,0 112.535202,29.599701,0 112.540795,29.600823,0 112.56511,29.62076,0 112.572257,29.623867,0 112.589658,29.620243,0 112.607136,29.61226,0 112.607758,29.608031,0 112.624693,29.616532,0 112.640152,29.607901,0 112.650639,29.592493,0 112.660272,29.599529,0 112.6734,29.600046,0 112.678993,29.589515,0 112.686917,29.592752,0 112.689014,29.602377,0 112.699035,29.610749,0 112.698647,29.619984,0 112.713951,29.637544,0 112.714028,29.647165,0 112.727545,29.655318,0 112.731818,29.645051,0 112.763823,29.664807,0 112.763668,29.672311,0 112.779127,29.679729,0 112.788604,29.679901,0 112.784875,29.693571,0 112.795207,29.697667,0 112.791789,29.713748,0 112.806083,29.726077,0 112.793964,29.735904,0 112.815405,29.746636,0 112.843603,29.771111,0 112.861626,29.783131,0 112.880658,29.786879,0 112.894408,29.783778,0 112.902021,29.791273,0 112.886562,29.796442,0 112.901167,29.803162,0 112.919655,29.799673,0 112.933793,29.789292,0 112.93962,29.779986,0 112.937911,29.766587,0 112.929366,29.774084,0 112.923772,29.766544,0 112.930686,29.752238,0 112.931308,29.726206,0 112.927346,29.708403,0 112.927035,29.692148,0 112.935192,29.681928,0 112.944824,29.682748,0 112.959351,29.696374,0 112.962925,29.706807,0 112.979238,29.737628,0 113.003475,29.755255,0 113.011787,29.767664,0 113.026081,29.772792,0 113.030897,29.762278,0 113.025071,29.748661,0 113.015205,29.710903,0 113.004951,29.693743,0 112.976208,29.672139,0 112.96541,29.658941,0 112.945368,29.64751,0 112.912042,29.616143,0 112.911809,29.606865,0 112.924005,29.571644,0 112.927113,29.556188,0 112.937367,29.527125,0 112.943271,29.493907,0 112.950185,29.472907,0 112.96409,29.468068,0 112.973334,29.472389,0 112.990347,29.497968,0 113.018779,29.516198,0 113.034393,29.523584,0 113.05762,29.522461,0 113.064689,29.51244,0 113.072768,29.48276,0 113.076031,29.450175,0 113.08077,29.434095,0 113.090558,29.430766,0 113.102676,29.443043,0 113.099957,29.459683,0 113.113552,29.456701,0 113.132584,29.45735,0 113.145324,29.44931,0 113.155734,29.457134,0 113.182068,29.485568,0 113.222386,29.543709,0 113.256644,29.566507,0 113.272258,29.580839,0 113.277308,29.595126,0 113.298049,29.613856,0 113.326248,29.647812,0 113.377364,29.703186,0 113.401756,29.724051,0 113.438655,29.751635,0 113.456678,29.759219,0 113.493111,29.786578,0 113.517892,29.812422,0 113.571493,29.848936,0 113.605829,29.869254,0 113.640165,29.904414,0 113.670073,29.918354,0 113.696175,29.923947,0 113.724529,29.920075,0 113.741075,29.91986,0 113.800115,29.924291,0 113.82777,29.935389,0 113.845171,29.954744,0 113.886653,30.008229,0 113.902656,30.023057,0 113.929379,30.03393,0 114.046447,30.071823,0 114.077365,30.087587,0 114.088319,30.099397,0 114.091892,30.110991,0 114.086843,30.123957,0 114.055303,30.139412,0 114.028658,30.157268,0 113.976766,30.195672,0 113.968842,30.200477,0 113.94344,30.203651,0 113.908249,30.188979,0 113.893956,30.185718,0 113.873991,30.186362,0 113.866223,30.189665,0 113.851385,30.183444,0 113.84284,30.186748,0 113.820157,30.178982,0 113.824041,30.170142,0 113.822565,30.158212,0 113.789006,30.130569,0 113.775411,30.128594,0 113.764846,30.119063,0 113.737813,30.134132,0 113.731365,30.13044,0 113.732919,30.118762,0 113.717149,30.117002,0 113.706507,30.094201,0 113.684134,30.092182,0 113.677841,30.084022,0 113.668053,30.079899,0 113.648011,30.089391,0 113.618647,30.082819,0 113.598372,30.081831,0 113.558365,30.069289,0 113.542207,30.072081,0 113.534516,30.067871,0 113.521232,30.071952,0 113.51494,30.079727,0 113.517659,30.088532,0 113.480837,30.116744,0 113.481148,30.121811,0 113.463203,30.148383,0 113.446113,30.15525,0 113.436713,30.164992,0 113.419934,30.165679,0 113.376897,30.19284,0 113.344737,30.192368,0 113.332773,30.171043,0 113.325394,30.164134,0 113.309624,30.156581,0 113.279716,30.151817,0 113.250973,30.153233,0 113.237146,30.149971,0 113.213142,30.156452,0 113.150995,30.141301,0 113.138255,30.141987,0 113.12132,30.151259,0 113.097083,30.145722,0 113.091801,30.146752,0 113.067486,30.165422,0 113.060494,30.180483,0 113.047288,30.18958,0 113.033616,30.188979,0 113.024993,30.182929,0 113.028256,30.171944,0 113.015516,30.163405,0 113.020022,30.147825,0 113.001999,30.135849,0 112.989259,30.132243,0 112.977451,30.138124,0 112.963468,30.134089,0 112.946689,30.143404,0 112.945446,30.158727,0 112.923384,30.164821,0 112.904352,30.163362,0 112.892855,30.171258,0 112.881202,30.16937,0 112.880736,30.180741,0 112.869938,30.189279,0 112.853314,30.179625,0 112.844225,30.164864,0 112.835991,30.160701,0 112.817347,30.163362,0 112.810433,30.152246,0 112.8189,30.13117,0 112.818667,30.122455,0 112.810511,30.108844,0 112.792799,30.108973,0 112.788992,30.102832,0 112.794119,30.096777,0 112.809734,30.089605,0 112.817036,30.078309,0 112.740829,30.078309,0 112.739974,30.088918,0 112.70828,30.088231,0 112.699812,30.092826,0 112.684276,30.092569,0 112.670137,30.102231,0 112.649551,30.105065,0 112.632849,30.114039,0 112.622052,30.116272,0 112.603563,30.115156,0 112.590435,30.117431,0 112.583288,30.127435,0 112.59797,30.146709,0 112.598436,30.159542,0 112.592687,30.171558,0 112.580336,30.175463,0 112.575286,30.185632,0 112.575209,30.205367,0 112.580413,30.209485,0 112.570392,30.230759,0 112.545844,30.260046,0 112.527667,30.274879,0 112.521452,30.287652,0 112.516869,30.316494,0 112.520908,30.329733,0 112.521219,30.350638,0 112.512052,30.356592,0 112.502342,30.373894,0 112.513062,30.379632,0 112.5279,30.394447,0 112.515703,30.400313,0 112.505993,30.410887,0 112.463656,30.435883,0 112.449207,30.438322,0 112.439186,30.433272,0 112.433826,30.422401,0 112.400266,30.425954,0 112.381079,30.423386,0 112.356065,30.406691,0 112.345578,30.402325,0 112.330973,30.405621,0 112.307435,30.426382,0 112.30293,30.436867,0 112.304017,30.448849,0 112.311708,30.451288,0 112.311164,30.460573,0 112.302619,30.480167,0 112.296637,30.4856,0 112.285839,30.485129,0 112.275508,30.490519,0 112.272556,30.499287,0 112.263078,30.502494,0 112.248319,30.49779,0 112.228742,30.499244,0 112.221518,30.505188,0 112.200155,30.494026,0 112.20031,30.481707,0 112.212507,30.47713,0 112.214138,30.470071,0 112.200699,30.473237,0 112.18858,30.469387,0 112.17584,30.479055,0 112.175452,30.492914,0 112.183065,30.519899,0 112.173665,30.532555,0 112.158828,30.534393,0 112.152069,30.522635,0 112.136222,30.53294,0 112.133192,30.546064,0 112.136921,30.558161,0 112.133658,30.570855,0 112.124802,30.58641,0 112.112451,30.599057,0 112.109965,30.606448,0 112.117345,30.625585,0 112.100721,30.630198,0 112.096681,30.646982,0 112.08534,30.651338,0 112.079824,30.659323,0 112.06654,30.652064,0 112.061646,30.65706,0 112.021251,30.645146,0 112.018299,30.626824,0 112.011618,30.615676,0 111.986604,30.600809,0 111.989013,30.589016,0 111.976661,30.572778,0 111.997402,30.567222,0 112.002141,30.557862,0 111.999966,30.546791,0 111.981555,30.524132,0 111.974719,30.503777,0 111.924147,30.505916,0 111.913505,30.479526,0 111.927643,30.475077,0 111.90931,30.456637,0 111.92205,30.444485,0 111.942636,30.439221,0 111.952191,30.441147,0 111.956463,30.448036,0 111.971845,30.435883,0 111.978603,30.420347,0 111.980778,30.407548,0 111.977671,30.38734,0 111.976972,30.36246,0 111.996392,30.33556,0 112.027388,30.308566,0 112.049761,30.298324,0 112.048673,30.288981,0 112.041371,30.283923,0 112.043779,30.276551,0 112.013716,30.274793,0 111.991498,30.282937,0 111.958794,30.316665,0 111.939606,30.347768,0 111.929663,30.35415,0 111.914126,30.341943,0 111.913349,30.327162,0 111.907756,30.317779,0 111.900842,30.281609,0 111.89253,30.279037,0 111.857884,30.288081,0 111.831627,30.283452,0 111.825024,30.301238,0 111.814148,30.29751,0 111.788435,30.330419,0 111.781987,30.345926,0 111.779035,30.361646,0 111.764353,30.373123,0 111.736387,30.373766,0 111.715413,30.363316,0 111.693429,30.345541,0 111.680067,30.337187,0 111.633846,30.315465,0 111.609376,30.281737,0 111.602073,30.268106,0 111.587158,30.257516,0 111.573952,30.254601,0 111.576283,30.239422,0 111.594305,30.233632,0 111.594849,30.240365,0 111.606967,30.231831,0 111.5985,30.216091,0 111.592285,30.213474,0 111.590266,30.193612,0 111.579701,30.189537,0 111.578302,30.169541,0 111.583663,30.166194,0</coordinates></LinearRing></outerBoundaryIs>
      </Polygon>
      <Polygon>
        <outerBoundaryIs><LinearRing><coordinates>113.930544,30.028085,0 113.913842,30.022971,0 113.903744,30.016525,0 113.894033,30.004919,0 113.894033,29.997827,0 113.924097,30.020092,0 113.936215,30.026839,0 113.930544,30.028085,0</coordinates></LinearRing></outerBoundaryIs>
      </Polygon>
      <Polygon>
        <outerBoundaryIs><LinearRing><coordinates>111.573875,30.147954,0 111.596869,30.155336,0 111.588246,30.166924,0 111.583663,30.166194,0 111.573875,30.147954,0</coordinates></LinearRing></outerBoundaryIs>
      </Polygon>
      <Polygon>
        <outerBoundaryIs><LinearRing><coordinates>112.902021,29.791273,0 112.894408,29.783778,0 112.923772,29.766544,0 112.929366,29.774084,0 112.902021,29.791273,0</coordinates></LinearRing></outerBoundaryIs>
      </Polygon>
    </MultiGeometry>
    </Placemark>
  </Document>
</kml>
