<?xml version="1.0" encoding="UTF-8"?>
<kml xmlns="http://www.opengis.net/kml/2.2">
  <Document>
    <name><![CDATA[襄阳市]]></name>
    <Placemark>
      <name><![CDATA[襄阳市]]></name>
      <description><![CDATA[省级目录：湖北省]]></description>
      <ExtendedData>
        <Data name="adcode"><value>420600</value></Data>
      </ExtendedData>
      <MultiGeometry>
      <Polygon>
        <outerBoundaryIs><LinearRing><coordinates>111.583041,32.596544,0 111.585139,32.577807,0 111.578691,32.564171,0 111.556396,32.540406,0 111.555774,32.533125,0 111.542102,32.515129,0 111.539306,32.499306,0 111.533169,32.491017,0 111.526177,32.497966,0 111.507999,32.4893,0 111.499376,32.475524,0 111.489977,32.477786,0 111.483218,32.470499,0 111.474363,32.470457,0 111.484617,32.448763,0 111.466672,32.431755,0 111.441347,32.425513,0 111.424024,32.413403,0 111.408099,32.41047,0 111.399631,32.419228,0 111.382308,32.428194,0 111.375317,32.408417,0 111.354886,32.396682,0 111.329484,32.388719,0 111.316744,32.375724,0 111.316122,32.365202,0 111.303848,32.353755,0 111.275494,32.347843,0 111.25483,32.337485,0 111.235332,32.321631,0 111.230749,32.303173,0 111.233778,32.294404,0 111.211872,32.276612,0 111.224612,32.265909,0 111.240459,32.268638,0 111.236575,32.254786,0 111.237895,32.239841,0 111.248771,32.234887,0 111.257161,32.219183,0 111.254442,32.204904,0 111.231681,32.163861,0 111.219096,32.148565,0 111.183673,32.126121,0 111.158659,32.117166,0 111.144987,32.121623,0 111.128285,32.106151,0 111.134266,32.076378,0 111.139782,32.068681,0 111.133023,32.058375,0 111.143666,32.046806,0 111.150502,32.035951,0 111.143355,32.030438,0 111.122692,32.028461,0 111.122847,32.019791,0 111.112282,32.012258,0 111.102805,32.012342,0 111.099231,32.002493,0 111.084471,32.00102,0 111.088822,32.01512,0 111.079966,32.019286,0 111.07212,32.007965,0 111.058448,32.003461,0 111.058525,31.985233,0 111.066216,31.981528,0 111.074373,31.995295,0 111.085714,31.991211,0 111.086802,31.968897,0 111.098687,31.962959,0 111.105291,31.948935,0 111.094104,31.94367,0 111.073829,31.966749,0 111.065051,31.959716,0 111.063264,31.970918,0 111.054253,31.982665,0 111.046718,32.009312,0 111.036774,32.013984,0 111.018985,32.013731,0 111.005701,32.008807,0 111.006012,31.998199,0 110.995214,31.99138,0 110.999253,31.985949,0 111.010983,31.977697,0 111.017043,31.967254,0 111.007876,31.966581,0 111.01075,31.951673,0 111.015411,31.946071,0 111.009818,31.939669,0 111.006245,31.922481,0 111.004769,31.918142,0 111.015722,31.90862,0 111.000574,31.895599,0 111.005157,31.886074,0 111.017276,31.879626,0 111.016343,31.859181,0 111.025821,31.847418,0 111.020461,31.832406,0 111.000574,31.822833,0 110.996068,31.828569,0 110.995757,31.841726,0 111.002671,31.85741,0 110.994748,31.864029,0 110.971676,31.845984,0 110.957304,31.858801,0 110.955518,31.869425,0 110.939127,31.877012,0 110.9152,31.867106,0 110.917453,31.859097,0 110.907277,31.861879,0 110.892517,31.875242,0 110.874184,31.871659,0 110.880087,31.860656,0 110.867347,31.863439,0 110.872863,31.852056,0 110.847072,31.849062,0 110.842023,31.852899,0 110.816387,31.856525,0 110.808386,31.853194,0 110.795491,31.864282,0 110.782207,31.864155,0 110.785314,31.848809,0 110.782595,31.844213,0 110.765427,31.840545,0 110.766826,31.832069,0 110.775138,31.827894,0 110.777701,31.816464,0 110.802249,31.789424,0 110.81126,31.782462,0 110.835497,31.782589,0 110.848704,31.771491,0 110.852588,31.763347,0 110.868357,31.746464,0 110.875504,31.732998,0 110.872708,31.71611,0 110.878922,31.711677,0 110.880709,31.69546,0 110.891429,31.675778,0 110.906966,31.666019,0 110.914656,31.657696,0 110.946739,31.665681,0 110.95241,31.660611,0 110.976414,31.650344,0 110.982318,31.643203,0 110.970666,31.638174,0 110.957382,31.615478,0 110.941612,31.593622,0 110.947827,31.566433,0 110.976414,31.569393,0 110.989854,31.566263,0 111.000496,31.568632,0 111.007643,31.563937,0 111.043999,31.565079,0 111.046407,31.547484,0 111.036075,31.538008,0 111.055185,31.524385,0 111.055806,31.513468,0 111.062099,31.503904,0 111.052311,31.497429,0 111.040581,31.482234,0 111.039027,31.461151,0 111.04563,31.447262,0 111.052699,31.441461,0 111.065361,31.437692,0 111.073674,31.442393,0 111.089521,31.431297,0 111.091696,31.424139,0 111.088744,31.417997,0 111.108864,31.414396,0 111.116088,31.430111,0 111.12611,31.437946,0 111.145064,31.434473,0 111.157494,31.441207,0 111.16868,31.451412,0 111.176448,31.442138,0 111.18274,31.4465,0 111.195636,31.438369,0 111.202394,31.439428,0 111.212105,31.458102,0 111.218863,31.462844,0 111.236264,31.461617,0 111.263919,31.452217,0 111.271998,31.445738,0 111.275727,31.436337,0 111.271066,31.421428,0 111.262832,31.417065,0 111.266794,31.397239,0 111.276115,31.383892,0 111.298333,31.383553,0 111.315345,31.374865,0 111.314258,31.366728,0 111.32459,31.356344,0 111.349759,31.346467,0 111.361489,31.347103,0 111.376249,31.358718,0 111.391319,31.360286,0 111.409031,31.369949,0 111.43086,31.36444,0 111.431715,31.344772,0 111.435133,31.335742,0 111.433424,31.320817,0 111.438318,31.31293,0 111.467604,31.306696,0 111.507145,31.302582,0 111.507145,31.302582,0 111.518953,31.302243,0 111.596869,31.340066,0 111.628719,31.373001,0 111.647518,31.362151,0 111.660336,31.349562,0 111.676105,31.350155,0 111.695371,31.358167,0 111.702595,31.351258,0 111.710286,31.35876,0 111.72155,31.357361,0 111.740815,31.36711,0 111.748195,31.353419,0 111.743767,31.350706,0 111.753478,31.343034,0 111.745166,31.324252,0 111.754021,31.324718,0 111.757362,31.318612,0 111.748273,31.317722,0 111.750137,31.309919,0 111.741592,31.306484,0 111.737475,31.294778,0 111.749283,31.295669,0 111.744311,31.288585,0 111.752934,31.289307,0 111.754954,31.280356,0 111.767228,31.281544,0 111.774141,31.277811,0 111.77554,31.264871,0 111.782453,31.264192,0 111.787503,31.273484,0 111.800165,31.253627,0 111.799699,31.246328,0 111.810342,31.250657,0 111.830617,31.240684,0 111.837142,31.228758,0 111.849028,31.23279,0 111.861535,31.2288,0 111.87311,31.236822,0 111.884296,31.235124,0 111.901153,31.25473,0 111.919253,31.260755,0 111.92974,31.256088,0 111.935955,31.258931,0 111.945122,31.273484,0 111.93914,31.295075,0 111.928109,31.298511,0 111.931061,31.313396,0 111.918399,31.328153,0 111.9358,31.331629,0 111.93813,31.359947,0 111.94217,31.366474,0 111.93611,31.369441,0 111.943257,31.388765,0 111.946675,31.425282,0 111.953978,31.438242,0 111.972855,31.444764,0 111.985361,31.442816,0 111.994994,31.450354,0 112.0082,31.447347,0 112.024048,31.4346,0 112.032127,31.436294,0 112.0357,31.443748,0 112.045644,31.442731,0 112.063355,31.431,0 112.073143,31.444171,0 112.074464,31.456451,0 112.092875,31.455901,0 112.110975,31.464115,0 112.125269,31.46149,0 112.138319,31.462802,0 112.146398,31.471397,0 112.161236,31.47944,0 112.171645,31.478763,0 112.191144,31.469576,0 112.192853,31.49108,0 112.191377,31.514272,0 112.204272,31.531662,0 112.22579,31.525443,0 112.232782,31.52595,0 112.249484,31.539362,0 112.273022,31.543677,0 112.280091,31.547188,0 112.298968,31.533016,0 112.32538,31.527685,0 112.344335,31.514441,0 112.357075,31.517403,0 112.375796,31.51423,0 112.384808,31.509025,0 112.41324,31.502169,0 112.42295,31.502846,0 112.447964,31.523835,0 112.468395,31.53272,0 112.48129,31.534666,0 112.494574,31.549895,0 112.51213,31.560892,0 112.528055,31.557974,0 112.547476,31.562922,0 112.566741,31.561061,0 112.59696,31.54355,0 112.604573,31.530985,0 112.633626,31.501873,0 112.652659,31.507374,0 112.668428,31.498318,0 112.68816,31.493747,0 112.709367,31.476519,0 112.717446,31.477704,0 112.724671,31.498402,0 112.722884,31.51076,0 112.702609,31.543169,0 112.708047,31.553363,0 112.725137,31.557297,0 112.74044,31.556493,0 112.746422,31.565714,0 112.745334,31.574003,0 112.752248,31.609856,0 112.737722,31.617085,0 112.729798,31.635597,0 112.733993,31.647429,0 112.729409,31.670244,0 112.731818,31.699937,0 112.748442,31.712183,0 112.75186,31.725188,0 112.747121,31.744312,0 112.755899,31.748659,0 112.770038,31.745578,0 112.782778,31.736966,0 112.790313,31.740681,0 112.799324,31.752331,0 112.828766,31.756805,0 112.840341,31.77453,0 112.854324,31.801237,0 112.868229,31.807269,0 112.88563,31.797398,0 112.898292,31.804865,0 112.903264,31.815494,0 112.932007,31.84181,0 112.941639,31.840882,0 112.950573,31.833756,0 112.963624,31.829328,0 112.978539,31.845478,0 112.961759,31.880469,0 112.960749,31.889193,0 112.966498,31.897116,0 112.988016,31.901161,0 112.997494,31.916288,0 113.000601,31.941817,0 113.007359,31.940553,0 113.013574,31.954873,0 113.03113,31.953062,0 113.031674,31.967044,0 113.016759,31.973823,0 112.991745,31.977865,0 112.992133,32.021601,0 112.990036,32.050046,0 112.994619,32.056945,0 113.01171,32.07049,0 113.049697,32.115401,0 113.048609,32.126163,0 113.027945,32.143984,0 113.02476,32.149238,0 113.025693,32.171802,0 113.035947,32.198688,0 113.035714,32.235097,0 113.025149,32.263181,0 113.027635,32.272415,0 113.040375,32.276318,0 113.05226,32.275898,0 113.067719,32.281186,0 113.08916,32.305438,0 113.091102,32.32205,0 113.067564,32.337946,0 113.061116,32.361303,0 113.083023,32.369352,0 113.108736,32.364741,0 113.118679,32.375808,0 113.107959,32.398485,0 113.078905,32.394419,0 113.058863,32.404603,0 113.050318,32.417929,0 113.025304,32.424591,0 113.012564,32.417133,0 113.000523,32.416797,0 112.988638,32.399574,0 112.9919,32.378282,0 112.988094,32.372329,0 112.969838,32.371155,0 112.960361,32.385324,0 112.948165,32.388258,0 112.911887,32.390731,0 112.902332,32.388677,0 112.888815,32.376772,0 112.87724,32.379539,0 112.878561,32.392575,0 112.870482,32.397856,0 112.860694,32.395802,0 112.835602,32.381635,0 112.803985,32.372245,0 112.77633,32.358368,0 112.767863,32.344153,0 112.754113,32.342853,0 112.734925,32.351701,0 112.735857,32.356313,0 112.734148,32.356774,0 112.724127,32.358493,0 112.716747,32.357781,0 112.71364,32.352581,0 112.685596,32.357697,0 112.672079,32.368136,0 112.645512,32.368472,0 112.630441,32.379958,0 112.61203,32.387042,0 112.596649,32.385575,0 112.589036,32.3813,0 112.577228,32.382515,0 112.57785,32.387964,0 112.561692,32.398904,0 112.545223,32.403849,0 112.544757,32.395509,0 112.53124,32.37715,0 112.521607,32.383102,0 112.506537,32.380755,0 112.495661,32.374928,0 112.476163,32.379581,0 112.472745,32.371742,0 112.460238,32.368262,0 112.446643,32.357445,0 112.451848,32.343607,0 112.444857,32.343943,0 112.418056,32.356355,0 112.414172,32.363189,0 112.391022,32.371155,0 112.387915,32.363692,0 112.368183,32.367927,0 112.360027,32.365621,0 112.351171,32.350443,0 112.338586,32.348514,0 112.329808,32.338156,0 112.328099,32.321673,0 112.299512,32.334926,0 112.288325,32.34562,0 112.261991,32.358871,0 112.255388,32.359751,0 112.251581,32.368136,0 112.230918,32.377485,0 112.229053,32.385366,0 112.205904,32.392994,0 112.172733,32.385156,0 112.178792,32.392114,0 112.1725,32.405902,0 112.164654,32.411308,0 112.150205,32.411643,0 112.143602,32.407034,0 112.150904,32.401041,0 112.158905,32.401879,0 112.161391,32.393455,0 112.150593,32.384192,0 112.164499,32.385324,0 112.156886,32.377108,0 112.137387,32.390563,0 112.13024,32.403095,0 112.124414,32.398736,0 112.108411,32.404771,0 112.093652,32.418892,0 112.084407,32.419689,0 112.081378,32.42568,0 112.086039,32.435316,0 112.075163,32.436908,0 112.065996,32.444658,0 112.069803,32.459988,0 112.064054,32.474226,0 112.047974,32.473724,0 112.038108,32.470081,0 112.033836,32.463338,0 112.014337,32.450313,0 112.007035,32.451025,0 112.002141,32.459024,0 111.990411,32.457475,0 111.992819,32.467317,0 111.975573,32.471881,0 111.966795,32.49491,0 111.956463,32.512283,0 111.948695,32.51697,0 111.932304,32.515213,0 111.915291,32.50772,0 111.889889,32.503157,0 111.870235,32.506339,0 111.862778,32.513622,0 111.858272,32.528689,0 111.828209,32.531284,0 111.827043,32.538063,0 111.809176,32.536682,0 111.785095,32.557352,0 111.766839,32.565175,0 111.747341,32.577598,0 111.740349,32.589267,0 111.729241,32.593993,0 111.713549,32.606537,0 111.692108,32.60591,0 111.672998,32.614983,0 111.64643,32.606203,0 111.640837,32.617325,0 111.640837,32.634757,0 111.634001,32.635133,0 111.618387,32.627609,0 111.603705,32.610259,0 111.583041,32.596544,0</coordinates></LinearRing></outerBoundaryIs>
      </Polygon>
      <Polygon>
        <outerBoundaryIs><LinearRing><coordinates>111.143666,32.046806,0 111.133023,32.058375,0 111.139782,32.068681,0 111.134266,32.076378,0 111.128285,32.106151,0 111.120361,32.107371,0 111.090841,32.085883,0 111.080665,32.097069,0 111.063885,32.084495,0 111.057671,32.061783,0 111.078179,32.068176,0 111.083384,32.063676,0 111.077169,32.04689,0 111.071498,32.044071,0 111.069556,32.02905,0 111.08152,32.024589,0 111.079966,32.019286,0 111.088822,32.01512,0 111.098765,32.023411,0 111.101406,32.034773,0 111.110495,32.047984,0 111.122225,32.038602,0 111.131004,32.038391,0 111.137296,32.047437,0 111.143666,32.046806,0</coordinates></LinearRing></outerBoundaryIs>
      </Polygon>
      <Polygon>
        <outerBoundaryIs><LinearRing><coordinates>110.992806,31.927158,0 110.996224,31.940932,0 110.987601,31.941143,0 110.978123,31.94089,0 110.983872,31.934867,0 110.988455,31.920291,0 110.992806,31.927158,0</coordinates></LinearRing></outerBoundaryIs>
      </Polygon>
      <Polygon>
        <outerBoundaryIs><LinearRing><coordinates>111.060545,31.430873,0 111.051534,31.438369,0 111.039726,31.423334,0 111.045475,31.42075,0 111.060545,31.430873,0</coordinates></LinearRing></outerBoundaryIs>
      </Polygon>
      <Polygon>
        <outerBoundaryIs><LinearRing><coordinates>112.716747,32.357781,0 112.724127,32.358493,0 112.730885,32.363105,0 112.734148,32.356774,0 112.735857,32.356313,0 112.733604,32.366208,0 112.716747,32.357781,0</coordinates></LinearRing></outerBoundaryIs>
      </Polygon>
    </MultiGeometry>
    </Placemark>
  </Document>
</kml>
