<?xml version="1.0" encoding="UTF-8"?>
<kml xmlns="http://www.opengis.net/kml/2.2">
  <Document>
    <name><![CDATA[鄂州市]]></name>
    <Placemark>
      <name><![CDATA[鄂州市]]></name>
      <description><![CDATA[省级目录：湖北省]]></description>
      <ExtendedData>
        <Data name="adcode"><value>420700</value></Data>
      </ExtendedData>
      <MultiGeometry>
      <Polygon>
        <outerBoundaryIs><LinearRing><coordinates>115.079787,30.259231,0 115.086545,30.281094,0 115.088643,30.296096,0 115.082739,30.329819,0 115.071009,30.366742,0 115.056016,30.388667,0 115.03776,30.401126,0 115.018417,30.404679,0 114.979187,30.400998,0 114.917429,30.407933,0 114.892493,30.413712,0 114.86375,30.427537,0 114.846116,30.44641,0 114.839203,30.45929,0 114.835707,30.474349,0 114.835474,30.493384,0 114.840135,30.527253,0 114.839591,30.561495,0 114.836018,30.580513,0 114.828793,30.596494,0 114.808673,30.615291,0 114.791738,30.616829,0 114.784902,30.616829,0 114.760044,30.60914,0 114.739225,30.592862,0 114.71926,30.584102,0 114.692848,30.577009,0 114.66628,30.571923,0 114.630235,30.556494,0 114.621146,30.556879,0 114.625963,30.54149,0 114.630857,30.538668,0 114.624021,30.530716,0 114.633343,30.526697,0 114.637304,30.50737,0 114.633265,30.499971,0 114.640956,30.4779,0 114.635052,30.470157,0 114.626662,30.469772,0 114.619981,30.451331,0 114.608173,30.456851,0 114.590539,30.457407,0 114.591083,30.445298,0 114.583237,30.437466,0 114.591161,30.421417,0 114.593025,30.410287,0 114.586577,30.363059,0 114.59722,30.347126,0 114.598696,30.339244,0 114.592947,30.313923,0 114.595045,30.296396,0 114.590772,30.284481,0 114.570264,30.273336,0 114.567778,30.254086,0 114.544473,30.234619,0 114.544396,30.218621,0 114.540589,30.202579,0 114.534841,30.194599,0 114.521479,30.192797,0 114.519848,30.176364,0 114.513089,30.172588,0 114.515964,30.162933,0 114.506486,30.149842,0 114.508118,30.138382,0 114.505476,30.123829,0 114.519925,30.107384,0 114.518682,30.101973,0 114.533908,30.094673,0 114.536394,30.082003,0 114.54292,30.077794,0 114.54626,30.062802,0 114.559311,30.057647,0 114.573371,30.045789,0 114.567079,30.040719,0 114.573993,30.034617,0 114.583082,30.036465,0 114.593414,30.04884,0 114.599162,30.04682,0 114.624098,30.053351,0 114.641111,30.037066,0 114.639402,30.026237,0 114.645228,30.015493,0 114.658512,30.019834,0 114.665736,30.016567,0 114.674825,30.0231,0 114.687488,30.022413,0 114.691372,30.037109,0 114.68508,30.042309,0 114.697509,30.050215,0 114.703024,30.040203,0 114.715997,30.041965,0 114.72866,30.052449,0 114.731767,30.059151,0 114.724853,30.063747,0 114.719415,30.079985,0 114.728893,30.088489,0 114.742099,30.090636,0 114.731379,30.104421,0 114.729126,30.119836,0 114.717706,30.126533,0 114.715531,30.136407,0 114.699917,30.145636,0 114.702636,30.15671,0 114.71592,30.162074,0 114.712113,30.167353,0 114.723688,30.178939,0 114.704889,30.185289,0 114.680574,30.203308,0 114.676612,30.211758,0 114.665892,30.218064,0 114.665193,30.234404,0 114.660687,30.249584,0 114.671718,30.257087,0 114.674437,30.267162,0 114.692692,30.275822,0 114.695955,30.281009,0 114.688964,30.289881,0 114.698441,30.309209,0 114.716619,30.324677,0 114.726407,30.325277,0 114.727417,30.315508,0 114.737438,30.301067,0 114.774337,30.290867,0 114.786301,30.29211,0 114.784125,30.303767,0 114.787854,30.308995,0 114.807663,30.311952,0 114.830036,30.311909,0 114.837804,30.30411,0 114.836173,30.291767,0 114.848835,30.281309,0 114.861187,30.28178,0 114.87183,30.271707,0 114.861731,30.261632,0 114.867091,30.242638,0 114.875403,30.236034,0 114.93584,30.217635,0 114.954407,30.203994,0 114.961786,30.203651,0 114.97406,30.215619,0 114.988665,30.218578,0 114.996511,30.212659,0 115.01096,30.222868,0 115.005833,30.230973,0 115.018806,30.237835,0 115.024632,30.248341,0 115.056171,30.254858,0 115.061764,30.261418,0 115.079787,30.259231,0</coordinates></LinearRing></outerBoundaryIs>
      </Polygon>
    </MultiGeometry>
    </Placemark>
  </Document>
</kml>
