<?xml version="1.0" encoding="UTF-8"?>
<kml xmlns="http://www.opengis.net/kml/2.2">
  <Document>
    <name><![CDATA[黄石市]]></name>
    <Placemark>
      <name><![CDATA[黄石市]]></name>
      <description><![CDATA[省级目录：湖北省]]></description>
      <ExtendedData>
        <Data name="adcode"><value>420200</value></Data>
      </ExtendedData>
      <MultiGeometry>
      <Polygon>
        <outerBoundaryIs><LinearRing><coordinates>114.54626,30.062802,0 114.545017,30.05421,0 114.553718,30.037711,0 114.565137,30.030277,0 114.562185,30.026882,0 114.549989,30.031566,0 114.548901,30.021295,0 114.537948,30.027183,0 114.534297,30.022026,0 114.543929,30.007885,0 114.534374,29.99284,0 114.533831,29.984156,0 114.5409,29.975084,0 114.532277,29.969322,0 114.53686,29.963087,0 114.545949,29.962614,0 114.553018,29.953884,0 114.540822,29.948293,0 114.539735,29.939562,0 114.554184,29.946272,0 114.562806,29.935605,0 114.592637,29.940551,0 114.605532,29.934959,0 114.604911,29.925195,0 114.648102,29.911557,0 114.665659,29.910309,0 114.667989,29.904156,0 114.703723,29.893183,0 114.724387,29.89469,0 114.713201,29.849797,0 114.715687,29.838216,0 114.734098,29.837398,0 114.733165,29.809751,0 114.736583,29.797347,0 114.731379,29.788129,0 114.723766,29.759435,0 114.745828,29.741206,0 114.76152,29.74349,0 114.765792,29.73974,0 114.789252,29.73556,0 114.790262,29.738792,0 114.8138,29.738835,0 114.835707,29.73293,0 114.845573,29.708877,0 114.845417,29.698961,0 114.867169,29.695986,0 114.882472,29.674468,0 114.885346,29.65411,0 114.895678,29.640823,0 114.891794,29.622875,0 114.894125,29.612605,0 114.906787,29.600305,0 114.906165,29.585803,0 114.937006,29.582738,0 114.934209,29.564391,0 114.944075,29.556317,0 114.956892,29.553554,0 114.970565,29.552345,0 114.980275,29.564305,0 114.995268,29.563528,0 115.000473,29.572119,0 115.012824,29.564477,0 115.018961,29.554979,0 115.034265,29.5463,0 115.046772,29.55187,0 115.057259,29.55105,0 115.072096,29.557785,0 115.087555,29.56003,0 115.099518,29.550229,0 115.086623,29.522936,0 115.100917,29.520517,0 115.124688,29.509718,0 115.153974,29.510366,0 115.157315,29.518919,0 115.153275,29.528939,0 115.152576,29.550013,0 115.157315,29.563916,0 115.153508,29.575745,0 115.157781,29.584853,0 115.172463,29.589084,0 115.170909,29.595687,0 115.160034,29.598406,0 115.133621,29.590033,0 115.120959,29.595169,0 115.131368,29.602334,0 115.128805,29.606779,0 115.136418,29.616747,0 115.132301,29.61925,0 115.132301,29.632324,0 115.139059,29.636725,0 115.142322,29.651608,0 115.120726,29.654714,0 115.109073,29.663125,0 115.106044,29.673605,0 115.113501,29.685033,0 115.122202,29.686197,0 115.131912,29.679341,0 115.137738,29.669637,0 115.155217,29.658596,0 115.176658,29.6548,0 115.188932,29.657388,0 115.214412,29.657819,0 115.228705,29.654282,0 115.250845,29.659933,0 115.268557,29.658337,0 115.270033,29.646431,0 115.265838,29.638062,0 115.273995,29.623608,0 115.28588,29.61856,0 115.30701,29.637285,0 115.320915,29.637544,0 115.329305,29.646129,0 115.34958,29.650745,0 115.359834,29.646431,0 115.363252,29.653506,0 115.378556,29.667524,0 115.412581,29.688871,0 115.419806,29.699607,0 115.436663,29.716723,0 115.46292,29.733189,0 115.472009,29.742585,0 115.466571,29.766286,0 115.473951,29.786319,0 115.479233,29.811302,0 115.48739,29.817848,0 115.505801,29.82237,0 115.511627,29.840282,0 115.488011,29.845018,0 115.460356,29.859397,0 115.448781,29.869384,0 115.436896,29.893571,0 115.43107,29.900542,0 115.415533,29.90919,0 115.406677,29.92356,0 115.411027,29.941798,0 115.409008,29.950357,0 115.385159,29.965409,0 115.361776,30.002942,0 115.329383,30.028945,0 115.322624,30.04652,0 115.321925,30.074744,0 115.317419,30.089691,0 115.301494,30.116616,0 115.269256,30.155164,0 115.223112,30.196144,0 115.209518,30.213517,0 115.175182,30.219265,0 115.15646,30.209828,0 115.147449,30.208112,0 115.126164,30.21,0 115.112492,30.213732,0 115.095168,30.22201,0 115.080175,30.240065,0 115.079787,30.259231,0 115.061764,30.261418,0 115.056171,30.254858,0 115.024632,30.248341,0 115.018806,30.237835,0 115.005833,30.230973,0 115.01096,30.222868,0 114.996511,30.212659,0 114.988665,30.218578,0 114.97406,30.215619,0 114.961786,30.203651,0 114.954407,30.203994,0 114.93584,30.217635,0 114.875403,30.236034,0 114.867091,30.242638,0 114.861731,30.261632,0 114.87183,30.271707,0 114.861187,30.28178,0 114.848835,30.281309,0 114.836173,30.291767,0 114.837804,30.30411,0 114.830036,30.311909,0 114.807663,30.311952,0 114.787854,30.308995,0 114.784125,30.303767,0 114.786301,30.29211,0 114.774337,30.290867,0 114.737438,30.301067,0 114.727417,30.315508,0 114.726407,30.325277,0 114.716619,30.324677,0 114.698441,30.309209,0 114.688964,30.289881,0 114.695955,30.281009,0 114.692692,30.275822,0 114.674437,30.267162,0 114.671718,30.257087,0 114.660687,30.249584,0 114.665193,30.234404,0 114.665892,30.218064,0 114.676612,30.211758,0 114.680574,30.203308,0 114.704889,30.185289,0 114.723688,30.178939,0 114.712113,30.167353,0 114.71592,30.162074,0 114.702636,30.15671,0 114.699917,30.145636,0 114.715531,30.136407,0 114.717706,30.126533,0 114.729126,30.119836,0 114.731379,30.104421,0 114.742099,30.090636,0 114.728893,30.088489,0 114.719415,30.079985,0 114.724853,30.063747,0 114.731767,30.059151,0 114.72866,30.052449,0 114.715997,30.041965,0 114.703024,30.040203,0 114.697509,30.050215,0 114.68508,30.042309,0 114.691372,30.037109,0 114.687488,30.022413,0 114.674825,30.0231,0 114.665736,30.016567,0 114.658512,30.019834,0 114.645228,30.015493,0 114.639402,30.026237,0 114.641111,30.037066,0 114.624098,30.053351,0 114.599162,30.04682,0 114.593414,30.04884,0 114.583082,30.036465,0 114.573993,30.034617,0 114.567079,30.040719,0 114.573371,30.045789,0 114.559311,30.057647,0 114.54626,30.062802,0</coordinates></LinearRing></outerBoundaryIs>
      </Polygon>
      <Polygon>
        <outerBoundaryIs><LinearRing><coordinates>115.140069,30.23702,0 115.147294,30.233461,0 115.162908,30.229944,0 115.164228,30.23449,0 115.15009,30.243538,0 115.135253,30.247783,0 115.140069,30.23702,0</coordinates></LinearRing></outerBoundaryIs>
      </Polygon>
    </MultiGeometry>
    </Placemark>
  </Document>
</kml>
