<?xml version="1.0" encoding="UTF-8"?>
<kml xmlns="http://www.opengis.net/kml/2.2">
<Document>
<name>亳州市</name>
<Placemark><name>亳州市</name><MultiGeometry><Polygon><outerBoundaryIs><LinearRing><coordinates>116.393713000000005,33.783082,0 116.372501999999997,33.780245000000001,0 116.361063000000001,33.776273000000003,0 116.348718000000005,33.778748999999998,0 116.330699999999993,33.773848999999998,0 116.328745999999995,33.766370000000002,0 116.316829999999996,33.771270000000001,0 116.308154999999999,33.757548,0 116.284656999999996,33.750118999999998,0 116.263588999999996,33.730097999999998,0 116.246048000000002,33.728704,0 116.230176,33.734896999999997,0 116.226648999999995,33.722459000000001,0 116.204914000000002,33.726795000000003,0 116.197288,33.725349999999999,0 116.174026999999995,33.708987999999998,0 116.155390999999995,33.709916999999997,0 116.142139999999998,33.734431999999998,0 116.142759999999996,33.738458000000001,0 116.131653999999997,33.752234000000001,0 116.109298999999993,33.758218999999997,0 116.098907999999994,33.774881000000001,0 116.099098999999995,33.783132999999999,0 116.074456999999995,33.781534000000001,0 116.073312999999999,33.794066000000001,0 116.055437999999995,33.804791999999999,0 116.062349999999995,33.814484999999998,0 116.058059999999998,33.821393,0 116.045428999999999,33.822991000000002,0 116.045952999999997,33.829022999999999,0 116.063494000000006,33.826188000000002,0 116.065066999999999,33.847475000000003,0 116.056725,33.850928000000003,0 116.054913999999997,33.860872999999998,0 116.043475000000001,33.874887999999999,0 116.034751999999997,33.873753999999998,0 116.034560999999997,33.880038999999996,0 116.013446000000002,33.885705999999999,0 116.012493000000006,33.897399,0 115.999146999999994,33.901930999999998,0 115.987039999999993,33.901159,0 115.982703000000001,33.917175,0 115.995524000000003,33.947550999999997,0 116.000337999999999,33.963197999999998,0 115.994951999999998,33.975085999999997,0 115.984037000000001,33.987847000000002,0 115.957583,34.007756000000001,0 115.926697000000004,34.007911,0 115.919737999999995,34.010790999999998,0 115.904342,34.009968000000001,0 115.899338,34.014752000000001,0 115.895334000000005,34.028740999999997,0 115.887277999999995,34.032803999999999,0 115.877555000000001,34.029871999999997,0 115.877077999999997,34.003177999999998,0 115.852722,34.003847,0 115.845477000000002,34.012025999999999,0 115.845237999999995,34.030850000000001,0 115.832226000000006,34.038563000000003,0 115.815543000000005,34.052908000000002,0 115.809109000000007,34.062469999999998,0 115.793426999999994,34.063653000000002,0 115.780271999999997,34.073162000000004,0 115.781463000000002,34.062213,0 115.768832000000003,34.062162000000001,0 115.735849000000002,34.076810999999999,0 115.705962999999997,34.059797000000003,0 115.699814000000003,34.066017000000002,0 115.681844999999996,34.065503,0 115.669166000000004,34.056713000000002,0 115.653580000000005,34.060105999999998,0 115.648003000000003,34.046326999999998,0 115.649575999999996,34.035632,0 115.642235999999997,34.032288999999999,0 115.621358999999998,34.03013,0 115.615066999999996,34.033369,0 115.601054000000005,34.022981000000001,0 115.606583000000001,34.013209000000003,0 115.592664999999997,34.009864999999998,0 115.584085000000002,33.988619,0 115.591043999999997,33.986201000000001,0 115.588374999999999,33.976990000000001,0 115.579032999999995,33.973953999999999,0 115.577555000000004,33.950125,0 115.569165999999996,33.945492000000002,0 115.569975999999997,33.932828000000001,0 115.562588000000005,33.927163999999998,0 115.559775999999999,33.914549000000001,0 115.568308000000002,33.906927000000003,0 115.556820999999999,33.903682000000003,0 115.555295999999998,33.888590999999998,0 115.546572999999995,33.888435999999999,0 115.546192000000005,33.875506000000001,0 115.556678000000005,33.876897,0 115.564209000000005,33.871333,0 115.579509000000002,33.877000000000002,0 115.592331000000001,33.868240999999998,0 115.605725000000007,33.867417000000003,0 115.620881999999995,33.876123999999997,0 115.633512999999994,33.867314,0 115.636134999999996,33.841186999999998,0 115.626267999999996,33.836187000000002,0 115.625601000000003,33.823661999999999,0 115.616591999999997,33.820000999999998,0 115.623312999999996,33.811959000000002,0 115.621167999999997,33.796799,0 115.614256999999995,33.775654000000003,0 115.590519999999998,33.783701000000001,0 115.582226000000006,33.788702999999998,0 115.565209999999993,33.780192999999997,0 115.563159999999996,33.771683000000003,0 115.570024000000004,33.765286000000003,0 115.574838,33.752234000000001,0 115.583561000000003,33.747228999999997,0 115.596239999999995,33.731233000000003,0 115.601578000000003,33.718536999999998,0 115.596287000000004,33.700315000000003,0 115.607155000000006,33.689059999999998,0 115.599624000000006,33.688285999999998,0 115.602530999999999,33.672640000000001,0 115.601625999999996,33.657662000000002,0 115.617784,33.632607999999998,0 115.625028999999998,33.625633000000001,0 115.639757000000003,33.585115000000002,0 115.651244000000005,33.544629,0 115.676697000000004,33.508729000000002,0 115.681273000000004,33.505831000000001,0 115.698336999999995,33.509557000000001,0 115.720833999999996,33.510849999999998,0 115.749481000000003,33.499881000000002,0 115.751386999999994,33.495896000000002,0 115.769403999999994,33.490515000000002,0 115.773217000000002,33.484718000000001,0 115.786135000000002,33.481043999999997,0 115.796048999999996,33.468569000000002,0 115.807440999999997,33.466861000000002,0 115.831605999999994,33.451227000000003,0 115.848860999999999,33.450864000000003,0 115.854962,33.442321,0 115.897383000000005,33.400525000000002,0 115.895334000000005,33.384723999999999,0 115.898432,33.356999000000002,0 115.911111000000005,33.340567,0 115.914399000000003,33.328901999999999,0 115.921406000000005,33.323303000000003,0 115.919832999999997,33.313606,0 115.926029999999997,33.309769000000003,0 115.927841000000001,33.298721999999998,0 115.914828,33.295506000000003,0 115.915971999999996,33.279477999999997,0 115.906724999999994,33.255974999999999,0 115.909204000000003,33.246634,0 115.917497999999995,33.242690000000003,0 115.925696000000002,33.229194999999997,0 115.916497000000007,33.215491,0 115.876982999999996,33.248294999999999,0 115.839422999999996,33.262824000000002,0 115.832082999999997,33.256753000000003,0 115.829700000000003,33.231634999999997,0 115.835277000000005,33.213830000000002,0 115.845237999999995,33.193528000000001,0 115.841378000000006,33.180233999999999,0 115.825505000000007,33.162678,0 115.824360999999996,33.150937999999996,0 115.831034000000002,33.157172000000003,0 115.850195999999997,33.153534999999998,0 115.850195999999997,33.136077999999998,0 115.839708999999999,33.135454000000003,0 115.844333000000006,33.125321,0 115.865925000000004,33.125580999999997,0 115.877126000000004,33.122151000000002,0 115.872026000000005,33.103127999999998,0 115.866735000000006,33.094343000000002,0 115.898480000000006,33.093667000000003,0 115.914876000000007,33.088000000000001,0 115.948098000000002,33.080773999999998,0 115.980795999999998,33.070790000000002,0 116.002482999999998,33.060077,0 116.018213000000003,33.056125000000002,0 116.010157000000007,33.043953999999999,0 116.016019999999997,33.041924999999999,0 116.042140000000003,33.048842999999998,0 116.051052999999996,33.044266,0 116.055199999999999,33.034227000000001,0 116.051767999999996,33.021428,0 116.059012999999993,33.016953999999998,0 116.060062000000002,33.003737000000001,0 116.052531000000002,32.995150000000002,0 116.054913999999997,32.990569999999998,0 116.083083999999999,32.986457999999999,0 116.125743,32.976047000000001,0 116.155580999999998,32.973756999999999,0 116.167925999999994,32.967145000000002,0 116.165305000000004,32.959491999999997,0 116.168165000000002,32.940641999999997,0 116.178888999999998,32.922882000000001,0 116.191710999999998,32.913870000000003,0 116.198431999999997,32.893396000000003,0 116.212636000000003,32.888705999999999,0 116.232988000000006,32.889851999999998,0 116.245333000000002,32.884954,0 116.248526999999996,32.872812000000003,0 116.280319000000006,32.859051999999998,0 116.292569,32.858947999999998,0 116.308250000000001,32.86562,0 116.348097999999993,32.878127999999997,0 116.370880999999997,32.900221000000002,0 116.386992000000006,32.89772,0 116.394617999999994,32.891311000000002,0 116.393856,32.910744999999999,0 116.385705000000002,32.921632000000002,0 116.365876999999998,32.940694000000001,0 116.365161999999998,32.946891000000001,0 116.371739000000005,32.964905999999999,0 116.376458,32.969019000000003,0 116.376649,32.993744,0 116.382416000000006,33.004776999999997,0 116.446382,32.984895999999999,0 116.627887999999999,32.941474999999997,0 116.684323000000006,32.939340000000001,0 116.705675999999997,32.936943999999997,0 116.735657000000003,32.928663,0 116.742711,32.947360000000003,0 116.740424000000004,32.959752000000002,0 116.747525999999993,32.978962000000003,0 116.754627999999997,32.989060000000002,0 116.755151999999995,33.002696,0 116.768259999999998,33.006078000000002,0 116.768783999999997,33.000405999999998,0 116.778174000000007,33.003320000000002,0 116.777458999999993,32.996606999999997,0 116.798860000000005,32.994160999999998,0 116.802482999999995,33.000042000000001,0 116.810586000000001,32.99541,0 116.816162000000006,33.013050999999997,0 116.814922999999993,33.021532000000001,0 116.802197000000007,33.032665999999999,0 116.781558000000004,33.040104999999997,0 116.752482999999998,33.053108000000002,0 116.748621999999997,33.060858000000003,0 116.749098000000004,33.075521999999999,0 116.764636999999993,33.090704000000002,0 116.764589000000001,33.114823000000001,0 116.754722999999998,33.13109,0 116.756867999999997,33.141221999999999,0 116.77131,33.155250000000002,0 116.777078000000003,33.151820999999998,0 116.791853000000003,33.169015000000002,0 116.805246999999994,33.156081,0 116.815303999999998,33.155405000000002,0 116.821404999999999,33.202770999999998,0 116.826553000000004,33.210819000000001,0 116.825980999999999,33.230803999999999,0 116.813158999999999,33.250318999999998,0 116.805485000000004,33.275587000000002,0 116.800481000000005,33.275950000000002,0 116.801911000000004,33.303908,0 116.789089000000004,33.319777000000002,0 116.790424000000002,33.334553,0 116.787420999999995,33.347254,0 116.794140999999996,33.354821999999999,0 116.790948,33.360005000000001,0 116.800861999999995,33.386122,0 116.796571999999998,33.403011999999997,0 116.804627999999994,33.422902000000001,0 116.770499999999998,33.431860999999998,0 116.756725000000003,33.438437999999998,0 116.745904999999993,33.449103999999998,0 116.722596999999993,33.450709000000003,0 116.700004000000007,33.474055999999997,0 116.687182000000007,33.477989999999998,0 116.665733000000003,33.474626000000001,0 116.642377999999994,33.477628000000003,0 116.636420000000001,33.484977000000001,0 116.623502999999999,33.485495,0 116.612778000000006,33.481872000000003,0 116.593616999999995,33.480111999999998,0 116.582130000000006,33.471209000000002,0 116.568259999999995,33.466292000000003,0 116.547477999999998,33.467897000000001,0 116.535561999999999,33.481301999999999,0 116.533989000000005,33.498018000000002,0 116.539089000000004,33.513178000000003,0 116.534655999999998,33.525077000000003,0 116.524742000000003,33.530560000000001,0 116.528459999999995,33.544007999999998,0 116.525504999999995,33.551454999999997,0 116.531938999999994,33.565624,0 116.548001999999997,33.570070000000001,0 116.540661999999998,33.587595999999998,0 116.55153,33.588577999999998,0 116.551101000000003,33.596642000000003,0 116.543807999999999,33.597830000000002,0 116.533750999999995,33.614575000000002,0 116.505486000000005,33.618968000000002,0 116.503816999999998,33.631264999999999,0 116.481128999999996,33.654252999999997,0 116.485848000000004,33.666080999999998,0 116.492140000000006,33.668405,0 116.492425999999995,33.681314999999998,0 116.484227000000004,33.697889000000004,0 116.478603000000007,33.697991999999999,0 116.479412999999994,33.708677999999999,0 116.463588999999999,33.719723999999999,0 116.460014000000001,33.734122999999997,0 116.433226000000005,33.739696000000002,0 116.435753000000005,33.762191000000001,0 116.406439000000006,33.762551999999999,0 116.408154999999994,33.770392999999999,0 116.393713000000005,33.783082,0</coordinates></LinearRing></outerBoundaryIs></Polygon></MultiGeometry></Placemark>
</Document>
</kml>