<?xml version="1.0" encoding="UTF-8"?>
<kml xmlns="http://www.opengis.net/kml/2.2">
<Document>
<name>宣城市</name>
<Placemark><name>宣城市</name><MultiGeometry><Polygon><outerBoundaryIs><LinearRing><coordinates>118.868877999999995,30.10144,0 118.871641999999994,30.113035,0 118.887227999999993,30.117436999999999,0 118.888133999999994,30.127258999999999,0 118.895950999999997,30.138797,0 118.896809000000005,30.148081000000001,0 118.881032000000005,30.146792999999999,0 118.865731999999994,30.151515,0 118.856388999999993,30.148188000000001,0 118.845713000000003,30.156129,0 118.852862000000002,30.166537000000002,0 118.864396999999997,30.169004999999999,0 118.910821999999996,30.187512000000002,0 118.920641000000003,30.199043,0 118.929888000000005,30.203386999999999,0 118.924978999999993,30.213844000000002,0 118.903195999999994,30.217919999999999,0 118.893043000000006,30.242688999999999,0 118.882413999999997,30.24746,0 118.889707000000001,30.254268,0 118.878077000000005,30.282726,0 118.881794999999997,30.298532000000002,0 118.879887999999994,30.314872000000001,0 118.899764000000005,30.322586000000001,0 118.908390999999995,30.330888000000002,0 118.917877000000004,30.332440999999999,0 118.936323000000002,30.345079999999999,0 118.936418000000003,30.350809999999999,0 118.955387999999999,30.359216,0 118.959963999999999,30.347275,0 118.96902,30.351344999999998,0 118.975740999999999,30.347168,0 118.988085999999996,30.348668,0 118.988039000000001,30.333458,0 119.004435000000001,30.328959000000001,0 119.028791999999996,30.312569,0 119.048333999999997,30.312676,0 119.05086,30.306729000000001,0 119.063014999999993,30.304960999999999,0 119.073404999999994,30.31589,0 119.090231000000003,30.324031999999999,0 119.111013,30.311283,0 119.128506000000002,30.304694000000001,0 119.151289000000006,30.304586,0 119.156723,30.29955,0 119.188181,30.291674,0 119.201051000000007,30.291031,0 119.205674000000002,30.301586,0 119.222594999999998,30.299603999999999,0 119.229173000000003,30.289691999999999,0 119.236227,30.2973,0 119.245902999999998,30.321621,0 119.239992999999998,30.327031000000002,0 119.247141999999997,30.340796000000001,0 119.265063999999995,30.338063999999999,0 119.278124000000005,30.341598999999999,0 119.289467999999999,30.349632,0 119.300668999999999,30.363659999999999,0 119.329076999999998,30.371531000000001,0 119.342662000000004,30.363178000000001,0 119.349429999999998,30.349150000000002,0 119.375597999999997,30.354825999999999,0 119.386132000000003,30.363928000000001,0 119.399953999999994,30.367782999999999,0 119.403052000000002,30.374368,0 119.393805999999998,30.383040000000001,0 119.371450999999993,30.383949999999999,0 119.366589000000005,30.388393000000001,0 119.368925000000004,30.399740000000001,0 119.363204999999994,30.409481,0 119.349525,30.408625000000001,0 119.352957000000004,30.424838999999999,0 119.349716000000001,30.438803,0 119.336132000000006,30.445544000000002,0 119.334463,30.478117999999998,0 119.330316999999994,30.488225,0 119.336321999999996,30.507152999999999,0 119.328695999999994,30.521640000000001,0 119.326550999999995,30.533024999999999,0 119.313633999999993,30.531207999999999,0 119.287942999999999,30.512606000000002,0 119.272118000000006,30.510521000000001,0 119.261632000000006,30.517738000000001,0 119.261917999999994,30.525542000000002,0 119.242565999999997,30.530031999999999,0 119.236941999999999,30.546707000000001,0 119.245521999999994,30.561402000000001,0 119.264778000000007,30.573423999999999,0 119.264778000000007,30.582025000000002,0 119.254148999999998,30.588649,0 119.253671999999995,30.596447000000001,0 119.239135000000005,30.609318999999999,0 119.250050000000002,30.620266999999998,0 119.258771999999993,30.614393,0 119.275740999999996,30.617597,0 119.291231999999994,30.616047999999999,0 119.311965999999998,30.621227999999999,0 119.323119000000005,30.630306000000001,0 119.333652999999998,30.652194999999999,0 119.343137999999996,30.664204999999999,0 119.354529999999997,30.666927000000001,0 119.372356999999994,30.680377,0 119.379411000000005,30.679362999999999,0 119.391518000000005,30.685233,0 119.395664999999994,30.678722,0 119.400002000000001,30.658867999999998,0 119.412681000000006,30.642959000000001,0 119.433653000000007,30.644454,0 119.448285999999996,30.655825,0 119.452909000000005,30.671624000000001,0 119.466016999999994,30.683899,0 119.482747000000003,30.704442,0 119.479697000000002,30.736823000000001,0 119.484605999999999,30.744609000000001,0 119.478791000000001,30.753088999999999,0 119.480125999999998,30.773298,0 119.491517999999999,30.777242999999999,0 119.507103999999998,30.769618999999999,0 119.524501000000001,30.776017,0 119.55453,30.825638999999999,0 119.561203000000006,30.829476,0 119.575740999999994,30.829742,0 119.573739000000003,30.853344,0 119.558963000000006,30.871189000000001,0 119.559057999999993,30.891745,0 119.556341000000003,30.896697,0 119.563824999999994,30.919218000000001,0 119.580364000000003,30.929172999999999,0 119.582175000000007,30.947427999999999,0 119.580411999999995,30.967116999999998,0 119.588372000000007,30.979142,0 119.607437000000004,30.991855999999999,0 119.616254999999995,31.002388,0 119.624025000000003,31.005313000000001,0 119.634034,31.019459999999999,0 119.631316999999996,31.046310999999999,0 119.634986999999995,31.064171999999999,0 119.629553999999999,31.085538,0 119.634702000000004,31.093775000000001,0 119.649144000000007,31.105091999999999,0 119.624167999999997,31.115983,0 119.623785999999996,31.130272999999999,0 119.613729000000006,31.129156999999999,0 119.599762999999996,31.109183000000002,0 119.581985000000003,31.108651999999999,0 119.574119999999994,31.113965,0 119.571308000000002,31.128997999999999,0 119.560249999999996,31.140736,0 119.545855000000003,31.147853000000001,0 119.534510999999995,31.158102,0 119.523499999999999,31.159748,0 119.513919999999999,31.156030999999999,0 119.494472999999999,31.163996000000001,0 119.485560000000007,31.161394000000001,0 119.482508999999993,31.152526000000002,0 119.475836000000001,31.158898000000001,0 119.460583,31.156403000000001,0 119.454768000000001,31.164898999999998,0 119.438800999999998,31.177057000000001,0 119.423167000000007,31.181835,0 119.415397999999996,31.172968999999998,0 119.400621999999998,31.178756,0 119.391469999999998,31.174243000000001,0 119.389324999999999,31.188365000000001,0 119.405674000000005,31.194416,0 119.394902000000002,31.199618000000001,0 119.379172999999994,31.189214,0 119.371403000000001,31.197707000000001,0 119.365779000000003,31.195955999999999,0 119.360059000000007,31.212143999999999,0 119.365206999999998,31.232627000000001,0 119.379696999999993,31.269390000000001,0 119.371594000000002,31.271616999999999,0 119.367875999999995,31.289224000000001,0 119.356627000000003,31.303274999999999,0 119.350144999999998,31.301048999999999,0 119.350288000000006,31.281641,0 119.345950999999999,31.268965000000001,0 119.337562000000005,31.258887999999999,0 119.333224000000001,31.264139,0 119.314873000000006,31.265730000000001,0 119.294472999999996,31.263131000000001,0 119.266970999999998,31.250453,0 119.261393999999996,31.261327999999999,0 119.249763999999999,31.262017,0 119.250192999999996,31.257242999999999,0 119.238562999999999,31.254643999999999,0 119.236275000000006,31.259312000000001,0 119.218543999999994,31.264562999999999,0 119.215254999999999,31.27411,0 119.204244000000003,31.265730000000001,0 119.197141999999999,31.273527000000001,0 119.199477999999999,31.293624999999999,0 119.181127000000004,31.300464999999999,0 119.176218000000006,31.293944,0 119.158152999999999,31.294792000000001,0 119.150098,31.277132999999999,0 119.140659999999997,31.276019000000002,0 119.131747000000004,31.262547999999999,0 119.120020999999994,31.261699,0 119.107009000000005,31.250612,0 119.105293000000003,31.235279999999999,0 119.085464999999999,31.240266999999999,0 119.073786999999996,31.232892,0 119.062347000000003,31.238462999999999,0 119.048857999999996,31.233529000000001,0 119.039516000000006,31.238409999999998,0 119.022880999999998,31.238144999999999,0 119.015017,31.241645999999999,0 119.003291000000004,31.233740999999998,0 118.986465999999993,31.231141000000001,0 118.983939000000007,31.237773000000001,0 118.953052999999997,31.237773000000001,0 118.924978999999993,31.239682999999999,0 118.915206999999995,31.244192999999999,0 118.891232000000002,31.237985999999999,0 118.869687999999996,31.242229999999999,0 118.851050999999998,31.239629999999998,0 118.824072999999999,31.230450999999999,0 118.819115999999994,31.236021999999998,0 118.802672000000001,31.228223,0 118.795331000000004,31.229443,0 118.781413000000001,31.239843,0 118.779983000000001,31.259523999999999,0 118.761393999999996,31.277663,0 118.726598999999993,31.282223999999999,0 118.707915,31.296807000000001,0 118.704435000000004,31.302797999999999,0 118.719593000000003,31.294792000000001,0 118.721069999999997,31.322679000000001,0 118.714731,31.321670999999998,0 118.704102000000006,31.307782,0 118.692186000000007,31.309000999999999,0 118.681747000000001,31.304335999999999,0 118.656865999999994,31.304653999999999,0 118.661441999999994,31.290762000000001,0 118.660060000000001,31.269760999999999,0 118.651860999999997,31.261009000000001,0 118.647285999999994,31.245519000000002,0 118.663587000000007,31.236871000000001,0 118.668210000000002,31.224879999999999,0 118.682986,31.214054000000001,0 118.695044999999993,31.189108000000001,0 118.708962999999997,31.177004,0 118.718401,31.173978000000002,0 118.733558000000002,31.149446000000001,0 118.717304999999996,31.144188,0 118.702004000000002,31.135797,0 118.690326999999996,31.124960999999999,0 118.683081999999999,31.111892999999998,0 118.685513,31.096271999999999,0 118.676838000000004,31.08963,0 118.676123000000004,31.081392999999998,0 118.682653000000002,31.074909000000002,0 118.663396000000006,31.054445000000001,0 118.650002999999998,31.036847999999999,0 118.627313999999998,31.020575999999998,0 118.606819000000002,31.020204,0 118.600955999999996,31.028020999999999,0 118.603768000000002,31.044238,0 118.596142,31.047853,0 118.584272999999996,31.026107,0 118.572261999999995,31.016269000000001,0 118.581222999999994,30.994727999999999,0 118.582462000000007,30.981854999999999,0 118.570975000000004,30.972277999999999,0 118.550955999999999,30.970682,0 118.510250999999997,30.9511,0 118.515254999999996,30.937581999999999,0 118.495712999999995,30.941041999999999,0 118.509153999999995,30.928694,0 118.511537000000004,30.914054,0 118.489706999999996,30.900051999999999,0 118.492947999999998,30.883490999999999,0 118.485845999999995,30.87726,0 118.475741999999997,30.88184,0 118.472119000000006,30.875077000000001,0 118.483986999999999,30.870761999999999,0 118.477410000000006,30.857552999999999,0 118.485512999999997,30.864051,0 118.498238999999998,30.859843000000001,0 118.490041000000005,30.848655999999998,0 118.490898999999999,30.842849000000001,0 118.477981999999997,30.833579,0 118.482224000000002,30.822548999999999,0 118.495521999999994,30.819883999999998,0 118.503101000000001,30.810451,0 118.502863000000005,30.801497000000001,0 118.484750000000005,30.79025,0 118.480699000000001,30.780601999999998,0 118.480270000000004,30.76642,0 118.451671000000005,30.779161999999999,0 118.455197999999996,30.790144000000002,0 118.446476000000004,30.800910999999999,0 118.431700000000006,30.796434000000001,0 118.419498000000004,30.813649000000002,0 118.429840999999996,30.813915999999999,0 118.436800000000005,30.824732999999998,0 118.424502000000004,30.841090999999999,0 118.409536000000003,30.848710000000001,0 118.376408999999995,30.845513,0 118.358915999999994,30.845780000000001,0 118.347620000000006,30.824414000000001,0 118.338229999999996,30.826812,0 118.318686999999997,30.821749000000001,0 118.306724000000003,30.806933999999998,0 118.312871999999999,30.795100999999999,0 118.305008000000001,30.800964,0 118.302576999999999,30.793821999999999,0 118.307581999999996,30.776389999999999,0 118.297905999999998,30.772390999999999,0 118.294568999999996,30.757088,0 118.276646999999997,30.743169000000002,0 118.275694000000001,30.736449,0 118.294712000000004,30.722421000000001,0 118.297190999999998,30.715966000000002,0 118.314445000000006,30.705082999999998,0 118.304959999999994,30.698146000000001,0 118.293282000000005,30.699960999999998,0 118.278745000000001,30.712658999999999,0 118.267590999999996,30.714206000000001,0 118.242901000000003,30.703482000000001,0 118.229220999999995,30.709244000000002,0 118.218354000000005,30.709458000000001,0 118.205437000000003,30.702148000000001,0 118.171214000000006,30.691637,0 118.153577999999996,30.666554000000001,0 118.136799999999994,30.652194999999999,0 118.100955999999996,30.641251,0 118.077933999999999,30.623684000000001,0 118.073072999999994,30.609532999999999,0 118.065922999999998,30.600026,0 118.046142000000003,30.597142000000002,0 118.022976999999997,30.575454000000001,0 117.997048000000007,30.570806000000001,0 117.985131999999993,30.561347999999999,0 117.987228999999999,30.537675,0 117.981080000000006,30.525382,0 117.970117999999999,30.512231,0 117.985750999999993,30.498705000000001,0 118.016924000000003,30.500575999999999,0 118.034941000000003,30.498438,0 118.053720999999996,30.503677,0 118.075218000000007,30.515011000000001,0 118.089612000000002,30.517309999999998,0 118.117591000000004,30.509238,0 118.130747,30.498169999999998,0 118.121117999999996,30.493091,0 118.118211000000002,30.483252,0 118.103435000000005,30.465229000000001,0 118.109774000000002,30.452711999999998,0 118.107581999999994,30.429279999999999,0 118.125027000000003,30.423662,0 118.130174999999994,30.429601000000002,0 118.142900999999995,30.433827999999998,0 118.157820000000001,30.434308999999999,0 118.163253999999995,30.446774999999999,0 118.181128000000001,30.447844,0 118.168639999999996,30.453033000000001,0 118.188039000000003,30.474481000000001,0 118.185846999999995,30.464479999999998,0 118.196571000000006,30.468651999999999,0 118.213729999999998,30.466833000000001,0 118.213873000000007,30.461271,0 118.225217000000001,30.455013000000001,0 118.231604000000004,30.445651000000002,0 118.228076999999999,30.439713000000001,0 118.215399000000005,30.438321999999999,0 118.222977,30.423929000000001,0 118.221451999999999,30.414351,0 118.237801000000005,30.400490000000001,0 118.250337000000002,30.394815999999999,0 118.255913000000007,30.378437000000002,0 118.265683999999993,30.376401999999999,0 118.278172999999995,30.380310000000001,0 118.280365000000003,30.372387,0 118.300289000000006,30.370139000000002,0 118.295141000000001,30.358305999999999,0 118.305531999999999,30.351399000000001,0 118.299764999999994,30.340796000000001,0 118.302052000000003,30.329709000000001,0 118.310203000000001,30.320550000000001,0 118.307629000000006,30.309301000000001,0 118.294903000000005,30.302122000000001,0 118.312110000000004,30.292907,0 118.320545999999993,30.293763999999999,0 118.304912000000002,30.284386999999999,0 118.292472000000004,30.283691000000001,0 118.271404000000004,30.269864999999999,0 118.266638,30.259841999999999,0 118.267781999999997,30.243333,0 118.271880999999993,30.238185999999999,0 118.286562000000004,30.232879000000001,0 118.289946,30.219045999999999,0 118.290707999999995,30.199525999999999,0 118.311490000000006,30.193197000000001,0 118.326646999999994,30.175281999999999,0 118.339326,30.165839999999999,0 118.347476999999998,30.134288999999999,0 118.356961999999996,30.121945,0 118.355103,30.111908,0 118.370642000000004,30.099722,0 118.384607000000003,30.097145000000001,0 118.394807,30.106271,0 118.404482999999999,30.099615,0 118.417733999999996,30.097306,0 118.449955000000003,30.102620999999999,0 118.468925999999996,30.082433999999999,0 118.477695999999995,30.076526999999999,0 118.494473999999997,30.072123999999999,0 118.514015999999998,30.038931999999999,0 118.513491999999999,30.030659,0 118.498096000000004,30.018141,0 118.498716000000002,30.005997000000001,0 118.505769999999998,29.991379999999999,0 118.509297000000004,29.998311999999999,0 118.520403000000002,29.998850000000001,0 118.524501999999998,29.992508000000001,0 118.520784000000006,29.975200999999998,0 118.524741000000006,29.967407000000001,0 118.548668000000006,29.945202999999999,0 118.564588000000001,29.947569000000001,0 118.574931000000007,29.963750999999998,0 118.583462999999995,29.968321,0 118.605817999999999,29.971654000000001,0 118.614016000000007,29.980468999999999,0 118.618592000000007,29.997399000000001,0 118.614492999999996,30.001805000000001,0 118.628028999999998,30.016528999999998,0 118.651004,30.024533999999999,0 118.669021000000001,30.023675000000001,0 118.688754000000003,30.028993,0 118.694806999999997,30.036674999999999,0 118.697810000000004,30.056818,0 118.730365000000006,30.070298000000001,0 118.743138999999999,30.092742999999999,0 118.754626000000002,30.080608000000002,0 118.767972,30.076796000000002,0 118.789945000000003,30.078299000000001,0 118.821070000000006,30.102727999999999,0 118.850049999999996,30.110458000000001,0 118.868877999999995,30.10144,0</coordinates></LinearRing></outerBoundaryIs></Polygon></MultiGeometry></Placemark>
</Document>
</kml>