<?xml version="1.0" encoding="UTF-8"?>
<kml xmlns="http://www.opengis.net/kml/2.2">
  <Document>
    <name>池州市</name>
    <Placemark>
      <name>池州市</name>
      <Polygon><outerBoundaryIs><LinearRing><coordinates>116.673836000000,29.709848000000,0 116.687087000000,29.734798000000,0 116.703055000000,29.741264000000,0 116.720548000000,29.763352000000,0 116.739327000000,29.774179000000,0 116.745857000000,29.790336000000,0 116.762492000000,29.802506000000,0 116.780891000000,29.792490000000,0 116.789804000000,29.795128000000,0 116.812349000000,29.811713000000,0 116.830748000000,29.841482000000,0 116.861301000000,29.867369000000,0 116.882702000000,29.893518000000,0 116.891996000000,29.919337000000,0 116.891853000000,29.927350000000,0 116.900147000000,29.949504000000,0 116.887897000000,29.968805000000,0 116.868688000000,29.980469000000,0 116.845381000000,29.969611000000,0 116.835943000000,29.970686000000,0 116.835276000000,29.957730000000,0 116.828746000000,29.963106000000,0 116.829556000000,30.006534000000,0 116.802816000000,29.996539000000,0 116.787325000000,30.020343000000,0 116.783512000000,30.030712000000,0 116.770309000000,30.035655000000,0 116.764542000000,30.048923000000,0 116.753627000000,30.048976000000,0 116.747335000000,30.057248000000,0 116.771787000000,30.073681000000,0 116.816925000000,30.115075000000,0 116.841901000000,30.146739000000,0 116.860061000000,30.177320000000,0 116.867497000000,30.213576000000,0 116.892711000000,30.240492000000,0 116.920547000000,30.257966000000,0 116.927173000000,30.273455000000,0 116.928793000000,30.290978000000,0 116.920500000000,30.314283000000,0 116.910347000000,30.332869000000,0 116.903341000000,30.357289000000,0 116.893855000000,30.381595000000,0 116.888279000000,30.407019000000,0 116.891949000000,30.414725000000,0 116.892425000000,30.431099000000,0 116.901100000000,30.436503000000,0 116.914446000000,30.425481000000,0 116.935609000000,30.440301000000,0 116.950433000000,30.442816000000,0 116.975552000000,30.458062000000,0 116.986372000000,30.470791000000,0 117.010490000000,30.489294000000,0 117.025457000000,30.494267000000,0 117.111586000000,30.495337000000,0 117.135133000000,30.492075000000,0 117.164017000000,30.474802000000,0 117.192187000000,30.465871000000,0 117.213397000000,30.476941000000,0 117.226315000000,30.489027000000,0 117.236372000000,30.504747000000,0 117.241281000000,30.523083000000,0 117.243807000000,30.538156000000,0 117.252244000000,30.563967000000,0 117.247906000000,30.589290000000,0 117.217830000000,30.620641000000,0 117.217068000000,30.630626000000,0 117.272644000000,30.656626000000,0 117.309489000000,30.676801000000,0 117.343426000000,30.688969000000,0 117.366829000000,30.694251000000,0 117.394379000000,30.694998000000,0 117.399384000000,30.690676000000,0 117.422358000000,30.682885000000,0 117.451100000000,30.679043000000,0 117.470404000000,30.678989000000,0 117.485418000000,30.686514000000,0 117.493616000000,30.696706000000,0 117.507249000000,30.726688000000,0 117.576934000000,30.756662000000,0 117.645523000000,30.776603000000,0 117.670594000000,30.781508000000,0 117.701815000000,30.806614000000,0 117.698526000000,30.789931000000,0 117.720880000000,30.791103000000,0 117.742568000000,30.807200000000,0 117.751529000000,30.802936000000,0 117.755961000000,30.792223000000,0 117.748478000000,30.778522000000,0 117.759918000000,30.769832000000,0 117.758202000000,30.761674000000,0 117.781938000000,30.764127000000,0 117.783750000000,30.749729000000,0 117.796238000000,30.748449000000,0 117.803101000000,30.757462000000,0 117.815733000000,30.759914000000,0 117.842282000000,30.773617000000,0 117.846333000000,30.788438000000,0 117.872787000000,30.807893000000,0 117.884036000000,30.812317000000,0 117.903197000000,30.814022000000,0 117.915828000000,30.819564000000,0 117.934608000000,30.835763000000,0 117.943330000000,30.833099000000,0 117.953626000000,30.817593000000,0 117.980413000000,30.843808000000,0 117.989612000000,30.828836000000,0 117.966781000000,30.799099000000,0 117.968783000000,30.794941000000,0 117.983702000000,30.794035000000,0 117.997477000000,30.778949000000,0 118.030461000000,30.774097000000,0 118.051671000000,30.758635000000,0 118.071357000000,30.746849000000,0 118.095952000000,30.738849000000,0 118.115732000000,30.719380000000,0 118.124979000000,30.717833000000,0 118.128506000000,30.701295000000,0 118.134941000000,30.700281000000,0 118.126075000000,30.690783000000,0 118.105723000000,30.662978000000,0 118.099574000000,30.651341000000,0 118.100956000000,30.641251000000,0 118.077934000000,30.623684000000,0 118.073073000000,30.609533000000,0 118.065923000000,30.600026000000,0 118.046142000000,30.597142000000,0 118.022977000000,30.575454000000,0 117.997048000000,30.570806000000,0 117.985132000000,30.561348000000,0 117.987229000000,30.537675000000,0 117.981080000000,30.525382000000,0 117.970118000000,30.512231000000,0 117.963635000000,30.508436000000,0 117.951481000000,30.489134000000,0 117.945904000000,30.466726000000,0 117.945904000000,30.455066000000,0 117.938564000000,30.425106000000,0 117.941233000000,30.413602000000,0 117.952911000000,30.403594000000,0 117.953197000000,30.392568000000,0 117.938278000000,30.378115000000,0 117.916590000000,30.366552000000,0 117.928125000000,30.357289000000,0 117.940137000000,30.334690000000,0 117.925361000000,30.330780000000,0 117.932034000000,30.326335000000,0 117.928507000000,30.319747000000,0 117.920356000000,30.320014000000,0 117.907677000000,30.309783000000,0 117.912920000000,30.299283000000,0 117.902196000000,30.294246000000,0 117.886419000000,30.293228000000,0 117.888516000000,30.269597000000,0 117.863206000000,30.266435000000,0 117.842997000000,30.260378000000,0 117.824932000000,30.241617000000,0 117.829317000000,30.225212000000,0 117.858345000000,30.217330000000,0 117.861300000000,30.209072000000,0 117.852863000000,30.191749000000,0 117.846953000000,30.192286000000,0 117.831366000000,30.182202000000,0 117.820404000000,30.182577000000,0 117.797811000000,30.163694000000,0 117.778125000000,30.156719000000,0 117.743187000000,30.154037000000,0 117.698955000000,30.143466000000,0 117.682606000000,30.132733000000,0 117.686610000000,30.126132000000,0 117.673264000000,30.122106000000,0 117.676219000000,30.107936000000,0 117.662491000000,30.108902000000,0 117.655866000000,30.115451000000,0 117.646143000000,30.114484000000,0 117.642901000000,30.105627000000,0 117.631176000000,30.099293000000,0 117.615351000000,30.111693000000,0 117.610490000000,30.131499000000,0 117.599765000000,30.129781000000,0 117.584846000000,30.118027000000,0 117.572739000000,30.115719000000,0 117.568736000000,30.107399000000,0 117.560299000000,30.103748000000,0 117.571071000000,30.101762000000,0 117.568450000000,30.088233000000,0 117.559965000000,30.083400000000,0 117.554293000000,30.101601000000,0 117.545618000000,30.101601000000,0 117.541043000000,30.110620000000,0 117.528983000000,30.099561000000,0 117.535371000000,30.083776000000,0 117.544093000000,30.086783000000,0 117.535990000000,30.076581000000,0 117.542091000000,30.052844000000,0 117.511491000000,30.037105000000,0 117.492806000000,30.034903000000,0 117.461777000000,30.037965000000,0 117.446476000000,30.023030000000,0 117.433273000000,30.020720000000,0 117.411538000000,30.030444000000,0 117.394093000000,30.029745000000,0 117.386372000000,30.011048000000,0 117.349813000000,30.008254000000,0 117.324217000000,29.997990000000,0 117.309155000000,29.999065000000,0 117.297668000000,29.992777000000,0 117.267401000000,29.983210000000,0 117.260156000000,29.985253000000,0 117.206152000000,29.974288000000,0 117.203102000000,29.965149000000,0 117.206248000000,29.927511000000,0 117.188946000000,29.921864000000,0 117.177601000000,29.921972000000,0 117.148812000000,29.911323000000,0 117.134704000000,29.903846000000,0 117.127983000000,29.895508000000,0 117.133035000000,29.874256000000,0 117.127697000000,29.861611000000,0 117.110395000000,29.855422000000,0 117.092807000000,29.836853000000,0 117.073312000000,29.832224000000,0 117.075600000000,29.822642000000,0 117.092711000000,29.809559000000,0 117.127983000000,29.795775000000,0 117.135609000000,29.780965000000,0 117.135466000000,29.772024000000,0 117.108679000000,29.751985000000,0 117.108250000000,29.745089000000,0 117.122454000000,29.728548000000,0 117.113016000000,29.712165000000,0 117.085848000000,29.696912000000,0 117.070881000000,29.693732000000,0 117.051243000000,29.682896000000,0 117.042044000000,29.680902000000,0 117.015304000000,29.685753000000,0 116.996048000000,29.683381000000,0 116.984561000000,29.674702000000,0 116.971167000000,29.655668000000,0 116.939613000000,29.648280000000,0 116.918545000000,29.634473000000,0 116.873455000000,29.609282000000,0 116.848955000000,29.576421000000,0 116.838088000000,29.569837000000,0 116.818403000000,29.564764000000,0 116.795762000000,29.566545000000,0 116.780652000000,29.570539000000,0 116.779651000000,29.578040000000,0 116.786944000000,29.591315000000,0 116.774933000000,29.595254000000,0 116.770166000000,29.592232000000,0 116.760443000000,29.599085000000,0 116.740185000000,29.585919000000,0 116.729985000000,29.568542000000,0 116.721596000000,29.564980000000,0 116.716544000000,29.590775000000,0 116.688946000000,29.604103000000,0 116.685657000000,29.611602000000,0 116.670595000000,29.625088000000,0 116.651911000000,29.637170000000,0 116.652244000000,29.645422000000,0 116.663589000000,29.659173000000,0 116.677078000000,29.669040000000,0 116.680509000000,29.681495000000,0 116.673026000000,29.687532000000,0 116.656677000000,29.686346000000,0 116.654151000000,29.694756000000,0 116.668021000000,29.700308000000,0 116.673836000000,29.709848000000,0</coordinates></LinearRing></outerBoundaryIs><innerBoundaryIs><LinearRing><coordinates>116.698956000000,29.707800000000,0 116.705819000000,29.697128000000,0 116.703388000000,29.710063000000,0 116.698956000000,29.707800000000,0</coordinates></LinearRing></innerBoundaryIs><innerBoundaryIs><LinearRing><coordinates>116.706534000000,29.696588000000,0 116.705057000000,29.688664000000,0 116.717163000000,29.690767000000,0 116.715876000000,29.697289000000,0 116.706534000000,29.696588000000,0</coordinates></LinearRing></innerBoundaryIs><innerBoundaryIs><LinearRing><coordinates>117.297144000000,30.487209000000,0 117.290137000000,30.476300000000,0 117.274456000000,30.465229000000,0 117.256724000000,30.458543000000,0 117.255580000000,30.454050000000,0 117.267211000000,30.441746000000,0 117.259203000000,30.430511000000,0 117.252530000000,30.428798000000,0 117.251958000000,30.420558000000,0 117.268545000000,30.420184000000,0 117.281129000000,30.414458000000,0 117.299289000000,30.425374000000,0 117.293378000000,30.440997000000,0 117.305437000000,30.445812000000,0 117.314780000000,30.461859000000,0 117.321882000000,30.462234000000,0 117.326648000000,30.470631000000,0 117.324551000000,30.487637000000,0 117.319784000000,30.492770000000,0 117.307535000000,30.494267000000,0 117.297144000000,30.487209000000,0</coordinates></LinearRing></innerBoundaryIs></Polygon>
    </Placemark>
  </Document>
</kml>
