<?xml version="1.0" encoding="UTF-8"?>
<kml xmlns="http://www.opengis.net/kml/2.2">
<Document>
<name>芜湖市</name>
<Placemark><name>芜湖市</name><MultiGeometry><Polygon><outerBoundaryIs><LinearRing><coordinates>118.656865999999994,31.304653999999999,0 118.617542999999998,31.294103,0 118.598000999999996,31.295003999999999,0 118.575121999999993,31.291345,0 118.572547999999998,31.300305999999999,0 118.555149999999998,31.318861999999999,0 118.551289999999995,31.331955000000001,0 118.557723999999993,31.346371000000001,0 118.543662999999995,31.365606,0 118.522929000000005,31.381924000000001,0 118.524979000000002,31.401788,0 118.510774999999995,31.406289000000001,0 118.490945999999994,31.403587999999999,0 118.484511999999995,31.392465000000001,0 118.470403000000005,31.393737000000002,0 118.461347000000004,31.399722000000001,0 118.444997999999998,31.393471999999999,0 118.443520000000007,31.405389,0 118.436370999999994,31.425777,0 118.430031,31.436154999999999,0 118.424598000000003,31.456166,0 118.431794999999994,31.461511999999999,0 118.431747000000001,31.472996999999999,0 118.420355000000001,31.481465,0 118.415255000000002,31.497710000000001,0 118.392853000000002,31.507867999999998,0 118.376552000000004,31.532518,0 118.347953000000004,31.465057999999999,0 118.340089000000006,31.453519,0 118.326171000000002,31.444148999999999,0 118.317305000000005,31.443989999999999,0 118.314635999999993,31.45336,0 118.316781000000006,31.474267000000001,0 118.321976000000006,31.485486999999999,0 118.311204000000004,31.496756999999999,0 118.309965000000005,31.506598,0 118.304053999999994,31.507815000000001,0 118.303149000000005,31.497233000000001,0 118.291948000000005,31.499403000000001,0 118.267685999999998,31.510195,0 118.269830999999996,31.515326999999999,0 118.249955,31.529291000000001,0 118.248238999999998,31.533576,0 118.219593000000003,31.525483000000001,0 118.202433999999997,31.526541000000002,0 118.198143999999999,31.535004000000001,0 118.185370000000006,31.538070999999999,0 118.167877000000004,31.531724000000001,0 118.157152999999994,31.522098,0 118.135084000000006,31.517019999999999,0 118.136657,31.499244000000001,0 118.144902999999999,31.477336999999999,0 118.150670000000005,31.468287,0 118.141090000000005,31.471568000000001,0 118.127696,31.461352999999999,0 118.131652000000003,31.437266999999999,0 118.148095999999995,31.437002,0 118.171214000000006,31.429483999999999,0 118.162682000000004,31.413757,0 118.168592000000004,31.403376000000002,0 118.16516,31.399139000000002,0 117.991232999999994,31.438537,0 117.979650000000007,31.432872,0 117.974646000000007,31.437584000000001,0 117.976076000000006,31.448225999999998,0 117.969354999999993,31.455690000000001,0 117.968354000000005,31.465641000000002,0 117.980270000000004,31.466805000000001,0 117.986895000000004,31.474478999999999,0 117.963015999999996,31.486545,0 117.965399000000005,31.498239000000002,0 117.945522999999994,31.487815000000001,0 117.934225999999995,31.488555999999999,0 117.917782000000003,31.502365999999999,0 117.900146000000007,31.504059000000002,0 117.890136999999996,31.501253999999999,0 117.850145999999995,31.483633999999999,0 117.830984999999998,31.486015999999999,0 117.81559,31.479665000000001,0 117.795903999999993,31.483422999999998,0 117.778458999999998,31.481200000000001,0 117.768496999999996,31.466011000000002,0 117.757104999999996,31.471727000000001,0 117.740612999999996,31.464369999999999,0 117.720641999999998,31.467915999999999,0 117.705628000000004,31.458707,0 117.697000000000003,31.431549,0 117.692901000000006,31.407349,0 117.677124000000006,31.391459000000001,0 117.656103999999999,31.349550000000001,0 117.647762999999998,31.32077,0 117.633844999999994,31.297125000000001,0 117.616399999999999,31.294156000000001,0 117.602672999999996,31.275753999999999,0 117.572119999999998,31.271034,0 117.575408999999993,31.255758,0 117.573121,31.248066000000001,0 117.561395000000005,31.233263000000001,0 117.555723,31.215062,0 117.540328000000002,31.205987,0 117.525266000000002,31.200572999999999,0 117.532463000000007,31.192240000000002,0 117.555008000000001,31.177216000000001,0 117.558774,31.159110999999999,0 117.552386999999996,31.145197,0 117.530842000000007,31.137018000000001,0 117.527315000000002,31.118054999999998,0 117.517401000000007,31.114974,0 117.512206000000006,31.106580000000001,0 117.524216999999993,31.095155999999999,0 117.528696999999994,31.079267000000002,0 117.524169000000001,31.066458000000001,0 117.512110000000007,31.047162,0 117.494427000000002,31.046364000000001,0 117.485037000000005,31.041951999999998,0 117.483941000000002,31.035837000000001,0 117.493616000000003,31.029987999999999,0 117.507534000000007,31.003451999999999,0 117.523167999999998,30.994568999999998,0 117.536942999999994,30.992014999999999,0 117.532892000000004,30.973662000000001,0 117.549049999999994,30.967596,0 117.560965999999993,30.974194000000001,0 117.568926000000005,30.968606999999999,0 117.583511999999999,30.970735000000001,0 117.592568,30.978131000000001,0 117.626410000000007,30.972118999999999,0 117.650671000000003,30.957646,0 117.651290000000003,30.950409000000001,0 117.660489999999996,30.940031000000001,0 117.667209999999997,30.956049,0 117.665828000000005,30.966639000000001,0 117.683081999999999,30.968767,0 117.686181000000005,30.98526,0 117.693759,30.98893,0 117.700432000000006,31.002493999999999,0 117.697524999999999,31.010100000000001,0 117.707629999999995,31.01127,0 117.718305999999998,31.019086999999999,0 117.721023000000002,31.010100000000001,0 117.731414000000001,31.00994,0 117.752339000000006,31.057687999999999,0 117.767495999999994,31.096112999999999,0 117.781318999999996,31.111467999999999,0 117.807390999999996,31.129742,0 117.831937999999994,31.139143000000001,0 117.850718000000001,31.140205000000002,0 117.869878999999997,31.133140999999998,0 117.880269999999996,31.122039000000001,0 117.890422999999998,31.086016000000001,0 117.897953999999999,31.078309999999998,0 117.923788000000002,31.068318000000001,0 117.935466000000005,31.067681,0 117.958629999999999,31.074642999999998,0 117.973310999999995,31.084316000000001,0 117.985512999999997,31.079744999999999,0 118.005818000000005,31.078203999999999,0 118.021880999999993,31.064703999999999,0 118.009679000000006,31.045407000000001,0 118.013778000000002,31.034507999999999,0 118.025932999999995,31.030414,0 118.032510000000002,31.017173,0 118.070975000000004,31.011375999999998,0 118.083653999999996,30.993824,0 118.097572,30.985579000000001,0 118.105198000000001,30.970948,0 118.124836000000002,30.967862,0 118.143806999999995,30.970682,0 118.159058999999999,30.963925,0 118.160346000000004,30.952697000000001,0 118.152911000000003,30.932206999999998,0 118.154578999999998,30.923210999999998,0 118.164778999999996,30.907185999999999,0 118.157200000000003,30.901382999999999,0 118.134369000000007,30.902075,0 118.099097,30.885515000000002,0 118.079412000000005,30.866607999999999,0 118.056914000000006,30.872254000000002,0 118.039612000000005,30.857552999999999,0 118.048143999999994,30.855156000000001,0 118.041566000000003,30.843275999999999,0 118.024216999999993,30.845673000000001,0 118.013396999999998,30.862347,0 117.993472999999994,30.854623,0 117.980412999999999,30.843807999999999,0 117.989611999999994,30.828835999999999,0 117.966780999999997,30.799098999999998,0 117.968783000000002,30.794941000000001,0 117.983701999999994,30.794035000000001,0 117.997477000000003,30.778949000000001,0 118.030461000000003,30.774097000000001,0 118.051670999999999,30.758635000000002,0 118.071357000000006,30.746849000000001,0 118.095951999999997,30.738848999999998,0 118.115731999999994,30.719380000000001,0 118.124978999999996,30.717832999999999,0 118.128506000000002,30.701294999999998,0 118.134940999999998,30.700281,0 118.126075,30.690783,0 118.105722999999998,30.662977999999999,0 118.099574000000004,30.651340999999999,0 118.100955999999996,30.641251,0 118.136799999999994,30.652194999999999,0 118.153577999999996,30.666554000000001,0 118.171214000000006,30.691637,0 118.205437000000003,30.702148000000001,0 118.218354000000005,30.709458000000001,0 118.229220999999995,30.709244000000002,0 118.242901000000003,30.703482000000001,0 118.267590999999996,30.714206000000001,0 118.278745000000001,30.712658999999999,0 118.293282000000005,30.699960999999998,0 118.304959999999994,30.698146000000001,0 118.314445000000006,30.705082999999998,0 118.297190999999998,30.715966000000002,0 118.294712000000004,30.722421000000001,0 118.275694000000001,30.736449,0 118.276646999999997,30.743169000000002,0 118.294568999999996,30.757088,0 118.297905999999998,30.772390999999999,0 118.307581999999996,30.776389999999999,0 118.302576999999999,30.793821999999999,0 118.305008000000001,30.800964,0 118.312871999999999,30.795100999999999,0 118.306724000000003,30.806933999999998,0 118.318686999999997,30.821749000000001,0 118.338229999999996,30.826812,0 118.347620000000006,30.824414000000001,0 118.358915999999994,30.845780000000001,0 118.376408999999995,30.845513,0 118.409536000000003,30.848710000000001,0 118.424502000000004,30.841090999999999,0 118.436800000000005,30.824732999999998,0 118.429840999999996,30.813915999999999,0 118.419498000000004,30.813649000000002,0 118.431700000000006,30.796434000000001,0 118.446476000000004,30.800910999999999,0 118.455197999999996,30.790144000000002,0 118.451671000000005,30.779161999999999,0 118.480270000000004,30.76642,0 118.480699000000001,30.780601999999998,0 118.484750000000005,30.79025,0 118.502863000000005,30.801497000000001,0 118.503101000000001,30.810451,0 118.495521999999994,30.819883999999998,0 118.482224000000002,30.822548999999999,0 118.477981999999997,30.833579,0 118.490898999999999,30.842849000000001,0 118.490041000000005,30.848655999999998,0 118.498238999999998,30.859843000000001,0 118.485512999999997,30.864051,0 118.477410000000006,30.857552999999999,0 118.483986999999999,30.870761999999999,0 118.472119000000006,30.875077000000001,0 118.475741999999997,30.88184,0 118.485845999999995,30.87726,0 118.492947999999998,30.883490999999999,0 118.489706999999996,30.900051999999999,0 118.511537000000004,30.914054,0 118.509153999999995,30.928694,0 118.495712999999995,30.941041999999999,0 118.515254999999996,30.937581999999999,0 118.510250999999997,30.9511,0 118.550955999999999,30.970682,0 118.570975000000004,30.972277999999999,0 118.582462000000007,30.981854999999999,0 118.581222999999994,30.994727999999999,0 118.572261999999995,31.016269000000001,0 118.584272999999996,31.026107,0 118.596142,31.047853,0 118.603768000000002,31.044238,0 118.600955999999996,31.028020999999999,0 118.606819000000002,31.020204,0 118.627313999999998,31.020575999999998,0 118.650002999999998,31.036847999999999,0 118.663396000000006,31.054445000000001,0 118.682653000000002,31.074909000000002,0 118.676123000000004,31.081392999999998,0 118.676838000000004,31.08963,0 118.685513,31.096271999999999,0 118.683081999999999,31.111892999999998,0 118.690326999999996,31.124960999999999,0 118.702004000000002,31.135797,0 118.717304999999996,31.144188,0 118.733558000000002,31.149446000000001,0 118.718401,31.173978000000002,0 118.708962999999997,31.177004,0 118.695044999999993,31.189108000000001,0 118.682986,31.214054000000001,0 118.668210000000002,31.224879999999999,0 118.663587000000007,31.236871000000001,0 118.647285999999994,31.245519000000002,0 118.651860999999997,31.261009000000001,0 118.660060000000001,31.269760999999999,0 118.661441999999994,31.290762000000001,0 118.656865999999994,31.304653999999999,0</coordinates></LinearRing></outerBoundaryIs></Polygon></MultiGeometry></Placemark>
</Document>
</kml>