<?xml version="1.0" encoding="UTF-8"?>
<kml xmlns="http://www.opengis.net/kml/2.2">
  <Document>
    <name>蚌埠市</name>
    <Placemark>
      <name>蚌埠市</name>
      <Polygon><outerBoundaryIs><LinearRing><coordinates>116.735657000000,32.928663000000,0 116.757869000000,32.923767000000,0 116.761301000000,32.916371000000,0 116.768403000000,32.921476000000,0 116.784990000000,32.917204000000,0 116.790996000000,32.905014000000,0 116.804866000000,32.902566000000,0 116.817831000000,32.894021000000,0 116.836467000000,32.890843000000,0 116.840614000000,32.886570000000,0 116.834179000000,32.877607000000,0 116.882225000000,32.844300000000,0 116.889232000000,32.847271000000,0 116.898336000000,32.842996000000,0 116.897239000000,32.834289000000,0 116.923312000000,32.816508000000,0 116.921072000000,32.809520000000,0 116.935037000000,32.808737000000,0 116.960919000000,32.791786000000,0 116.991901000000,32.783752000000,0 117.001958000000,32.779161000000,0 117.018736000000,32.757403000000,0 117.029318000000,32.758081000000,0 117.028698000000,32.747696000000,0 117.033607000000,32.747435000000,0 117.040090000000,32.732873000000,0 117.054437000000,32.729688000000,0 117.043760000000,32.721388000000,0 117.046334000000,32.716167000000,0 117.066448000000,32.723946000000,0 117.074837000000,32.717525000000,0 117.090900000000,32.727757000000,0 117.081701000000,32.735117000000,0 117.084561000000,32.744095000000,0 117.125266000000,32.757820000000,0 117.146143000000,32.751349000000,0 117.159060000000,32.749888000000,0 117.160395000000,32.739919000000,0 117.179365000000,32.741120000000,0 117.182034000000,32.735952000000,0 117.195905000000,32.734699000000,0 117.202673000000,32.745399000000,0 117.214112000000,32.752027000000,0 117.231796000000,32.772170000000,0 117.244665000000,32.794602000000,0 117.255819000000,32.805660000000,0 117.265542000000,32.800862000000,0 117.280366000000,32.808842000000,0 117.284942000000,32.817447000000,0 117.307678000000,32.818959000000,0 117.314017000000,32.828241000000,0 117.325218000000,32.825894000000,0 117.350814000000,32.829232000000,0 117.361729000000,32.840129000000,0 117.368354000000,32.837783000000,0 117.395857000000,32.836427000000,0 117.415113000000,32.831995000000,0 117.422168000000,32.846593000000,0 117.432272000000,32.842266000000,0 117.457773000000,32.841484000000,0 117.471167000000,32.837157000000,0 117.479222000000,32.842944000000,0 117.491281000000,32.864681000000,0 117.508249000000,32.868747000000,0 117.513588000000,32.875261000000,0 117.512253000000,32.886153000000,0 117.499670000000,32.897408000000,0 117.505151000000,32.908557000000,0 117.512396000000,32.932830000000,0 117.528602000000,32.938976000000,0 117.528173000000,32.967041000000,0 117.531224000000,32.980576000000,0 117.548526000000,32.969592000000,0 117.568640000000,32.951369000000,0 117.576839000000,32.941059000000,0 117.589994000000,32.933924000000,0 117.603483000000,32.922257000000,0 117.626886000000,32.924809000000,0 117.646190000000,32.912308000000,0 117.657534000000,32.910745000000,0 117.671834000000,32.918819000000,0 117.679174000000,32.943871000000,0 117.694665000000,32.969280000000,0 117.698287000000,32.985000000000,0 117.707963000000,33.002540000000,0 117.718545000000,33.006391000000,0 117.737039000000,33.001083000000,0 117.746333000000,33.009825000000,0 117.762587000000,33.040833000000,0 117.773359000000,33.047335000000,0 117.787515000000,33.045202000000,0 117.800146000000,33.031209000000,0 117.822406000000,33.028140000000,0 117.860346000000,33.035995000000,0 117.880222000000,33.041977000000,0 117.886752000000,33.046607000000,0 117.893711000000,33.035059000000,0 117.890613000000,33.031781000000,0 117.897620000000,33.019607000000,0 117.895237000000,33.013884000000,0 117.879698000000,33.002748000000,0 117.899384000000,32.990257000000,0 117.913492000000,32.987655000000,0 117.937706000000,33.008576000000,0 117.947858000000,33.014508000000,0 117.970642000000,33.001967000000,0 117.982796000000,33.011750000000,0 118.003721000000,33.002227000000,0 118.011347000000,33.001759000000,0 118.031462000000,33.014716000000,0 118.036800000000,33.027099000000,0 118.018306000000,33.034539000000,0 118.005151000000,33.031417000000,0 117.998430000000,33.040625000000,0 118.004341000000,33.055293000000,0 118.018116000000,33.061430000000,0 118.032749000000,33.073962000000,0 118.061681000000,33.074690000000,0 118.072691000000,33.081034000000,0 118.065017000000,33.097410000000,0 118.074550000000,33.117318000000,0 118.073835000000,33.135143000000,0 118.051290000000,33.124854000000,0 118.044617000000,33.127192000000,0 118.050337000000,33.133792000000,0 118.067925000000,33.135143000000,0 118.070451000000,33.140391000000,0 118.046905000000,33.138416000000,0 118.038230000000,33.135195000000,0 118.037086000000,33.152340000000,0 118.025694000000,33.155977000000,0 118.017448000000,33.164600000000,0 118.005866000000,33.170314000000,0 118.001528000000,33.178624000000,0 117.989183000000,33.179663000000,0 117.981509000000,33.201006000000,0 117.993616000000,33.205627000000,0 117.993473000000,33.211286000000,0 117.977458000000,33.226237000000,0 117.953816000000,33.223953000000,0 117.942377000000,33.225043000000,0 117.938993000000,33.234282000000,0 117.948049000000,33.252135000000,0 117.939469000000,33.262617000000,0 117.970404000000,33.277195000000,0 117.983130000000,33.296388000000,0 117.985894000000,33.320243000000,0 117.992996000000,33.332946000000,0 117.978983000000,33.334139000000,0 117.972691000000,33.330095000000,0 117.952148000000,33.328850000000,0 117.916018000000,33.330095000000,0 117.909155000000,33.344455000000,0 117.897954000000,33.340308000000,0 117.894379000000,33.330613000000,0 117.870976000000,33.329213000000,0 117.859202000000,33.324962000000,0 117.853530000000,33.304323000000,0 117.846619000000,33.295247000000,0 117.824836000000,33.299085000000,0 117.809536000000,33.296232000000,0 117.808345000000,33.283161000000,0 117.793283000000,33.277559000000,0 117.775408000000,33.282383000000,0 117.737801000000,33.275068000000,0 117.728125000000,33.284821000000,0 117.710585000000,33.282954000000,0 117.692663000000,33.291668000000,0 117.690184000000,33.304997000000,0 117.677124000000,33.309924000000,0 117.667830000000,33.327917000000,0 117.642997000000,33.333465000000,0 117.631939000000,33.343677000000,0 117.623740000000,33.345336000000,0 117.609393000000,33.339789000000,0 117.589660000000,33.323303000000,0 117.577982000000,33.325480000000,0 117.564160000000,33.333257000000,0 117.539756000000,33.327813000000,0 117.528793000000,33.339686000000,0 117.507344000000,33.346062000000,0 117.484274000000,33.345544000000,0 117.477077000000,33.347772000000,0 117.433607000000,33.379024000000,0 117.424169000000,33.399955000000,0 117.401720000000,33.424766000000,0 117.391519000000,33.456249000000,0 117.365399000000,33.470951000000,0 117.345190000000,33.475661000000,0 117.320404000000,33.476127000000,0 117.309632000000,33.490877000000,0 117.261967000000,33.497035000000,0 117.243140000000,33.501537000000,0 117.241996000000,33.489945000000,0 117.231367000000,33.473280000000,0 117.208011000000,33.453091000000,0 117.202721000000,33.423472000000,0 117.159680000000,33.457543000000,0 117.154818000000,33.439059000000,0 117.139708000000,33.442011000000,0 117.128793000000,33.434554000000,0 117.126839000000,33.422384000000,0 117.134656000000,33.419743000000,0 117.143760000000,33.409694000000,0 117.133417000000,33.387366000000,0 117.125504000000,33.380993000000,0 117.107344000000,33.392702000000,0 117.108774000000,33.398194000000,0 117.094808000000,33.398246000000,0 117.082320000000,33.406638000000,0 117.060728000000,33.392288000000,0 117.051243000000,33.371406000000,0 117.062873000000,33.373946000000,0 117.084894000000,33.365498000000,0 117.096572000000,33.353941000000,0 117.093521000000,33.346788000000,0 117.080795000000,33.344507000000,0 117.074932000000,33.333931000000,0 117.064303000000,33.332842000000,0 117.065018000000,33.321591000000,0 117.092092000000,33.316147000000,0 117.099289000000,33.307746000000,0 117.095523000000,33.284873000000,0 117.034132000000,33.293276000000,0 117.025409000000,33.296440000000,0 117.012444000000,33.279219000000,0 117.002578000000,33.278025000000,0 116.986658000000,33.281657000000,0 116.974599000000,33.278389000000,0 116.953531000000,33.286637000000,0 116.937897000000,33.301315000000,0 116.923407000000,33.307020000000,0 116.904532000000,33.299656000000,0 116.878841000000,33.299656000000,0 116.869832000000,33.286118000000,0 116.849909000000,33.281553000000,0 116.841186000000,33.284977000000,0 116.820452000000,33.302197000000,0 116.807344000000,33.307020000000,0 116.801911000000,33.303908000000,0 116.800481000000,33.275950000000,0 116.805485000000,33.275587000000,0 116.813159000000,33.250319000000,0 116.825981000000,33.230804000000,0 116.826553000000,33.210819000000,0 116.821405000000,33.202771000000,0 116.815304000000,33.155405000000,0 116.805247000000,33.156081000000,0 116.791853000000,33.169015000000,0 116.777078000000,33.151821000000,0 116.771310000000,33.155250000000,0 116.756868000000,33.141222000000,0 116.754723000000,33.131090000000,0 116.764589000000,33.114823000000,0 116.764637000000,33.090704000000,0 116.749098000000,33.075522000000,0 116.748622000000,33.060858000000,0 116.752483000000,33.053108000000,0 116.781558000000,33.040105000000,0 116.802197000000,33.032666000000,0 116.814923000000,33.021532000000,0 116.816162000000,33.013051000000,0 116.810586000000,32.995410000000,0 116.802483000000,33.000042000000,0 116.798860000000,32.994161000000,0 116.777459000000,32.996607000000,0 116.778174000000,33.003320000000,0 116.768784000000,33.000406000000,0 116.768260000000,33.006078000000,0 116.755152000000,33.002696000000,0 116.754628000000,32.989060000000,0 116.747526000000,32.978962000000,0 116.740424000000,32.959752000000,0 116.742711000000,32.947360000000,0 116.735657000000,32.928663000000,0</coordinates></LinearRing></outerBoundaryIs></Polygon>
    </Placemark>
  </Document>
</kml>
