<?xml version="1.0" encoding="UTF-8"?>
<kml xmlns="http://www.opengis.net/kml/2.2">
  <Document>
    <name>马鞍山市</name>
    <Placemark>
      <name>马鞍山市</name>
      <Polygon><outerBoundaryIs><LinearRing><coordinates>118.883701000000,31.500143000000,0 118.877791000000,31.478766000000,0 118.870498000000,31.463047000000,0 118.866065000000,31.444890000000,0 118.869640000000,31.421594000000,0 118.851146000000,31.392518000000,0 118.847381000000,31.393948000000,0 118.829507000000,31.377527000000,0 118.800241000000,31.368997000000,0 118.784559000000,31.368573000000,0 118.771261000000,31.363116000000,0 118.767400000000,31.365871000000,0 118.770355000000,31.379328000000,0 118.765398000000,31.387963000000,0 118.754626000000,31.385049000000,0 118.745760000000,31.372706000000,0 118.735036000000,31.344781000000,0 118.721070000000,31.322679000000,0 118.714731000000,31.321671000000,0 118.704102000000,31.307782000000,0 118.692186000000,31.309001000000,0 118.681747000000,31.304336000000,0 118.656866000000,31.304654000000,0 118.617543000000,31.294103000000,0 118.598001000000,31.295004000000,0 118.575122000000,31.291345000000,0 118.572548000000,31.300306000000,0 118.555150000000,31.318862000000,0 118.551290000000,31.331955000000,0 118.557724000000,31.346371000000,0 118.543663000000,31.365606000000,0 118.522929000000,31.381924000000,0 118.524979000000,31.401788000000,0 118.510775000000,31.406289000000,0 118.490946000000,31.403588000000,0 118.484512000000,31.392465000000,0 118.470403000000,31.393737000000,0 118.461347000000,31.399722000000,0 118.444998000000,31.393472000000,0 118.443520000000,31.405389000000,0 118.436371000000,31.425777000000,0 118.430031000000,31.436155000000,0 118.424598000000,31.456166000000,0 118.431795000000,31.461512000000,0 118.431747000000,31.472997000000,0 118.420355000000,31.481465000000,0 118.415255000000,31.497710000000,0 118.392853000000,31.507868000000,0 118.376552000000,31.532518000000,0 118.347953000000,31.465058000000,0 118.340089000000,31.453519000000,0 118.326171000000,31.444149000000,0 118.317305000000,31.443990000000,0 118.314636000000,31.453360000000,0 118.316781000000,31.474267000000,0 118.321976000000,31.485487000000,0 118.311204000000,31.496757000000,0 118.309965000000,31.506598000000,0 118.304054000000,31.507815000000,0 118.303149000000,31.497233000000,0 118.291948000000,31.499403000000,0 118.267686000000,31.510195000000,0 118.269831000000,31.515327000000,0 118.249955000000,31.529291000000,0 118.248239000000,31.533576000000,0 118.219593000000,31.525483000000,0 118.202434000000,31.526541000000,0 118.198144000000,31.535004000000,0 118.185370000000,31.538071000000,0 118.167877000000,31.531724000000,0 118.157153000000,31.522098000000,0 118.135084000000,31.517020000000,0 118.136657000000,31.499244000000,0 118.144903000000,31.477337000000,0 118.150670000000,31.468287000000,0 118.141090000000,31.471568000000,0 118.127696000000,31.461353000000,0 118.131652000000,31.437267000000,0 118.148096000000,31.437002000000,0 118.171214000000,31.429484000000,0 118.162682000000,31.413757000000,0 118.168592000000,31.403376000000,0 118.165160000000,31.399139000000,0 117.991233000000,31.438537000000,0 117.979650000000,31.432872000000,0 117.974646000000,31.437584000000,0 117.976076000000,31.448226000000,0 117.969355000000,31.455690000000,0 117.968354000000,31.465641000000,0 117.980270000000,31.466805000000,0 117.986895000000,31.474479000000,0 117.963016000000,31.486545000000,0 117.965399000000,31.498239000000,0 117.952386000000,31.519823000000,0 117.939565000000,31.525113000000,0 117.952148000000,31.536961000000,0 117.941662000000,31.540663000000,0 117.928030000000,31.538441000000,0 117.919784000000,31.549230000000,0 117.908297000000,31.546850000000,0 117.907248000000,31.556686000000,0 117.913921000000,31.564987000000,0 117.928268000000,31.568212000000,0 117.935323000000,31.580530000000,0 117.929603000000,31.587138000000,0 117.936037000000,31.588935000000,0 117.932129000000,31.604474000000,0 117.937181000000,31.610446000000,0 117.934608000000,31.618108000000,0 117.941138000000,31.626932000000,0 117.962730000000,31.627143000000,0 117.960775000000,31.616681000000,0 117.971929000000,31.620486000000,0 117.973311000000,31.638450000000,0 117.969021000000,31.642148000000,0 117.963873000000,31.659368000000,0 117.967639000000,31.662168000000,0 117.949288000000,31.671357000000,0 117.939183000000,31.671357000000,0 117.941424000000,31.679067000000,0 117.932272000000,31.681813000000,0 117.913206000000,31.704042000000,0 117.913063000000,31.715339000000,0 117.920070000000,31.734129000000,0 117.915256000000,31.750330000000,0 117.924741000000,31.761410000000,0 117.909441000000,31.767424000000,0 117.905961000000,31.777553000000,0 117.913445000000,31.787522000000,0 117.901385000000,31.811782000000,0 117.908011000000,31.832556000000,0 117.913874000000,31.840885000000,0 117.935751000000,31.855433000000,0 117.941710000000,31.868873000000,0 117.951862000000,31.906229000000,0 117.964350000000,31.901540000000,0 117.988373000000,31.881836000000,0 118.044808000000,31.859545000000,0 118.061776000000,31.858543000000,0 118.072834000000,31.850901000000,0 118.083988000000,31.853800000000,0 118.085942000000,31.877462000000,0 118.109107000000,31.891425000000,0 118.120832000000,31.906123000000,0 118.132034000000,31.903331000000,0 118.147763000000,31.907967000000,0 118.171118000000,31.900118000000,0 118.181843000000,31.907651000000,0 118.187277000000,31.919186000000,0 118.203959000000,31.927719000000,0 118.219736000000,31.925296000000,0 118.239421000000,31.944096000000,0 118.256724000000,31.954469000000,0 118.290136000000,31.979895000000,0 118.304865000000,31.985527000000,0 118.305341000000,31.998000000000,0 118.317210000000,32.019836000000,0 118.334464000000,32.031253000000,0 118.348716000000,32.035461000000,0 118.358344000000,32.045297000000,0 118.385084000000,32.058130000000,0 118.394378000000,32.048400000000,0 118.385989000000,32.033146000000,0 118.401528000000,32.018679000000,0 118.389660000000,32.012049000000,0 118.390994000000,31.989527000000,0 118.387181000000,31.983264000000,0 118.376695000000,31.981737000000,0 118.379221000000,31.967262000000,0 118.369021000000,31.956153000000,0 118.369498000000,31.944201000000,0 118.364350000000,31.930141000000,0 118.375313000000,31.925349000000,0 118.386037000000,31.914815000000,0 118.402958000000,31.914025000000,0 118.415923000000,31.901435000000,0 118.440136000000,31.892689000000,0 118.452291000000,31.884628000000,0 118.472310000000,31.879623000000,0 118.467114000000,31.868873000000,0 118.466781000000,31.858016000000,0 118.475456000000,31.850321000000,0 118.490613000000,31.843152000000,0 118.504721000000,31.841729000000,0 118.486132000000,31.795434000000,0 118.482176000000,31.778344000000,0 118.503196000000,31.778028000000,0 118.510775000000,31.765631000000,0 118.523597000000,31.761990000000,0 118.533844000000,31.767266000000,0 118.539659000000,31.761568000000,0 118.538706000000,31.749380000000,0 118.522119000000,31.743047000000,0 118.530031000000,31.742309000000,0 118.545093000000,31.732071000000,0 118.550003000000,31.735976000000,0 118.557200000000,31.729643000000,0 118.571690000000,31.746214000000,0 118.575312000000,31.740937000000,0 118.593091000000,31.744420000000,0 118.600718000000,31.753970000000,0 118.609345000000,31.757189000000,0 118.619021000000,31.750066000000,0 118.627076000000,31.759458000000,0 118.641661000000,31.758244000000,0 118.648382000000,31.748799000000,0 118.642090000000,31.744314000000,0 118.652100000000,31.739776000000,0 118.653959000000,31.730118000000,0 118.677267000000,31.728587000000,0 118.684893000000,31.724893000000,0 118.687324000000,31.716183000000,0 118.697715000000,31.709426000000,0 118.680746000000,31.696598000000,0 118.673406000000,31.696334000000,0 118.671404000000,31.688467000000,0 118.654912000000,31.675635000000,0 118.647000000000,31.679859000000,0 118.643234000000,31.671357000000,0 118.647953000000,31.659368000000,0 118.643616000000,31.650019000000,0 118.657867000000,31.641091000000,0 118.673835000000,31.640563000000,0 118.684798000000,31.636231000000,0 118.694998000000,31.639718000000,0 118.716923000000,31.639454000000,0 118.719402000000,31.627460000000,0 118.728649000000,31.634276000000,0 118.734226000000,31.632216000000,0 118.745141000000,31.656516000000,0 118.744378000000,31.668347000000,0 118.751146000000,31.677694000000,0 118.768306000000,31.677483000000,0 118.774121000000,31.682605000000,0 118.799049000000,31.666393000000,0 118.783082000000,31.656516000000,0 118.789564000000,31.646532000000,0 118.796046000000,31.628306000000,0 118.802767000000,31.619482000000,0 118.814540000000,31.619218000000,0 118.819545000000,31.628517000000,0 118.833844000000,31.630314000000,0 118.858534000000,31.623973000000,0 118.868735000000,31.611397000000,0 118.870784000000,31.599347000000,0 118.865303000000,31.591789000000,0 118.877314000000,31.589675000000,0 118.873358000000,31.573922000000,0 118.881985000000,31.564775000000,0 118.875122000000,31.551979000000,0 118.873739000000,31.531936000000,0 118.883939000000,31.531460000000,0 118.885846000000,31.518871000000,0 118.883701000000,31.500143000000,0</coordinates></LinearRing></outerBoundaryIs></Polygon>
    </Placemark>
  </Document>
</kml>
