<?xml version="1.0" encoding="UTF-8"?>
<kml xmlns="http://www.opengis.net/kml/2.2">
  <Document>
    <name><![CDATA[伊春市]]></name>
    <Placemark>
      <name><![CDATA[伊春市]]></name>
      <description><![CDATA[省级目录：黑龙江省]]></description>
      <ExtendedData>
        <Data name="adcode"><value>230700</value></Data>
      </ExtendedData>
      <MultiGeometry>
      <Polygon>
        <outerBoundaryIs><LinearRing><coordinates>128.238962,46.57723,0 128.24912,46.582512,0 128.291418,46.570785,0 128.32022,46.574695,0 128.36892,46.570997,0 128.380051,46.565079,0 128.401339,46.581139,0 128.39146,46.597933,0 128.428472,46.62074,0 128.467292,46.62549,0 128.507643,46.60712,0 128.545767,46.599412,0 128.565804,46.57892,0 128.598502,46.586738,0 128.622155,46.573427,0 128.679481,46.575751,0 128.679899,46.565396,0 128.7023,46.557787,0 128.708979,46.537809,0 128.699378,46.5119,0 128.704248,46.483757,0 128.764914,46.486614,0 128.786759,46.50111,0 128.839215,46.487461,0 128.848815,46.509996,0 128.879844,46.524275,0 128.913655,46.526178,0 128.916159,46.518352,0 128.956788,46.512958,0 129.020654,46.487778,0 129.043334,46.520996,0 129.066988,46.534955,0 129.082154,46.557893,0 129.096486,46.555779,0 129.108034,46.535166,0 129.128766,46.530514,0 129.156594,46.545209,0 129.197363,46.536012,0 129.207102,46.558633,0 129.19945,46.576808,0 129.220738,46.585153,0 129.242305,46.620317,0 129.258584,46.620528,0 129.281543,46.641954,0 129.355705,46.652821,0 129.40663,46.643009,0 129.425553,46.620634,0 129.419987,46.613878,0 129.439328,46.604375,0 129.4794,46.623695,0 129.501385,46.619367,0 129.502359,46.619367,0 129.510011,46.622745,0 129.525873,46.663792,0 129.574016,46.687414,0 129.572903,46.702173,0 129.589322,46.713871,0 129.607271,46.71208,0 129.634403,46.721248,0 129.672806,46.717244,0 129.691033,46.723144,0 129.707591,46.73842,0 129.70133,46.765378,0 129.701191,46.796638,0 129.694651,46.806106,0 129.654022,46.804318,0 129.630507,46.815363,0 129.600453,46.856684,0 129.593078,46.881693,0 129.574433,46.898079,0 129.558432,46.899864,0 129.555928,46.924852,0 129.572346,46.936922,0 129.55551,46.950249,0 129.539787,46.952137,0 129.534918,46.981086,0 129.582921,46.97018,0 129.595444,46.992934,0 129.581251,47.019031,0 129.565807,47.032547,0 129.584869,47.030137,0 129.605879,47.03946,0 129.63329,47.042602,0 129.64303,47.036841,0 129.677119,47.045954,0 129.689642,47.059253,0 129.708287,47.062708,0 129.718305,47.078934,0 129.709261,47.102583,0 129.691033,47.120366,0 129.726792,47.123294,0 129.758516,47.148178,0 129.750725,47.170752,0 129.780918,47.179841,0 129.781753,47.21065,0 129.788988,47.217436,0 129.787319,47.239876,0 129.795806,47.26408,0 129.812086,47.270546,0 129.842557,47.256152,0 129.861759,47.261264,0 129.886247,47.297759,0 129.899883,47.304846,0 129.851323,47.320373,0 129.858002,47.332354,0 129.901275,47.332979,0 129.899327,47.352871,0 129.914632,47.360263,0 129.896544,47.364219,0 129.873586,47.385036,0 129.839079,47.40418,0 129.837966,47.426333,0 129.858002,47.429764,0 129.886387,47.443279,0 129.903223,47.440992,0 129.884856,47.467909,0 129.901553,47.482661,0 129.872612,47.496889,0 129.879569,47.528552,0 129.869272,47.538202,0 129.895152,47.559054,0 129.909484,47.562788,0 129.928407,47.555631,0 129.934808,47.56507,0 129.901275,47.571914,0 129.89557,47.609438,0 129.913936,47.617312,0 129.917137,47.641136,0 129.929659,47.654286,0 129.898492,47.678817,0 129.898631,47.699095,0 129.912962,47.717091,0 129.908927,47.72588,0 129.875255,47.744487,0 129.813338,47.7604,0 129.797615,47.781164,0 129.773126,47.782506,0 129.772987,47.816679,0 129.754481,47.820085,0 129.751281,47.851655,0 129.737506,47.859596,0 129.750446,47.875372,0 129.712878,47.871351,0 129.699799,47.887226,0 129.715522,47.910102,0 129.711904,47.924523,0 129.68672,47.928643,0 129.68839,47.947795,0 129.678371,47.954897,0 129.675032,47.978978,0 129.741959,47.976303,0 129.780918,47.99914,0 129.779666,48.007161,0 129.737506,48.026489,0 129.745437,48.035123,0 129.740846,48.081659,0 129.748498,48.093055,0 129.733471,48.104038,0 129.741402,48.119226,0 129.761856,48.122817,0 129.799285,48.151229,0 129.793997,48.164045,0 129.809303,48.173681,0 129.803737,48.190897,0 129.809998,48.219169,0 129.783423,48.240977,0 129.804015,48.257659,0 129.841583,48.260115,0 129.86482,48.286405,0 129.863428,48.309411,0 129.879708,48.316771,0 129.900718,48.310229,0 129.913936,48.297552,0 129.955122,48.272495,0 129.981976,48.250393,0 129.986429,48.225927,0 130.036241,48.197557,0 130.049042,48.194995,0 130.071026,48.173476,0 130.08828,48.165685,0 130.100385,48.14323,0 130.129883,48.145896,0 130.180947,48.174603,0 130.191522,48.169888,0 130.239525,48.169888,0 130.251352,48.16548,0 130.266101,48.18106,0 130.246761,48.194791,0 130.259144,48.222958,0 130.261231,48.244969,0 130.2469,48.249472,0 130.267632,48.259501,0 130.277232,48.272495,0 130.263458,48.283337,0 130.290173,48.293666,0 130.331358,48.297756,0 130.3731,48.293768,0 130.378109,48.308082,0 130.406077,48.309002,0 130.41359,48.325867,0 130.435574,48.314931,0 130.455332,48.329648,0 130.476621,48.320655,0 130.489283,48.301437,0 130.521842,48.289576,0 130.56748,48.297245,0 130.586681,48.306651,0 130.610613,48.300721,0 130.642894,48.305629,0 130.656808,48.3135,0 130.675035,48.30614,0 130.684775,48.320246,0 130.725265,48.326582,0 130.72777,48.336698,0 130.763668,48.334859,0 130.763111,48.34528,0 130.785096,48.357332,0 130.767007,48.375406,0 130.747667,48.404392,0 130.74071,48.425305,0 130.746275,48.449064,0 130.77633,48.480249,0 130.778695,48.494307,0 130.767425,48.507852,0 130.744188,48.515081,0 130.711768,48.511619,0 130.677818,48.493696,0 130.647346,48.485038,0 130.621188,48.496039,0 130.616179,48.510092,0 130.615761,48.57542,0 130.605743,48.594026,0 130.553705,48.604495,0 130.538538,48.611914,0 130.538678,48.635585,0 130.576802,48.68878,0 130.599065,48.741108,0 130.622023,48.783964,0 130.646929,48.813121,0 130.689784,48.849747,0 130.69368,48.863601,0 130.680462,48.880989,0 130.643033,48.886244,0 130.609222,48.880989,0 130.559131,48.860871,0 130.519894,48.858646,0 130.501805,48.865926,0 130.486917,48.893319,0 130.471194,48.905443,0 130.444619,48.909989,0 130.41206,48.905039,0 130.279737,48.86714,0 130.245369,48.866533,0 130.230203,48.876744,0 130.211419,48.901099,0 130.194583,48.907565,0 130.113047,48.956637,0 130.059199,48.978936,0 130.031371,49.014835,0 130.020936,49.021084,0 129.937312,49.040433,0 129.919224,49.055644,0 129.934668,49.078805,0 129.929659,49.097325,0 129.912823,49.108394,0 129.867046,49.114028,0 129.85508,49.133642,0 129.864402,49.158576,0 129.86162,49.172846,0 129.847566,49.181286,0 129.784675,49.183999,0 129.753925,49.208706,0 129.752673,49.227279,0 129.761856,49.257382,0 129.73041,49.288268,0 129.697295,49.298392,0 129.674754,49.295987,0 129.604627,49.279044,0 129.584452,49.282253,0 129.562467,49.299595,0 129.556067,49.324946,0 129.54591,49.395118,0 129.518499,49.423719,0 129.44865,49.441312,0 129.422353,49.442111,0 129.390351,49.432716,0 129.375045,49.414121,0 129.380611,49.371705,0 129.35807,49.35609,0 129.320363,49.358593,0 129.30144,49.370604,0 129.289891,49.362097,0 129.261645,49.375708,0 129.241888,49.37871,0 129.219208,49.358393,0 129.202928,49.351585,0 129.185536,49.33326,0 129.171204,49.284158,0 129.193606,49.243135,0 129.203763,49.237415,0 129.207659,49.216437,0 129.241192,49.177669,0 129.232287,49.158073,0 129.234096,49.10125,0 129.222686,49.086657,0 129.245505,49.089475,0 129.266655,49.064607,0 129.294761,49.052219,0 129.341373,49.04547,0 129.396334,49.047082,0 129.410108,49.052119,0 129.444476,49.037108,0 129.449903,49.018363,0 129.441137,49.013525,0 129.437658,48.992552,0 129.459643,48.965315,0 129.460199,48.950278,0 129.480792,48.950076,0 129.497767,48.940285,0 129.526569,48.935035,0 129.507089,48.925038,0 129.526708,48.909383,0 129.50222,48.903423,0 129.522117,48.89251,0 129.511542,48.877249,0 129.526291,48.869768,0 129.496932,48.858242,0 129.484131,48.841857,0 129.463538,48.839531,0 129.435571,48.80472,0 129.394107,48.815854,0 129.386872,48.808972,0 129.365723,48.813121,0 129.36127,48.802291,0 129.324537,48.801379,0 129.322172,48.790647,0 129.290865,48.79652,0 129.259976,48.77414,0 129.266794,48.754181,0 129.238826,48.747088,0 129.182753,48.766643,0 129.185257,48.753472,0 129.16856,48.749925,0 129.165499,48.737966,0 129.230061,48.682185,0 129.192493,48.650616,0 129.200841,48.641781,0 129.199728,48.623396,0 129.142124,48.614353,0 129.134888,48.607138,0 129.107478,48.614454,0 129.086885,48.60541,0 129.065736,48.578471,0 129.033177,48.570437,0 129.032481,48.556909,0 128.998948,48.528112,0 129.004235,48.511721,0 128.987678,48.496752,0 128.99547,48.483306,0 128.988513,48.452734,0 128.95498,48.421327,0 128.979468,48.413064,0 128.966389,48.408269,0 128.923534,48.375814,0 128.921308,48.342624,0 128.933552,48.332815,0 128.904472,48.323516,0 128.904472,48.30706,0 128.914629,48.302459,0 128.912681,48.280064,0 128.863286,48.273108,0 128.850346,48.251007,0 128.815283,48.258785,0 128.796638,48.289882,0 128.787733,48.293462,0 128.774236,48.340376,0 128.772984,48.366217,0 128.756009,48.382042,0 128.755591,48.397453,0 128.741677,48.409698,0 128.722476,48.40429,0 128.675864,48.413472,0 128.649288,48.403168,0 128.622851,48.401535,0 128.615338,48.392759,0 128.55996,48.380612,0 128.537419,48.385002,0 128.526566,48.373977,0 128.497903,48.377652,0 128.456856,48.363051,0 128.437377,48.332713,0 128.411218,48.314113,0 128.396887,48.296631,0 128.391321,48.266254,0 128.371981,48.260422,0 128.341648,48.201757,0 128.344013,48.181675,0 128.356119,48.171733,0 128.334413,48.147947,0 128.302271,48.147435,0 128.276809,48.157586,0 128.23117,48.135845,0 128.211552,48.134922,0 128.174123,48.119123,0 128.170923,48.095519,0 128.132102,48.07827,0 128.157426,48.070362,0 128.163687,48.055776,0 128.17454,48.057831,0 128.155617,48.035329,0 128.163687,48.016004,0 128.156313,48.008909,0 128.166331,47.993997,0 128.163966,47.944397,0 128.184558,47.953353,0 128.227553,47.946765,0 128.250789,47.92545,0 128.287244,47.928437,0 128.316046,47.913399,0 128.339004,47.892482,0 128.350831,47.854749,0 128.340257,47.824626,0 128.320081,47.839483,0 128.292253,47.836801,0 128.275974,47.817299,0 128.282931,47.798821,0 128.266234,47.783952,0 128.262755,47.754511,0 128.273191,47.757404,0 128.316742,47.738388,0 128.322168,47.716678,0 128.294758,47.698992,0 128.28947,47.675919,0 128.273469,47.65853,0 128.275695,47.645692,0 128.291001,47.632125,0 128.283348,47.622078,0 128.295314,47.603531,0 128.268182,47.599386,0 128.249676,47.583319,0 128.256494,47.563307,0 128.228248,47.541626,0 128.238267,47.524919,0 128.258164,47.527306,0 128.298654,47.500835,0 128.311872,47.473312,0 128.347492,47.463649,0 128.350831,47.437042,0 128.340117,47.429244,0 128.378799,47.40366,0 128.387147,47.412294,0 128.400922,47.404388,0 128.449899,47.400123,0 128.459361,47.379,0 128.45463,47.347039,0 128.471605,47.344436,0 128.494146,47.363282,0 128.512234,47.39669,0 128.523922,47.399395,0 128.522253,47.41687,0 128.537836,47.428413,0 128.552585,47.407821,0 128.541036,47.396898,0 128.546741,47.376294,0 128.536723,47.356411,0 128.49679,47.326728,0 128.492616,47.29901,0 128.504025,47.284832,0 128.500268,47.271589,0 128.484963,47.261889,0 128.485519,47.244363,0 128.458387,47.225161,0 128.40774,47.211172,0 128.403287,47.204908,0 128.352223,47.182139,0 128.358762,47.162706,0 128.343318,47.157062,0 128.308115,47.163228,0 128.284879,47.1533,0 128.24898,47.130823,0 128.24258,47.10614,0 128.198612,47.09798,0 128.184141,47.104885,0 128.173288,47.094318,0 128.109979,47.078097,0 128.069211,47.076736,0 128.063367,47.086783,0 128.012441,47.074747,0 128.002145,47.085318,0 127.963325,47.093376,0 127.943706,47.085632,0 127.927148,47.068571,0 127.871631,47.080713,0 127.8573,47.06899,0 127.821819,47.062289,0 127.748909,47.015678,0 127.729986,47.017774,0 127.702715,47.004988,0 127.696175,47.013477,0 127.684209,47.000481,0 127.65652,47.007294,0 127.632866,47.000376,0 127.63384,46.988321,0 127.647893,46.988216,0 127.67113,46.96976,0 127.686992,46.966089,0 127.678365,46.948255,0 127.701741,46.933774,0 127.723168,46.934928,0 127.728038,46.926217,0 127.747935,46.926217,0 127.770754,46.896923,0 127.830724,46.86877,0 127.847699,46.844491,0 127.874275,46.819255,0 127.893337,46.810104,0 127.900294,46.794533,0 127.92687,46.778537,0 127.960959,46.741369,0 128.006458,46.697008,0 128.028443,46.69121,0 128.056827,46.654826,0 128.05474,46.638049,0 128.07742,46.628762,0 128.08229,46.61715,0 128.116379,46.5992,0 128.147686,46.591596,0 128.179688,46.589695,0 128.209047,46.574589,0 128.238962,46.57723,0</coordinates></LinearRing></outerBoundaryIs>
      </Polygon>
    </MultiGeometry>
    </Placemark>
  </Document>
</kml>
