<?xml version="1.0" encoding="UTF-8"?>
<kml xmlns="http://www.opengis.net/kml/2.2">
  <Document>
    <name><![CDATA[双鸭山市]]></name>
    <Placemark>
      <name><![CDATA[双鸭山市]]></name>
      <description><![CDATA[省级目录：黑龙江省]]></description>
      <ExtendedData>
        <Data name="adcode"><value>230500</value></Data>
      </ExtendedData>
      <MultiGeometry>
      <Polygon>
        <outerBoundaryIs><LinearRing><coordinates>134.498201,47.449308,0 134.50474,47.551793,0 134.505436,47.652733,0 134.510584,47.666294,0 134.511837,47.739525,0 134.55177,47.738492,0 134.55177,47.784572,0 134.513367,47.784572,0 134.517402,47.883825,0 134.465224,47.887123,0 134.466755,47.867639,0 134.454371,47.86568,0 134.452702,47.84918,0 134.437953,47.838039,0 134.416804,47.839174,0 134.396489,47.824213,0 134.384384,47.828031,0 134.359478,47.778995,0 134.377009,47.772487,0 134.379931,47.758644,0 134.369078,47.743866,0 134.374783,47.731152,0 134.345703,47.709852,0 134.345564,47.692061,0 134.318292,47.680369,0 134.327754,47.673021,0 134.294916,47.647038,0 134.250948,47.645796,0 134.2522,47.639582,0 134.217972,47.629432,0 134.223676,47.621042,0 134.201553,47.613686,0 134.191813,47.588502,0 134.171638,47.589435,0 134.152297,47.605189,0 134.108746,47.617312,0 134.094693,47.600111,0 134.101789,47.570981,0 134.052116,47.572225,0 134.052673,47.527929,0 134.034028,47.538099,0 133.974476,47.520664,0 133.935934,47.541938,0 133.885982,47.535712,0 133.847997,47.547748,0 133.808064,47.533326,0 133.768826,47.537476,0 133.721379,47.538202,0 133.721379,47.545361,0 133.693273,47.544013,0 133.634416,47.522947,0 133.613267,47.482038,0 133.608536,47.462299,0 133.59337,47.441616,0 133.562202,47.434131,0 133.517538,47.448477,0 133.489988,47.451491,0 133.455064,47.46552,0 133.400938,47.407821,0 133.353213,47.331833,0 133.292826,47.302449,0 133.296305,47.201357,0 133.277799,47.199269,0 133.274181,47.181617,0 133.258458,47.174304,0 133.255954,47.144415,0 133.242318,47.134378,0 133.240231,47.115764,0 133.228126,47.113776,0 133.227987,47.08626,0 133.210872,47.074538,0 133.239396,47.060509,0 133.236892,47.040089,0 133.217829,47.045221,0 133.204333,47.038517,0 133.222003,47.023746,0 133.18374,47.014735,0 133.189445,46.999328,0 133.210177,47.003102,0 133.213238,46.979828,0 133.182488,46.982344,0 133.201272,46.973326,0 133.178592,46.97427,0 133.169408,46.961998,0 133.151737,46.959586,0 133.163843,46.951088,0 133.139493,46.939231,0 133.150624,46.926532,0 133.138519,46.921913,0 133.148955,46.899129,0 133.129336,46.894718,0 133.113056,46.899864,0 133.106656,46.88663,0 133.062131,46.878016,0 133.026789,46.863516,0 133.03152,46.855423,0 133.008005,46.852375,0 133.002301,46.833872,0 132.97002,46.839235,0 132.956523,46.807684,0 132.905737,46.802635,0 132.880274,46.793376,0 132.891127,46.786956,0 132.877909,46.767694,0 132.84368,46.774432,0 132.812235,46.753901,0 132.811539,46.779063,0 132.779954,46.776853,0 132.740577,46.794954,0 132.719706,46.817151,0 132.67212,46.811471,0 132.649718,46.800846,0 132.628291,46.810104,0 132.595593,46.797479,0 132.549537,46.789166,0 132.513917,46.791797,0 132.493046,46.824093,0 132.452417,46.821148,0 132.43252,46.828194,0 132.390221,46.814312,0 132.400657,46.762851,0 132.364202,46.767589,0 132.328721,46.777379,0 132.333452,46.783063,0 132.306319,46.797269,0 132.257342,46.809894,0 132.237862,46.802424,0 132.207808,46.815679,0 132.222418,46.820727,0 132.216574,46.846489,0 132.200016,46.856684,0 132.195285,46.877911,0 132.220609,46.886525,0 132.253307,46.909105,0 132.246211,46.93052,0 132.267221,46.943743,0 132.241897,46.954445,0 132.205582,46.952347,0 132.11848,46.96997,0 132.060041,46.976577,0 132.059067,46.989474,0 131.929805,46.987272,0 131.915195,46.975528,0 131.839642,46.958222,0 131.837555,46.903749,0 131.863296,46.900914,0 131.864687,46.88663,0 131.801657,46.88579,0 131.78816,46.882848,0 131.789412,46.903224,0 131.763949,46.903434,0 131.763115,46.889676,0 131.726521,46.864777,0 131.728886,46.886735,0 131.52908,46.891042,0 131.53395,47.012534,0 131.554125,47.073805,0 131.539237,47.076317,0 131.461875,47.068362,0 131.408306,47.068885,0 131.404967,47.026261,0 131.212675,46.965355,0 131.182342,46.96525,0 131.085639,46.955599,0 131.073812,46.978779,0 131.059759,46.990522,0 131.03054,46.970494,0 131.013286,46.989055,0 130.942881,46.94899,0 130.910183,46.941225,0 130.836438,46.939651,0 130.844787,46.91005,0 130.861623,46.911205,0 130.849796,46.898919,0 130.864823,46.890307,0 130.837552,46.888311,0 130.8395,46.877806,0 130.823498,46.87623,0 130.828507,46.854793,0 130.798453,46.850903,0 130.791496,46.864461,0 130.76492,46.849642,0 130.751702,46.832821,0 130.713577,46.822305,0 130.682271,46.835239,0 130.66613,46.830928,0 130.668357,46.789061,0 130.657225,46.780958,0 130.668496,46.743265,0 130.709542,46.742738,0 130.713021,46.727464,0 130.730552,46.714925,0 130.723039,46.700276,0 130.728604,46.684989,0 130.745162,46.678452,0 130.727352,46.650289,0 130.719839,46.624962,0 130.744049,46.597933,0 130.757267,46.606592,0 130.797479,46.607859,0 130.82155,46.587477,0 130.836299,46.584942,0 130.864267,46.59487,0 130.912409,46.595293,0 130.945107,46.579554,0 130.97224,46.531254,0 130.965839,46.525015,0 130.975301,46.507564,0 131.023026,46.491694,0 131.030818,46.483122,0 131.018713,46.447233,0 131.064212,46.426261,0 131.062681,46.400829,0 131.089535,46.389699,0 131.095796,46.396377,0 131.13239,46.388215,0 131.152288,46.391607,0 131.167593,46.372416,0 131.205439,46.364144,0 131.229371,46.373477,0 131.247738,46.366053,0 131.295602,46.331785,0 131.28308,46.311193,0 131.340823,46.297602,0 131.358911,46.277847,0 131.410393,46.249158,0 131.435578,46.241611,0 131.454501,46.248733,0 131.505983,46.249264,0 131.515444,46.238741,0 131.538959,46.234914,0 131.550925,46.221729,0 131.571379,46.230448,0 131.586824,46.221198,0 131.628148,46.224069,0 131.630375,46.217901,0 131.63107,46.203862,0 131.657229,46.214179,0 131.70565,46.200883,0 131.721233,46.201628,0 131.727355,46.176198,0 131.698414,46.159699,0 131.699249,46.118591,0 131.70718,46.092056,0 131.772159,46.070308,0 131.778003,46.059217,0 131.801796,46.067429,0 131.838946,46.064016,0 131.893211,46.088219,0 131.910047,46.088326,0 131.929109,46.075319,0 131.912969,46.059964,0 131.902951,46.024544,0 131.925909,46.003623,0 131.905734,46.00341,0 131.874984,45.987073,0 131.868305,45.971906,0 131.836859,45.940599,0 131.808057,45.934934,0 131.8075,45.921678,0 131.788856,45.904033,0 131.785934,45.876112,0 131.797204,45.856526,0 131.785099,45.837576,0 131.799848,45.821619,0 131.801239,45.804372,0 131.788716,45.789262,0 131.815292,45.791513,0 131.827954,45.8108,0 131.845347,45.794406,0 131.867609,45.799121,0 131.872757,45.833935,0 131.890289,45.842181,0 131.894185,45.870333,0 131.92744,45.884351,0 131.943163,45.865196,0 131.940241,45.849033,0 131.971965,45.829438,0 131.97113,45.820119,0 132.027064,45.81637,0 132.083138,45.833079,0 132.08606,45.841217,0 132.13462,45.842716,0 132.168153,45.857918,0 132.197511,45.843572,0 132.212539,45.846356,0 132.222418,45.873865,0 132.257481,45.868193,0 132.277656,45.892053,0 132.279465,45.914941,0 132.287675,45.922319,0 132.265551,45.946904,0 132.282944,45.960689,0 132.267917,45.988888,0 132.307154,46.005758,0 132.309102,46.029346,0 132.346531,46.031587,0 132.39036,46.027319,0 132.451026,45.988141,0 132.485254,45.992412,0 132.509743,46.00736,0 132.544945,46.046951,0 132.559416,46.051538,0 132.571382,46.074573,0 132.607976,46.072121,0 132.626204,46.120402,0 132.647909,46.120721,0 132.672398,46.132972,0 132.664885,46.143302,0 132.679077,46.165022,0 132.712332,46.173537,0 132.72875,46.185243,0 132.746143,46.183541,0 132.789415,46.150011,0 132.793311,46.13393,0 132.818078,46.130628,0 132.823227,46.141705,0 132.851611,46.137764,0 132.865943,46.126474,0 132.878883,46.136806,0 132.901563,46.140107,0 132.897806,46.156292,0 132.953184,46.169599,0 132.947479,46.181199,0 132.97322,46.203117,0 132.968489,46.211733,0 132.972246,46.242674,0 132.983934,46.268073,0 133.028459,46.308539,0 133.021084,46.322976,0 133.029989,46.338365,0 132.995204,46.344943,0 133.034025,46.373052,0 133.053643,46.371886,0 133.061435,46.386306,0 133.083698,46.400935,0 133.066583,46.416831,0 133.078132,46.432723,0 133.098447,46.44395,0 133.090516,46.467986,0 133.119318,46.483122,0 133.14965,46.462799,0 133.207394,46.471162,0 133.223534,46.492011,0 133.210594,46.50439,0 133.215325,46.520362,0 133.227291,46.521842,0 133.234248,46.549015,0 133.222977,46.560007,0 133.2323,46.576808,0 133.278355,46.584308,0 133.287678,46.597511,0 133.320932,46.610288,0 133.34723,46.598884,0 133.359892,46.582512,0 133.349456,46.56677,0 133.385633,46.553454,0 133.403721,46.556519,0 133.427932,46.540558,0 133.456455,46.558633,0 133.482753,46.563177,0 133.492771,46.545315,0 133.490684,46.531042,0 133.507659,46.516977,0 133.537435,46.537175,0 133.575699,46.542038,0 133.627181,46.534426,0 133.663079,46.547112,0 133.68395,46.536646,0 133.710109,46.53358,0 133.732789,46.519304,0 133.744755,46.532311,0 133.799576,46.535589,0 133.82476,46.530302,0 133.839231,46.520045,0 133.863859,46.527447,0 133.870677,46.508304,0 133.890852,46.525226,0 133.911167,46.58135,0 133.932038,46.604269,0 133.976145,46.620212,0 134.011209,46.638155,0 134.028184,46.693529,0 134.024427,46.724198,0 134.033193,46.759061,0 134.052812,46.780116,0 134.021505,46.826406,0 134.041402,46.848486,0 134.042655,46.886735,0 134.055873,46.896608,0 134.058377,46.914039,0 134.076327,46.938496,0 134.064082,46.980037,0 134.101928,47.005827,0 134.10332,47.022698,0 134.120573,47.046687,0 134.118208,47.061766,0 134.141444,47.091492,0 134.156332,47.097666,0 134.200857,47.096096,0 134.222285,47.105303,0 134.23286,47.134796,0 134.228546,47.148073,0 134.230216,47.182244,0 134.210736,47.210337,0 134.157306,47.248432,0 134.177621,47.326416,0 134.203084,47.347456,0 134.235364,47.352246,0 134.263331,47.371194,0 134.266532,47.392008,0 134.314953,47.433299,0 134.334015,47.439329,0 134.415551,47.440265,0 134.454511,47.448892,0 134.498201,47.449308,0</coordinates></LinearRing></outerBoundaryIs>
      </Polygon>
    </MultiGeometry>
    </Placemark>
  </Document>
</kml>
