<?xml version="1.0" encoding="UTF-8"?>
<kml xmlns="http://www.opengis.net/kml/2.2">
  <Document>
    <name><![CDATA[哈尔滨市]]></name>
    <Placemark>
      <name><![CDATA[哈尔滨市]]></name>
      <description><![CDATA[省级目录：黑龙江省]]></description>
      <ExtendedData>
        <Data name="adcode"><value>230100</value></Data>
      </ExtendedData>
      <MultiGeometry>
      <Polygon>
        <outerBoundaryIs><LinearRing><coordinates>125.761286,45.531346,0 125.743615,45.51907,0 125.687959,45.514009,0 125.702012,45.501837,0 125.691716,45.487724,0 125.709804,45.484383,0 125.697142,45.453987,0 125.706604,45.446008,0 125.707161,45.424222,0 125.715926,45.421741,0 125.712309,45.389369,0 125.696308,45.365401,0 125.695751,45.350713,0 125.726223,45.336454,0 125.716205,45.326513,0 125.731232,45.322947,0 125.753216,45.297978,0 125.751825,45.287274,0 125.774226,45.293113,0 125.787723,45.279163,0 125.814855,45.267807,0 125.813464,45.246817,0 125.82376,45.238052,0 125.84964,45.239026,0 125.871903,45.221166,0 125.888461,45.22149,0 125.919767,45.196044,0 125.957474,45.201351,0 125.966658,45.193011,0 125.992677,45.192686,0 125.982241,45.17882,0 125.99699,45.162675,0 126.02941,45.164517,0 126.044855,45.171019,0 126.085345,45.162675,0 126.095363,45.147176,0 126.114008,45.14284,0 126.145036,45.147068,0 126.166185,45.133516,0 126.170916,45.146309,0 126.192065,45.155089,0 126.217111,45.146634,0 126.225459,45.153896,0 126.235616,45.140238,0 126.262471,45.152162,0 126.264697,45.168202,0 126.28515,45.162458,0 126.280698,45.172319,0 126.297117,45.192144,0 126.304213,45.178062,0 126.34192,45.192686,0 126.35973,45.188028,0 126.389088,45.213587,0 126.432083,45.234696,0 126.439875,45.22398,0 126.460468,45.234588,0 126.512924,45.239891,0 126.519463,45.2479,0 126.540056,45.238809,0 126.569554,45.252661,0 126.62354,45.235454,0 126.646499,45.224305,0 126.649838,45.211205,0 126.685736,45.187703,0 126.732209,45.18727,0 126.731792,45.17817,0 126.765185,45.17492,0 126.78703,45.15899,0 126.792596,45.135359,0 126.812771,45.136552,0 126.825572,45.147826,0 126.83893,45.132757,0 126.856462,45.14555,0 126.874132,45.137527,0 126.922136,45.142623,0 126.931737,45.130154,0 126.94412,45.138828,0 126.964296,45.132215,0 126.956643,45.121913,0 126.969583,45.116924,0 126.970974,45.071028,0 126.987393,45.066252,0 127.009099,45.043776,0 127.018421,45.024334,0 127.050284,45.003907,0 127.039292,44.99793,0 127.057241,44.991735,0 127.075469,44.958464,0 127.087574,44.956724,0 127.088966,44.929962,0 127.072547,44.906889,0 127.045415,44.907107,0 127.0219,44.898942,0 126.999081,44.872698,0 127.003116,44.854505,0 126.984193,44.824534,0 126.99755,44.764874,0 127.041101,44.712251,0 127.030526,44.673901,0 127.043188,44.65488,0 127.041519,44.611787,0 127.028718,44.597342,0 127.041519,44.591104,0 127.053485,44.566909,0 127.089244,44.593621,0 127.09467,44.615835,0 127.138917,44.607629,0 127.181911,44.644273,0 127.210435,44.64821,0 127.229497,44.642524,0 127.214053,44.625462,0 127.262196,44.612881,0 127.275692,44.640227,0 127.321887,44.635525,0 127.392709,44.632243,0 127.436678,44.613428,0 127.451427,44.615069,0 127.506805,44.594497,0 127.513205,44.582566,0 127.557034,44.575559,0 127.570253,44.550701,0 127.549521,44.53909,0 127.536998,44.522655,0 127.508196,44.529777,0 127.485516,44.528682,0 127.465619,44.516518,0 127.475498,44.498761,0 127.464645,44.486701,0 127.480785,44.456869,0 127.500961,44.449847,0 127.508196,44.437228,0 127.485516,44.408688,0 127.487882,44.397488,0 127.506526,44.393205,0 127.52058,44.380574,0 127.522528,44.361017,0 127.556756,44.340245,0 127.579714,44.310118,0 127.609212,44.294719,0 127.623544,44.277885,0 127.623265,44.258294,0 127.590567,44.227905,0 127.626605,44.187912,0 127.641214,44.193533,0 127.681704,44.166969,0 127.699236,44.176119,0 127.719829,44.202348,0 127.720525,44.162779,0 127.734856,44.129913,0 127.728873,44.099458,0 127.783834,44.071857,0 127.808322,44.086432,0 127.84589,44.081905,0 127.864952,44.06225,0 127.888885,44.069538,0 127.908086,44.064458,0 127.94955,44.088088,0 128.007293,44.09427,0 128.027608,44.108397,0 128.052514,44.106963,0 128.101491,44.13576,0 128.084934,44.147562,0 128.087856,44.158479,0 128.060445,44.168622,0 128.07088,44.18174,0 128.092726,44.182291,0 128.09203,44.215789,0 128.103579,44.213255,0 128.104413,44.229336,0 128.087995,44.238917,0 128.092308,44.248056,0 128.06448,44.251029,0 128.063923,44.261596,0 128.088273,44.274804,0 128.101352,44.289878,0 128.080759,44.307258,0 128.065037,44.307368,0 128.056271,44.329252,0 128.063784,44.341784,0 128.050288,44.350467,0 128.066985,44.371016,0 128.094534,44.354973,0 128.126258,44.349258,0 128.154087,44.356182,0 128.1648,44.343543,0 128.188733,44.364314,0 128.211969,44.43229,0 128.227692,44.445349,0 128.253016,44.446665,0 128.254546,44.453468,0 128.232144,44.467619,0 128.235206,44.480451,0 128.27166,44.530654,0 128.296427,44.538214,0 128.293645,44.54632,0 128.348327,44.586178,0 128.371842,44.608066,0 128.368641,44.631478,0 128.393826,44.643836,0 128.408436,44.675868,0 128.438072,44.680021,0 128.472858,44.66614,0 128.535471,44.682862,0 128.562186,44.669856,0 128.579161,44.674775,0 128.600171,44.670403,0 128.630086,44.655208,0 128.691587,44.663188,0 128.728737,44.694991,0 128.747799,44.699689,0 128.75587,44.725138,0 128.727207,44.734747,0 128.748495,44.739878,0 128.782445,44.767165,0 128.788846,44.783422,0 128.836432,44.789858,0 128.85772,44.799456,0 128.847981,44.806108,0 128.867182,44.830094,0 128.851737,44.831729,0 128.876504,44.844589,0 128.881792,44.86333,0 128.904611,44.883371,0 128.925899,44.874876,0 128.951223,44.885331,0 128.967224,44.884787,0 128.993939,44.907869,0 129.022185,44.913093,0 129.041386,44.900684,0 129.061561,44.903732,0 129.043334,44.929962,0 129.054604,44.935294,0 129.046256,44.951612,0 129.033594,44.949001,0 129.023298,44.973471,0 129.04236,44.977167,0 129.051822,44.999234,0 129.04069,45.01347,0 129.035681,45.041496,0 129.009801,45.048229,0 128.997418,45.064515,0 129.017176,45.080253,0 129.056135,45.077106,0 129.074641,45.069074,0 129.080345,45.085028,0 129.104834,45.100761,0 129.133358,45.101412,0 129.150333,45.11226,0 129.125427,45.11931,0 129.122087,45.134817,0 129.102051,45.139262,0 129.105808,45.163325,0 129.133219,45.181962,0 129.141289,45.195719,0 129.162299,45.194419,0 129.187344,45.204924,0 129.209885,45.223439,0 129.20098,45.235562,0 129.210859,45.259152,0 129.187066,45.26283,0 129.18971,45.276892,0 129.174543,45.292032,0 129.127653,45.275486,0 129.09412,45.291599,0 129.097181,45.309329,0 129.084241,45.327378,0 129.062396,45.33883,0 129.087581,45.358382,0 129.137393,45.371772,0 129.156594,45.369828,0 129.194162,45.389585,0 129.198197,45.426919,0 129.146715,45.444607,0 129.142402,45.458731,0 129.117774,45.474037,0 129.13461,45.498174,0 129.13141,45.524993,0 129.140315,45.535975,0 129.123896,45.566435,0 129.102051,45.567188,0 129.09259,45.604942,0 129.109287,45.625369,0 129.138924,45.619242,0 129.150472,45.623756,0 129.17997,45.604405,0 129.220738,45.593974,0 129.254967,45.617199,0 129.298935,45.619779,0 129.310901,45.625154,0 129.31118,45.645036,0 129.300744,45.656961,0 129.308258,45.673073,0 129.34179,45.678657,0 129.354452,45.688536,0 129.34193,45.69691,0 129.338729,45.721166,0 129.344295,45.735757,0 129.405378,45.738439,0 129.415535,45.746591,0 129.402038,45.768574,0 129.431675,45.779937,0 129.454773,45.763856,0 129.473278,45.786261,0 129.468548,45.791834,0 129.50862,45.789262,0 129.511403,45.802122,0 129.528795,45.802979,0 129.556623,45.81712,0 129.564555,45.828474,0 129.549249,45.847641,0 129.574294,45.859416,0 129.564137,45.875577,0 129.585982,45.887132,0 129.607827,45.876005,0 129.626055,45.893337,0 129.666962,45.873116,0 129.723036,45.896653,0 129.771317,45.885955,0 129.793997,45.897081,0 129.783005,45.925633,0 129.797476,45.933437,0 129.785092,45.970945,0 129.80819,45.987073,0 129.846314,45.9875,0 129.857445,45.970197,0 129.875116,45.961757,0 129.902388,45.935468,0 129.900718,45.925526,0 129.920615,45.921143,0 129.93272,45.927023,0 129.949278,45.908418,0 129.975019,45.920395,0 130.027614,45.923709,0 130.044589,45.909915,0 130.061843,45.91847,0 130.088558,45.91569,0 130.10275,45.927665,0 130.116247,45.926489,0 130.105116,45.981413,0 130.118473,46.003303,0 130.114577,46.02273,0 130.125013,46.027959,0 130.12543,46.049831,0 130.111655,46.055271,0 130.115829,46.069561,0 130.139762,46.069561,0 130.182339,46.083422,0 130.213089,46.111772,0 130.240082,46.122319,0 130.221994,46.139681,0 130.207801,46.144047,0 130.188183,46.172685,0 130.158963,46.188116,0 130.155206,46.209605,0 130.139622,46.230129,0 130.111238,46.245013,0 130.09635,46.243312,0 130.061425,46.274342,0 130.059895,46.294204,0 130.030536,46.303443,0 130.014953,46.335075,0 130.009526,46.330406,0 129.968897,46.345262,0 129.952061,46.346429,0 129.948582,46.358416,0 129.923815,46.376022,0 129.97321,46.389699,0 129.988516,46.381854,0 130.014953,46.381217,0 130.030954,46.387155,0 130.066017,46.364144,0 130.077427,46.37178,0 130.083131,46.390441,0 130.115412,46.386731,0 130.139205,46.407718,0 130.14491,46.431452,0 130.161746,46.433147,0 130.170929,46.463328,0 130.146579,46.491059,0 130.154093,46.502591,0 130.153119,46.538655,0 130.177608,46.589061,0 130.197783,46.61715,0 130.191104,46.624962,0 130.163276,46.614089,0 130.155902,46.603108,0 130.126543,46.598144,0 130.114577,46.574166,0 130.129465,46.549332,0 130.129187,46.529033,0 130.138927,46.504178,0 130.092036,46.523852,0 130.074644,46.51666,0 130.072418,46.525967,0 130.041807,46.526284,0 130.035824,46.541087,0 130.05753,46.548063,0 130.066574,46.558633,0 130.069913,46.583569,0 130.086749,46.604058,0 130.071444,46.601629,0 130.054468,46.586315,0 130.02998,46.598356,0 130.030675,46.584202,0 129.988794,46.565079,0 129.958461,46.60184,0 129.940791,46.608915,0 129.921172,46.629395,0 129.904336,46.609971,0 129.862872,46.594342,0 129.821965,46.559584,0 129.76116,46.531783,0 129.712878,46.538549,0 129.683381,46.536646,0 129.642612,46.558104,0 129.640386,46.580716,0 129.5928,46.608915,0 129.55078,46.618839,0 129.540066,46.613878,0 129.502359,46.619367,0 129.501385,46.619367,0 129.4794,46.623695,0 129.439328,46.604375,0 129.419987,46.613878,0 129.425553,46.620634,0 129.40663,46.643009,0 129.355705,46.652821,0 129.281543,46.641954,0 129.258584,46.620528,0 129.242305,46.620317,0 129.220738,46.585153,0 129.19945,46.576808,0 129.207102,46.558633,0 129.197363,46.536012,0 129.156594,46.545209,0 129.128766,46.530514,0 129.108034,46.535166,0 129.096486,46.555779,0 129.082154,46.557893,0 129.066988,46.534955,0 129.043334,46.520996,0 129.020654,46.487778,0 128.956788,46.512958,0 128.916159,46.518352,0 128.913655,46.526178,0 128.879844,46.524275,0 128.848815,46.509996,0 128.839215,46.487461,0 128.786759,46.50111,0 128.764914,46.486614,0 128.704248,46.483757,0 128.699378,46.5119,0 128.708979,46.537809,0 128.7023,46.557787,0 128.679899,46.565396,0 128.679481,46.575751,0 128.622155,46.573427,0 128.598502,46.586738,0 128.565804,46.57892,0 128.545767,46.599412,0 128.507643,46.60712,0 128.467292,46.62549,0 128.428472,46.62074,0 128.39146,46.597933,0 128.401339,46.581139,0 128.380051,46.565079,0 128.36892,46.570997,0 128.32022,46.574695,0 128.291418,46.570785,0 128.24912,46.582512,0 128.238962,46.57723,0 128.194298,46.565079,0 128.191376,46.538972,0 128.20056,46.534743,0 128.172036,46.522054,0 128.152834,46.539289,0 128.137111,46.52639,0 128.117353,46.5229,0 128.12111,46.508516,0 128.08549,46.50841,0 128.080759,46.519198,0 128.059888,46.518564,0 128.048061,46.530619,0 128.014946,46.531148,0 127.965551,46.548698,0 127.928261,46.575117,0 127.903077,46.578181,0 127.869822,46.575117,0 127.860222,46.584097,0 127.844221,46.576279,0 127.814723,46.605853,0 127.790512,46.598989,0 127.776876,46.58304,0 127.696453,46.554194,0 127.681565,46.564023,0 127.626326,46.538444,0 127.589454,46.514651,0 127.569696,46.512535,0 127.549938,46.526284,0 127.517936,46.529879,0 127.509727,46.539924,0 127.505831,46.5992,0 127.481759,46.628445,0 127.463114,46.632983,0 127.446974,46.647124,0 127.422485,46.648073,0 127.408432,46.666851,0 127.356115,46.673706,0 127.321469,46.670648,0 127.290163,46.657674,0 127.275692,46.644697,0 127.241185,46.651977,0 127.187338,46.642587,0 127.168832,46.620423,0 127.151022,46.61071,0 127.12222,46.606381,0 127.125142,46.595398,0 127.089244,46.592124,0 127.05098,46.578075,0 127.052093,46.566347,0 127.037205,46.563071,0 127.031779,46.547746,0 126.998802,46.537175,0 126.989897,46.526495,0 126.972644,46.527553,0 126.91824,46.506611,0 126.906831,46.509044,0 126.873854,46.495185,0 126.878446,46.487038,0 126.85187,46.477089,0 126.853122,46.468515,0 126.836008,46.452105,0 126.837539,46.438443,0 126.80331,46.422235,0 126.778125,46.427215,0 126.768246,46.408778,0 126.742784,46.417149,0 126.71259,46.388851,0 126.682118,46.375916,0 126.688102,46.363295,0 126.661804,46.354598,0 126.656795,46.340381,0 126.635228,46.324781,0 126.641907,46.293142,0 126.617279,46.257341,0 126.615609,46.235764,0 126.587503,46.208223,0 126.526838,46.188861,0 126.457546,46.139788,0 126.454763,46.11614,0 126.423178,46.084808,0 126.393263,46.084808,0 126.382688,46.092376,0 126.350547,46.095787,0 126.328841,46.065509,0 126.277498,46.065403,0 126.258435,46.078091,0 126.228659,46.07404,0 126.242991,46.064336,0 126.224068,46.06007,0 126.223929,46.048871,0 126.189978,46.069668,0 126.170777,46.061457,0 126.199996,46.028066,0 126.221007,46.011736,0 126.235477,45.990063,0 126.231025,45.963574,0 126.247722,45.962185,0 126.262053,45.973295,0 126.310752,45.970411,0 126.319379,45.94124,0 126.311726,45.934506,0 126.328145,45.901894,0 126.357086,45.889379,0 126.365435,45.877075,0 126.354442,45.866908,0 126.342755,45.831258,0 126.360982,45.822155,0 126.364321,45.807157,0 126.348738,45.796657,0 126.360008,45.774899,0 126.355556,45.747878,0 126.35806,45.725029,0 126.340807,45.733504,0 126.329119,45.725994,0 126.320214,45.745948,0 126.298647,45.74155,0 126.306717,45.702599,0 126.283481,45.694763,0 126.265114,45.703029,0 126.223372,45.704102,0 126.20751,45.690683,0 126.184413,45.686174,0 126.16549,45.703136,0 126.152967,45.681235,0 126.124026,45.673825,0 126.075326,45.692723,0 126.060995,45.70979,0 126.026627,45.711508,0 126.011739,45.703673,0 126.009652,45.683919,0 125.981824,45.669636,0 125.98085,45.658036,0 125.996016,45.633967,0 125.969162,45.626229,0 125.952744,45.633215,0 125.927698,45.630313,0 125.935073,45.608061,0 125.934099,45.585799,0 125.902792,45.564821,0 125.894305,45.545018,0 125.863555,45.525424,0 125.848249,45.5097,0 125.8335,45.520147,0 125.792871,45.509377,0 125.777009,45.511208,0 125.761286,45.531346,0</coordinates></LinearRing></outerBoundaryIs>
      </Polygon>
    </MultiGeometry>
    </Placemark>
  </Document>
</kml>
