<?xml version="1.0" encoding="UTF-8"?>
<kml xmlns="http://www.opengis.net/kml/2.2">
  <Document>
    <name><![CDATA[大庆市]]></name>
    <Placemark>
      <name><![CDATA[大庆市]]></name>
      <description><![CDATA[省级目录：黑龙江省]]></description>
      <ExtendedData>
        <Data name="adcode"><value>230600</value></Data>
      </ExtendedData>
      <MultiGeometry>
      <Polygon>
        <outerBoundaryIs><LinearRing><coordinates>125.332872,47.2865,0 125.337047,47.294215,0 125.324107,47.335687,0 125.314923,47.38129,0 125.169521,47.38129,0 125.169521,47.392632,0 125.079776,47.393256,0 125.047356,47.478818,0 125.00784,47.466143,0 124.964706,47.456895,0 124.891797,47.4307,0 124.878718,47.418846,0 124.824592,47.41115,0 124.810956,47.386181,0 124.757387,47.360055,0 124.685869,47.333708,0 124.633691,47.307764,0 124.61769,47.311203,0 124.586383,47.328603,0 124.587914,47.339749,0 124.5221,47.34152,0 124.479802,47.340061,0 124.481332,47.360263,0 124.464774,47.348081,0 124.446408,47.352766,0 124.428737,47.345373,0 124.43472,47.323499,0 124.425676,47.318706,0 124.400631,47.285562,0 124.409953,47.27138,0 124.397569,47.259073,0 124.423032,47.224221,0 124.418858,47.183915,0 124.347061,47.138665,0 124.305458,47.141801,0 124.195955,47.131346,0 124.153795,47.107814,0 124.112192,47.064697,0 124.070728,47.048153,0 124.089234,47.039146,0 124.072955,47.004988,0 124.000601,47.002473,0 124.013959,46.971962,0 124.007698,46.949514,0 123.9846,46.928421,0 123.970408,46.925167,0 123.943971,46.893563,0 123.940214,46.86961,0 123.92797,46.862465,0 123.929361,46.846068,0 123.94898,46.842599,0 123.952737,46.821253,0 123.995314,46.80537,0 123.985853,46.800741,0 124.003384,46.767063,0 124.003663,46.73705,0 123.980426,46.730835,0 123.958164,46.707759,0 123.940075,46.712185,0 123.914334,46.704492,0 123.887341,46.684778,0 123.859235,46.696164,0 123.855478,46.744318,0 123.818884,46.737366,0 123.814014,46.743581,0 123.766428,46.74179,0 123.785212,46.713134,0 123.758219,46.695005,0 123.767124,46.664425,0 123.754462,46.642376,0 123.784655,46.623906,0 123.791751,46.604692,0 123.80664,46.600573,0 123.812344,46.582301,0 123.824171,46.573849,0 123.824589,46.556942,0 123.797735,46.525438,0 123.802048,46.515814,0 123.823058,46.512112,0 123.823754,46.498254,0 123.810118,46.484815,0 123.838503,46.471268,0 123.82431,46.45094,0 123.848938,46.438125,0 123.866331,46.418633,0 123.860069,46.408142,0 123.870088,46.390653,0 123.844068,46.375491,0 123.843929,46.363826,0 123.859513,46.345156,0 123.845599,46.313423,0 123.849912,46.302381,0 123.896385,46.303655,0 123.907934,46.278485,0 123.897498,46.264567,0 123.917535,46.25681,0 123.934788,46.285814,0 123.958303,46.289956,0 123.966512,46.274979,0 123.953015,46.26106,0 123.956076,46.244694,0 123.98307,46.224707,0 123.956494,46.205776,0 123.975278,46.183966,0 123.974304,46.165448,0 124.002132,46.166831,0 124.00895,46.154908,0 123.995314,46.137764,0 124.015907,46.124237,0 123.995592,46.098771,0 124.012568,46.090458,0 124.016742,46.076705,0 124.009924,46.057511,0 124.033856,46.044924,0 124.040952,46.025184,0 124.027734,46.016326,0 124.005332,46.021342,0 123.99281,46.007893,0 124.015211,45.998498,0 124.012011,45.982053,0 123.977087,45.975859,0 123.965677,45.960689,0 123.971521,45.931941,0 124.001854,45.904461,0 124.058206,45.889593,0 124.068641,45.868835,0 124.071146,45.845178,0 124.03316,45.833828,0 124.037891,45.820869,0 124.064328,45.802229,0 124.034691,45.784868,0 124.009367,45.781974,0 124.001993,45.770611,0 124.014794,45.749916,0 124.054171,45.75131,0 124.098139,45.722453,0 124.09953,45.703029,0 124.135011,45.690469,0 124.137516,45.679409,0 124.121793,45.669207,0 124.144751,45.665984,0 124.145586,45.649656,0 124.129724,45.637621,0 124.147256,45.623004,0 124.187467,45.615909,0 124.226566,45.63343,0 124.236723,45.623004,0 124.22754,45.598921,0 124.245906,45.59107,0 124.267612,45.592145,0 124.27276,45.583971,0 124.261351,45.569232,0 124.26469,45.555028,0 124.29544,45.539205,0 124.348731,45.546956,0 124.358749,45.544803,0 124.368907,45.512932,0 124.352488,45.496666,0 124.375864,45.455712,0 124.398822,45.440617,0 124.413849,45.438675,0 124.427485,45.450429,0 124.457122,45.457761,0 124.480636,45.456251,0 124.507212,45.424654,0 124.544224,45.411923,0 124.579705,45.424114,0 124.574695,45.443852,0 124.585131,45.453772,0 124.625203,45.437273,0 124.656788,45.437813,0 124.69046,45.452478,0 124.729698,45.444067,0 124.760587,45.468433,0 124.776032,45.468217,0 124.779093,45.441371,0 124.793007,45.437058,0 124.828627,45.455173,0 124.839897,45.455712,0 124.866334,45.440617,0 124.88637,45.442665,0 124.890127,45.456575,0 124.884561,45.495481,0 124.908633,45.519393,0 124.914894,45.539528,0 124.939522,45.529839,0 124.945366,45.502268,0 124.983073,45.492357,0 125.02565,45.493326,0 125.04986,45.428537,0 125.084228,45.423144,0 125.088681,45.41106,0 125.06614,45.398974,0 125.069758,45.384619,0 125.091742,45.382676,0 125.113169,45.390016,0 125.137658,45.409658,0 125.156999,45.410844,0 125.189418,45.399298,0 125.248971,45.417642,0 125.276103,45.416671,0 125.301566,45.401996,0 125.31715,45.42282,0 125.3479,45.395413,0 125.369884,45.394873,0 125.398547,45.416779,0 125.433749,45.458731,0 125.425123,45.485568,0 125.480361,45.486538,0 125.497337,45.469295,0 125.549793,45.486323,0 125.593204,45.496989,0 125.616719,45.517993,0 125.637312,45.519932,0 125.660131,45.507008,0 125.687959,45.514009,0 125.743615,45.51907,0 125.761286,45.531346,0 125.74612,45.56213,0 125.754607,45.56977,0 125.743059,45.596555,0 125.764486,45.613006,0 125.731928,45.620854,0 125.721631,45.646003,0 125.72984,45.654061,0 125.715648,45.663299,0 125.732902,45.664266,0 125.73151,45.687355,0 125.752659,45.678013,0 125.759477,45.687355,0 125.783966,45.679194,0 125.806646,45.699594,0 125.748903,45.749165,0 125.722049,45.745519,0 125.719961,45.769324,0 125.773391,45.762784,0 125.771304,45.774149,0 125.785775,45.776078,0 125.781183,45.799228,0 125.72344,45.797085,0 125.711056,45.815513,0 125.717457,45.836291,0 125.7073,45.835006,0 125.695751,45.907456,0 125.420114,45.885527,0 125.381711,46.045991,0 125.366405,46.119017,0 125.357083,46.147881,0 125.290295,46.136699,0 125.25551,46.148626,0 125.219334,46.143622,0 125.211959,46.171515,0 125.187192,46.175559,0 125.163956,46.196947,0 125.116926,46.186626,0 125.112474,46.215668,0 125.1147,46.253622,0 125.090629,46.266161,0 125.064192,46.25936,0 125.084646,46.238741,0 125.07908,46.171408,0 125.107465,46.160125,0 125.135432,46.164596,0 125.152825,46.129244,0 125.223508,46.137551,0 125.19568,46.094082,0 125.161729,46.082356,0 125.147259,46.043964,0 125.09689,46.016113,0 125.085341,46.03052,0 125.105517,46.044924,0 125.097307,46.056444,0 125.061548,46.048871,0 125.07421,46.067216,0 125.062661,46.083848,0 125.014797,46.080011,0 125.001996,46.07404,0 124.959558,46.070948,0 124.904598,46.050044,0 124.875935,46.068602,0 124.907798,46.077772,0 124.922269,46.088752,0 124.931174,46.111346,0 124.907381,46.170025,0 124.917677,46.208755,0 124.968881,46.218007,0 124.963593,46.238316,0 124.985299,46.251602,0 125.052504,46.258191,0 125.057235,46.279016,0 125.059044,46.337622,0 125.017023,46.3355,0 125.012153,46.343988,0 125.036781,46.347171,0 125.027181,46.371674,0 125.038868,46.386094,0 125.036086,46.406446,0 125.016328,46.42107,0 124.987108,46.430075,0 125.036642,46.444374,0 125.062244,46.487143,0 125.07588,46.489683,0 125.092159,46.48037,0 125.172304,46.482805,0 125.179122,46.477301,0 125.125831,46.448292,0 125.156303,46.447339,0 125.16159,46.42838,0 125.191784,46.420646,0 125.218499,46.427426,0 125.239648,46.411003,0 125.270816,46.436113,0 125.240483,46.456764,0 125.26525,46.467351,0 125.27012,46.478783,0 125.250223,46.494445,0 125.221977,46.49508,0 125.207228,46.488308,0 125.161312,46.520045,0 125.202637,46.537069,0 125.233665,46.496773,0 125.26525,46.508833,0 125.239787,46.527553,0 125.257319,46.543624,0 125.235474,46.57797,0 125.248971,46.588322,0 125.199019,46.632456,0 125.18107,46.652821,0 125.207924,46.661155,0 125.215438,46.652083,0 125.27179,46.655248,0 125.27652,46.674866,0 125.231578,46.704597,0 125.21502,46.707443,0 125.211959,46.7262,0 125.190949,46.726516,0 125.180653,46.748004,0 125.164791,46.747267,0 125.142389,46.760009,0 125.190949,46.810209,0 125.190532,46.826512,0 125.156164,46.835555,0 125.158668,46.845542,0 125.235752,46.963572,0 125.303653,47.012849,0 125.343447,46.998175,0 125.34456,47.013058,0 125.318541,47.029089,0 125.285286,47.083225,0 125.300453,47.117228,0 125.318819,47.141488,0 125.331203,47.146819,0 125.332872,47.2865,0</coordinates></LinearRing></outerBoundaryIs>
      </Polygon>
    </MultiGeometry>
    </Placemark>
  </Document>
</kml>
