<?xml version="1.0" encoding="UTF-8"?>
<kml xmlns="http://www.opengis.net/kml/2.2">
  <Document>
    <name><![CDATA[鹤岗市]]></name>
    <Placemark>
      <name><![CDATA[鹤岗市]]></name>
      <description><![CDATA[省级目录：黑龙江省]]></description>
      <ExtendedData>
        <Data name="adcode"><value>230400</value></Data>
      </ExtendedData>
      <MultiGeometry>
      <Polygon>
        <outerBoundaryIs><LinearRing><coordinates>130.785096,48.357332,0 130.763111,48.34528,0 130.763668,48.334859,0 130.72777,48.336698,0 130.725265,48.326582,0 130.684775,48.320246,0 130.675035,48.30614,0 130.656808,48.3135,0 130.642894,48.305629,0 130.610613,48.300721,0 130.586681,48.306651,0 130.56748,48.297245,0 130.521842,48.289576,0 130.489283,48.301437,0 130.476621,48.320655,0 130.455332,48.329648,0 130.435574,48.314931,0 130.41359,48.325867,0 130.406077,48.309002,0 130.378109,48.308082,0 130.3731,48.293768,0 130.331358,48.297756,0 130.290173,48.293666,0 130.263458,48.283337,0 130.277232,48.272495,0 130.267632,48.259501,0 130.2469,48.249472,0 130.261231,48.244969,0 130.259144,48.222958,0 130.246761,48.194791,0 130.266101,48.18106,0 130.251352,48.16548,0 130.239525,48.169888,0 130.191522,48.169888,0 130.180947,48.174603,0 130.129883,48.145896,0 130.100385,48.14323,0 130.08828,48.165685,0 130.071026,48.173476,0 130.049042,48.194995,0 130.036241,48.197557,0 129.986429,48.225927,0 129.981976,48.250393,0 129.955122,48.272495,0 129.913936,48.297552,0 129.900718,48.310229,0 129.879708,48.316771,0 129.863428,48.309411,0 129.86482,48.286405,0 129.841583,48.260115,0 129.804015,48.257659,0 129.783423,48.240977,0 129.809998,48.219169,0 129.803737,48.190897,0 129.809303,48.173681,0 129.793997,48.164045,0 129.799285,48.151229,0 129.761856,48.122817,0 129.741402,48.119226,0 129.733471,48.104038,0 129.748498,48.093055,0 129.740846,48.081659,0 129.745437,48.035123,0 129.737506,48.026489,0 129.779666,48.007161,0 129.780918,47.99914,0 129.741959,47.976303,0 129.675032,47.978978,0 129.678371,47.954897,0 129.68839,47.947795,0 129.68672,47.928643,0 129.711904,47.924523,0 129.715522,47.910102,0 129.699799,47.887226,0 129.712878,47.871351,0 129.750446,47.875372,0 129.737506,47.859596,0 129.751281,47.851655,0 129.754481,47.820085,0 129.772987,47.816679,0 129.773126,47.782506,0 129.797615,47.781164,0 129.813338,47.7604,0 129.875255,47.744487,0 129.908927,47.72588,0 129.912962,47.717091,0 129.898631,47.699095,0 129.898492,47.678817,0 129.929659,47.654286,0 129.917137,47.641136,0 129.913936,47.617312,0 129.89557,47.609438,0 129.901275,47.571914,0 129.934808,47.56507,0 129.928407,47.555631,0 129.909484,47.562788,0 129.895152,47.559054,0 129.869272,47.538202,0 129.879569,47.528552,0 129.872612,47.496889,0 129.901553,47.482661,0 129.884856,47.467909,0 129.903223,47.440992,0 129.886387,47.443279,0 129.858002,47.429764,0 129.837966,47.426333,0 129.839079,47.40418,0 129.873586,47.385036,0 129.896544,47.364219,0 129.914632,47.360263,0 129.899327,47.352871,0 129.901275,47.332979,0 129.858002,47.332354,0 129.851323,47.320373,0 129.899883,47.304846,0 129.931886,47.294319,0 129.937312,47.259177,0 129.962775,47.262098,0 129.991994,47.252292,0 130.001178,47.233093,0 130.018014,47.225892,0 130.059478,47.225057,0 130.126404,47.207414,0 130.143936,47.185273,0 130.145049,47.136574,0 130.171486,47.122876,0 130.189017,47.103211,0 130.209332,47.091806,0 130.23076,47.09212,0 130.239665,47.082178,0 130.270832,47.077992,0 130.309096,47.066477,0 130.356125,47.061661,0 130.383675,47.065116,0 130.369204,47.09233,0 130.378527,47.112417,0 130.416234,47.106663,0 130.412477,47.128732,0 130.444619,47.130196,0 130.456585,47.135947,0 130.482743,47.128104,0 130.506258,47.130823,0 130.538678,47.122457,0 130.570541,47.139188,0 130.587794,47.13971,0 130.607274,47.157376,0 130.626336,47.153195,0 130.657365,47.183497,0 130.649573,47.197284,0 130.692845,47.204908,0 130.673783,47.22443,0 130.662791,47.223595,0 130.64846,47.246346,0 130.619936,47.261681,0 130.624388,47.269816,0 130.593916,47.281704,0 130.579168,47.303283,0 130.560662,47.314746,0 130.562053,47.327666,0 130.624945,47.338499,0 130.682271,47.330895,0 130.708986,47.315372,0 130.792331,47.29067,0 130.852022,47.296195,0 130.98351,47.318289,0 130.974605,47.307869,0 130.984901,47.291921,0 130.97057,47.281078,0 130.984901,47.272006,0 130.988519,47.250936,0 130.959578,47.241024,0 130.968065,47.220672,0 131.050158,47.215453,0 131.094962,47.192898,0 131.120424,47.199269,0 131.128355,47.21587,0 131.158271,47.223804,0 131.195978,47.22443,0 131.237442,47.201775,0 131.272505,47.190391,0 131.339153,47.181826,0 131.364338,47.190391,0 131.390357,47.217749,0 131.464936,47.237581,0 131.481772,47.253649,0 131.524767,47.24645,0 131.525741,47.254692,0 131.55496,47.242381,0 131.593363,47.236537,0 131.635523,47.237267,0 131.6781,47.248015,0 131.720816,47.240815,0 131.735008,47.242381,0 131.777168,47.27138,0 131.816405,47.268565,0 131.888202,47.277742,0 131.929805,47.245093,0 131.967651,47.254692,0 132.004245,47.252605,0 132.019412,47.256987,0 132.037082,47.278159,0 132.045153,47.311516,0 132.058649,47.32204,0 132.044039,47.329437,0 132.047935,47.366093,0 132.104009,47.387534,0 132.127245,47.393465,0 132.140603,47.404076,0 132.17678,47.409381,0 132.20906,47.406989,0 132.269308,47.45014,0 132.291988,47.45305,0 132.297693,47.47165,0 132.344444,47.494813,0 132.359054,47.505611,0 132.375055,47.531873,0 132.411788,47.540381,0 132.439199,47.592545,0 132.43739,47.608298,0 132.461044,47.620109,0 132.473706,47.641343,0 132.456035,47.669089,0 132.456313,47.681093,0 132.506821,47.690923,0 132.523935,47.71616,0 132.469114,47.72619,0 132.417075,47.745313,0 132.372133,47.765256,0 132.344583,47.767219,0 132.325382,47.762157,0 132.288788,47.742006,0 132.272091,47.718642,0 132.242593,47.710059,0 132.207251,47.71554,0 132.157161,47.705612,0 132.08606,47.703129,0 132.058927,47.705405,0 132.024421,47.71523,0 132.000488,47.712231,0 131.989496,47.685129,0 131.970573,47.671573,0 131.947058,47.673849,0 131.900725,47.685646,0 131.846182,47.676437,0 131.825728,47.677265,0 131.741687,47.706543,0 131.713859,47.711197,0 131.689927,47.706853,0 131.664047,47.679748,0 131.641506,47.663913,0 131.622444,47.659151,0 131.590441,47.660808,0 131.56804,47.682542,0 131.559413,47.724639,0 131.543829,47.736011,0 131.456031,47.747174,0 131.436691,47.746554,0 131.397175,47.73353,0 131.359885,47.730946,0 131.322178,47.736321,0 131.273618,47.738905,0 131.237163,47.733117,0 131.183316,47.702716,0 131.115554,47.689888,0 131.079656,47.689785,0 131.030122,47.694751,0 130.983788,47.713162,0 130.966674,47.73322,0 130.961665,47.827928,0 130.929523,47.868877,0 130.891399,47.927201,0 130.871224,47.943162,0 130.797201,47.986488,0 130.770486,47.998214,0 130.73737,48.034095,0 130.693958,48.048276,0 130.686306,48.079297,0 130.668774,48.099214,0 130.673783,48.128254,0 130.710099,48.156663,0 130.765894,48.189258,0 130.765616,48.221627,0 130.787739,48.25684,0 130.817654,48.26564,0 130.8459,48.300721,0 130.831012,48.330261,0 130.819602,48.341602,0 130.785096,48.357332,0</coordinates></LinearRing></outerBoundaryIs>
      </Polygon>
    </MultiGeometry>
    </Placemark>
  </Document>
</kml>
