<?xml version="1.0" encoding="UTF-8"?>
<kml xmlns="http://www.opengis.net/kml/2.2">
  <Document>
    <name>娄底市</name>
    <Placemark>
      <name>娄底市</name>
      <Polygon><outerBoundaryIs><LinearRing><coordinates>112.092165000000,27.205652000000,0 112.107209000000,27.214125000000,0 112.114211000000,27.210714000000,0 112.112625000000,27.222322000000,0 112.129529000000,27.220892000000,0 112.127942000000,27.227658000000,0 112.137899000000,27.237009000000,0 112.154091000000,27.239375000000,0 112.160054000000,27.247515000000,0 112.150700000000,27.254609000000,0 112.150535000000,27.265828000000,0 112.163063000000,27.277321000000,0 112.162844000000,27.284193000000,0 112.153654000000,27.305689000000,0 112.163883000000,27.324542000000,0 112.174824000000,27.319651000000,0 112.182374000000,27.309812000000,0 112.190634000000,27.311791000000,0 112.197691000000,27.295794000000,0 112.205350000000,27.296564000000,0 112.206225000000,27.285128000000,0 112.213938000000,27.268908000000,0 112.223785000000,27.261209000000,0 112.233085000000,27.265388000000,0 112.239048000000,27.287822000000,0 112.254912000000,27.295684000000,0 112.256116000000,27.310691000000,0 112.267275000000,27.305084000000,0 112.279857000000,27.312230000000,0 112.287844000000,27.328939000000,0 112.282593000000,27.337073000000,0 112.299715000000,27.358723000000,0 112.309125000000,27.360426000000,0 112.312133000000,27.367074000000,0 112.321543000000,27.363998000000,0 112.331061000000,27.370206000000,0 112.339267000000,27.365921000000,0 112.358742000000,27.362459000000,0 112.370503000000,27.363888000000,0 112.368151000000,27.356086000000,0 112.408523000000,27.361470000000,0 112.432374000000,27.354218000000,0 112.438118000000,27.344602000000,0 112.459891000000,27.355152000000,0 112.471871000000,27.372404000000,0 112.485712000000,27.359877000000,0 112.489596000000,27.371909000000,0 112.499880000000,27.374931000000,0 112.499005000000,27.397727000000,0 112.504530000000,27.403988000000,0 112.512790000000,27.403164000000,0 112.508359000000,27.417004000000,0 112.522418000000,27.420464000000,0 112.521981000000,27.429194000000,0 112.500974000000,27.445831000000,0 112.480952000000,27.453132000000,0 112.470230000000,27.461916000000,0 112.460164000000,27.490456000000,0 112.446379000000,27.491499000000,0 112.429639000000,27.499785000000,0 112.435985000000,27.514546000000,0 112.427123000000,27.526067000000,0 112.417604000000,27.527713000000,0 112.406007000000,27.524092000000,0 112.399606000000,27.510266000000,0 112.401193000000,27.503736000000,0 112.391948000000,27.499731000000,0 112.393479000000,27.492542000000,0 112.373731000000,27.486560000000,0 112.365799000000,27.480907000000,0 112.348129000000,27.488206000000,0 112.346105000000,27.496273000000,0 112.333851000000,27.495725000000,0 112.328709000000,27.490511000000,0 112.321652000000,27.496493000000,0 112.306389000000,27.492816000000,0 112.301411000000,27.503188000000,0 112.308578000000,27.534570000000,0 112.325317000000,27.556182000000,0 112.332429000000,27.569947000000,0 112.334289000000,27.581408000000,0 112.330788000000,27.602517000000,0 112.298019000000,27.620991000000,0 112.283906000000,27.633652000000,0 112.281882000000,27.643298000000,0 112.288884000000,27.646915000000,0 112.313501000000,27.651025000000,0 112.315142000000,27.664285000000,0 112.320613000000,27.675298000000,0 112.315744000000,27.685871000000,0 112.304201000000,27.697868000000,0 112.290525000000,27.705700000000,0 112.268534000000,27.700935000000,0 112.243369000000,27.707727000000,0 112.240853000000,27.691075000000,0 112.230623000000,27.685871000000,0 112.222636000000,27.671517000000,0 112.216564000000,27.675846000000,0 112.207100000000,27.670531000000,0 112.206827000000,27.651627000000,0 112.199387000000,27.654313000000,0 112.176083000000,27.650203000000,0 112.166673000000,27.660066000000,0 112.154857000000,27.649490000000,0 112.145776000000,27.665162000000,0 112.137953000000,27.666258000000,0 112.134616000000,27.654696000000,0 112.124879000000,27.646147000000,0 112.117220000000,27.645435000000,0 112.113664000000,27.653436000000,0 112.104255000000,27.653381000000,0 112.091235000000,27.642366000000,0 112.078052000000,27.645764000000,0 112.067001000000,27.658477000000,0 112.070940000000,27.669600000000,0 112.058030000000,27.680393000000,0 112.048183000000,27.674038000000,0 112.048785000000,27.688336000000,0 112.052997000000,27.690527000000,0 112.045338000000,27.706303000000,0 112.053489000000,27.714135000000,0 112.071761000000,27.720652000000,0 112.083303000000,27.715230000000,0 112.092111000000,27.716325000000,0 112.081826000000,27.721747000000,0 112.087187000000,27.733739000000,0 112.099113000000,27.734670000000,0 112.100699000000,27.722295000000,0 112.106389000000,27.717147000000,0 112.110929000000,27.738722000000,0 112.130623000000,27.747428000000,0 112.112680000000,27.761991000000,0 112.098675000000,27.765001000000,0 112.097745000000,27.776551000000,0 112.106498000000,27.790617000000,0 112.101246000000,27.807363000000,0 112.087023000000,27.813820000000,0 112.069901000000,27.803970000000,0 112.046870000000,27.817048000000,0 112.040524000000,27.839534000000,0 112.026957000000,27.835157000000,0 112.014813000000,27.847083000000,0 112.012296000000,27.878640000000,0 111.999714000000,27.907837000000,0 111.990250000000,27.940962000000,0 111.982264000000,27.954351000000,0 111.964156000000,27.965171000000,0 111.951246000000,27.987079000000,0 111.936311000000,27.991231000000,0 111.926848000000,27.980851000000,0 111.912624000000,27.973803000000,0 111.900097000000,27.981343000000,0 111.908303000000,28.000189000000,0 111.896377000000,28.008710000000,0 111.902613000000,28.021982000000,0 111.891837000000,28.026951000000,0 111.870173000000,28.026678000000,0 111.858193000000,28.030938000000,0 111.848346000000,28.028644000000,0 111.838335000000,28.019961000000,0 111.823401000000,28.022582000000,0 111.796103000000,28.005160000000,0 111.793094000000,27.989701000000,0 111.778871000000,27.996639000000,0 111.779418000000,28.007072000000,0 111.773893000000,28.010676000000,0 111.765633000000,28.006143000000,0 111.747963000000,28.003904000000,0 111.743368000000,27.994235000000,0 111.726792000000,27.983474000000,0 111.715140000000,27.993361000000,0 111.706114000000,27.990630000000,0 111.697689000000,27.994181000000,0 111.688499000000,27.990630000000,0 111.684888000000,28.002975000000,0 111.691289000000,28.009912000000,0 111.683466000000,28.014500000000,0 111.685490000000,28.040493000000,0 111.672853000000,28.036453000000,0 111.662952000000,28.014227000000,0 111.652284000000,28.015756000000,0 111.651573000000,28.021163000000,0 111.662788000000,28.024712000000,0 111.651518000000,28.026241000000,0 111.634286000000,28.015319000000,0 111.621704000000,28.016083000000,0 111.601682000000,28.034542000000,0 111.589811000000,28.027115000000,0 111.588991000000,28.018596000000,0 111.599768000000,28.009693000000,0 111.592766000000,28.006471000000,0 111.583794000000,27.994454000000,0 111.550260000000,27.974841000000,0 111.529527000000,27.986587000000,0 111.542054000000,27.994126000000,0 111.551409000000,27.991886000000,0 111.564264000000,28.018104000000,0 111.575807000000,28.018869000000,0 111.567547000000,28.032903000000,0 111.543859000000,28.020398000000,0 111.540687000000,28.035579000000,0 111.543914000000,28.047537000000,0 111.534013000000,28.054143000000,0 111.527886000000,28.049393000000,0 111.514702000000,28.065280000000,0 111.506879000000,28.053324000000,0 111.522032000000,28.044479000000,0 111.524439000000,28.031211000000,0 111.517875000000,28.030992000000,0 111.501956000000,28.041640000000,0 111.494789000000,28.037873000000,0 111.491890000000,28.066863000000,0 111.493312000000,28.074887000000,0 111.510982000000,28.090279000000,0 111.500424000000,28.092626000000,0 111.499877000000,28.101412000000,0 111.482645000000,28.120402000000,0 111.481387000000,28.138351000000,0 111.490960000000,28.153024000000,0 111.485763000000,28.159515000000,0 111.495719000000,28.189945000000,0 111.483137000000,28.204176000000,0 111.477448000000,28.199323000000,0 111.450095000000,28.187382000000,0 111.445336000000,28.189509000000,0 111.448454000000,28.202867000000,0 111.434833000000,28.208101000000,0 111.398016000000,28.180021000000,0 111.386911000000,28.178930000000,0 111.382918000000,28.196324000000,0 111.352064000000,28.199051000000,0 111.341835000000,28.193162000000,0 111.332097000000,28.195943000000,0 111.337732000000,28.205920000000,0 111.325970000000,28.226526000000,0 111.314373000000,28.234211000000,0 111.296047000000,28.225436000000,0 111.285215000000,28.214806000000,0 111.279034000000,28.191036000000,0 111.257753000000,28.167532000000,0 111.235653000000,28.154115000000,0 111.225149000000,28.161479000000,0 111.216014000000,28.159297000000,0 111.186528000000,28.160606000000,0 111.189537000000,28.154988000000,0 111.160926000000,28.122857000000,0 111.151571000000,28.122966000000,0 111.140959000000,28.103431000000,0 111.137895000000,28.085968000000,0 111.123289000000,28.068774000000,0 111.114208000000,28.064134000000,0 111.118475000000,28.050158000000,0 111.093803000000,28.027170000000,0 111.097906000000,28.006799000000,0 111.081987000000,27.995601000000,0 111.070608000000,27.995273000000,0 111.063223000000,28.007236000000,0 111.041560000000,28.022309000000,0 111.035050000000,28.033723000000,0 111.022031000000,28.027497000000,0 111.013223000000,28.028917000000,0 110.980400000000,28.029081000000,0 110.971155000000,28.002757000000,0 110.990958000000,27.992979000000,0 111.000532000000,27.992214000000,0 110.987402000000,27.972875000000,0 110.966669000000,27.949269000000,0 110.970772000000,27.925276000000,0 110.980400000000,27.919973000000,0 110.973945000000,27.910899000000,0 110.944787000000,27.896247000000,0 110.929689000000,27.879077000000,0 110.922358000000,27.863273000000,0 110.912785000000,27.864257000000,0 110.898507000000,27.855998000000,0 110.894514000000,27.849872000000,0 110.882096000000,27.850474000000,0 110.876680000000,27.846371000000,0 110.837183000000,27.849216000000,0 110.806548000000,27.864257000000,0 110.791614000000,27.855670000000,0 110.785870000000,27.832914000000,0 110.767763000000,27.795433000000,0 110.785706000000,27.782681000000,0 110.795717000000,27.758158000000,0 110.811472000000,27.757775000000,0 110.830345000000,27.714956000000,0 110.837511000000,27.681489000000,0 110.849163000000,27.675791000000,0 110.859995000000,27.677215000000,0 110.868310000000,27.672887000000,0 110.869185000000,27.655463000000,0 110.882916000000,27.650696000000,0 110.917490000000,27.656395000000,0 110.945717000000,27.653819000000,0 110.983792000000,27.660121000000,0 110.994733000000,27.652395000000,0 110.998453000000,27.639352000000,0 110.994076000000,27.630144000000,0 111.008081000000,27.625869000000,0 111.025750000000,27.635680000000,0 111.040247000000,27.631843000000,0 111.059941000000,27.631295000000,0 111.070827000000,27.620607000000,0 111.074110000000,27.591442000000,0 111.080291000000,27.588756000000,0 111.106932000000,27.590729000000,0 111.116287000000,27.577186000000,0 111.130237000000,27.581408000000,0 111.143147000000,27.578008000000,0 111.150094000000,27.582176000000,0 111.163442000000,27.576473000000,0 111.169515000000,27.562653000000,0 111.182151000000,27.563750000000,0 111.182863000000,27.557005000000,0 111.197414000000,27.549161000000,0 111.204143000000,27.552781000000,0 111.220773000000,27.551739000000,0 111.223782000000,27.536161000000,0 111.244624000000,27.525080000000,0 111.256112000000,27.542799000000,0 111.270718000000,27.541756000000,0 111.278377000000,27.555798000000,0 111.300861000000,27.567096000000,0 111.322141000000,27.546858000000,0 111.349822000000,27.537039000000,0 111.357097000000,27.522885000000,0 111.367765000000,27.524915000000,0 111.376518000000,27.532815000000,0 111.374603000000,27.542963000000,0 111.388388000000,27.544938000000,0 111.403979000000,27.557388000000,0 111.414373000000,27.575212000000,0 111.430347000000,27.590620000000,0 111.441944000000,27.597473000000,0 111.457918000000,27.595445000000,0 111.468257000000,27.579599000000,0 111.477831000000,27.578666000000,0 111.489373000000,27.594238000000,0 111.522251000000,27.605532000000,0 111.542656000000,27.609644000000,0 111.553597000000,27.626034000000,0 111.560927000000,27.630583000000,0 111.567984000000,27.627075000000,0 111.568148000000,27.616880000000,0 111.574056000000,27.607725000000,0 111.589046000000,27.606574000000,0 111.594625000000,27.582944000000,0 111.607700000000,27.575870000000,0 111.615577000000,27.566163000000,0 111.620665000000,27.571757000000,0 111.612405000000,27.580695000000,0 111.625479000000,27.575212000000,0 111.635162000000,27.578776000000,0 111.641398000000,27.574663000000,0 111.635599000000,27.562379000000,0 111.625917000000,27.556127000000,0 111.630621000000,27.553056000000,0 111.639866000000,27.559198000000,0 111.641672000000,27.547790000000,0 111.652831000000,27.540111000000,0 111.650096000000,27.534022000000,0 111.638663000000,27.537917000000,0 111.643914000000,27.520142000000,0 111.654035000000,27.514765000000,0 111.668915000000,27.537149000000,0 111.675370000000,27.537149000000,0 111.690742000000,27.523708000000,0 111.692985000000,27.533857000000,0 111.717766000000,27.516576000000,0 111.730950000000,27.518222000000,0 111.744079000000,27.499401000000,0 111.787460000000,27.494627000000,0 111.790195000000,27.470479000000,0 111.796377000000,27.468173000000,0 111.803598000000,27.474815000000,0 111.810764000000,27.471357000000,0 111.813609000000,27.454340000000,0 111.819517000000,27.449290000000,0 111.835162000000,27.446050000000,0 111.840195000000,27.456646000000,0 111.855294000000,27.461147000000,0 111.882537000000,27.438364000000,0 111.892766000000,27.426833000000,0 111.912843000000,27.410304000000,0 111.907318000000,27.395420000000,0 111.909451000000,27.388939000000,0 111.940852000000,27.369217000000,0 111.970502000000,27.357514000000,0 111.990305000000,27.341579000000,0 111.985710000000,27.332731000000,0 111.990797000000,27.317342000000,0 112.018040000000,27.317562000000,0 112.025152000000,27.303600000000,0 112.041071000000,27.289142000000,0 112.051301000000,27.292385000000,0 112.062406000000,27.285843000000,0 112.065196000000,27.250815000000,0 112.069244000000,27.235909000000,0 112.068424000000,27.218636000000,0 112.085327000000,27.204002000000,0 112.092165000000,27.205652000000,0</coordinates></LinearRing></outerBoundaryIs></Polygon>
    </Placemark>
  </Document>
</kml>
