<?xml version="1.0" encoding="UTF-8"?>
<kml xmlns="http://www.opengis.net/kml/2.2">
  <Document>
    <name>岳阳市</name>
    <Placemark>
      <name>岳阳市</name>
      <MultiGeometry><Polygon><outerBoundaryIs><LinearRing><coordinates>112.315744000000,29.524298000000,0 112.320066000000,29.516007000000,0 112.331116000000,29.510570000000,0 112.324442000000,29.480416000000,0 112.328271000000,29.450091000000,0 112.342002000000,29.444435000000,0 112.350974000000,29.453108000000,0 112.366182000000,29.458441000000,0 112.366783000000,29.442549000000,0 112.386149000000,29.426871000000,0 112.388829000000,29.420997000000,0 112.386641000000,29.406016000000,0 112.392057000000,29.396476000000,0 112.423075000000,29.371734000000,0 112.439924000000,29.360627000000,0 112.464267000000,29.353510000000,0 112.485766000000,29.342941000000,0 112.490963000000,29.337602000000,0 112.496981000000,29.317052000000,0 112.502068000000,29.312198000000,0 112.532429000000,29.308907000000,0 112.547364000000,29.301786000000,0 112.560219000000,29.304591000000,0 112.579421000000,29.303674000000,0 112.590417000000,29.317861000000,0 112.611806000000,29.333287000000,0 112.634454000000,29.335984000000,0 112.652561000000,29.321421000000,0 112.664760000000,29.300383000000,0 112.673622000000,29.306264000000,0 112.680789000000,29.294988000000,0 112.689268000000,29.295743000000,0 112.699881000000,29.287381000000,0 112.683305000000,29.274970000000,0 112.682813000000,29.269573000000,0 112.693699000000,29.253976000000,0 112.679093000000,29.244800000000,0 112.681664000000,29.230441000000,0 112.676358000000,29.224718000000,0 112.680953000000,29.214027000000,0 112.677561000000,29.205388000000,0 112.682430000000,29.192265000000,0 112.693207000000,29.192589000000,0 112.711259000000,29.185352000000,0 112.715855000000,29.187350000000,0 112.724553000000,29.177628000000,0 112.741949000000,29.168283000000,0 112.756610000000,29.169958000000,0 112.775592000000,29.176602000000,0 112.793864000000,29.190915000000,0 112.810384000000,29.185514000000,0 112.813448000000,29.178654000000,0 112.798513000000,29.159802000000,0 112.812901000000,29.152400000000,0 112.881610000000,29.162773000000,0 112.901085000000,29.154615000000,0 112.924663000000,29.149429000000,0 112.927070000000,29.109061000000,0 112.937737000000,29.078139000000,0 112.939050000000,29.065541000000,0 112.949389000000,29.060783000000,0 112.934400000000,29.037311000000,0 112.927945000000,29.023031000000,0 112.891402000000,28.999388000000,0 112.876085000000,28.984075000000,0 112.872420000000,28.962967000000,0 112.847967000000,28.935521000000,0 112.838120000000,28.929295000000,0 112.811588000000,28.921552000000,0 112.797474000000,28.913700000000,0 112.784181000000,28.911967000000,0 112.773185000000,28.902760000000,0 112.722911000000,28.883478000000,0 112.685165000000,28.879741000000,0 112.677452000000,28.871235000000,0 112.668371000000,28.850430000000,0 112.659837000000,28.840839000000,0 112.664924000000,28.821057000000,0 112.672966000000,28.811517000000,0 112.671708000000,28.791568000000,0 112.641784000000,28.789453000000,0 112.619137000000,28.778555000000,0 112.617495000000,28.770042000000,0 112.606117000000,28.758002000000,0 112.603764000000,28.746884000000,0 112.580570000000,28.739670000000,0 112.569082000000,28.731641000000,0 112.552233000000,28.729580000000,0 112.555843000000,28.719652000000,0 112.548239000000,28.712328000000,0 112.534563000000,28.709560000000,0 112.526412000000,28.702561000000,0 112.525318000000,28.678357000000,0 112.521106000000,28.665493000000,0 112.510602000000,28.654799000000,0 112.533797000000,28.640412000000,0 112.544136000000,28.639434000000,0 112.552561000000,28.644104000000,0 112.563666000000,28.629389000000,0 112.574060000000,28.623796000000,0 112.580515000000,28.629715000000,0 112.588721000000,28.627380000000,0 112.585001000000,28.620918000000,0 112.590143000000,28.601692000000,0 112.582813000000,28.590123000000,0 112.574388000000,28.585125000000,0 112.563721000000,28.570946000000,0 112.562462000000,28.563556000000,0 112.582539000000,28.556873000000,0 112.591948000000,28.542962000000,0 112.609727000000,28.540788000000,0 112.629366000000,28.547200000000,0 112.635439000000,28.559046000000,0 112.648841000000,28.564263000000,0 112.658688000000,28.580507000000,0 112.668371000000,28.584256000000,0 112.675154000000,28.581214000000,0 112.684016000000,28.596369000000,0 112.705351000000,28.599574000000,0 112.717496000000,28.596206000000,0 112.713229000000,28.587189000000,0 112.716456000000,28.579203000000,0 112.726194000000,28.581702000000,0 112.736095000000,28.568229000000,0 112.726522000000,28.557199000000,0 112.701741000000,28.552417000000,0 112.688283000000,28.544320000000,0 112.685384000000,28.525407000000,0 112.700428000000,28.519699000000,0 112.714542000000,28.510621000000,0 112.731664000000,28.507414000000,0 112.746872000000,28.510458000000,0 112.753874000000,28.518014000000,0 112.757704000000,28.529755000000,0 112.772693000000,28.546385000000,0 112.796435000000,28.558503000000,0 112.808798000000,28.559046000000,0 112.788831000000,28.535027000000,0 112.792058000000,28.523015000000,0 112.808579000000,28.519319000000,0 112.815581000000,28.527798000000,0 112.822419000000,28.528396000000,0 112.822529000000,28.512796000000,0 112.845341000000,28.510621000000,0 112.852617000000,28.512524000000,0 112.872365000000,28.500618000000,0 112.871490000000,28.519156000000,0 112.891293000000,28.524754000000,0 112.898733000000,28.517525000000,0 112.921271000000,28.520297000000,0 112.939816000000,28.508501000000,0 112.965637000000,28.521167000000,0 112.978656000000,28.523450000000,0 112.974882000000,28.506979000000,0 112.977726000000,28.498552000000,0 112.960768000000,28.477075000000,0 112.974006000000,28.465274000000,0 112.991840000000,28.460923000000,0 113.019028000000,28.473050000000,0 113.027781000000,28.483219000000,0 113.041403000000,28.484905000000,0 113.063722000000,28.505294000000,0 113.067935000000,28.519264000000,0 113.079040000000,28.521873000000,0 113.085002000000,28.508229000000,0 113.096600000000,28.508120000000,0 113.111917000000,28.499313000000,0 113.130462000000,28.498498000000,0 113.132103000000,28.490777000000,0 113.128657000000,28.473975000000,0 113.154313000000,28.470875000000,0 113.169904000000,28.480446000000,0 113.171381000000,28.492408000000,0 113.185440000000,28.503391000000,0 113.183088000000,28.510132000000,0 113.185933000000,28.529211000000,0 113.194740000000,28.541549000000,0 113.193920000000,28.550080000000,0 113.200758000000,28.555569000000,0 113.194685000000,28.566490000000,0 113.186097000000,28.567957000000,0 113.189653000000,28.580181000000,0 113.183252000000,28.596858000000,0 113.195014000000,28.603648000000,0 113.215473000000,28.620809000000,0 113.212957000000,28.632647000000,0 113.216458000000,28.638077000000,0 113.234729000000,28.646438000000,0 113.233635000000,28.661639000000,0 113.243592000000,28.656156000000,0 113.245944000000,28.640629000000,0 113.251797000000,28.629715000000,0 113.258854000000,28.627597000000,0 113.272530000000,28.631398000000,0 113.283635000000,28.638728000000,0 113.310003000000,28.633136000000,0 113.316513000000,28.628629000000,0 113.320342000000,28.615759000000,0 113.332213000000,28.618963000000,0 113.349226000000,28.616573000000,0 113.358581000000,28.622384000000,0 113.360113000000,28.631453000000,0 113.375813000000,28.643343000000,0 113.384785000000,28.644538000000,0 113.411809000000,28.632267000000,0 113.424500000000,28.636068000000,0 113.420780000000,28.609513000000,0 113.414599000000,28.590883000000,0 113.424336000000,28.578715000000,0 113.430408000000,28.590286000000,0 113.446492000000,28.593925000000,0 113.454369000000,28.591046000000,0 113.462739000000,28.596532000000,0 113.474391000000,28.579801000000,0 113.491349000000,28.570457000000,0 113.500923000000,28.559155000000,0 113.507378000000,28.536929000000,0 113.515420000000,28.537038000000,0 113.528220000000,28.528287000000,0 113.547258000000,28.525080000000,0 113.558035000000,28.533179000000,0 113.575923000000,28.536386000000,0 113.598133000000,28.511980000000,0 113.615311000000,28.495725000000,0 113.635825000000,28.482621000000,0 113.649720000000,28.470005000000,0 113.661427000000,28.454450000000,0 113.657324000000,28.447706000000,0 113.676963000000,28.442049000000,0 113.704643000000,28.422192000000,0 113.717773000000,28.424042000000,0 113.729698000000,28.441287000000,0 113.761700000000,28.451405000000,0 113.773900000000,28.451024000000,0 113.784950000000,28.457551000000,0 113.806394000000,28.458638000000,0 113.817554000000,28.466851000000,0 113.824885000000,28.484089000000,0 113.832981000000,28.489037000000,0 113.832434000000,28.498878000000,0 113.844414000000,28.523885000000,0 113.858473000000,28.532255000000,0 113.876471000000,28.518884000000,0 113.889546000000,28.515622000000,0 113.903222000000,28.528613000000,0 113.917883000000,28.525461000000,0 113.935443000000,28.531385000000,0 113.941242000000,28.526385000000,0 113.950979000000,28.536440000000,0 113.962467000000,28.542309000000,0 113.975979000000,28.564752000000,0 113.995782000000,28.564915000000,0 114.013561000000,28.554591000000,0 114.015038000000,28.545679000000,0 114.025432000000,28.542798000000,0 114.040038000000,28.551004000000,0 114.051745000000,28.544374000000,0 114.065968000000,28.547689000000,0 114.073901000000,28.555188000000,0 114.086756000000,28.555895000000,0 114.094688000000,28.562252000000,0 114.094798000000,28.570076000000,0 114.104535000000,28.583115000000,0 114.118704000000,28.586863000000,0 114.132107000000,28.607178000000,0 114.122260000000,28.623253000000,0 114.132818000000,28.641823000000,0 114.129590000000,28.645895000000,0 114.133091000000,28.671681000000,0 114.123299000000,28.682210000000,0 114.122369000000,28.689483000000,0 114.128222000000,28.701041000000,0 114.139984000000,28.702941000000,0 114.149339000000,28.723775000000,0 114.146603000000,28.734571000000,0 114.151964000000,28.742436000000,0 114.157107000000,28.761473000000,0 114.153770000000,28.770747000000,0 114.137468000000,28.779748000000,0 114.140258000000,28.789182000000,0 114.151964000000,28.801597000000,0 114.153934000000,28.829350000000,0 114.149503000000,28.835040000000,0 114.142938000000,28.827995000000,0 114.134459000000,28.826965000000,0 114.124885000000,28.843277000000,0 114.097478000000,28.833740000000,0 114.080411000000,28.833252000000,0 114.069196000000,28.847016000000,0 114.059677000000,28.849726000000,0 114.062303000000,28.856716000000,0 114.056395000000,28.870531000000,0 114.066844000000,28.884507000000,0 114.060170000000,28.902381000000,0 114.048682000000,28.908122000000,0 114.040585000000,28.906551000000,0 114.028332000000,28.891170000000,0 114.023955000000,28.907689000000,0 114.014601000000,28.917870000000,0 114.005410000000,28.917815000000,0 114.003933000000,28.926479000000,0 114.009623000000,28.945320000000,0 114.008857000000,28.955389000000,0 113.985115000000,28.948839000000,0 113.973791000000,28.937903000000,0 113.966734000000,28.944292000000,0 113.955684000000,28.978392000000,0 113.961482000000,28.996953000000,0 113.946220000000,29.017946000000,0 113.948189000000,29.031577000000,0 113.946001000000,29.044775000000,0 113.933364000000,29.045965000000,0 113.914874000000,29.036283000000,0 113.911701000000,29.030766000000,0 113.895344000000,29.029468000000,0 113.876581000000,29.038230000000,0 113.876088000000,29.056997000000,0 113.881832000000,29.065433000000,0 113.868648000000,29.065811000000,0 113.852620000000,29.058674000000,0 113.831558000000,29.069326000000,0 113.837029000000,29.086790000000,0 113.827182000000,29.102467000000,0 113.815968000000,29.105331000000,0 113.775595000000,29.095223000000,0 113.766460000000,29.089222000000,0 113.765475000000,29.079924000000,0 113.749447000000,29.060945000000,0 113.740147000000,29.058728000000,0 113.734184000000,29.064460000000,0 113.726252000000,29.083654000000,0 113.732105000000,29.105061000000,0 113.722751000000,29.104737000000,0 113.709512000000,29.092628000000,0 113.706339000000,29.082897000000,0 113.696328000000,29.077653000000,0 113.685606000000,29.082302000000,0 113.690584000000,29.114520000000,0 113.682980000000,29.132192000000,0 113.672586000000,29.136191000000,0 113.667991000000,29.143755000000,0 113.670344000000,29.154345000000,0 113.662028000000,29.167257000000,0 113.671930000000,29.179465000000,0 113.680300000000,29.182435000000,0 113.693812000000,29.201824000000,0 113.690092000000,29.230818000000,0 113.681886000000,29.233950000000,0 113.665803000000,29.232222000000,0 113.660059000000,29.224502000000,0 113.646438000000,29.231412000000,0 113.635223000000,29.250630000000,0 113.609621000000,29.251547000000,0 113.606886000000,29.267631000000,0 113.613615000000,29.272433000000,0 113.633035000000,29.318401000000,0 113.643429000000,29.326869000000,0 113.661044000000,29.333449000000,0 113.665967000000,29.347039000000,0 113.660934000000,29.368229000000,0 113.670015000000,29.384564000000,0 113.691897000000,29.392703000000,0 113.710716000000,29.393566000000,0 113.723243000000,29.389631000000,0 113.731886000000,29.394805000000,0 113.741733000000,29.412860000000,0 113.736974000000,29.426278000000,0 113.754479000000,29.441418000000,0 113.754917000000,29.447559000000,0 113.737740000000,29.470345000000,0 113.724775000000,29.473307000000,0 113.707269000000,29.485747000000,0 113.688560000000,29.509655000000,0 113.677619000000,29.513531000000,0 113.673024000000,29.510354000000,0 113.643374000000,29.507824000000,0 113.635332000000,29.510031000000,0 113.631394000000,29.523490000000,0 113.654479000000,29.530865000000,0 113.657269000000,29.537001000000,0 113.669031000000,29.535709000000,0 113.680847000000,29.539369000000,0 113.681284000000,29.548465000000,0 113.691241000000,29.547765000000,0 113.701580000000,29.555515000000,0 113.709293000000,29.554331000000,0 113.713943000000,29.570582000000,0 113.735661000000,29.576500000000,0 113.741022000000,29.591564000000,0 113.728549000000,29.598234000000,0 113.722915000000,29.610821000000,0 113.708418000000,29.608992000000,0 113.704096000000,29.618673000000,0 113.702783000000,29.634752000000,0 113.688068000000,29.640828000000,0 113.679479000000,29.635129000000,0 113.671602000000,29.640774000000,0 113.680354000000,29.641366000000,0 113.667116000000,29.664269000000,0 113.668702000000,29.671311000000,0 113.662357000000,29.684533000000,0 113.652674000000,29.683565000000,0 113.637849000000,29.669859000000,0 113.599774000000,29.670934000000,0 113.575595000000,29.674912000000,0 113.547148000000,29.675396000000,0 113.538396000000,29.683673000000,0 113.540146000000,29.699634000000,0 113.558472000000,29.727036000000,0 113.561153000000,29.739070000000,0 113.555901000000,29.763669000000,0 113.550978000000,29.768180000000,0 113.560004000000,29.783161000000,0 113.567827000000,29.786544000000,0 113.561919000000,29.791590000000,0 113.569413000000,29.804582000000,0 113.575650000000,29.807964000000,0 113.565256000000,29.812580000000,0 113.577236000000,29.818538000000,0 113.580901000000,29.835659000000,0 113.571547000000,29.848913000000,0 113.517881000000,29.812419000000,0 113.493100000000,29.786597000000,0 113.456667000000,29.759211000000,0 113.438614000000,29.751638000000,0 113.401798000000,29.724082000000,0 113.377345000000,29.703181000000,0 113.326196000000,29.647818000000,0 113.298078000000,29.613833000000,0 113.277290000000,29.595114000000,0 113.272257000000,29.580858000000,0 113.256611000000,29.566492000000,0 113.222421000000,29.543729000000,0 113.182103000000,29.485586000000,0 113.155736000000,29.457148000000,0 113.145342000000,29.449337000000,0 113.132541000000,29.457364000000,0 113.113558000000,29.456663000000,0 113.099992000000,29.459680000000,0 113.102672000000,29.443034000000,0 113.090582000000,29.430750000000,0 113.080735000000,29.434091000000,0 113.075976000000,29.450199000000,0 113.072803000000,29.482785000000,0 113.064707000000,29.512454000000,0 113.057650000000,29.522467000000,0 113.034400000000,29.523598000000,0 113.018755000000,29.516169000000,0 112.990308000000,29.497971000000,0 112.969192000000,29.469052000000,0 112.950155000000,29.472876000000,0 112.943317000000,29.493879000000,0 112.937409000000,29.527097000000,0 112.927070000000,29.556161000000,0 112.924006000000,29.571658000000,0 112.911862000000,29.606841000000,0 112.912026000000,29.616145000000,0 112.945396000000,29.647495000000,0 112.965418000000,29.658947000000,0 112.976195000000,29.672117000000,0 113.004969000000,29.693777000000,0 113.015254000000,29.710918000000,0 113.025046000000,29.748631000000,0 113.030899000000,29.762272000000,0 113.026140000000,29.772798000000,0 113.011807000000,29.767696000000,0 113.003492000000,29.755237000000,0 112.979258000000,29.737619000000,0 112.957814000000,29.694153000000,0 112.944794000000,29.682759000000,0 112.933197000000,29.683243000000,0 112.927015000000,29.692164000000,0 112.927343000000,29.708393000000,0 112.932048000000,29.739929000000,0 112.929914000000,29.755344000000,0 112.922748000000,29.767320000000,0 112.899717000000,29.781711000000,0 112.889433000000,29.785738000000,0 112.870013000000,29.786007000000,0 112.843645000000,29.771079000000,0 112.815417000000,29.746643000000,0 112.793918000000,29.735900000000,0 112.806117000000,29.726069000000,0 112.791785000000,29.713712000000,0 112.795176000000,29.697646000000,0 112.784837000000,29.693562000000,0 112.788557000000,29.679911000000,0 112.765964000000,29.675073000000,0 112.763831000000,29.664806000000,0 112.735439000000,29.646259000000,0 112.730242000000,29.654216000000,0 112.718973000000,29.652549000000,0 112.713940000000,29.637548000000,0 112.698677000000,29.619964000000,0 112.699005000000,29.610767000000,0 112.688995000000,29.602376000000,0 112.686970000000,29.592747000000,0 112.678984000000,29.589520000000,0 112.673404000000,29.600009000000,0 112.660275000000,29.599525000000,0 112.650646000000,29.592478000000,0 112.640198000000,29.607916000000,0 112.624716000000,29.616522000000,0 112.607758000000,29.608024000000,0 112.607156000000,29.612273000000,0 112.589651000000,29.620233000000,0 112.572200000000,29.623890000000,0 112.565143000000,29.620770000000,0 112.540799000000,29.600816000000,0 112.535219000000,29.599687000000,0 112.505241000000,29.610982000000,0 112.499114000000,29.629267000000,0 112.481992000000,29.633462000000,0 112.465854000000,29.631418000000,0 112.456663000000,29.635935000000,0 112.439650000000,29.633784000000,0 112.427287000000,29.616952000000,0 112.424825000000,29.598665000000,0 112.407812000000,29.577845000000,0 112.402177000000,29.576393000000,0 112.397254000000,29.564125000000,0 112.391838000000,29.567837000000,0 112.370284000000,29.542222000000,0 112.332046000000,29.544751000000,0 112.320066000000,29.540553000000,0 112.315744000000,29.524298000000,0</coordinates></LinearRing></outerBoundaryIs></Polygon><Polygon><outerBoundaryIs><LinearRing><coordinates>112.929367000000,29.774086000000,0 112.937901000000,29.766569000000,0 112.939597000000,29.779993000000,0 112.933744000000,29.789282000000,0 112.919685000000,29.799697000000,0 112.901194000000,29.803186000000,0 112.886533000000,29.796422000000,0 112.898733000000,29.793255000000,0 112.929367000000,29.774086000000,0</coordinates></LinearRing></outerBoundaryIs></Polygon></MultiGeometry>
    </Placemark>
  </Document>
</kml>
