<?xml version="1.0" encoding="UTF-8"?>
<kml xmlns="http://www.opengis.net/kml/2.2">
<Document>
<name>常德市</name>
<Placemark><name>常德市</name><MultiGeometry><Polygon><outerBoundaryIs><LinearRing><coordinates>112.283412999999996,29.495225000000001,0 112.278216,29.509869999999999,0 112.281991000000005,29.537109000000001,0 112.291563999999994,29.542760000000001,0 112.302723999999998,29.566008,0 112.303216000000006,29.585484999999998,0 112.295175,29.595330000000001,0 112.282045999999994,29.596243999999999,0 112.251958000000002,29.611519999999999,0 112.241727999999995,29.610122,0 112.234397999999999,29.615822999999999,0 112.228271000000007,29.62959,0 112.232100000000003,29.640559,0 112.244190000000003,29.659592,0 112.236093999999994,29.658463000000001,0 112.218204999999998,29.645130000000002,0 112.220448000000005,29.637225999999998,0 112.206716999999998,29.635075000000001,0 112.199440999999993,29.629859,0 112.198293000000007,29.617436000000001,0 112.185820000000007,29.634322000000001,0 112.184015000000002,29.648033000000002,0 112.178161000000003,29.656635000000001,0 112.164540000000002,29.662333,0 112.150535000000005,29.654537999999999,0 112.144025999999997,29.657440999999999,0 112.124988000000002,29.657011000000001,0 112.118477999999996,29.662710000000001,0 112.111530999999999,29.659645999999999,0 112.107483000000002,29.671149,0 112.091892000000001,29.685661,0 112.087461000000005,29.681737999999999,0 112.065468999999993,29.681792000000002,0 112.059944000000002,29.695765000000002,0 112.064485000000005,29.710326999999999,0 112.074003000000005,29.717096999999999,0 112.073291999999995,29.734718000000001,0 112.076409999999996,29.743473999999999,0 112.065906999999996,29.754646000000001,0 112.064430000000002,29.769843999999999,0 112.054693,29.758835000000001,0 112.064704000000006,29.745944999999999,0 112.050753999999998,29.749168000000001,0 112.045557000000002,29.758406000000001,0 112.031223999999995,29.762271999999999,0 112.009780000000006,29.77806,0 111.991290000000006,29.782785000000001,0 111.987077999999997,29.793952999999998,0 111.977067000000005,29.790517000000001,0 111.954856000000007,29.796744,0 111.951573999999994,29.814243999999999,0 111.965249999999997,29.831150999999998,0 111.960928999999993,29.837430000000001,0 111.936201999999994,29.832491999999998,0 111.919297999999998,29.842420000000001,0 111.914593999999994,29.852668999999999,0 111.880622000000002,29.860019000000001,0 111.863389999999995,29.856532000000001,0 111.849986999999999,29.870964000000001,0 111.839647999999997,29.876811,0 111.828980999999999,29.873968000000001,0 111.830676999999994,29.887913999999999,0 111.810326000000003,29.89376,0 111.809614999999994,29.902287999999999,0 111.794625999999994,29.905719999999999,0 111.757427000000007,29.920090999999999,0 111.736474999999999,29.919608,0 111.724878000000004,29.915533,0 111.718914999999996,29.900839999999999,0 111.705403000000004,29.896764000000001,0 111.705073999999996,29.890059999999998,0 111.68177,29.884535,0 111.662350000000004,29.885822000000001,0 111.651464000000004,29.892956000000002,0 111.621703999999994,29.894939999999998,0 111.597961999999995,29.889361999999998,0 111.584012999999999,29.898050999999999,0 111.577886000000007,29.894349999999999,0 111.565960000000004,29.898534000000001,0 111.551409000000007,29.895208,0 111.546102000000005,29.904218,0 111.538443999999998,29.904647000000001,0 111.527448000000007,29.925667000000001,0 111.514482999999998,29.927703999999999,0 111.483464999999995,29.91816,0 111.474930999999998,29.919072,0 111.463553000000005,29.9269,0 111.445554999999999,29.924702,0 111.437787,29.930009999999999,0 111.419953000000007,29.916391000000001,0 111.405347000000006,29.911135999999999,0 111.39085,29.914836000000001,0 111.382808999999995,29.923629999999999,0 111.390139000000005,29.937515000000001,0 111.378322999999995,29.937246999999999,0 111.383301000000003,29.945878,0 111.375150000000005,29.954401000000001,0 111.351681999999997,29.951398999999999,0 111.347140999999993,29.941965,0 111.342107999999996,29.945342,0 111.335762000000003,29.963352,0 111.322141000000002,29.978304000000001,0 111.318748999999997,29.971872999999999,0 111.297250000000005,29.990200000000002,0 111.297687999999994,30.004612000000002,0 111.286090999999999,30.011309000000001,0 111.266998999999998,30.011416000000001,0 111.255619999999993,30.034555000000001,0 111.242216999999997,30.040393000000002,0 111.199712000000005,30.040982,0 111.179743999999999,30.044249000000001,0 111.178978999999998,30.040500000000002,0 111.106658999999993,30.047729,0 111.078924000000001,30.049122000000001,0 111.031548999999998,30.048853999999999,0 111.005837999999997,30.054476000000001,0 110.998397999999995,30.059349000000001,0 110.970935999999995,30.058973999999999,0 110.929907999999998,30.063417999999999,0 110.923015000000007,30.075731999999999,0 110.925202999999996,30.094521,0 110.924272999999999,30.111326999999999,0 110.897904999999994,30.109828,0 110.873945000000006,30.113413999999999,0 110.858025999999995,30.118551,0 110.853048000000001,30.125720999999999,0 110.836089000000001,30.122671,0 110.814370999999994,30.125989000000001,0 110.802993000000001,30.114429999999999,0 110.788331999999997,30.119996,0 110.769568000000007,30.12021,0 110.746373000000006,30.112611000000001,0 110.753101999999998,30.101319,0 110.748998999999998,30.088311999999998,0 110.756000999999998,30.083013000000001,0 110.755290000000002,30.052816,0 110.742106000000007,30.041785000000001,0 110.722358,30.039643000000002,0 110.712346999999994,30.033162999999998,0 110.694074999999998,30.041516999999999,0 110.682149999999993,30.053833999999998,0 110.686362000000003,30.059135000000001,0 110.659610999999998,30.071235000000001,0 110.650968000000006,30.077605999999999,0 110.626570000000001,30.063793,0 110.597631000000007,30.054423,0 110.576404999999994,30.059080999999999,0 110.564752999999996,30.054369000000001,0 110.531328999999999,30.061115999999998,0 110.508189000000002,30.050407,0 110.501022000000006,30.055226000000001,0 110.495988999999994,30.040232,0 110.499819000000002,30.026949999999999,0 110.491557999999998,30.019718999999998,0 110.504687000000004,30.008790999999999,0 110.520114000000007,30.001773,0 110.547247999999996,29.999576000000001,0 110.557203999999999,29.986930999999998,0 110.551077000000006,29.979697000000002,0 110.535267000000005,29.975089000000001,0 110.517324000000002,29.961369000000001,0 110.508078999999995,29.944109000000001,0 110.506765999999999,29.919018000000001,0 110.498068000000004,29.910063000000001,0 110.507859999999994,29.908937000000002,0 110.515518999999998,29.902501999999998,0 110.526951999999994,29.904647000000001,0 110.537839000000005,29.896764000000001,0 110.535704999999993,29.880351000000001,0 110.547630999999996,29.863399000000001,0 110.549982999999997,29.848001,0 110.575366000000002,29.844835,0 110.579907000000006,29.835872999999999,0 110.597795000000005,29.840005000000001,0 110.606493,29.837,0 110.618419000000003,29.826588999999998,0 110.629249999999999,29.805119000000001,0 110.629688000000002,29.798408999999999,0 110.640027000000003,29.782463,0 110.641722999999999,29.770434999999999,0 110.631821000000002,29.757760999999999,0 110.634665999999996,29.749597000000001,0 110.652991999999998,29.744655999999999,0 110.661088000000007,29.735793000000001,0 110.660759999999996,29.719622000000001,0 110.672576000000007,29.706835000000002,0 110.699326999999997,29.699687999999998,0 110.721428000000003,29.687488999999999,0 110.731876,29.690283000000001,0 110.747686000000002,29.707049999999999,0 110.762839,29.715592999999998,0 110.764972999999998,29.709897000000002,0 110.766559000000001,29.680502000000001,0 110.781329999999997,29.683243000000001,0 110.814481000000001,29.680555999999999,0 110.854415000000003,29.696249000000002,0 110.874983999999998,29.684909000000001,0 110.890355999999997,29.686897999999999,0 110.904689000000005,29.684479,0 110.927391,29.676577999999999,0 110.927937999999997,29.671633,0 110.942490000000006,29.668032,0 110.965083000000007,29.677492000000001,0 110.986090000000004,29.675933000000001,0 110.998562000000007,29.667171,0 111.020443999999998,29.669967,0 111.032095999999996,29.669053000000002,0 111.039208000000002,29.653302,0 111.030728999999994,29.645398,0 111.049711000000002,29.636956999999999,0 111.053321999999994,29.619049,0 111.077009000000004,29.619318,0 111.110652000000002,29.613779000000001,0 111.124382999999995,29.607755000000001,0 111.133847000000003,29.608992000000001,0 111.148234000000002,29.604742999999999,0 111.151297999999997,29.596836,0 111.158957000000001,29.594629999999999,0 111.173452999999995,29.600546999999999,0 111.213278000000003,29.599202999999999,0 111.224821000000006,29.60286,0 111.252283000000006,29.600546999999999,0 111.257316000000003,29.596997000000002,0 111.254581000000002,29.587045,0 111.267107999999993,29.579782000000002,0 111.273781999999997,29.580857999999999,0 111.286911000000003,29.555246,0 111.294679000000002,29.55686,0 111.303213,29.549703000000001,0 111.300916000000001,29.538399999999999,0 111.319242000000003,29.533341,0 111.320445000000007,29.520852000000001,0 111.328377000000003,29.511216000000001,0 111.337513000000001,29.493448000000001,0 111.329417000000007,29.486716999999999,0 111.317599999999999,29.464365999999998,0 111.329689999999999,29.443681000000002,0 111.311255000000003,29.419273,0 111.294843,29.412914000000001,0 111.291725,29.407848000000001,0 111.300697,29.395990999999999,0 111.286199999999994,29.389523000000001,0 111.269459999999995,29.386558000000001,0 111.259230000000002,29.380628999999999,0 111.234723000000002,29.332640000000001,0 111.245553999999998,29.321044000000001,0 111.252009000000001,29.302757,0 111.250969999999995,29.294609999999999,0 111.234887000000001,29.273513000000001,0 111.222140999999993,29.265688000000001,0 111.220170999999993,29.257429999999999,0 111.232753000000002,29.239888000000001,0 111.231440000000006,29.231736000000001,0 111.223179999999999,29.223692,0 111.206440000000001,29.217537,0 111.192927999999995,29.218077000000001,0 111.177884000000006,29.223421999999999,0 111.165684999999996,29.236163000000001,0 111.153869,29.237728000000001,0 111.121812000000006,29.218563,0 111.092819000000006,29.204146000000001,0 111.080782999999997,29.188376000000002,0 111.071866999999997,29.16985,0 111.043475000000001,29.139271000000001,0 111.025805000000005,29.137703999999999,0 111.022304000000005,29.120464999999999,0 111.001679999999993,29.117925,0 110.985324000000006,29.111007000000001,0 110.983791999999994,29.118952,0 110.974710999999999,29.119222000000001,0 110.958464000000006,29.133866999999999,0 110.941614999999999,29.138082000000001,0 110.945772000000005,29.130949000000001,0 110.929743999999999,29.130841,0 110.925366999999994,29.118680999999999,0 110.913112999999996,29.111331,0 110.889589999999998,29.109871999999999,0 110.886635999999996,29.100683,0 110.876296999999994,29.097709999999999,0 110.868692999999993,29.108087999999999,0 110.852554999999995,29.094249999999999,0 110.852171999999996,29.086790000000001,0 110.860979999999998,29.073056999999999,0 110.862675999999993,29.064026999999999,0 110.873178999999993,29.066406000000001,0 110.882149999999996,29.054725999999999,0 110.894568000000007,29.049588,0 110.909722000000002,29.048722999999999,0 110.914699999999996,29.035741999999999,0 110.919076000000004,29.022544,0 110.943528999999998,29.011778,0 110.955291000000003,29.002851,0 110.948999999999998,28.997007,0 110.962018999999998,28.998360000000002,0 110.970716999999993,28.992733000000001,0 110.987020000000001,28.988403999999999,0 110.982588000000007,28.976823,0 110.974602000000004,28.976769000000001,0 110.965356,28.965185999999999,0 110.954908000000003,28.960747999999999,0 110.956767999999997,28.951059000000001,0 110.950147999999999,28.937308000000002,0 110.96284,28.917923999999999,0 110.958299999999994,28.906389000000001,0 110.972686999999993,28.904223000000002,0 110.989699999999999,28.897290000000002,0 110.992435,28.888245000000001,0 111.002063000000007,28.875731999999999,0 111.013114000000002,28.851296999999999,0 111.031493999999995,28.838075,0 111.040301999999997,28.822683000000001,0 111.048452999999995,28.825392999999998,0 111.064426999999995,28.823442,0 111.072742000000005,28.809837000000002,0 111.079361000000006,28.805717000000001,0 111.078759000000005,28.793682,0 111.086309,28.785387,0 111.102227999999997,28.777958999999999,0 111.098453000000006,28.770747,0 111.115138000000002,28.743358000000001,0 111.102556000000007,28.734027999999999,0 111.105455000000006,28.727084999999999,0 111.096320000000006,28.700499000000001,0 111.081165999999996,28.691870000000002,0 111.065740000000005,28.696591999999999,0 111.051570999999996,28.692087999999998,0 111.046648000000005,28.684707,0 111.061909999999997,28.668586999999999,0 111.064645999999996,28.659738999999998,0 111.051681000000002,28.652301000000001,0 111.015247000000002,28.649857999999998,0 110.995334999999997,28.63786,0 110.991724000000005,28.619994999999999,0 110.955399999999997,28.61918,0 110.946155000000005,28.622004,0 110.934721999999994,28.617550999999999,0 110.945936000000003,28.601420999999998,0 110.943856999999994,28.591643999999999,0 110.950695999999994,28.568228999999999,0 110.956165999999996,28.568826999999999,0 110.978375999999997,28.585505000000001,0 110.989261999999997,28.587841000000001,0 111.005729000000002,28.583604000000001,0 111.010104999999996,28.587351999999999,0 111.008026000000001,28.598161999999999,0 111.015794,28.599302000000002,0 111.020171000000005,28.589742000000001,0 111.036691000000005,28.596858000000001,0 111.049766000000005,28.608156000000001,0 111.057424999999995,28.607938000000001,0 111.055346,28.590177000000001,0 111.064481000000001,28.582788999999998,0 111.054743999999999,28.570620000000002,0 111.079306000000003,28.537690000000001,0 111.075914999999995,28.530190000000001,0 111.067544999999996,28.530135000000001,0 111.049273999999997,28.536819999999999,0 111.041888,28.535026999999999,0 111.029689000000005,28.543668,0 111.013167999999993,28.545787000000001,0 111.002009000000001,28.537146,0 110.993145999999996,28.521764999999998,0 110.981657999999996,28.511980000000001,0 110.969897000000003,28.512523999999999,0 110.959339,28.492245,0 110.943803000000003,28.478434,0 110.929743999999999,28.484795999999999,0 110.923452999999995,28.473268000000001,0 110.905344999999997,28.455103000000001,0 110.889206999999999,28.447324999999999,0 110.888660000000002,28.438948,0 110.862128999999996,28.418818000000002,0 110.860433,28.406032,0 110.882260000000002,28.408099,0 110.889481000000004,28.404889000000001,0 110.944623000000007,28.426490000000001,0 110.967380000000006,28.430353,0 110.978703999999993,28.439492000000001,0 111.001407,28.440145000000001,0 111.007752999999994,28.445530000000002,0 111.020116000000002,28.445639,0 111.034830999999997,28.454885999999998,0 111.050203999999994,28.458909999999999,0 111.061691999999994,28.451675999999999,0 111.093530000000001,28.456952000000001,0 111.096867000000003,28.463642,0 111.109339000000006,28.468156,0 111.116669999999999,28.464403000000001,0 111.126352999999995,28.470548999999998,0 111.144952000000004,28.473703,0 111.147852,28.487841,0 111.154360999999994,28.496541000000001,0 111.152173000000005,28.514317999999999,0 111.168638999999999,28.517471,0 111.175203999999994,28.513883,0 111.192216999999999,28.518829,0 111.198234999999997,28.526547999999998,0 111.215192999999999,28.536221999999999,0 111.228650999999999,28.522470999999999,0 111.252611000000002,28.531548000000001,0 111.281058000000002,28.517904999999999,0 111.309175999999994,28.520949000000002,0 111.315685999999999,28.524428,0 111.324164999999994,28.518829,0 111.333793,28.520133999999999,0 111.339208999999997,28.527851999999999,0 111.348179999999999,28.528721999999998,0 111.363388,28.539538,0 111.373891999999998,28.551818999999998,0 111.383191999999994,28.55057,0 111.396593999999993,28.540787999999999,0 111.412294000000003,28.547851999999999,0 111.431386000000003,28.547418,0 111.443366999999995,28.557307999999999,0 111.467820000000003,28.556927000000002,0 111.491451999999995,28.571652,0 111.494186999999997,28.581268000000001,0 111.509341000000006,28.585667999999998,0 111.518641000000002,28.595500000000001,0 111.539209999999997,28.609731,0 111.567217999999997,28.638783,0 111.574494000000001,28.639326000000001,0 111.605401999999998,28.624936000000002,0 111.624385000000004,28.618310999999999,0 111.636092000000005,28.628466,0 111.644953999999998,28.623742,0 111.662841999999998,28.624665,0 111.663663,28.607883999999999,0 111.673509999999993,28.591425999999998,0 111.688389000000001,28.589199000000001,0 111.702776999999998,28.598976,0 111.708904000000004,28.594251,0 111.723400999999996,28.609839000000001,0 111.719078999999994,28.636448000000001,0 111.728268999999997,28.642529,0 111.722525000000005,28.645026999999999,0 111.730676000000003,28.652193,0 111.742109999999997,28.651596000000001,0 111.751572999999993,28.657622,0 111.759067999999999,28.653441999999998,0 111.768258000000003,28.639054000000002,0 111.776190999999997,28.634112999999999,0 111.787842999999995,28.648717999999999,0 111.791343999999995,28.643125999999999,0 111.810599999999994,28.640955000000002,0 111.816180000000003,28.626403,0 111.828487999999993,28.615759000000001,0 111.844025000000002,28.616682000000001,0 111.850150999999997,28.633353,0 111.854747000000003,28.636990999999998,0 111.873073000000005,28.630963999999999,0 111.888062000000005,28.6371,0 111.901190999999997,28.635959,0 111.910600000000002,28.643452,0 111.918204000000003,28.655396,0 111.910162999999997,28.664135999999999,0 111.910217000000003,28.671464,0 111.923237,28.676946000000001,0 111.951519000000005,28.674395000000001,0 111.984122999999997,28.663864,0 111.979583000000005,28.656210000000002,0 111.992001000000002,28.657513000000002,0 111.998456000000004,28.646764000000001,0 112.014047000000005,28.640737000000001,0 112.034616,28.640032000000001,0 112.040743000000006,28.657730000000001,0 112.025863000000001,28.669291999999999,0 112.033411999999998,28.673418000000002,0 112.070447999999999,28.672332000000001,0 112.078270000000003,28.655124000000001,0 112.086530999999994,28.652681000000001,0 112.094353999999996,28.641985999999999,0 112.107372999999995,28.652301000000001,0 112.139758999999998,28.649315999999999,0 112.149440999999996,28.656427000000001,0 112.142931000000004,28.662236,0 112.158795999999995,28.667446999999999,0 112.161475999999993,28.675697,0 112.169026000000002,28.678303,0 112.182756999999995,28.668369999999999,0 112.199714999999998,28.674068999999999,0 112.207975000000005,28.691002000000001,0 112.215305999999998,28.692575999999999,0 112.232045999999997,28.707063999999999,0 112.231005999999994,28.711839000000001,0 112.264922999999996,28.719163999999999,0 112.283193999999995,28.728441,0 112.283412999999996,28.776873999999999,0 112.299605999999997,28.784845000000001,0 112.306388999999996,28.800242000000001,0 112.304693,28.823008999999999,0 112.276465999999999,28.840730000000001,0 112.256990999999999,28.861483,0 112.258632000000006,28.900811000000001,0 112.261750000000006,28.908121999999999,0 112.259562000000003,28.922743000000001,0 112.257318999999995,28.96773,0 112.246870999999999,28.980827999999999,0 112.247636,28.997062,0 112.254036999999997,29.04975,0 112.241455000000002,29.067920000000001,0 112.245283999999998,29.100683,0 112.235710999999995,29.114412000000002,0 112.222854999999996,29.118627,0 112.211202999999998,29.117276,0 112.208194000000006,29.126356000000001,0 112.187735000000004,29.134516000000001,0 112.189977999999996,29.145268000000002,0 112.201027999999994,29.146025000000002,0 112.195775999999995,29.160018000000001,0 112.201629999999994,29.179248000000001,0 112.223894999999999,29.199069999999999,0 112.236422000000005,29.213163000000002,0 112.228489999999994,29.216079000000001,0 112.226519999999994,29.228442999999999,0 112.228763000000001,29.251763,0 112.223456999999996,29.266659000000001,0 112.222199000000003,29.287327000000001,0 112.213446000000005,29.296120999999999,0 112.22663,29.294070999999999,0 112.234234000000001,29.298656999999999,0 112.245283999999998,29.292992000000002,0 112.258249000000006,29.292290000000001,0 112.263665000000003,29.298711000000001,0 112.251192000000003,29.318940000000001,0 112.249386999999999,29.328541000000001,0 112.252615000000006,29.351946000000002,0 112.261696000000001,29.375615,0 112.281170000000003,29.395129000000001,0 112.284178999999995,29.403483000000001,0 112.294300000000007,29.406123999999998,0 112.294464000000005,29.428540999999999,0 112.300317000000007,29.448205999999999,0 112.293533999999994,29.456340000000001,0 112.291728000000006,29.478262000000001,0 112.283412999999996,29.495225000000001,0</coordinates></LinearRing></outerBoundaryIs></Polygon></MultiGeometry></Placemark>
</Document>
</kml>