<?xml version="1.0" encoding="UTF-8"?>
<kml xmlns="http://www.opengis.net/kml/2.2">
<Document>
<name>张家界市</name>
<Placemark><name>张家界市</name><MultiGeometry><Polygon><outerBoundaryIs><LinearRing><coordinates>110.390409000000005,28.881149000000001,0 110.400200999999996,28.895720000000001,0 110.423123000000004,28.900594000000002,0 110.432805000000002,28.890791,0 110.449162000000001,28.889816,0 110.450913,28.882828,0 110.468035,28.880227999999999,0 110.472138000000001,28.887487,0 110.481765999999993,28.889437000000001,0 110.476568999999998,28.898807000000001,0 110.483900000000006,28.910775999999998,0 110.490190999999996,28.911263000000002,0 110.524381000000005,28.886132,0 110.530782000000002,28.874106999999999,0 110.543965999999998,28.889327999999999,0 110.538987000000006,28.908446999999999,0 110.521044000000003,28.932759999999998,0 110.521918999999997,28.938499,0 110.533242999999999,28.946131999999999,0 110.551077000000006,28.953278000000001,0 110.553539000000001,28.963346000000001,0 110.541776999999996,28.982289000000002,0 110.558408,28.995438,0 110.572575999999998,29.000578999999998,0 110.593309000000005,28.969353999999999,0 110.620716000000002,28.965185999999999,0 110.635979000000006,28.949705000000002,0 110.656986000000003,28.935034000000002,0 110.666504000000003,28.923501000000002,0 110.670497999999995,28.910830000000001,0 110.678594000000004,28.906172000000002,0 110.690684000000005,28.908121999999999,0 110.690903000000006,28.923988000000001,0 110.716942000000003,28.913429000000001,0 110.730453999999995,28.926154,0 110.739371000000006,28.924475999999999,0 110.763660000000002,28.905847000000001,0 110.775694999999999,28.906172000000002,0 110.788878999999994,28.913808,0 110.798068999999998,28.935738000000001,0 110.798615999999996,28.955227000000001,0 110.811417000000006,28.955280999999999,0 110.836799999999997,28.941855,0 110.849163000000004,28.946511000000001,0 110.851844,28.952033,0 110.850257999999997,28.968541999999999,0 110.839371,28.987753999999999,0 110.840464999999995,28.992570000000001,0 110.860705999999993,28.998954999999999,0 110.889152999999993,28.992462,0 110.898452000000006,29.00112,0 110.905125999999996,28.995709000000002,0 110.915137000000001,29.008531999999999,0 110.903102000000004,29.0213,0 110.903813999999997,29.034769000000001,0 110.914699999999996,29.035741999999999,0 110.909722000000002,29.048722999999999,0 110.894568000000007,29.049588,0 110.882149999999996,29.054725999999999,0 110.873178999999993,29.066406000000001,0 110.862675999999993,29.064026999999999,0 110.860979999999998,29.073056999999999,0 110.852171999999996,29.086790000000001,0 110.852554999999995,29.094249999999999,0 110.868692999999993,29.108087999999999,0 110.876296999999994,29.097709999999999,0 110.886635999999996,29.100683,0 110.889589999999998,29.109871999999999,0 110.913112999999996,29.111331,0 110.925366999999994,29.118680999999999,0 110.929743999999999,29.130841,0 110.945772000000005,29.130949000000001,0 110.941614999999999,29.138082000000001,0 110.958464000000006,29.133866999999999,0 110.974710999999999,29.119222000000001,0 110.983791999999994,29.118952,0 110.985324000000006,29.111007000000001,0 111.001679999999993,29.117925,0 111.022304000000005,29.120464999999999,0 111.025805000000005,29.137703999999999,0 111.043475000000001,29.139271000000001,0 111.071866999999997,29.16985,0 111.080782999999997,29.188376000000002,0 111.092819000000006,29.204146000000001,0 111.121812000000006,29.218563,0 111.153869,29.237728000000001,0 111.165684999999996,29.236163000000001,0 111.177884000000006,29.223421999999999,0 111.192927999999995,29.218077000000001,0 111.206440000000001,29.217537,0 111.223179999999999,29.223692,0 111.231440000000006,29.231736000000001,0 111.232753000000002,29.239888000000001,0 111.220170999999993,29.257429999999999,0 111.222140999999993,29.265688000000001,0 111.234887000000001,29.273513000000001,0 111.250969999999995,29.294609999999999,0 111.252009000000001,29.302757,0 111.245553999999998,29.321044000000001,0 111.234723000000002,29.332640000000001,0 111.259230000000002,29.380628999999999,0 111.269459999999995,29.386558000000001,0 111.286199999999994,29.389523000000001,0 111.300697,29.395990999999999,0 111.291725,29.407848000000001,0 111.294843,29.412914000000001,0 111.311255000000003,29.419273,0 111.329689999999999,29.443681000000002,0 111.317599999999999,29.464365999999998,0 111.329417000000007,29.486716999999999,0 111.337513000000001,29.493448000000001,0 111.328377000000003,29.511216000000001,0 111.320445000000007,29.520852000000001,0 111.319242000000003,29.533341,0 111.300916000000001,29.538399999999999,0 111.303213,29.549703000000001,0 111.294679000000002,29.55686,0 111.286911000000003,29.555246,0 111.273781999999997,29.580857999999999,0 111.267107999999993,29.579782000000002,0 111.254581000000002,29.587045,0 111.257316000000003,29.596997000000002,0 111.252283000000006,29.600546999999999,0 111.224821000000006,29.60286,0 111.213278000000003,29.599202999999999,0 111.173452999999995,29.600546999999999,0 111.158957000000001,29.594629999999999,0 111.151297999999997,29.596836,0 111.148234000000002,29.604742999999999,0 111.133847000000003,29.608992000000001,0 111.124382999999995,29.607755000000001,0 111.110652000000002,29.613779000000001,0 111.077009000000004,29.619318,0 111.053321999999994,29.619049,0 111.049711000000002,29.636956999999999,0 111.030728999999994,29.645398,0 111.039208000000002,29.653302,0 111.032095999999996,29.669053000000002,0 111.020443999999998,29.669967,0 110.998562000000007,29.667171,0 110.986090000000004,29.675933000000001,0 110.965083000000007,29.677492000000001,0 110.942490000000006,29.668032,0 110.927937999999997,29.671633,0 110.927391,29.676577999999999,0 110.904689000000005,29.684479,0 110.890355999999997,29.686897999999999,0 110.874983999999998,29.684909000000001,0 110.854415000000003,29.696249000000002,0 110.814481000000001,29.680555999999999,0 110.781329999999997,29.683243000000001,0 110.766559000000001,29.680502000000001,0 110.764972999999998,29.709897000000002,0 110.762839,29.715592999999998,0 110.747686000000002,29.707049999999999,0 110.731876,29.690283000000001,0 110.721428000000003,29.687488999999999,0 110.699326999999997,29.699687999999998,0 110.672576000000007,29.706835000000002,0 110.660759999999996,29.719622000000001,0 110.661088000000007,29.735793000000001,0 110.652991999999998,29.744655999999999,0 110.634665999999996,29.749597000000001,0 110.631821000000002,29.757760999999999,0 110.623779999999996,29.755935000000001,0 110.614424999999997,29.747126999999999,0 110.602062000000004,29.742024000000001,0 110.574545000000001,29.723437000000001,0 110.562838999999997,29.712584,0 110.525255999999999,29.693508000000001,0 110.507095000000007,29.692111000000001,0 110.493855999999994,29.700977999999999,0 110.465191000000004,29.713068,0 110.449381000000002,29.690821,0 110.447029000000001,29.664645,0 110.416174999999996,29.661742,0 110.413877999999997,29.654646,0 110.372574999999998,29.633514999999999,0 110.355835999999996,29.638839000000001,0 110.353100999999995,29.653839000000001,0 110.339478999999997,29.668139,0 110.321262000000004,29.665020999999999,0 110.315681999999995,29.661151,0 110.299873000000005,29.662386999999999,0 110.292050000000003,29.671848000000001,0 110.289917000000003,29.69641,0 110.278210000000001,29.709091000000001,0 110.260375999999994,29.719515000000001,0 110.245769999999993,29.732247000000001,0 110.219893999999996,29.746642999999999,0 110.188165999999995,29.754484999999999,0 110.160813000000005,29.753786999999999,0 110.144893999999994,29.771132999999999,0 110.131054000000006,29.781067,0 110.113494000000003,29.789657999999999,0 110.064149999999998,29.782838999999999,0 110.024161000000007,29.769629999999999,0 109.990846000000005,29.772207000000002,0 109.976021000000003,29.768125999999999,0 109.969729000000001,29.771777,0 109.949708000000001,29.772959,0 109.947136,29.778865,0 109.940297999999999,29.774139999999999,0 109.907912999999994,29.764206000000001,0 109.896862999999996,29.770434999999999,0 109.888437999999994,29.76587,0 109.869783999999996,29.774677000000001,0 109.836633000000006,29.769843999999999,0 109.820877999999993,29.769898000000001,0 109.791883999999996,29.763400000000001,0 109.771861999999999,29.751370000000001,0 109.769290999999996,29.744495000000001,0 109.755943000000002,29.743258999999998,0 109.753535999999997,29.734127999999998,0 109.76858,29.727841999999999,0 109.771589000000006,29.720966000000001,0 109.760210000000001,29.71339,0 109.766172999999995,29.702912000000001,0 109.760101000000006,29.689101000000001,0 109.737070000000003,29.678405999999999,0 109.714968999999996,29.673352999999999,0 109.718416000000005,29.658624,0 109.715789999999998,29.649484999999999,0 109.701238000000004,29.636312,0 109.710865999999996,29.629643999999999,0 109.715570999999997,29.613133000000001,0 109.726950000000002,29.607862999999998,0 109.745712999999995,29.615338999999999,0 109.761686999999995,29.615176999999999,0 109.769565,29.606518000000001,0 109.764915000000002,29.596136000000001,0 109.768524999999997,29.587313999999999,0 109.782365999999996,29.576608,0 109.760101000000006,29.561648999999999,0 109.749160000000003,29.549486999999999,0 109.738765999999998,29.547604,0 109.734662999999998,29.540984000000002,0 109.740954000000002,29.534255999999999,0 109.752933999999996,29.509062,0 109.765789999999996,29.500017,0 109.769454999999994,29.491779000000001,0 109.778755000000004,29.486878000000001,0 109.779357000000005,29.478045999999999,0 109.788382999999996,29.463934999999999,0 109.801895000000002,29.448851999999999,0 109.808240999999995,29.427085999999999,0 109.795276000000001,29.417117000000001,0 109.794510000000002,29.411674999999999,0 109.821206000000004,29.388660999999999,0 109.828918999999999,29.373297000000001,0 109.908405000000002,29.441741,0 109.925636999999995,29.444434999999999,0 109.935867000000002,29.434414,0 109.945276000000007,29.398416999999998,0 109.952662000000004,29.383486000000001,0 109.945166999999998,29.369900999999999,0 109.954795000000004,29.358146999999999,0 109.960374999999999,29.341269,0 109.952934999999997,29.333826999999999,0 109.936141000000006,29.325143000000001,0 109.951294000000004,29.318076999999999,0 109.975527999999997,29.299142,0 110.001568000000006,29.29542,0 110.016338000000005,29.288298000000001,0 110.049216000000001,29.314571000000001,0 110.068416999999997,29.323795,0 110.097192000000007,29.308852999999999,0 110.112564000000006,29.289701000000001,0 110.113547999999994,29.279017,0 110.103537000000003,29.253436000000001,0 110.082858999999999,29.251223,0 110.080616000000006,29.232600000000001,0 110.073176000000004,29.225636000000002,0 110.070058000000003,29.211867000000002,0 110.084828000000002,29.184434,0 110.090518000000003,29.167311000000002,0 110.089040999999995,29.151266,0 110.099872000000005,29.139595,0 110.119128000000003,29.141216,0 110.128428,29.136406999999998,0 110.140407999999994,29.145430000000001,0 110.158186999999998,29.165203999999999,0 110.164861000000002,29.165527999999998,0 110.179085000000001,29.153967000000002,0 110.189643000000004,29.162827,0 110.203920999999994,29.161044,0 110.205562,29.151968,0 110.215901000000002,29.136082999999999,0 110.223996999999997,29.136461000000001,0 110.216722000000004,29.129111999999999,0 110.238985999999997,29.122247999999999,0 110.261634000000001,29.119599999999998,0 110.264041000000006,29.110142,0 110.250529,29.093654999999998,0 110.249654000000007,29.076896000000001,0 110.261961999999997,29.069541999999998,0 110.273505,29.074408999999999,0 110.284446000000003,29.085438,0 110.304193999999995,29.091331,0 110.299599000000001,29.057158999999999,0 110.305289000000002,29.038609000000001,0 110.313986999999997,29.035905,0 110.323121999999998,29.041746,0 110.340354000000005,29.041312999999999,0 110.341612999999995,29.027249999999999,0 110.347357000000002,29.019406,0 110.346208000000004,29.011129,0 110.327990999999997,28.983858000000001,0 110.33193,28.981314999999999,0 110.318965000000006,28.973143,0 110.319184000000007,28.967296999999999,0 110.306492000000006,28.958258000000001,0 110.308132999999998,28.944292000000001,0 110.314588000000001,28.938336,0 110.331000000000003,28.941151999999999,0 110.361086999999998,28.927454000000001,0 110.364806999999999,28.907959000000002,0 110.358734999999996,28.891224000000001,0 110.384664999999998,28.885428000000001,0 110.390409000000005,28.881149000000001,0</coordinates></LinearRing></outerBoundaryIs></Polygon></MultiGeometry></Placemark>
</Document>
</kml>