<?xml version="1.0" encoding="UTF-8"?>
<kml xmlns="http://www.opengis.net/kml/2.2">
<Document>
<name>永州市</name>
<Placemark><name>永州市</name><MultiGeometry><Polygon><outerBoundaryIs><LinearRing><coordinates>112.364211999999995,25.191725000000002,0 112.361859999999993,25.211988000000002,0 112.368095999999994,25.222846000000001,0 112.368150999999997,25.232696000000001,0 112.357592999999994,25.244278999999999,0 112.360491999999994,25.258547,0 112.355405000000005,25.263974000000001,0 112.357592999999994,25.278631000000001,0 112.344900999999993,25.284673000000002,0 112.345174999999998,25.289259000000001,0 112.362188000000003,25.298152999999999,0 112.374933999999996,25.300837000000001,0 112.386094,25.313141000000002,0 112.394025999999997,25.314595000000001,0 112.409508000000002,25.325780000000002,0 112.420011000000002,25.339086999999999,0 112.432867000000002,25.368382,0 112.444463999999996,25.362736000000002,0 112.452560000000005,25.365475,0 112.458414000000005,25.37509,0 112.455185999999998,25.381070000000001,0 112.435710999999998,25.379951999999999,0 112.421323999999998,25.39359,0 112.426466000000005,25.398508,0 112.440962999999996,25.399346000000001,0 112.439924000000005,25.408287000000001,0 112.426903999999993,25.423317999999998,0 112.420668000000006,25.435497999999999,0 112.411805000000001,25.440581000000002,0 112.399989000000005,25.457172,0 112.398020000000002,25.476887999999999,0 112.392002000000005,25.490960999999999,0 112.372144000000006,25.512067999999999,0 112.367931999999996,25.520441999999999,0 112.372417999999996,25.530044,0 112.369901999999996,25.539421999999998,0 112.357811999999996,25.541654999999999,0 112.325591000000003,25.529989,0 112.312843999999998,25.535012999999999,0 112.285765999999995,25.555776000000002,0 112.270284000000004,25.554883,0 112.250973000000002,25.559013,0 112.246268999999998,25.567608,0 112.257701999999995,25.573021000000001,0 112.260491999999999,25.582339999999999,0 112.243643000000006,25.589928,0 112.238828999999996,25.603876,0 112.257429000000002,25.634055,0 112.257920999999996,25.650452000000001,0 112.245611999999994,25.672087000000001,0 112.243041000000005,25.684854999999999,0 112.247363000000007,25.703921000000001,0 112.278107000000006,25.711167,0 112.297363000000004,25.730284000000001,0 112.310602000000003,25.728891000000001,0 112.317002000000002,25.723261999999998,0 112.321432999999999,25.698457999999999,0 112.336421999999999,25.690875999999999,0 112.343315000000004,25.694277,0 112.352068000000003,25.712392999999999,0 112.361805000000004,25.720196000000001,0 112.383522999999997,25.730618,0 112.392056999999994,25.740314999999999,0 112.377560000000003,25.750791,0 112.377013000000005,25.760486,0 112.386859999999999,25.789342999999999,0 112.385383000000004,25.805551999999999,0 112.377067999999994,25.803657999999999,0 112.361695999999995,25.809116,0 112.357101,25.818249000000002,0 112.359289000000004,25.834398,0 112.380514000000005,25.837292999999999,0 112.387023999999997,25.846257999999999,0 112.386859999999999,25.859786,0 112.377998000000005,25.859285,0 112.359561999999997,25.894407000000001,0 112.360382999999999,25.905871000000001,0 112.349715000000003,25.906594999999999,0 112.336860000000001,25.885725000000001,0 112.312406999999993,25.890567000000001,0 112.288664999999995,25.886282000000001,0 112.272088999999994,25.886337000000001,0 112.265524999999997,25.896688999999999,0 112.296816000000007,25.931466,0 112.315196999999998,25.935805999999999,0 112.316783000000001,25.944039,0 112.309836000000004,25.956109999999999,0 112.304474999999996,25.953997000000001,0 112.299332000000007,25.962506999999999,0 112.311532,25.962395999999998,0 112.292986999999997,25.974298000000001,0 112.300426000000002,25.978746999999998,0 112.306443999999999,26.00694,0 112.328545000000005,26.039072000000001,0 112.335819999999998,26.076640999999999,0 112.321815999999998,26.093755000000002,0 112.309836000000004,26.099032999999999,0 112.299715000000006,26.090364999999998,0 112.291618999999997,26.099976999999999,0 112.282593000000006,26.101699,0 112.271158999999997,26.089032,0 112.261859999999999,26.092866000000001,0 112.251684999999995,26.089587999999999,0 112.240578999999997,26.093309999999999,0 112.230294999999998,26.107032,0 112.232427999999999,26.117864999999998,0 112.231388999999993,26.134416999999999,0 112.224332000000004,26.138915000000001,0 112.222635999999994,26.150798999999999,0 112.212570999999997,26.151188000000001,0 112.217220999999995,26.165458999999998,0 112.206114999999997,26.165514000000002,0 112.195447999999999,26.172011000000001,0 112.185929000000002,26.185668,0 112.192876999999996,26.193940000000001,0 112.194901000000002,26.206873000000002,0 112.190306000000007,26.223690000000001,0 112.19605,26.229793999999998,0 112.200809000000007,26.262364999999999,0 112.197308000000007,26.277287000000001,0 112.205021000000002,26.285274999999999,0 112.212461000000005,26.305630000000001,0 112.208960000000005,26.313559999999999,0 112.199004000000002,26.307459999999999,0 112.190415000000002,26.312228999999999,0 112.177942000000002,26.305741000000001,0 112.177723999999998,26.325925000000002,0 112.181498000000005,26.343389999999999,0 112.158741000000006,26.353035999999999,0 112.153160999999997,26.349544000000002,0 112.148183000000003,26.35736,0 112.150152000000006,26.384630000000001,0 112.141728000000001,26.387067999999999,0 112.140634000000006,26.407959000000002,0 112.153271000000004,26.403138999999999,0 112.150098,26.416326000000002,0 112.152724000000006,26.430064999999999,0 112.145612,26.431726999999999,0 112.143204999999995,26.441476999999999,0 112.155294999999995,26.444523,0 112.161913999999996,26.450727000000001,0 112.157974999999993,26.465015999999999,0 112.152176999999995,26.469667999999999,0 112.166509000000005,26.477032999999999,0 112.159561999999994,26.486336000000001,0 112.159998999999999,26.493866000000001,0 112.175700000000006,26.500177999999998,0 112.195339000000004,26.486612999999998,0 112.211258000000001,26.502725000000002,0 112.236694999999997,26.505382000000001,0 112.243205000000003,26.514073,0 112.242712999999995,26.535052,0 112.227833000000004,26.546453,0 112.213117999999994,26.548556000000001,0 112.190470000000005,26.536878999999999,0 112.174222999999998,26.524148,0 112.152450000000002,26.502725000000002,0 112.144737000000006,26.504441,0 112.147362999999999,26.527469,0 112.162734999999998,26.539314000000001,0 112.149113,26.547173000000001,0 112.156389000000004,26.555529,0 112.169517999999997,26.557078000000001,0 112.174715000000006,26.571187999999999,0 112.168205,26.574674000000002,0 112.170557000000002,26.585352,0 112.158576999999994,26.591825,0 112.143916000000004,26.593429,0 112.141453999999996,26.603386,0 112.150317000000001,26.617048,0 112.151082000000002,26.625730999999998,0 112.126356000000001,26.635739999999998,0 112.115742999999995,26.643370999999998,0 112.117822000000004,26.650504000000002,0 112.109780000000001,26.654043000000001,0 112.094189,26.645140999999999,0 112.093478000000005,26.634025999999999,0 112.076903000000001,26.643979999999999,0 112.056169999999995,26.647960999999999,0 112.045829999999995,26.643204999999998,0 112.028488999999993,26.651831000000001,0 112.006497999999993,26.648458000000002,0 111.995666,26.639389999999999,0 112.005512999999993,26.624790999999998,0 112.013992000000002,26.627555999999998,0 112.019735999999995,26.619205000000001,0 112.014921999999999,26.605322000000001,0 112.006005000000002,26.596914000000002,0 111.997525999999993,26.605101000000001,0 111.990195999999997,26.624182000000001,0 111.973564999999994,26.630928999999998,0 111.960982999999999,26.645306999999999,0 111.959342000000007,26.656420000000001,0 111.951902000000004,26.664216,0 111.949003000000005,26.681519000000002,0 111.940359999999998,26.699427,0 111.927065999999996,26.711031999999999,0 111.916398999999998,26.733688000000001,0 111.917985000000002,26.748936,0 111.903324999999995,26.751753999999998,0 111.874769000000001,26.785888,0 111.871486000000004,26.796491,0 111.859178,26.799583999999999,0 111.850206,26.789809000000002,0 111.831824999999995,26.786163999999999,0 111.827504000000005,26.780918,0 111.817054999999996,26.784011,0 111.824056999999996,26.798479,0 111.820555999999996,26.804497999999999,0 111.802503999999999,26.801515999999999,0 111.797307000000004,26.792570000000001,0 111.781278,26.789147,0 111.771704999999997,26.799859999999999,0 111.772142000000002,26.80875,0 111.753707000000006,26.807037999999999,0 111.744735000000006,26.812173000000001,0 111.745008999999996,26.825534000000001,0 111.752285000000001,26.831551000000001,0 111.746758999999997,26.841487000000001,0 111.739046000000002,26.832875999999999,0 111.731278000000003,26.832599999999999,0 111.719243000000006,26.847283000000001,0 111.712677999999997,26.849160000000001,0 111.700588999999994,26.843198000000001,0 111.701464000000001,26.836188,0 111.684614999999994,26.833538000000001,0 111.665959999999998,26.843309000000001,0 111.650862000000004,26.840437999999999,0 111.642437000000001,26.817252,0 111.644515999999996,26.803228000000001,0 111.638006000000004,26.802344000000002,0 111.629637000000002,26.789311999999999,0 111.618476999999999,26.7913,0 111.601245000000006,26.785888,0 111.588005999999993,26.797595999999999,0 111.577229000000003,26.799859999999999,0 111.575368999999995,26.809356999999999,0 111.558082999999996,26.808638999999999,0 111.549986000000004,26.812338,0 111.545938000000007,26.821724,0 111.549110999999996,26.832324,0 111.543586000000005,26.840935000000002,0 111.533630000000002,26.847117000000001,0 111.528268999999995,26.864999999999998,0 111.517218,26.865110000000001,0 111.507973000000007,26.859535999999999,0 111.495227,26.860695,0 111.482534999999999,26.856776,0 111.471485000000001,26.861964,0 111.462513000000001,26.861080999999999,0 111.460105999999996,26.867097000000001,0 111.445499999999996,26.867592999999999,0 111.43817,26.860859999999999,0 111.430019000000001,26.867923999999999,0 111.419624999999996,26.867813999999999,0 111.406441000000001,26.858211000000001,0 111.392437000000001,26.863012999999999,0 111.372906999999998,26.858211000000001,0 111.366397000000006,26.864944000000001,0 111.349656999999993,26.859812000000002,0 111.349711999999997,26.851533,0 111.329853999999997,26.836684999999999,0 111.321922000000001,26.820122999999999,0 111.322524000000001,26.813110999999999,0 111.315139000000002,26.802565000000001,0 111.324110000000005,26.788318,0 111.321484999999996,26.783127,0 111.329198000000005,26.772136,0 111.329417000000007,26.757608999999999,0 111.324000999999996,26.737721000000001,0 111.317217999999997,26.733191000000001,0 111.321430000000007,26.714238000000002,0 111.309066999999999,26.710922,0 111.302940000000007,26.700035,0 111.276244000000005,26.688870000000001,0 111.281111999999993,26.678699000000002,0 111.293694000000002,26.672840000000001,0 111.299384000000003,26.660677,0 111.301243999999997,26.644200999999999,0 111.312567999999999,26.639002999999999,0 111.314262999999997,26.626615999999999,0 111.306057999999993,26.619758000000001,0 111.303870000000003,26.604050000000001,0 111.304580999999999,26.583359999999999,0 111.297687999999994,26.576943,0 111.297031000000004,26.567758000000001,0 111.288498000000004,26.557078000000001,0 111.296047000000002,26.526195999999999,0 111.296921999999995,26.511748000000001,0 111.288770999999997,26.492315999999999,0 111.278267999999997,26.490212,0 111.271867,26.499403000000001,0 111.263388000000006,26.493423,0 111.259722999999994,26.479913,0 111.251352999999995,26.483844000000001,0 111.229635000000002,26.481131000000001,0 111.203322,26.462855999999999,0 111.201188999999999,26.457318000000001,0 111.181056999999996,26.463355,0 111.184668000000002,26.470499,0 111.168037999999996,26.474153999999999,0 111.155510000000007,26.48246,0 111.158846999999994,26.494420000000002,0 111.154415999999998,26.500399000000002,0 111.165959000000001,26.511748000000001,0 111.159229999999994,26.515733999999998,0 111.153977999999995,26.527025999999999,0 111.142272000000006,26.541305999999999,0 111.125860000000003,26.553923999999999,0 111.127117999999996,26.577496,0 111.133190999999997,26.590772999999999,0 111.137129000000002,26.610631999999999,0 111.127447000000004,26.623076000000001,0 111.109229999999997,26.617435,0 111.113879999999995,26.609248999999998,0 111.104743999999997,26.585905,0 111.088716000000005,26.588892999999999,0 111.073561999999995,26.587841000000001,0 111.067106999999993,26.577273999999999,0 111.063934000000003,26.558406000000002,0 111.066559999999996,26.541305999999999,0 111.063277999999997,26.526527999999999,0 111.067216999999999,26.505548000000001,0 111.056439999999995,26.486612999999998,0 111.060269000000005,26.473766000000001,0 111.052665000000005,26.457041,0 111.043694000000002,26.451225000000001,0 111.044951999999995,26.440923000000002,0 111.031768,26.432503000000001,0 111.019186000000005,26.401033000000002,0 111.019022000000007,26.391058000000001,0 111.025093999999996,26.384575000000002,0 111.016559999999998,26.366007,0 111.008572999999998,26.358857,0 111.002610000000004,26.340119000000001,0 111.008300000000006,26.337014,0 111.026188000000005,26.337402999999998,0 111.043200999999996,26.332467999999999,0 111.040357,26.323485999999999,0 111.053486000000007,26.319493000000001,0 111.061199000000002,26.325371000000001,0 111.064809999999994,26.318883,0 111.079361000000006,26.318218000000002,0 111.092600000000004,26.306683,0 111.106877999999995,26.304076999999999,0 111.116395999999995,26.309179,0 111.135817000000003,26.306516999999999,0 111.157808000000003,26.307459999999999,0 111.168913000000003,26.310510000000001,0 111.177774999999997,26.307127000000001,0 111.204745000000003,26.307848,0 111.209230000000005,26.302689999999998,0 111.208847000000006,26.290932000000002,0 111.203322,26.280671000000002,0 111.212840999999997,26.269133,0 111.225423000000006,26.269466000000001,0 111.231658999999993,26.262308999999998,0 111.240521000000001,26.26708,0 111.247851999999995,26.263641,0 111.252447000000004,26.269244,0 111.267874000000006,26.273071000000002,0 111.281277000000003,26.271129999999999,0 111.292599999999993,26.252434000000001,0 111.295336000000006,26.240338000000001,0 111.291452000000007,26.220804000000001,0 111.271703000000002,26.217196000000001,0 111.270663999999996,26.200766999999999,0 111.266506000000007,26.191331000000002,0 111.274383999999998,26.182559000000001,0 111.268912999999998,26.168790000000001,0 111.258135999999993,26.152021000000001,0 111.262403000000006,26.135860999999998,0 111.268640000000005,26.129307000000001,0 111.268912999999998,26.107365999999999,0 111.259339999999995,26.096699000000001,0 111.265958999999995,26.096032000000001,0 111.244624000000002,26.077974999999999,0 111.252666000000005,26.068138999999999,0 111.264920000000004,26.061247999999999,0 111.264318000000003,26.055690999999999,0 111.252938999999998,26.056691000000001,0 111.236801999999997,26.048855,0 111.230509999999995,26.034458000000001,0 111.213716000000005,26.017669999999999,0 111.215356999999997,26.011776999999999,0 111.202939000000001,25.976133000000001,0 111.196702999999999,25.970849999999999,0 111.196100999999999,25.960894,0 111.189537000000001,25.953274,0 111.205017999999995,25.952884000000001,0 111.206549999999993,25.939644999999999,0 111.219678999999999,25.93703,0 111.216615000000004,25.928963,0 111.232260999999994,25.911045999999999,0 111.222469000000004,25.907318,0 111.229142999999993,25.897524000000001,0 111.242710000000002,25.887784,0 111.251626999999999,25.864685000000001,0 111.259887000000006,25.861066000000001,0 111.278541000000004,25.860287,0 111.291888999999998,25.854441999999999,0 111.297085999999993,25.874258999999999,0 111.305291999999994,25.883666000000002,0 111.326516999999996,25.895520000000001,0 111.327611000000005,25.900195,0 111.346210999999997,25.906316,0 111.355018999999999,25.892126000000001,0 111.362567999999996,25.892292000000001,0 111.365247999999994,25.900585,0 111.378432000000004,25.904758000000001,0 111.378815000000003,25.894072999999999,0 111.385489000000007,25.882107000000001,0 111.408683999999994,25.885057,0 111.415850000000006,25.876874999999998,0 111.432207000000005,25.886949999999999,0 111.440631999999994,25.884945999999999,0 111.454252999999994,25.888452000000001,0 111.456823999999997,25.871085999999998,0 111.470993000000007,25.875260999999998,0 111.492053999999996,25.868580999999999,0 111.486200999999994,25.859341000000001,0 111.465138999999994,25.855833000000001,0 111.456879000000001,25.848095000000001,0 111.433245999999997,25.846257999999999,0 111.425040999999993,25.826267999999999,0 111.436091000000005,25.813571,0 111.442273,25.778091,0 111.440194000000005,25.769622999999999,0 111.432862999999998,25.766615000000002,0 111.416068999999993,25.768173999999998,0 111.399602999999999,25.744606000000001,0 111.346812999999997,25.729671,0 111.327282999999994,25.732735999999999,0 111.318695000000005,25.729503999999999,0 111.307535000000001,25.716351,0 111.308738000000005,25.692326000000001,0 111.313935000000001,25.682625000000002,0 111.309777999999994,25.658090999999999,0 111.309996999999996,25.644929999999999,0 111.317655000000002,25.631266,0 111.334722999999997,25.618380999999999,0 111.343147999999999,25.602761000000001,0 111.336856999999995,25.595787000000001,0 111.324931000000007,25.564147999999999,0 111.323892000000001,25.548856000000001,0 111.327720999999997,25.537413000000001,0 111.328103999999996,25.521446999999998,0 111.320609000000005,25.495539999999998,0 111.300860999999998,25.469740000000002,0 111.301243999999997,25.451084000000002,0 111.292107999999999,25.435832999999999,0 111.280839,25.430078000000002,0 111.278979000000007,25.423317999999998,0 111.26585,25.425440999999999,0 111.256933000000004,25.407616000000001,0 111.257480000000001,25.395937,0 111.242163000000005,25.387833000000001,0 111.236692000000005,25.378164000000002,0 111.227993999999995,25.375425,0 111.210543000000001,25.363519,0 111.181822999999994,25.366593000000002,0 111.163880000000006,25.342386000000001,0 111.155456000000001,25.324382,0 111.138441999999998,25.303578000000002,0 111.119513999999995,25.290825000000002,0 111.103322000000006,25.285063999999998,0 111.109504000000001,25.266268,0 111.109831999999997,25.252728000000001,0 111.117818999999997,25.239298999999999,0 111.112786,25.217081,0 111.077883999999997,25.201073000000001,0 111.065466000000001,25.187470000000001,0 111.054963000000001,25.187694,0 111.047248999999994,25.179017000000002,0 111.034612999999993,25.179129,0 111.002719999999997,25.165747,0 111.000532000000007,25.150013000000001,0 110.994459000000006,25.146260999999999,0 110.982806999999994,25.126659,0 110.977609999999999,25.108958000000001,0 110.983956000000006,25.101676000000001,0 110.961417999999995,25.077864000000002,0 110.966723999999999,25.073101000000001,0 110.956165999999996,25.058812,0 110.951898999999997,25.041156999999998,0 110.957479000000006,25.024902000000001,0 110.955399999999997,25.016886,0 110.960761000000005,25.001524,0 110.975476999999998,24.987787000000001,0 110.968748000000005,24.975505999999999,0 110.973453000000006,24.968271999999999,0 110.985541999999995,24.966028000000001,0 110.992107000000004,24.959018,0 110.987238000000005,24.942526999999998,0 110.994896999999995,24.930354000000001,0 110.983737000000005,24.924182999999999,0 110.979141999999996,24.914701000000001,0 110.997195000000005,24.927043999999999,0 111.003431000000006,24.921434000000001,0 111.014536000000007,24.92379,0 111.018529000000001,24.929793,0 111.030345999999994,24.931981,0 111.050257999999999,24.928277999999999,0 111.086089999999999,24.941125,0 111.097414000000001,24.940899999999999,0 111.100423000000006,24.945723999999998,0 111.096975999999998,24.974889000000001,0 111.102063999999999,24.982292000000001,0 111.107917,25.009709999999998,0 111.101844999999997,25.035215999999998,0 111.123016000000007,25.042559000000001,0 111.140028999999998,25.042390000000001,0 111.167162000000005,25.060604999999999,0 111.200750999999997,25.074670000000001,0 111.206714000000005,25.084980000000002,0 111.219296,25.093551999999999,0 111.222031000000001,25.106437,0 111.249493000000001,25.128675000000001,0 111.263716000000002,25.133603999999998,0 111.263223999999994,25.143795999999998,0 111.274766999999997,25.151133000000002,0 111.289098999999993,25.142451999999999,0 111.296702999999994,25.122066,0 111.310980999999998,25.116184000000001,0 111.321813000000006,25.104925000000001,0 111.347140999999993,25.101115,0 111.360380000000006,25.103076000000001,0 111.367874,25.108846,0 111.375150000000005,25.128506999999999,0 111.387075999999993,25.130243,0 111.399766999999997,25.124586000000001,0 111.402831000000006,25.107558000000001,0 111.412677000000002,25.100722999999999,0 111.429089000000005,25.103467999999999,0 111.436693000000005,25.098426,0 111.418803999999994,25.065591999999999,0 111.416561000000002,25.047658999999999,0 111.423400000000001,25.035495999999998,0 111.439318999999998,25.027481000000002,0 111.465303000000006,25.023781,0 111.468311999999997,25.019463999999999,0 111.467326999999997,25.002476999999999,0 111.460488999999995,24.992777,0 111.438389000000001,24.984310000000001,0 111.431112999999996,24.97259,0 111.431386000000003,24.959690999999999,0 111.440194000000005,24.944547,0 111.462185000000005,24.930803000000001,0 111.470226999999994,24.928951999999999,0 111.463936000000004,24.908978000000001,0 111.453158999999999,24.904602000000001,0 111.447086999999996,24.893097999999998,0 111.459450000000004,24.882323,0 111.460488999999995,24.872221,0 111.449438999999998,24.857066,0 111.452995000000001,24.844211000000001,0 111.471102000000002,24.820630000000001,0 111.479416999999998,24.797550999999999,0 111.470445999999995,24.773455999999999,0 111.467162999999999,24.758064000000001,0 111.461254999999994,24.750086,0 111.464155000000005,24.733848999999999,0 111.437295000000006,24.697433,0 111.431112999999996,24.685853999999999,0 111.435489000000004,24.68102,0 111.446758000000003,24.682538000000001,0 111.451791,24.665786000000001,0 111.468039000000005,24.666740999999998,0 111.471593999999996,24.674668,0 111.485380000000006,24.672982000000001,0 111.504143999999997,24.664885999999999,0 111.514319,24.655103,0 111.521540000000002,24.642171000000001,0 111.529910000000001,24.636548000000001,0 111.549876999999995,24.648581,0 111.560107000000002,24.638909999999999,0 111.570718999999997,24.644701999999999,0 111.580348000000001,24.674724000000001,0 111.589155000000005,24.690688000000002,0 111.597689000000003,24.693892000000002,0 111.619297000000003,24.683717999999999,0 111.636639000000002,24.681356999999998,0 111.641672,24.684674000000001,0 111.643366999999998,24.701311,0 111.637788,24.715530000000001,0 111.642328000000006,24.730028000000001,0 111.666453000000004,24.760816999999999,0 111.689593000000002,24.778566999999999,0 111.703980000000001,24.778174,0 111.708410999999998,24.788845999999999,0 111.733247000000006,24.780252000000001,0 111.761858000000004,24.782105999999999,0 111.783466000000004,24.785757,0 111.794242999999994,24.774298000000002,0 111.814100999999994,24.770309999999998,0 111.835272000000003,24.776938000000001,0 111.856387999999995,24.772051000000001,0 111.868696,24.771826999999998,0 111.868915000000001,24.760311000000002,0 111.875206000000006,24.75666,0 111.903706999999997,24.763456999999999,0 111.924605,24.757052999999999,0 111.938226,24.756996999999998,0 111.950971999999993,24.769635999999998,0 111.963554000000002,24.770085000000002,0 111.970118999999997,24.763738,0 111.997690000000006,24.758907000000001,0 112.024113,24.740141999999999,0 112.033576999999994,24.753457000000001,0 112.033794999999998,24.771153000000002,0 112.054199999999994,24.788902,0 112.059233000000006,24.799516000000001,0 112.083796000000007,24.804850999999999,0 112.096486999999996,24.817260999999998,0 112.097252999999995,24.826357999999999,0 112.112624999999994,24.831523000000001,0 112.124058000000005,24.841123,0 112.141453999999996,24.844491999999999,0 112.149495999999999,24.836969,0 112.161092999999994,24.844211000000001,0 112.171049999999994,24.862735000000001,0 112.165689,24.867225999999999,0 112.165306000000001,24.882491999999999,0 112.174058000000002,24.913972000000001,0 112.175207,24.927492999999998,0 112.152450000000002,24.93243,0 112.142111,24.937926999999998,0 112.120009999999994,24.963729000000001,0 112.122033999999999,24.989525,0 112.134670999999997,24.995861000000001,0 112.155732,25.026976000000001,0 112.148893999999999,25.035440000000001,0 112.153543999999997,25.045473000000001,0 112.152176999999995,25.055952999999999,0 112.164265999999998,25.0717,0 112.165578999999994,25.083691000000002,0 112.177121999999997,25.107389999999999,0 112.174167999999995,25.129515000000001,0 112.183249000000004,25.1401,0 112.183304000000007,25.148837,0 112.193150000000003,25.172186,0 112.187133000000003,25.182544,0 112.201739000000003,25.185790999999998,0 112.246542000000005,25.184951000000002,0 112.255568999999994,25.171569999999999,0 112.256061000000003,25.159364,0 112.281991000000005,25.164739000000001,0 112.286968999999999,25.158971999999999,0 112.30256,25.15718,0 112.315962999999996,25.17521,0 112.332429000000005,25.174537999999998,0 112.350864000000001,25.187021999999999,0 112.364211999999995,25.191725000000002,0</coordinates></LinearRing></outerBoundaryIs></Polygon></MultiGeometry></Placemark>
</Document>
</kml>