<?xml version="1.0" encoding="UTF-8"?>
<kml xmlns="http://www.opengis.net/kml/2.2">
<Document>
<name>益阳市</name>
<Placemark><name>益阳市</name><MultiGeometry><Polygon><outerBoundaryIs><LinearRing><coordinates>112.685383999999999,28.525407000000001,0 112.688282999999998,28.544319999999999,0 112.701740999999998,28.552416999999998,0 112.726522000000003,28.557199000000001,0 112.736095000000006,28.568228999999999,0 112.726194000000007,28.581702,0 112.716455999999994,28.579203,0 112.713228999999998,28.587188999999999,0 112.717495999999997,28.596205999999999,0 112.705350999999993,28.599574,0 112.684016,28.596368999999999,0 112.675154000000006,28.581213999999999,0 112.668370999999993,28.584256,0 112.658687999999998,28.580507000000001,0 112.648841000000004,28.564263,0 112.635439000000005,28.559045999999999,0 112.629366000000005,28.5472,0 112.609727000000007,28.540787999999999,0 112.591948000000002,28.542961999999999,0 112.582538999999997,28.556873,0 112.562461999999996,28.563555999999998,0 112.563721000000001,28.570945999999999,0 112.574387999999999,28.585125000000001,0 112.582813000000002,28.590122999999998,0 112.590142999999998,28.601692,0 112.585001000000005,28.620918,0 112.588721000000007,28.627379999999999,0 112.580515000000005,28.629715000000001,0 112.574060000000003,28.623795999999999,0 112.563665999999998,28.629389,0 112.552560999999997,28.644103999999999,0 112.544135999999995,28.639434000000001,0 112.533797000000007,28.640412000000001,0 112.510602000000006,28.654799000000001,0 112.521106000000003,28.665493000000001,0 112.525317999999999,28.678356999999998,0 112.526411999999993,28.702560999999999,0 112.534563000000006,28.70956,0 112.548238999999995,28.712327999999999,0 112.555842999999996,28.719652,0 112.552233000000001,28.729579999999999,0 112.569081999999995,28.731641,0 112.580569999999994,28.73967,0 112.603763999999998,28.746884000000001,0 112.606116999999998,28.758002000000001,0 112.617495000000005,28.770042,0 112.619136999999995,28.778555000000001,0 112.641784000000001,28.789453000000002,0 112.671707999999995,28.791568000000002,0 112.672966000000002,28.811516999999998,0 112.664923999999999,28.821057,0 112.659836999999996,28.840838999999999,0 112.668370999999993,28.850429999999999,0 112.677452000000002,28.871234999999999,0 112.685164999999998,28.879740999999999,0 112.722910999999996,28.883478,0 112.773184999999998,28.902760000000001,0 112.784181000000004,28.911967000000001,0 112.797473999999994,28.913699999999999,0 112.811588,28.921551999999998,0 112.838120000000004,28.929295,0 112.847966999999997,28.935521000000001,0 112.872420000000005,28.962966999999999,0 112.876085000000003,28.984075000000001,0 112.891401999999999,28.999388,0 112.927944999999994,29.023031,0 112.934399999999997,29.037310999999999,0 112.949388999999996,29.060783000000001,0 112.939049999999995,29.065541,0 112.937736999999998,29.078139,0 112.927070000000001,29.109061000000001,0 112.924662999999995,29.149429000000001,0 112.901084999999995,29.154615,0 112.881609999999995,29.162773000000001,0 112.812900999999997,29.1524,0 112.798513,29.159801999999999,0 112.813447999999994,29.178654000000002,0 112.810383999999999,29.185514000000001,0 112.793863999999999,29.190915,0 112.775592000000003,29.176601999999999,0 112.756609999999995,29.169958000000001,0 112.741949000000005,29.168282999999999,0 112.724553,29.177627999999999,0 112.715855000000005,29.187349999999999,0 112.711258999999998,29.185352000000002,0 112.693207000000001,29.192589000000002,0 112.682429999999997,29.192264999999999,0 112.677560999999997,29.205387999999999,0 112.680953000000002,29.214027000000002,0 112.676357999999993,29.224717999999999,0 112.681663999999998,29.230440999999999,0 112.679092999999995,29.244800000000001,0 112.693698999999995,29.253976000000002,0 112.682812999999996,29.269573000000001,0 112.683305000000004,29.27497,0 112.699881000000005,29.287381,0 112.689267999999998,29.295743000000002,0 112.680789000000004,29.294988,0 112.673621999999995,29.306263999999999,0 112.664760000000001,29.300383,0 112.652561000000006,29.321421000000001,0 112.634454000000005,29.335984,0 112.611806000000001,29.333286999999999,0 112.590417000000002,29.317861000000001,0 112.579420999999996,29.303674000000001,0 112.560219000000004,29.304590999999999,0 112.547364000000002,29.301786,0 112.532428999999993,29.308907000000001,0 112.502067999999994,29.312197999999999,0 112.496981000000005,29.317052,0 112.490962999999994,29.337602,0 112.485765999999998,29.342941,0 112.464267000000007,29.35351,0 112.439924000000005,29.360627000000001,0 112.423074999999997,29.371734,0 112.392056999999994,29.396476,0 112.386640999999997,29.406016000000001,0 112.388829000000001,29.420997,0 112.386149000000003,29.426870999999998,0 112.366782999999998,29.442549,0 112.366181999999995,29.458441000000001,0 112.350973999999994,29.453108,0 112.342001999999994,29.444434999999999,0 112.328271000000001,29.450091,0 112.324442000000005,29.480416000000002,0 112.331115999999994,29.510570000000001,0 112.320065999999997,29.516006999999998,0 112.315743999999995,29.524298000000002,0 112.297691,29.516815000000001,0 112.290744000000004,29.516922999999998,0 112.283412999999996,29.495225000000001,0 112.291728000000006,29.478262000000001,0 112.293533999999994,29.456340000000001,0 112.300317000000007,29.448205999999999,0 112.294464000000005,29.428540999999999,0 112.294300000000007,29.406123999999998,0 112.284178999999995,29.403483000000001,0 112.281170000000003,29.395129000000001,0 112.261696000000001,29.375615,0 112.252615000000006,29.351946000000002,0 112.249386999999999,29.328541000000001,0 112.251192000000003,29.318940000000001,0 112.263665000000003,29.298711000000001,0 112.258249000000006,29.292290000000001,0 112.245283999999998,29.292992000000002,0 112.234234000000001,29.298656999999999,0 112.22663,29.294070999999999,0 112.213446000000005,29.296120999999999,0 112.222199000000003,29.287327000000001,0 112.223456999999996,29.266659000000001,0 112.228763000000001,29.251763,0 112.226519999999994,29.228442999999999,0 112.228489999999994,29.216079000000001,0 112.236422000000005,29.213163000000002,0 112.223894999999999,29.199069999999999,0 112.201629999999994,29.179248000000001,0 112.195775999999995,29.160018000000001,0 112.201027999999994,29.146025000000002,0 112.189977999999996,29.145268000000002,0 112.187735000000004,29.134516000000001,0 112.208194000000006,29.126356000000001,0 112.211202999999998,29.117276,0 112.222854999999996,29.118627,0 112.235710999999995,29.114412000000002,0 112.245283999999998,29.100683,0 112.241455000000002,29.067920000000001,0 112.254036999999997,29.04975,0 112.247636,28.997062,0 112.246870999999999,28.980827999999999,0 112.257318999999995,28.96773,0 112.259562000000003,28.922743000000001,0 112.261750000000006,28.908121999999999,0 112.258632000000006,28.900811000000001,0 112.256990999999999,28.861483,0 112.276465999999999,28.840730000000001,0 112.304693,28.823008999999999,0 112.306388999999996,28.800242000000001,0 112.299605999999997,28.784845000000001,0 112.283412999999996,28.776873999999999,0 112.283193999999995,28.728441,0 112.264922999999996,28.719163999999999,0 112.231005999999994,28.711839000000001,0 112.232045999999997,28.707063999999999,0 112.215305999999998,28.692575999999999,0 112.207975000000005,28.691002000000001,0 112.199714999999998,28.674068999999999,0 112.182756999999995,28.668369999999999,0 112.169026000000002,28.678303,0 112.161475999999993,28.675697,0 112.158795999999995,28.667446999999999,0 112.142931000000004,28.662236,0 112.149440999999996,28.656427000000001,0 112.139758999999998,28.649315999999999,0 112.107372999999995,28.652301000000001,0 112.094353999999996,28.641985999999999,0 112.086530999999994,28.652681000000001,0 112.078270000000003,28.655124000000001,0 112.070447999999999,28.672332000000001,0 112.033411999999998,28.673418000000002,0 112.025863000000001,28.669291999999999,0 112.040743000000006,28.657730000000001,0 112.034616,28.640032000000001,0 112.014047000000005,28.640737000000001,0 111.998456000000004,28.646764000000001,0 111.992001000000002,28.657513000000002,0 111.979583000000005,28.656210000000002,0 111.984122999999997,28.663864,0 111.951519000000005,28.674395000000001,0 111.923237,28.676946000000001,0 111.910217000000003,28.671464,0 111.910162999999997,28.664135999999999,0 111.918204000000003,28.655396,0 111.910600000000002,28.643452,0 111.901190999999997,28.635959,0 111.888062000000005,28.6371,0 111.873073000000005,28.630963999999999,0 111.854747000000003,28.636990999999998,0 111.850150999999997,28.633353,0 111.844025000000002,28.616682000000001,0 111.828487999999993,28.615759000000001,0 111.816180000000003,28.626403,0 111.810599999999994,28.640955000000002,0 111.791343999999995,28.643125999999999,0 111.787842999999995,28.648717999999999,0 111.776190999999997,28.634112999999999,0 111.768258000000003,28.639054000000002,0 111.759067999999999,28.653441999999998,0 111.751572999999993,28.657622,0 111.742109999999997,28.651596000000001,0 111.730676000000003,28.652193,0 111.722525000000005,28.645026999999999,0 111.728268999999997,28.642529,0 111.719078999999994,28.636448000000001,0 111.723400999999996,28.609839000000001,0 111.708904000000004,28.594251,0 111.702776999999998,28.598976,0 111.688389000000001,28.589199000000001,0 111.673509999999993,28.591425999999998,0 111.663663,28.607883999999999,0 111.662841999999998,28.624665,0 111.644953999999998,28.623742,0 111.636092000000005,28.628466,0 111.624385000000004,28.618310999999999,0 111.605401999999998,28.624936000000002,0 111.574494000000001,28.639326000000001,0 111.567217999999997,28.638783,0 111.539209999999997,28.609731,0 111.518641000000002,28.595500000000001,0 111.509341000000006,28.585667999999998,0 111.494186999999997,28.581268000000001,0 111.491451999999995,28.571652,0 111.467820000000003,28.556927000000002,0 111.443366999999995,28.557307999999999,0 111.431386000000003,28.547418,0 111.412294000000003,28.547851999999999,0 111.396593999999993,28.540787999999999,0 111.383191999999994,28.55057,0 111.373891999999998,28.551818999999998,0 111.363388,28.539538,0 111.348179999999999,28.528721999999998,0 111.339208999999997,28.527851999999999,0 111.333793,28.520133999999999,0 111.324164999999994,28.518829,0 111.315685999999999,28.524428,0 111.309175999999994,28.520949000000002,0 111.281058000000002,28.517904999999999,0 111.252611000000002,28.531548000000001,0 111.228650999999999,28.522470999999999,0 111.215192999999999,28.536221999999999,0 111.198234999999997,28.526547999999998,0 111.192216999999999,28.518829,0 111.175203999999994,28.513883,0 111.168638999999999,28.517471,0 111.152173000000005,28.514317999999999,0 111.154360999999994,28.496541000000001,0 111.147852,28.487841,0 111.144952000000004,28.473703,0 111.126352999999995,28.470548999999998,0 111.116669999999999,28.464403000000001,0 111.109339000000006,28.468156,0 111.096867000000003,28.463642,0 111.093530000000001,28.456952000000001,0 111.061691999999994,28.451675999999999,0 111.050203999999994,28.458909999999999,0 111.034830999999997,28.454885999999998,0 111.020116000000002,28.445639,0 111.007752999999994,28.445530000000002,0 111.001407,28.440145000000001,0 110.978703999999993,28.439492000000001,0 110.967380000000006,28.430353,0 110.944623000000007,28.426490000000001,0 110.889481000000004,28.404889000000001,0 110.882260000000002,28.408099,0 110.860433,28.406032,0 110.853922999999995,28.398468000000001,0 110.83587,28.393896000000002,0 110.832751999999999,28.380507999999999,0 110.825913999999997,28.371690000000001,0 110.793965999999998,28.354379000000002,0 110.753265999999996,28.338698000000001,0 110.741067000000001,28.325465999999999,0 110.733188999999996,28.311361000000002,0 110.721100000000007,28.300794,0 110.739535000000004,28.281618999999999,0 110.749709999999993,28.280911,0 110.774601000000004,28.273119999999999,0 110.783354000000003,28.278241000000001,0 110.793036000000001,28.275898000000002,0 110.802718999999996,28.264347999999998,0 110.806274999999999,28.253012999999999,0 110.787839000000005,28.231268,0 110.799819999999997,28.223201,0 110.804579000000004,28.213225000000001,0 110.824601000000001,28.203793999999998,0 110.826789000000005,28.209081999999999,0 110.840081999999995,28.214642999999999,0 110.848068999999995,28.213007000000001,0 110.848889999999997,28.204720999999999,0 110.858518000000004,28.205157,0 110.860487000000006,28.198613999999999,0 110.853266000000005,28.188417999999999,0 110.849163000000004,28.172277000000001,0 110.818638000000007,28.139659999999999,0 110.833026000000004,28.118874000000002,0 110.844348999999994,28.116364000000001,0 110.823452000000003,28.087440999999998,0 110.833190000000002,28.087496000000002,0 110.858846,28.076360999999999,0 110.876351999999997,28.081818999999999,0 110.896154999999993,28.058783999999999,0 110.884065000000007,28.050977,0 110.86645,28.025476999999999,0 110.866176999999993,28.013735,0 110.878157000000002,28.013079999999999,0 110.889589999999998,28.000954,0 110.907697999999996,27.998222999999999,0 110.922030000000007,28.000626,0 110.925749999999994,28.021325999999998,0 110.938058999999996,28.018485999999999,0 110.942982000000001,28.038364000000001,0 110.955727999999993,28.050757999999998,0 110.953485000000001,28.057091,0 110.962676000000002,28.058129000000001,0 110.970935999999995,28.065826000000001,0 110.971318999999994,28.054798000000002,0 110.992161999999993,28.054034000000001,0 111.010487999999995,28.044533999999999,0 111.022030999999998,28.041530999999999,0 111.013222999999996,28.028917,0 111.022030999999998,28.027497,0 111.035049999999998,28.033722999999998,0 111.041560000000004,28.022309,0 111.063222999999994,28.007235999999999,0 111.070607999999993,27.995273000000001,0 111.081986999999998,27.995601000000001,0 111.097905999999995,28.006799000000001,0 111.093802999999994,28.027170000000002,0 111.118475000000004,28.050158,0 111.114208000000005,28.064133999999999,0 111.123289,28.068774000000001,0 111.137895,28.085968000000001,0 111.140958999999995,28.103431,0 111.151571000000004,28.122966000000002,0 111.160926000000003,28.122857,0 111.189537000000001,28.154987999999999,0 111.186527999999996,28.160606000000001,0 111.216014000000001,28.159296999999999,0 111.225149000000002,28.161479,0 111.235652999999999,28.154115000000001,0 111.257752999999994,28.167532000000001,0 111.279033999999996,28.191036,0 111.285214999999994,28.214805999999999,0 111.296047000000002,28.225435999999998,0 111.314373000000003,28.234210999999998,0 111.325969999999998,28.226526,0 111.337732000000003,28.205919999999999,0 111.332097000000005,28.195943,0 111.341835000000003,28.193162000000001,0 111.352063999999999,28.199051000000001,0 111.382918000000004,28.196324000000001,0 111.386910999999998,28.178930000000001,0 111.398015999999998,28.180021,0 111.434832999999998,28.208100999999999,0 111.448453999999998,28.202867000000001,0 111.445335999999998,28.189509000000001,0 111.450095000000005,28.187381999999999,0 111.477447999999995,28.199323,0 111.483136999999999,28.204176,0 111.495718999999994,28.189945000000002,0 111.485763000000006,28.159514999999999,0 111.490960000000001,28.153023999999998,0 111.481386999999998,28.138351,0 111.482645000000005,28.120401999999999,0 111.499876999999998,28.101412,0 111.500423999999995,28.092625999999999,0 111.510981999999998,28.090278999999999,0 111.493312000000003,28.074887,0 111.491889999999998,28.066863000000001,0 111.494788999999997,28.037873000000001,0 111.501956000000007,28.041640000000001,0 111.517875000000004,28.030992000000001,0 111.524439000000001,28.031210999999999,0 111.522031999999996,28.044478999999999,0 111.506878999999998,28.053324,0 111.514702,28.065280000000001,0 111.527885999999995,28.049392999999998,0 111.534013000000002,28.054143,0 111.543914000000001,28.047536999999998,0 111.540687000000005,28.035578999999998,0 111.543858999999998,28.020398,0 111.567547000000005,28.032903000000001,0 111.575806999999998,28.018868999999999,0 111.564263999999994,28.018104000000001,0 111.551409000000007,27.991886000000001,0 111.542053999999993,27.994126000000001,0 111.529527000000002,27.986587,0 111.550259999999994,27.974841000000001,0 111.583793999999997,27.994454000000001,0 111.592765999999997,28.006471000000001,0 111.599767999999997,28.009692999999999,0 111.588990999999993,28.018595999999999,0 111.589810999999997,28.027114999999998,0 111.601681999999997,28.034541999999998,0 111.621703999999994,28.016082999999998,0 111.634286000000003,28.015319000000002,0 111.651517999999996,28.026240999999999,0 111.662788000000006,28.024712000000001,0 111.651572999999999,28.021163000000001,0 111.652283999999995,28.015756,0 111.662952000000004,28.014227000000002,0 111.672853000000003,28.036453000000002,0 111.685490000000001,28.040493000000001,0 111.683465999999996,28.014500000000002,0 111.691288999999998,28.009912,0 111.684888000000001,28.002974999999999,0 111.688498999999993,27.990629999999999,0 111.697688999999997,27.994181000000001,0 111.706113999999999,27.990629999999999,0 111.715140000000005,27.993361,0 111.726792000000003,27.983474000000001,0 111.743368000000004,27.994235,0 111.747962999999999,28.003903999999999,0 111.765632999999994,28.006143000000002,0 111.773893000000001,28.010676,0 111.779418000000007,28.007072000000001,0 111.778870999999995,27.996638999999998,0 111.793093999999996,27.989701,0 111.796103000000002,28.00516,0 111.823401000000004,28.022582,0 111.838335000000001,28.019960999999999,0 111.848346000000006,28.028644,0 111.858193,28.030937999999999,0 111.870172999999994,28.026678,0 111.891836999999995,28.026951,0 111.902613000000002,28.021982000000001,0 111.913117,28.027989000000002,0 111.907537000000005,28.041803999999999,0 111.911038000000005,28.052287,0 111.926246000000006,28.065498000000002,0 111.914101000000002,28.079363000000001,0 111.91525,28.082802000000001,0 111.899167000000006,28.099830000000001,0 111.908850000000001,28.116036000000001,0 111.931880000000007,28.133331999999999,0 111.933248000000006,28.168132,0 111.941782000000003,28.172277000000001,0 111.944736000000006,28.186727999999999,0 111.961146999999997,28.198124,0 111.962131999999997,28.208863999999998,0 111.986585000000005,28.224181999999999,0 112.003489000000002,28.224509000000001,0 112.003980999999996,28.235029000000001,0 112.009670999999997,28.244021,0 112.033139000000006,28.252468,0 112.051683999999995,28.251270000000002,0 112.080676999999994,28.260805999999999,0 112.082263999999995,28.267889,0 112.093423999999999,28.265001000000002,0 112.099057999999999,28.270068999999999,0 112.116290000000006,28.271702999999999,0 112.123127999999994,28.266145999999999,0 112.137297000000004,28.266635999999998,0 112.146214000000001,28.254539000000001,0 112.169517999999997,28.245602000000002,0 112.177997000000005,28.235737,0 112.195503000000002,28.233229999999999,0 112.210109000000003,28.239225000000001,0 112.223292999999998,28.233938999999999,0 112.227286000000007,28.221239000000001,0 112.237954000000002,28.210445,0 112.251684999999995,28.224399999999999,0 112.255733000000006,28.233447999999999,0 112.264431000000002,28.235683000000002,0 112.280677999999995,28.252631999999998,0 112.288281999999995,28.254048999999998,0 112.294134999999997,28.247073,0 112.306443999999999,28.261351000000001,0 112.322473000000002,28.263258,0 112.316674000000006,28.282980999999999,0 112.332920999999999,28.284396999999998,0 112.346761000000001,28.274809000000001,0 112.356937000000002,28.277369,0 112.358632,28.283470999999999,0 112.349168000000006,28.281836999999999,0 112.345284000000007,28.289518000000001,0 112.352778999999998,28.291260999999999,0 112.370339000000001,28.284396999999998,0 112.377998000000005,28.290063,0 112.393753000000004,28.290281,0 112.404803000000001,28.298670000000001,0 112.408467999999999,28.294366,0 112.422691999999998,28.305586999999999,0 112.420066000000006,28.312559,0 112.429310999999998,28.311143000000001,0 112.432975999999996,28.317896000000001,0 112.438337000000004,28.310652000000001,0 112.451248000000007,28.317841999999999,0 112.466018000000005,28.312885999999999,0 112.472965000000002,28.317733,0 112.486914999999996,28.309235999999999,0 112.500973999999999,28.311904999999999,0 112.505296000000001,28.320727999999999,0 112.525974000000005,28.325956000000001,0 112.534563000000006,28.332000000000001,0 112.535765999999995,28.325465999999999,0 112.553927999999999,28.318930999999999,0 112.560492999999994,28.325410999999999,0 112.571378999999993,28.324975999999999,0 112.564431999999996,28.333144000000001,0 112.562461999999996,28.344742,0 112.575209000000001,28.354596000000001,0 112.575427000000005,28.369077000000001,0 112.580350999999993,28.372886999999999,0 112.578435999999996,28.382358,0 112.584235000000007,28.402439999999999,0 112.594354999999993,28.407609999999998,0 112.594792999999996,28.414629000000001,0 112.612133999999998,28.424531000000002,0 112.624279000000001,28.446073999999999,0 112.627287999999993,28.468264999999999,0 112.639814999999999,28.469352000000001,0 112.654420999999999,28.484524,0 112.651741000000001,28.495671000000002,0 112.663229000000001,28.501052999999999,0 112.672583000000003,28.517524999999999,0 112.685383999999999,28.525407000000001,0</coordinates></LinearRing></outerBoundaryIs></Polygon></MultiGeometry></Placemark>
</Document>
</kml>