<?xml version="1.0" encoding="UTF-8"?>
<kml xmlns="http://www.opengis.net/kml/2.2">
  <Document>
    <name>衡阳市</name>
    <Placemark>
      <name>衡阳市</name>
      <Polygon><outerBoundaryIs><LinearRing><coordinates>112.995396000000,27.438309000000,0 112.978109000000,27.439188000000,0 112.955954000000,27.430293000000,0 112.939597000000,27.426284000000,0 112.925100000000,27.418871000000,0 112.921818000000,27.409865000000,0 112.924936000000,27.367074000000,0 112.920177000000,27.356635000000,0 112.901906000000,27.360536000000,0 112.869958000000,27.356141000000,0 112.863886000000,27.351196000000,0 112.852999000000,27.355097000000,0 112.834947000000,27.354382000000,0 112.831118000000,27.338337000000,0 112.815691000000,27.343777000000,0 112.807868000000,27.338392000000,0 112.799826000000,27.344327000000,0 112.806282000000,27.348723000000,0 112.803820000000,27.362020000000,0 112.791566000000,27.362130000000,0 112.774170000000,27.376359000000,0 112.771818000000,27.392784000000,0 112.760330000000,27.403988000000,0 112.748404000000,27.398990000000,0 112.735822000000,27.401517000000,0 112.727507000000,27.394871000000,0 112.715308000000,27.404263000000,0 112.704093000000,27.407668000000,0 112.685658000000,27.405691000000,0 112.677397000000,27.419255000000,0 112.678491000000,27.428920000000,0 112.687244000000,27.437101000000,0 112.690690000000,27.454121000000,0 112.673075000000,27.456811000000,0 112.659727000000,27.452309000000,0 112.646270000000,27.464715000000,0 112.639596000000,27.459830000000,0 112.630460000000,27.466252000000,0 112.615143000000,27.465978000000,0 112.608305000000,27.455987000000,0 112.592605000000,27.454999000000,0 112.587244000000,27.437046000000,0 112.576576000000,27.434466000000,0 112.566893000000,27.441768000000,0 112.553327000000,27.432379000000,0 112.554530000000,27.424911000000,0 112.538885000000,27.416674000000,0 112.531007000000,27.430293000000,0 112.521981000000,27.429194000000,0 112.522418000000,27.420464000000,0 112.508359000000,27.417004000000,0 112.512790000000,27.403164000000,0 112.504530000000,27.403988000000,0 112.499005000000,27.397727000000,0 112.499880000000,27.374931000000,0 112.489596000000,27.371909000000,0 112.485712000000,27.359877000000,0 112.471871000000,27.372404000000,0 112.459891000000,27.355152000000,0 112.438118000000,27.344602000000,0 112.432374000000,27.354218000000,0 112.408523000000,27.361470000000,0 112.368151000000,27.356086000000,0 112.370503000000,27.363888000000,0 112.358742000000,27.362459000000,0 112.339267000000,27.365921000000,0 112.331061000000,27.370206000000,0 112.321543000000,27.363998000000,0 112.312133000000,27.367074000000,0 112.309125000000,27.360426000000,0 112.299715000000,27.358723000000,0 112.282593000000,27.337073000000,0 112.287844000000,27.328939000000,0 112.279857000000,27.312230000000,0 112.267275000000,27.305084000000,0 112.256116000000,27.310691000000,0 112.254912000000,27.295684000000,0 112.239048000000,27.287822000000,0 112.233085000000,27.265388000000,0 112.223785000000,27.261209000000,0 112.213938000000,27.268908000000,0 112.206225000000,27.285128000000,0 112.205350000000,27.296564000000,0 112.197691000000,27.295794000000,0 112.190634000000,27.311791000000,0 112.182374000000,27.309812000000,0 112.174824000000,27.319651000000,0 112.163883000000,27.324542000000,0 112.153654000000,27.305689000000,0 112.162844000000,27.284193000000,0 112.163063000000,27.277321000000,0 112.150535000000,27.265828000000,0 112.150700000000,27.254609000000,0 112.160054000000,27.247515000000,0 112.154091000000,27.239375000000,0 112.137899000000,27.237009000000,0 112.127942000000,27.227658000000,0 112.129529000000,27.220892000000,0 112.112625000000,27.222322000000,0 112.114211000000,27.210714000000,0 112.107209000000,27.214125000000,0 112.092165000000,27.205652000000,0 112.088610000000,27.195143000000,0 112.091235000000,27.185623000000,0 112.076739000000,27.185183000000,0 112.070666000000,27.191071000000,0 112.058139000000,27.175442000000,0 112.049003000000,27.150784000000,0 112.052450000000,27.142856000000,0 112.046596000000,27.132672000000,0 112.056006000000,27.116649000000,0 112.051684000000,27.102882000000,0 112.056224000000,27.085754000000,0 112.046925000000,27.077271000000,0 112.050590000000,27.071102000000,0 112.071815000000,27.064987000000,0 112.078052000000,27.041792000000,0 112.086859000000,27.033912000000,0 112.086804000000,27.013246000000,0 112.081006000000,27.008561000000,0 112.060108000000,27.013026000000,0 112.050152000000,27.006467000000,0 112.043205000000,26.995663000000,0 112.047143000000,26.975265000000,0 112.019846000000,26.964900000000,0 112.016290000000,26.955416000000,0 112.007045000000,26.952658000000,0 112.000644000000,26.943669000000,0 111.979474000000,26.942291000000,0 111.986366000000,26.950011000000,0 111.983795000000,26.958228000000,0 111.972526000000,26.958118000000,0 111.961804000000,26.951169000000,0 111.953598000000,26.955195000000,0 111.935600000000,26.952217000000,0 111.929802000000,26.938540000000,0 111.917821000000,26.935176000000,0 111.907427000000,26.924752000000,0 111.898510000000,26.926627000000,0 111.898237000000,26.968870000000,0 111.894353000000,26.978243000000,0 111.898401000000,26.986677000000,0 111.881278000000,26.999632000000,0 111.868696000000,27.013411000000,0 111.863171000000,27.009774000000,0 111.841946000000,27.008726000000,0 111.817438000000,27.020962000000,0 111.823237000000,27.036778000000,0 111.816070000000,27.045428000000,0 111.809178000000,27.046035000000,0 111.807865000000,27.033141000000,0 111.786913000000,27.039698000000,0 111.776683000000,27.046586000000,0 111.772525000000,27.058045000000,0 111.753543000000,27.057329000000,0 111.758029000000,27.062728000000,0 111.737897000000,27.061571000000,0 111.724768000000,27.069063000000,0 111.712842000000,27.052316000000,0 111.699276000000,27.046586000000,0 111.688280000000,27.031377000000,0 111.665796000000,27.031763000000,0 111.659615000000,27.012144000000,0 111.651518000000,27.008726000000,0 111.649768000000,27.001120000000,0 111.657700000000,26.986016000000,0 111.649713000000,26.962915000000,0 111.635271000000,26.963742000000,0 111.622033000000,26.954202000000,0 111.613663000000,26.959717000000,0 111.604472000000,26.958393000000,0 111.587569000000,26.966940000000,0 111.581442000000,26.962143000000,0 111.576463000000,26.945048000000,0 111.567109000000,26.934845000000,0 111.583137000000,26.925028000000,0 111.583028000000,26.909031000000,0 111.589100000000,26.896728000000,0 111.578597000000,26.883100000000,0 111.569078000000,26.884314000000,0 111.564483000000,26.869580000000,0 111.551026000000,26.860033000000,0 111.550752000000,26.846952000000,0 111.543586000000,26.840935000000,0 111.549111000000,26.832324000000,0 111.545938000000,26.821724000000,0 111.549986000000,26.812338000000,0 111.558083000000,26.808639000000,0 111.575369000000,26.809357000000,0 111.577229000000,26.799860000000,0 111.588006000000,26.797596000000,0 111.601245000000,26.785888000000,0 111.618477000000,26.791300000000,0 111.629637000000,26.789312000000,0 111.638006000000,26.802344000000,0 111.644516000000,26.803228000000,0 111.642437000000,26.817252000000,0 111.650862000000,26.840438000000,0 111.665960000000,26.843309000000,0 111.684615000000,26.833538000000,0 111.701464000000,26.836188000000,0 111.700589000000,26.843198000000,0 111.712678000000,26.849160000000,0 111.719243000000,26.847283000000,0 111.731278000000,26.832600000000,0 111.739046000000,26.832876000000,0 111.746759000000,26.841487000000,0 111.752285000000,26.831551000000,0 111.745009000000,26.825534000000,0 111.744735000000,26.812173000000,0 111.753707000000,26.807038000000,0 111.772142000000,26.808750000000,0 111.771705000000,26.799860000000,0 111.781278000000,26.789147000000,0 111.797307000000,26.792570000000,0 111.802504000000,26.801516000000,0 111.820556000000,26.804498000000,0 111.824057000000,26.798479000000,0 111.817055000000,26.784011000000,0 111.827504000000,26.780918000000,0 111.831825000000,26.786164000000,0 111.850206000000,26.789809000000,0 111.859178000000,26.799584000000,0 111.871486000000,26.796491000000,0 111.874769000000,26.785888000000,0 111.903325000000,26.751754000000,0 111.917985000000,26.748936000000,0 111.916399000000,26.733688000000,0 111.927066000000,26.711032000000,0 111.940360000000,26.699427000000,0 111.949003000000,26.681519000000,0 111.951902000000,26.664216000000,0 111.959342000000,26.656420000000,0 111.960983000000,26.645307000000,0 111.973565000000,26.630929000000,0 111.990196000000,26.624182000000,0 111.997526000000,26.605101000000,0 112.006005000000,26.596914000000,0 112.014922000000,26.605322000000,0 112.019736000000,26.619205000000,0 112.013992000000,26.627556000000,0 112.005513000000,26.624791000000,0 111.995666000000,26.639390000000,0 112.006498000000,26.648458000000,0 112.028489000000,26.651831000000,0 112.045830000000,26.643205000000,0 112.056170000000,26.647961000000,0 112.076903000000,26.643980000000,0 112.093478000000,26.634026000000,0 112.094189000000,26.645141000000,0 112.109780000000,26.654043000000,0 112.117822000000,26.650504000000,0 112.115743000000,26.643371000000,0 112.126356000000,26.635740000000,0 112.151082000000,26.625731000000,0 112.150317000000,26.617048000000,0 112.141454000000,26.603386000000,0 112.143916000000,26.593429000000,0 112.158577000000,26.591825000000,0 112.170557000000,26.585352000000,0 112.168205000000,26.574674000000,0 112.174715000000,26.571188000000,0 112.169518000000,26.557078000000,0 112.156389000000,26.555529000000,0 112.149113000000,26.547173000000,0 112.162735000000,26.539314000000,0 112.147363000000,26.527469000000,0 112.144737000000,26.504441000000,0 112.152450000000,26.502725000000,0 112.174223000000,26.524148000000,0 112.190470000000,26.536879000000,0 112.213118000000,26.548556000000,0 112.227833000000,26.546453000000,0 112.242713000000,26.535052000000,0 112.243205000000,26.514073000000,0 112.236695000000,26.505382000000,0 112.211258000000,26.502725000000,0 112.195339000000,26.486613000000,0 112.175700000000,26.500178000000,0 112.159999000000,26.493866000000,0 112.159562000000,26.486336000000,0 112.166509000000,26.477033000000,0 112.152177000000,26.469668000000,0 112.157975000000,26.465016000000,0 112.161914000000,26.450727000000,0 112.155295000000,26.444523000000,0 112.143205000000,26.441477000000,0 112.145612000000,26.431727000000,0 112.152724000000,26.430065000000,0 112.150098000000,26.416326000000,0 112.153271000000,26.403139000000,0 112.140634000000,26.407959000000,0 112.141728000000,26.387068000000,0 112.150152000000,26.384630000000,0 112.148183000000,26.357360000000,0 112.153161000000,26.349544000000,0 112.158741000000,26.353036000000,0 112.181498000000,26.343390000000,0 112.177724000000,26.325925000000,0 112.177942000000,26.305741000000,0 112.190415000000,26.312229000000,0 112.199004000000,26.307460000000,0 112.208960000000,26.313560000000,0 112.212461000000,26.305630000000,0 112.205021000000,26.285275000000,0 112.197308000000,26.277287000000,0 112.200809000000,26.262365000000,0 112.196050000000,26.229794000000,0 112.190306000000,26.223690000000,0 112.194901000000,26.206873000000,0 112.192877000000,26.193940000000,0 112.185929000000,26.185668000000,0 112.195448000000,26.172011000000,0 112.206115000000,26.165514000000,0 112.217221000000,26.165459000000,0 112.212571000000,26.151188000000,0 112.222636000000,26.150799000000,0 112.224332000000,26.138915000000,0 112.231389000000,26.134417000000,0 112.232428000000,26.117865000000,0 112.257702000000,26.123308000000,0 112.258523000000,26.130751000000,0 112.266947000000,26.131140000000,0 112.284453000000,26.143636000000,0 112.290689000000,26.144024000000,0 112.292385000000,26.134417000000,0 112.304256000000,26.132917000000,0 112.311860000000,26.148967000000,0 112.310437000000,26.158574000000,0 112.327068000000,26.161128000000,0 112.337790000000,26.167569000000,0 112.357046000000,26.161294000000,0 112.364322000000,26.181282000000,0 112.375044000000,26.190553000000,0 112.377287000000,26.201544000000,0 112.386641000000,26.205208000000,0 112.395066000000,26.186168000000,0 112.405788000000,26.184835000000,0 112.429256000000,26.189721000000,0 112.444574000000,26.175953000000,0 112.450919000000,26.180394000000,0 112.479530000000,26.175786000000,0 112.485055000000,26.167957000000,0 112.482046000000,26.160739000000,0 112.488720000000,26.150911000000,0 112.507812000000,26.159573000000,0 112.508250000000,26.143858000000,0 112.512900000000,26.135583000000,0 112.524443000000,26.137471000000,0 112.529092000000,26.147579000000,0 112.554804000000,26.147245000000,0 112.566565000000,26.158518000000,0 112.578381000000,26.153632000000,0 112.582047000000,26.159240000000,0 112.576248000000,26.168346000000,0 112.577451000000,26.182004000000,0 112.572309000000,26.193384000000,0 112.580570000000,26.208982000000,0 112.581062000000,26.219083000000,0 112.597802000000,26.220526000000,0 112.602834000000,26.217085000000,0 112.608961000000,26.198436000000,0 112.623403000000,26.192108000000,0 112.633688000000,26.163293000000,0 112.630132000000,26.154409000000,0 112.637299000000,26.138915000000,0 112.654257000000,26.129251000000,0 112.670668000000,26.127696000000,0 112.658196000000,26.114976000000,0 112.646161000000,26.112421000000,0 112.642277000000,26.105977000000,0 112.654913000000,26.101033000000,0 112.665307000000,26.109810000000,0 112.673787000000,26.111032000000,0 112.676139000000,26.125974000000,0 112.686423000000,26.123808000000,0 112.688557000000,26.114198000000,0 112.707704000000,26.122419000000,0 112.710275000000,26.131751000000,0 112.720395000000,26.125474000000,0 112.735056000000,26.134583000000,0 112.739979000000,26.144469000000,0 112.746216000000,26.143802000000,0 112.752507000000,26.129862000000,0 112.760384000000,26.133084000000,0 112.758743000000,26.149855000000,0 112.768371000000,26.145524000000,0 112.782157000000,26.146024000000,0 112.783634000000,26.164237000000,0 112.791402000000,26.166292000000,0 112.788120000000,26.175342000000,0 112.777179000000,26.177341000000,0 112.775975000000,26.183892000000,0 112.786041000000,26.196993000000,0 112.791730000000,26.193218000000,0 112.789870000000,26.179839000000,0 112.795614000000,26.180116000000,0 112.802616000000,26.190220000000,0 112.809728000000,26.192163000000,0 112.818535000000,26.186667000000,0 112.818754000000,26.161794000000,0 112.838557000000,26.155742000000,0 112.846435000000,26.158296000000,0 112.857923000000,26.154187000000,0 112.870067000000,26.155797000000,0 112.875866000000,26.149800000000,0 112.891074000000,26.156519000000,0 112.903601000000,26.148467000000,0 112.920997000000,26.157963000000,0 112.921052000000,26.174398000000,0 112.930133000000,26.176785000000,0 112.942606000000,26.170789000000,0 112.949882000000,26.160184000000,0 112.968645000000,26.154242000000,0 112.984564000000,26.156575000000,0 112.992989000000,26.162349000000,0 113.008635000000,26.155631000000,0 113.035659000000,26.172843000000,0 113.034948000000,26.206651000000,0 113.039926000000,26.213589000000,0 113.025867000000,26.245276000000,0 113.032103000000,26.251990000000,0 113.045287000000,26.254542000000,0 113.052070000000,26.248494000000,0 113.068153000000,26.252933000000,0 113.073514000000,26.248550000000,0 113.091676000000,26.250103000000,0 113.087136000000,26.273626000000,0 113.103547000000,26.290544000000,0 113.117059000000,26.287327000000,0 113.119193000000,26.293040000000,0 113.128821000000,26.293040000000,0 113.130626000000,26.306572000000,0 113.127344000000,26.313560000000,0 113.142059000000,26.325870000000,0 113.162683000000,26.324317000000,0 113.173788000000,26.329696000000,0 113.164762000000,26.344499000000,0 113.168865000000,26.349100000000,0 113.156556000000,26.362460000000,0 113.167114000000,26.374266000000,0 113.160440000000,26.387733000000,0 113.163558000000,26.409566000000,0 113.171874000000,26.412115000000,0 113.179095000000,26.404967000000,0 113.191239000000,26.406186000000,0 113.212191000000,26.425246000000,0 113.211699000000,26.433112000000,0 113.192278000000,26.445520000000,0 113.194904000000,26.451669000000,0 113.210112000000,26.465182000000,0 113.217388000000,26.462746000000,0 113.226852000000,26.467065000000,0 113.230079000000,26.482072000000,0 113.214324000000,26.502448000000,0 113.189653000000,26.506157000000,0 113.179423000000,26.519388000000,0 113.171655000000,26.521214000000,0 113.160003000000,26.534222000000,0 113.159182000000,26.541638000000,0 113.179149000000,26.564438000000,0 113.179259000000,26.578492000000,0 113.186699000000,26.608088000000,0 113.179587000000,26.638339000000,0 113.188176000000,26.662447000000,0 113.182979000000,26.687765000000,0 113.160878000000,26.687875000000,0 113.152289000000,26.700532000000,0 113.134784000000,26.712580000000,0 113.139160000000,26.717940000000,0 113.122311000000,26.723190000000,0 113.121381000000,26.730980000000,0 113.131392000000,26.738053000000,0 113.129040000000,26.744130000000,0 113.115364000000,26.744130000000,0 113.113066000000,26.753024000000,0 113.101961000000,26.753245000000,0 113.095560000000,26.759929000000,0 113.097256000000,26.781636000000,0 113.149062000000,26.792129000000,0 113.142935000000,26.812504000000,0 113.144138000000,26.834477000000,0 113.153165000000,26.837568000000,0 113.160495000000,26.827521000000,0 113.183854000000,26.825202000000,0 113.207103000000,26.829674000000,0 113.206338000000,26.825478000000,0 113.223679000000,26.820896000000,0 113.224609000000,26.814437000000,0 113.238066000000,26.805216000000,0 113.258526000000,26.815486000000,0 113.259784000000,26.827797000000,0 113.252399000000,26.839224000000,0 113.232869000000,26.860971000000,0 113.227125000000,26.876423000000,0 113.239106000000,26.877747000000,0 113.242880000000,26.889279000000,0 113.239708000000,26.894466000000,0 113.254751000000,26.900259000000,0 113.257104000000,26.917691000000,0 113.266458000000,26.918408000000,0 113.278329000000,26.928447000000,0 113.280955000000,26.939974000000,0 113.245014000000,26.938320000000,0 113.235331000000,26.951721000000,0 113.225594000000,26.956298000000,0 113.221546000000,26.974549000000,0 113.226852000000,26.994671000000,0 113.218920000000,27.002939000000,0 113.224937000000,27.012474000000,0 113.235714000000,27.014789000000,0 113.234620000000,27.021403000000,0 113.220014000000,27.024434000000,0 113.215856000000,27.040800000000,0 113.198022000000,27.040690000000,0 113.199171000000,27.056888000000,0 113.193865000000,27.076059000000,0 113.175101000000,27.088838000000,0 113.170779000000,27.099027000000,0 113.164543000000,27.101285000000,0 113.167990000000,27.126175000000,0 113.193482000000,27.135700000000,0 113.196053000000,27.141810000000,0 113.219467000000,27.131736000000,0 113.236042000000,27.145224000000,0 113.244795000000,27.139994000000,0 113.245944000000,27.151609000000,0 113.257815000000,27.160141000000,0 113.260058000000,27.173186000000,0 113.280298000000,27.166636000000,0 113.283964000000,27.178634000000,0 113.271929000000,27.205707000000,0 113.255408000000,27.223642000000,0 113.248406000000,27.239430000000,0 113.231830000000,27.237339000000,0 113.182979000000,27.240915000000,0 113.173734000000,27.233489000000,0 113.164324000000,27.236019000000,0 113.148296000000,27.251695000000,0 113.144138000000,27.249275000000,0 113.133252000000,27.229638000000,0 113.127508000000,27.207358000000,0 113.115473000000,27.205597000000,0 113.107814000000,27.225238000000,0 113.087847000000,27.235469000000,0 113.092606000000,27.238274000000,0 113.082431000000,27.253895000000,0 113.085878000000,27.266433000000,0 113.068427000000,27.280949000000,0 113.051031000000,27.287492000000,0 113.043810000000,27.309647000000,0 113.048843000000,27.320915000000,0 113.032541000000,27.329269000000,0 113.033306000000,27.345041000000,0 113.042223000000,27.350921000000,0 113.025265000000,27.367239000000,0 113.021545000000,27.378337000000,0 113.024171000000,27.385807000000,0 113.002015000000,27.392729000000,0 112.994247000000,27.407064000000,0 112.999225000000,27.435619000000,0 112.995396000000,27.438309000000,0</coordinates></LinearRing></outerBoundaryIs></Polygon>
    </Placemark>
  </Document>
</kml>
