<?xml version="1.0" encoding="UTF-8"?>
<kml xmlns="http://www.opengis.net/kml/2.2">
<Document>
<name>郴州市</name>
<Placemark><name>郴州市</name><MultiGeometry><Polygon><outerBoundaryIs><LinearRing><coordinates>112.364211999999995,25.191725000000002,0 112.373731000000006,25.177561000000001,0 112.393151000000003,25.160148,0 112.387406999999996,25.152196,0 112.399496999999997,25.14066,0 112.413336999999999,25.141331999999998,0 112.426137999999995,25.156283999999999,0 112.430076999999997,25.17409,0 112.442987000000002,25.185623,0 112.454858000000002,25.17353,0 112.452669999999998,25.159867999999999,0 112.458250000000007,25.152083999999999,0 112.477451000000002,25.151413000000002,0 112.491017999999997,25.144468,0 112.502615000000006,25.144635999999998,0 112.507703000000006,25.13674,0 112.537025,25.134219999999999,0 112.562680999999998,25.12453,0 112.596542999999997,25.126266000000001,0 112.612735999999998,25.133212,0 112.624825999999999,25.134108000000001,0 112.628218000000004,25.140604,0 112.648021,25.133603999999998,0 112.659782000000007,25.132764000000002,0 112.669848000000002,25.113047000000002,0 112.679749000000001,25.109909999999999,0 112.695231000000007,25.095513,0 112.697254999999998,25.089966,0 112.715636000000003,25.078368000000001,0 112.719192000000007,25.048219,0 112.715142999999998,25.026022999999999,0 112.724880999999996,25.010831,0 112.741838999999999,24.998608999999998,0 112.745504999999994,24.981674999999999,0 112.742168000000007,24.977468999999999,0 112.743151999999995,24.960308000000001,0 112.750536999999994,24.955372000000001,0 112.773459000000003,24.949987,0 112.784672999999998,24.936637000000001,0 112.782211000000004,24.922723999999999,0 112.786697000000004,24.912400999999999,0 112.780733999999995,24.897307000000001,0 112.788284000000004,24.892368999999999,0 112.803820000000002,24.890516999999999,0 112.843973000000005,24.897362999999999,0 112.873514,24.89669,0 112.877835000000005,24.905667999999999,0 112.904366999999993,24.921827,0 112.924553000000003,24.918852999999999,0 112.937353999999999,24.920480000000001,0 112.941784999999996,24.915935999999999,0 112.959236000000004,24.923454,0 112.966785000000002,24.919301999999998,0 112.983633999999995,24.920929000000001,0 112.994793999999999,24.927381,0 112.991675999999998,24.938488,0 113.011916999999997,24.946117000000001,0 113.002780999999999,24.957111000000001,0 113.008470000000003,24.961933999999999,0 113.010002,24.977357000000001,0 113.002289000000005,24.990870999999999,0 112.990527,24.995412999999999,0 112.992058999999998,25.017951,0 112.978437,25.026471999999998,0 112.979422,25.033926999999998,0 113.002289000000005,25.057970999999998,0 113.002015,25.07114,0 113.018427000000003,25.083131000000002,0 113.004531999999998,25.089182000000001,0 112.999607999999995,25.103076000000001,0 112.991129000000001,25.109462000000001,0 112.981938999999997,25.125257999999999,0 112.967989000000003,25.141611999999999,0 112.974334999999996,25.168267,0 112.991567000000003,25.176777000000001,0 113.008579999999995,25.190100999999999,0 113.030516000000006,25.194468000000001,0 113.034454999999994,25.201409000000002,0 113.029751000000005,25.210533000000002,0 113.017769999999999,25.211148999999999,0 112.999005999999994,25.244054999999999,0 112.979915000000005,25.245062000000001,0 112.972911999999994,25.251161,0 112.959564,25.254071,0 112.951851000000005,25.245733999999999,0 112.934072,25.250378000000001,0 112.933361000000005,25.24316,0 112.924006000000006,25.248643000000001,0 112.896927000000005,25.239298999999999,0 112.891729999999995,25.246181,0 112.868317000000005,25.248811,0 112.86591,25.259778000000001,0 112.873951000000005,25.274324,0 112.866456999999997,25.276561000000001,0 112.856391000000002,25.291609000000001,0 112.854913999999994,25.311855000000001,0 112.858797999999993,25.320243000000001,0 112.851795999999993,25.33344,0 112.857376000000002,25.336850999999999,0 112.868700000000004,25.327849000000001,0 112.877671000000007,25.33372,0 112.894848999999994,25.337578000000001,0 112.900593000000001,25.311351999999999,0 112.913174999999995,25.299886999999998,0 112.927835999999999,25.299886999999998,0 112.931828999999993,25.322816,0 112.945068000000006,25.326339000000001,0 112.951139999999995,25.337465999999999,0 112.964707000000004,25.342162999999999,0 112.968097999999998,25.349822,0 112.987955999999997,25.353791000000001,0 112.995396,25.348983,0 113.009236000000001,25.352896999999999,0 113.023678000000004,25.345963999999999,0 113.029751000000005,25.361227,0 113.041622000000004,25.366033999999999,0 113.064598000000004,25.381796999999999,0 113.080134000000001,25.383362000000002,0 113.080625999999995,25.390962999999999,0 113.088776999999993,25.396552,0 113.090418,25.406777999999999,0 113.096873000000002,25.410746,0 113.092388,25.417507000000001,0 113.114379,25.420580000000001,0 113.128382999999999,25.413204,0 113.130735999999999,25.427116999999999,0 113.118426999999997,25.447285000000001,0 113.127945999999994,25.449687000000001,0 113.122366,25.455719999999999,0 113.134619999999998,25.467673000000001,0 113.149991999999997,25.468008000000001,0 113.152016000000003,25.492246000000002,0 113.169357000000005,25.488057999999999,0 113.177070999999998,25.471582999999999,0 113.200811999999999,25.479402,0 113.210659000000007,25.496713,0 113.226195000000004,25.509667,0 113.243262999999999,25.515640999999999,0 113.249061999999995,25.514078000000001,0 113.260824,25.499448999999998,0 113.269412000000003,25.505255999999999,0 113.282595999999998,25.494199999999999,0 113.291786000000002,25.500900999999999,0 113.291731999999996,25.516366999999999,0 113.303329000000005,25.515864000000001,0 113.296818999999999,25.508382999999998,0 113.311370999999994,25.490459000000001,0 113.309183000000004,25.481020999999998,0 113.315966000000003,25.467506,0 113.313941999999997,25.442927999999998,0 113.329751999999999,25.450804000000002,0 113.340091000000001,25.449911,0 113.352782000000005,25.436838000000002,0 113.359729999999999,25.438403000000001,0 113.366951,25.431196,0 113.371874000000005,25.406834,0 113.376524000000003,25.400742999999999,0 113.389380000000003,25.403649000000001,0 113.393591999999998,25.397558,0 113.407049000000001,25.401413999999999,0 113.424116999999995,25.392695,0 113.427728000000002,25.373245000000001,0 113.442278999999999,25.361283,0 113.449828999999994,25.359549999999999,0 113.462411000000003,25.369834999999998,0 113.470179000000002,25.365642999999999,0 113.480025999999995,25.375201000000001,0 113.504149999999996,25.374977999999999,0 113.519193999999999,25.370059000000001,0 113.515090999999998,25.360668,0 113.524336000000005,25.353624,0 113.536097999999996,25.368493999999998,0 113.544303999999997,25.366593000000002,0 113.554533000000006,25.351835000000001,0 113.581447999999995,25.342721999999998,0 113.583308000000002,25.331875,0 113.579807000000002,25.316609,0 113.585988999999998,25.307324999999999,0 113.610770000000002,25.327010000000001,0 113.620507000000003,25.325668,0 113.628822999999997,25.330141000000001,0 113.658034999999998,25.329246000000001,0 113.663998000000007,25.337745999999999,0 113.680189999999996,25.334503000000002,0 113.687138000000004,25.352058,0 113.707926,25.352616999999999,0 113.706558000000001,25.360890999999999,0 113.725267000000002,25.358599000000002,0 113.734511999999995,25.348872,0 113.743976000000004,25.363966000000001,0 113.754097000000002,25.361170999999999,0 113.758418000000006,25.343783999999999,0 113.764161999999999,25.333608000000002,0 113.758089999999996,25.329972999999999,0 113.780191000000002,25.334054999999999,0 113.800486000000006,25.329470000000001,0 113.821274000000003,25.330756000000001,0 113.832817000000006,25.343896000000001,0 113.833417999999995,25.353959,0 113.839764000000002,25.363462999999999,0 113.860934999999998,25.369332,0 113.876908999999998,25.380344000000001,0 113.883253999999994,25.395322,0 113.881777,25.406946000000001,0 113.892061999999996,25.411863,0 113.884457999999995,25.420300999999998,0 113.886865,25.436615,0 113.913397000000003,25.442816000000001,0 113.943483999999998,25.438849999999999,0 113.939929000000006,25.459406999999999,0 113.951417000000006,25.470856999999999,0 113.958966000000004,25.483646,0 113.952072999999999,25.486941000000002,0 113.955629000000002,25.496656999999999,0 113.945836999999997,25.499561,0 113.953277,25.505033000000001,0 113.962850000000003,25.528258000000001,0 113.986098999999996,25.528984000000001,0 113.984075000000004,25.538585000000001,0 113.992390999999998,25.565152000000001,0 113.979479999999995,25.573243999999999,0 113.983091000000002,25.599357000000001,0 113.978441000000004,25.605606000000002,0 113.957105999999996,25.611910000000002,0 113.949556999999999,25.625185999999999,0 113.951252999999994,25.637568999999999,0 113.943265999999994,25.642700000000001,0 113.937576000000007,25.662663999999999,0 113.932925999999995,25.663444999999999,0 113.926635000000005,25.685468,0 113.913833999999994,25.703752999999999,0 113.918266000000003,25.717410000000001,0 113.914271999999997,25.728667999999999,0 113.918921999999995,25.739478999999999,0 113.937358000000003,25.756195999999999,0 113.946876000000003,25.761322,0 113.961701000000005,25.777311000000001,0 113.960661999999999,25.796862999999998,0 113.971328999999997,25.814741000000001,0 113.970071000000004,25.833953000000001,0 113.977292000000006,25.839855,0 113.991350999999995,25.860565000000001,0 114.010278999999997,25.871085999999998,0 114.013943999999995,25.885614,0 114.028277000000003,25.893350000000002,0 114.022532999999996,25.906817,0 114.021822,25.919225999999998,0 114.031450000000007,25.938921000000001,0 114.021111000000005,25.95561,0 114.021056000000002,25.975242999999999,0 114.028222,25.981361,0 114.027128000000005,25.991036999999999,0 114.017608999999993,25.992927999999999,0 114.009074999999996,26.004159999999999,0 114.008474000000007,26.015668999999999,0 114.028113000000005,26.031179000000002,0 114.036591999999999,26.046797999999999,0 114.035223999999999,26.059024999999998,0 114.045837000000006,26.070695000000001,0 114.043813,26.076696999999999,0 114.069851999999997,26.078531000000002,0 114.085606999999996,26.066361000000001,0 114.100049999999996,26.071807,0 114.106887999999998,26.069472999999999,0 114.120181000000002,26.084198000000001,0 114.118977000000001,26.089865,0 114.107489000000001,26.095144000000001,0 114.108748000000006,26.10031,0 114.156723999999997,26.115808999999999,0 114.171055999999993,26.123252999999998,0 114.187686999999997,26.120975000000001,0 114.214984000000001,26.137471000000001,0 114.225323000000003,26.147690000000001,0 114.237249000000006,26.152187999999999,0 114.235716999999994,26.160073000000001,0 114.225378000000006,26.159683999999999,0 114.218485000000001,26.168513000000001,0 114.232215999999994,26.179950000000002,0 114.222095999999993,26.188887999999999,0 114.216790000000003,26.203154000000001,0 114.192282000000006,26.196715000000001,0 114.183747999999994,26.201045000000001,0 114.181286,26.214476999999999,0 114.148846000000006,26.203264999999998,0 114.141953000000001,26.203375999999999,0 114.102784999999997,26.187833000000001,0 114.100378000000006,26.178394999999998,0 114.088561999999996,26.168402,0 114.074667000000005,26.171789,0 114.059129999999996,26.166181000000002,0 114.055356000000003,26.181338,0 114.040968000000007,26.177396000000002,0 114.036372999999998,26.188555000000001,0 114.027894000000003,26.180060999999998,0 114.013396999999998,26.184058,0 113.992116999999993,26.167791000000001,0 113.985443000000004,26.166402999999999,0 113.972149999999999,26.154741999999999,0 113.962686000000005,26.150855,0 113.944524000000001,26.163737999999999,0 113.951800000000006,26.177896,0 113.946110000000004,26.184501999999998,0 113.930245999999997,26.172788000000001,0 113.916953000000007,26.171344000000001,0 113.914490999999998,26.158740000000002,0 113.902839,26.148022999999998,0 113.896438000000003,26.135527,0 113.888451000000003,26.130362000000002,0 113.860277999999994,26.119309000000001,0 113.849610999999996,26.107588,0 113.845071000000004,26.095699,0 113.824775000000002,26.084087,0 113.811098999999999,26.086421000000001,0 113.805792999999994,26.100033,0 113.791623999999999,26.104310000000002,0 113.780792000000005,26.093699000000001,0 113.780957000000001,26.066139,0 113.761536000000007,26.047910000000002,0 113.750704999999996,26.041629,0 113.736427000000006,26.041129000000002,0 113.709074000000001,26.065805000000001,0 113.693264999999997,26.09581,0 113.702455,26.124419,0 113.722040000000007,26.133139,0 113.729260999999994,26.139247999999998,0 113.736536000000001,26.159351000000001,0 113.738724000000005,26.18317,0 113.725157999999993,26.223745000000001,0 113.708472999999998,26.234067,0 113.678330000000003,26.247273,0 113.671601999999993,26.256761000000001,0 113.655463999999995,26.270575000000001,0 113.644139999999993,26.267968,0 113.615200999999999,26.278896,0 113.617061000000007,26.308236000000001,0 113.607050000000001,26.315113,0 113.598954000000006,26.326646,0 113.597149000000002,26.345829999999999,0 113.592499000000004,26.360187,0 113.583527000000004,26.370331,0 113.583198999999993,26.394660999999999,0 113.607707000000005,26.419096,0 113.609621000000004,26.431007000000001,0 113.603274999999996,26.448345,0 113.588998000000004,26.467120999999999,0 113.595670999999996,26.479913,0 113.603604000000004,26.507652,0 113.589162000000002,26.511416000000001,0 113.587028000000004,26.520882,0 113.572969000000001,26.519110999999999,0 113.558690999999996,26.549496999999999,0 113.562191999999996,26.575171999999998,0 113.554970999999995,26.585352,0 113.541295000000005,26.59271,0 113.523460999999998,26.595476000000001,0 113.509182999999993,26.59271,0 113.495780999999994,26.58419,0 113.491021000000003,26.575337999999999,0 113.477072000000007,26.562667000000001,0 113.467279000000005,26.559346999999999,0 113.458144000000004,26.561782000000001,0 113.429478000000003,26.558738000000002,0 113.414598999999995,26.587399000000001,0 113.399117000000004,26.596969000000001,0 113.400266000000002,26.605211000000001,0 113.411371000000003,26.610133999999999,0 113.418045000000006,26.629380999999999,0 113.415474000000003,26.645693999999999,0 113.400976999999997,26.658245000000001,0 113.399883000000003,26.666592999999999,0 113.392223999999999,26.674885,0 113.381448000000006,26.693899999999999,0 113.382048999999995,26.699149999999999,0 113.400757999999996,26.706942999999999,0 113.413285999999999,26.72982,0 113.427617999999995,26.764569000000002,0 113.428111000000001,26.769760999999999,0 113.412683999999999,26.782575000000001,0 113.404696999999999,26.797595999999999,0 113.394302999999994,26.804773999999998,0 113.384456,26.797098999999999,0 113.363669000000002,26.800080999999999,0 113.338121000000001,26.81024,0 113.326305000000005,26.807590000000001,0 113.315090999999995,26.79616,0 113.306282999999993,26.773516999999998,0 113.299280999999993,26.768104000000001,0 113.283417,26.771473,0 113.278109999999998,26.777715000000001,0 113.285441000000006,26.790030000000002,0 113.285330999999999,26.799693999999999,0 113.273788999999994,26.813056,0 113.280626999999996,26.825202000000001,0 113.259783999999996,26.827797,0 113.258526000000003,26.815486,0 113.238066000000003,26.805216000000001,0 113.224609000000001,26.814437000000002,0 113.223679000000004,26.820896000000001,0 113.206338000000002,26.825478,0 113.207103000000004,26.829674000000001,0 113.183853999999997,26.825202000000001,0 113.160494999999997,26.827521000000001,0 113.153165000000001,26.837568000000001,0 113.144137999999998,26.834477,0 113.142934999999994,26.812504000000001,0 113.149062000000001,26.792128999999999,0 113.097256000000002,26.781635999999999,0 113.095560000000006,26.759929,0 113.101961000000003,26.753245,0 113.113066000000003,26.753024,0 113.115364,26.744129999999998,0 113.129040000000003,26.744129999999998,0 113.131392000000005,26.738053000000001,0 113.121381,26.730979999999999,0 113.122310999999996,26.723189999999999,0 113.139160000000004,26.717939999999999,0 113.134783999999996,26.712579999999999,0 113.152288999999996,26.700531999999999,0 113.160877999999997,26.687874999999998,0 113.182979000000003,26.687764999999999,0 113.188175999999999,26.662447,0 113.179586999999998,26.638338999999998,0 113.186699000000004,26.608087999999999,0 113.179259000000002,26.578492000000001,0 113.179148999999995,26.564437999999999,0 113.159182000000001,26.541637999999999,0 113.160003000000003,26.534222,0 113.171655000000001,26.521214000000001,0 113.179423,26.519387999999999,0 113.189653000000007,26.506157000000002,0 113.214324000000005,26.502448000000001,0 113.230079000000003,26.482071999999999,0 113.226851999999994,26.467065000000002,0 113.217388,26.462745999999999,0 113.210111999999995,26.465181999999999,0 113.194903999999994,26.451668999999999,0 113.192278000000002,26.445519999999998,0 113.211698999999996,26.433112000000001,0 113.212191000000004,26.425246000000001,0 113.191238999999996,26.406186000000002,0 113.179095000000004,26.404966999999999,0 113.171874000000003,26.412115,0 113.163557999999995,26.409566000000002,0 113.160439999999994,26.387733000000001,0 113.167113999999998,26.374265999999999,0 113.156555999999995,26.362459999999999,0 113.168864999999997,26.3491,0 113.164761999999996,26.344498999999999,0 113.173788000000002,26.329695999999998,0 113.162683000000001,26.324317000000001,0 113.142059000000003,26.325869999999998,0 113.127343999999994,26.313559999999999,0 113.130626000000007,26.306571999999999,0 113.128821000000002,26.293040000000001,0 113.119192999999996,26.293040000000001,0 113.117058999999998,26.287327000000001,0 113.103547000000006,26.290544000000001,0 113.087136000000001,26.273626,0 113.091676000000007,26.250102999999999,0 113.073514000000003,26.248550000000002,0 113.068152999999995,26.252932999999999,0 113.052070000000001,26.248494000000001,0 113.045287000000002,26.254542000000001,0 113.032103000000006,26.251989999999999,0 113.025867000000005,26.245276,0 113.039925999999994,26.213588999999999,0 113.034948,26.206651000000001,0 113.035658999999995,26.172843,0 113.008634999999998,26.155631,0 112.992988999999994,26.162348999999999,0 112.984564000000006,26.156575,0 112.968644999999995,26.154242,0 112.949882000000002,26.160184000000001,0 112.942605999999998,26.170788999999999,0 112.930132999999998,26.176784999999999,0 112.921052000000003,26.174398,0 112.920997,26.157962999999999,0 112.903600999999995,26.148467,0 112.891074000000003,26.156518999999999,0 112.875866000000002,26.149799999999999,0 112.870067000000006,26.155797,0 112.857923,26.154187,0 112.846435,26.158296,0 112.838556999999994,26.155742,0 112.818753999999998,26.161794,0 112.818534999999997,26.186667,0 112.809728000000007,26.192163000000001,0 112.802616,26.19022,0 112.795614,26.180116000000002,0 112.789869999999993,26.179839000000001,0 112.791730000000001,26.193218000000002,0 112.786040999999997,26.196992999999999,0 112.775975000000003,26.183892,0 112.777179000000004,26.177340999999998,0 112.788120000000006,26.175342000000001,0 112.791402000000005,26.166291999999999,0 112.783634000000006,26.164237,0 112.782156999999998,26.146024000000001,0 112.768371000000002,26.145524000000002,0 112.758742999999996,26.149854999999999,0 112.760384000000002,26.133084,0 112.752506999999994,26.129861999999999,0 112.746216000000004,26.143802000000001,0 112.739979000000005,26.144469000000001,0 112.735056,26.134582999999999,0 112.720394999999996,26.125474000000001,0 112.710274999999996,26.131751000000001,0 112.707704000000007,26.122419000000001,0 112.688557000000003,26.114197999999998,0 112.686423000000005,26.123808,0 112.676139000000006,26.125973999999999,0 112.673787000000004,26.111032000000002,0 112.665306999999999,26.10981,0 112.654912999999993,26.101033000000001,0 112.642277000000007,26.105976999999999,0 112.646161000000006,26.112421000000001,0 112.658196000000004,26.114975999999999,0 112.670668000000006,26.127696,0 112.654257000000001,26.129251,0 112.637298999999999,26.138915000000001,0 112.630132000000003,26.154409000000001,0 112.633688000000006,26.163292999999999,0 112.623402999999996,26.192108000000001,0 112.608960999999994,26.198436000000001,0 112.602834000000001,26.217085000000001,0 112.597802000000001,26.220526,0 112.581062000000003,26.219083000000001,0 112.580569999999994,26.208981999999999,0 112.572309000000004,26.193383999999998,0 112.577450999999996,26.182003999999999,0 112.576248000000007,26.168346,0 112.582047000000003,26.15924,0 112.578380999999993,26.153632000000002,0 112.566564999999997,26.158518000000001,0 112.554804000000004,26.147245000000002,0 112.529092000000006,26.147579,0 112.524443000000005,26.137471000000001,0 112.512900000000002,26.135583,0 112.508250000000004,26.143858000000002,0 112.507812000000001,26.159573000000002,0 112.488720000000001,26.150911000000001,0 112.482045999999997,26.160739,0 112.485055000000003,26.167957000000001,0 112.479529999999997,26.175785999999999,0 112.450918999999999,26.180394,0 112.444574000000003,26.175953,0 112.429255999999995,26.189720999999999,0 112.405788000000001,26.184835,0 112.395066,26.186167999999999,0 112.386640999999997,26.205207999999999,0 112.377286999999995,26.201543999999998,0 112.375044000000003,26.190553000000001,0 112.364322000000001,26.181281999999999,0 112.357045999999997,26.161294000000002,0 112.337789999999998,26.167569,0 112.327067999999997,26.161128000000001,0 112.310436999999993,26.158574000000002,0 112.311859999999996,26.148966999999999,0 112.304255999999995,26.132916999999999,0 112.292384999999996,26.134416999999999,0 112.290689,26.144024000000002,0 112.284452999999999,26.143636000000001,0 112.266947000000002,26.131139999999998,0 112.258522999999997,26.130751,0 112.257701999999995,26.123308000000002,0 112.232427999999999,26.117864999999998,0 112.230294999999998,26.107032,0 112.240578999999997,26.093309999999999,0 112.251684999999995,26.089587999999999,0 112.261859999999999,26.092866000000001,0 112.271158999999997,26.089032,0 112.282593000000006,26.101699,0 112.291618999999997,26.099976999999999,0 112.299715000000006,26.090364999999998,0 112.309836000000004,26.099032999999999,0 112.321815999999998,26.093755000000002,0 112.335819999999998,26.076640999999999,0 112.328545000000005,26.039072000000001,0 112.306443999999999,26.00694,0 112.300426000000002,25.978746999999998,0 112.292986999999997,25.974298000000001,0 112.311532,25.962395999999998,0 112.299332000000007,25.962506999999999,0 112.304474999999996,25.953997000000001,0 112.309836000000004,25.956109999999999,0 112.316783000000001,25.944039,0 112.315196999999998,25.935805999999999,0 112.296816000000007,25.931466,0 112.265524999999997,25.896688999999999,0 112.272088999999994,25.886337000000001,0 112.288664999999995,25.886282000000001,0 112.312406999999993,25.890567000000001,0 112.336860000000001,25.885725000000001,0 112.349715000000003,25.906594999999999,0 112.360382999999999,25.905871000000001,0 112.359561999999997,25.894407000000001,0 112.377998000000005,25.859285,0 112.386859999999999,25.859786,0 112.387023999999997,25.846257999999999,0 112.380514000000005,25.837292999999999,0 112.359289000000004,25.834398,0 112.357101,25.818249000000002,0 112.361695999999995,25.809116,0 112.377067999999994,25.803657999999999,0 112.385383000000004,25.805551999999999,0 112.386859999999999,25.789342999999999,0 112.377013000000005,25.760486,0 112.377560000000003,25.750791,0 112.392056999999994,25.740314999999999,0 112.383522999999997,25.730618,0 112.361805000000004,25.720196000000001,0 112.352068000000003,25.712392999999999,0 112.343315000000004,25.694277,0 112.336421999999999,25.690875999999999,0 112.321432999999999,25.698457999999999,0 112.317002000000002,25.723261999999998,0 112.310602000000003,25.728891000000001,0 112.297363000000004,25.730284000000001,0 112.278107000000006,25.711167,0 112.247363000000007,25.703921000000001,0 112.243041000000005,25.684854999999999,0 112.245611999999994,25.672087000000001,0 112.257920999999996,25.650452000000001,0 112.257429000000002,25.634055,0 112.238828999999996,25.603876,0 112.243643000000006,25.589928,0 112.260491999999999,25.582339999999999,0 112.257701999999995,25.573021000000001,0 112.246268999999998,25.567608,0 112.250973000000002,25.559013,0 112.270284000000004,25.554883,0 112.285765999999995,25.555776000000002,0 112.312843999999998,25.535012999999999,0 112.325591000000003,25.529989,0 112.357811999999996,25.541654999999999,0 112.369901999999996,25.539421999999998,0 112.372417999999996,25.530044,0 112.367931999999996,25.520441999999999,0 112.372144000000006,25.512067999999999,0 112.392002000000005,25.490960999999999,0 112.398020000000002,25.476887999999999,0 112.399989000000005,25.457172,0 112.411805000000001,25.440581000000002,0 112.420668000000006,25.435497999999999,0 112.426903999999993,25.423317999999998,0 112.439924000000005,25.408287000000001,0 112.440962999999996,25.399346000000001,0 112.426466000000005,25.398508,0 112.421323999999998,25.39359,0 112.435710999999998,25.379951999999999,0 112.455185999999998,25.381070000000001,0 112.458414000000005,25.37509,0 112.452560000000005,25.365475,0 112.444463999999996,25.362736000000002,0 112.432867000000002,25.368382,0 112.420011000000002,25.339086999999999,0 112.409508000000002,25.325780000000002,0 112.394025999999997,25.314595000000001,0 112.386094,25.313141000000002,0 112.374933999999996,25.300837000000001,0 112.362188000000003,25.298152999999999,0 112.345174999999998,25.289259000000001,0 112.344900999999993,25.284673000000002,0 112.357592999999994,25.278631000000001,0 112.355405000000005,25.263974000000001,0 112.360491999999994,25.258547,0 112.357592999999994,25.244278999999999,0 112.368150999999997,25.232696000000001,0 112.368095999999994,25.222846000000001,0 112.361859999999993,25.211988000000002,0 112.364211999999995,25.191725000000002,0</coordinates></LinearRing></outerBoundaryIs></Polygon></MultiGeometry></Placemark>
</Document>
</kml>