<?xml version="1.0" encoding="UTF-8"?>
<kml xmlns="http://www.opengis.net/kml/2.2">
  <Document>
    <name><![CDATA[东莞市]]></name>
    <Placemark>
      <name><![CDATA[东莞市]]></name>
      <description><![CDATA[省级目录：广东省]]></description>
      <ExtendedData>
        <Data name="adcode"><value>441900</value></Data>
      </ExtendedData>
      <MultiGeometry>
      <Polygon>
        <outerBoundaryIs><LinearRing><coordinates>114.229205,22.81253,0 114.23388,22.816937,0 114.235643,22.839872,0 114.233114,22.842314,0 114.2348,22.862962,0 114.231198,22.880318,0 114.236946,22.88589,0 114.24484,22.88053,0 114.251737,22.884351,0 114.26032,22.899634,0 114.259171,22.906054,0 114.249208,22.905152,0 114.245299,22.911732,0 114.229742,22.914703,0 114.213035,22.928444,0 114.211349,22.953959,0 114.223841,22.963719,0 114.222385,22.980743,0 114.212498,22.987796,0 114.20039,22.986682,0 114.182303,22.995432,0 114.178701,22.989174,0 114.158546,22.978303,0 114.15571,22.983129,0 114.13816,22.986417,0 114.132182,22.994424,0 114.124442,22.994,0 114.139233,23.023479,0 114.151035,23.019079,0 114.150269,23.024698,0 114.120993,23.048022,0 114.102217,23.058623,0 114.091564,23.077331,0 114.088959,23.094182,0 114.065891,23.101441,0 114.049797,23.097467,0 114.029871,23.084379,0 114.010252,23.083425,0 113.993315,23.092645,0 113.986418,23.10197,0 113.970554,23.113308,0 113.962737,23.114209,0 113.938366,23.107534,0 113.905565,23.11511,0 113.894836,23.111295,0 113.876596,23.124275,0 113.863261,23.114633,0 113.848163,23.116911,0 113.844715,23.125599,0 113.841113,23.116169,0 113.814673,23.127771,0 113.791298,23.127665,0 113.777427,23.131108,0 113.754052,23.129572,0 113.738572,23.141331,0 113.71696,23.138895,0 113.687837,23.119772,0 113.670671,23.116434,0 113.662011,23.111454,0 113.661244,23.117971,0 113.651281,23.119295,0 113.642698,23.113467,0 113.640245,23.103878,0 113.610433,23.103772,0 113.60139,23.0954,0 113.586446,23.08777,0 113.556327,23.081252,0 113.54897,23.076006,0 113.543759,23.06228,0 113.531957,23.050938,0 113.522913,23.037262,0 113.52299,23.011338,0 113.529198,22.982599,0 113.541766,22.959369,0 113.550503,22.936189,0 113.564298,22.906903,0 113.575104,22.888331,0 113.571195,22.853143,0 113.58407,22.831325,0 113.612119,22.802281,0 113.648139,22.761759,0 113.678181,22.726113,0 113.697724,22.73743,0 113.723934,22.73828,0 113.733743,22.736367,0 113.746005,22.72606,0 113.751447,22.715381,0 113.762406,22.736899,0 113.790838,22.75342,0 113.791835,22.767655,0 113.801874,22.777109,0 113.802257,22.784863,0 113.811071,22.782473,0 113.813446,22.790439,0 113.824942,22.792935,0 113.837204,22.800901,0 113.838737,22.819591,0 113.834675,22.822193,0 113.841496,22.833979,0 113.851305,22.837483,0 113.857053,22.832599,0 113.872611,22.837271,0 113.877669,22.85447,0 113.883263,22.850542,0 113.887325,22.858504,0 113.89951,22.855478,0 113.893916,22.846189,0 113.904875,22.840137,0 113.910929,22.829997,0 113.937829,22.832705,0 113.954613,22.821025,0 113.954996,22.815078,0 113.972393,22.812476,0 113.978371,22.806529,0 113.974999,22.798458,0 113.984578,22.803662,0 113.990863,22.800211,0 113.995308,22.771267,0 114.002971,22.763459,0 114.017916,22.760219,0 114.035236,22.766752,0 114.039911,22.764309,0 114.049797,22.771161,0 114.049414,22.756448,0 114.064588,22.755916,0 114.074781,22.740883,0 114.08436,22.750551,0 114.098462,22.747205,0 114.107198,22.722979,0 114.117621,22.723244,0 114.121989,22.716231,0 114.144674,22.714159,0 114.145057,22.701193,0 114.151801,22.690139,0 114.167436,22.680679,0 114.16391,22.665372,0 114.15548,22.668933,0 114.172494,22.654368,0 114.187515,22.666382,0 114.187515,22.673557,0 114.195332,22.680095,0 114.19947,22.702043,0 114.196711,22.710227,0 114.208053,22.71469,0 114.208513,22.729248,0 114.215641,22.73557,0 114.203149,22.75512,0 114.201079,22.764787,0 114.182073,22.765265,0 114.187974,22.770364,0 114.180847,22.775728,0 114.189967,22.785713,0 114.20721,22.789802,0 114.215641,22.807751,0 114.229205,22.81253,0</coordinates></LinearRing></outerBoundaryIs>
      </Polygon>
    </MultiGeometry>
    </Placemark>
  </Document>
</kml>
