<?xml version="1.0" encoding="UTF-8"?>
<kml xmlns="http://www.opengis.net/kml/2.2">
  <Document>
    <name><![CDATA[中山市]]></name>
    <Placemark>
      <name><![CDATA[中山市]]></name>
      <description><![CDATA[省级目录：广东省]]></description>
      <ExtendedData>
        <Data name="adcode"><value>442000</value></Data>
      </ExtendedData>
      <MultiGeometry>
      <Polygon>
        <outerBoundaryIs><LinearRing><coordinates>113.568743,22.411912,0 113.573724,22.411699,0 113.610127,22.445723,0 113.631509,22.47596,0 113.668448,22.480431,0 113.692052,22.515129,0 113.651588,22.515715,0 113.639326,22.548276,0 113.62078,22.579554,0 113.599628,22.594393,0 113.589971,22.59519,0 113.578552,22.604603,0 113.561615,22.607528,0 113.536861,22.647511,0 113.533106,22.656388,0 113.540693,22.666222,0 113.523373,22.679297,0 113.491875,22.699811,0 113.464822,22.72096,0 113.467964,22.728504,0 113.447808,22.735836,0 113.42612,22.738014,0 113.412172,22.742849,0 113.365116,22.772595,0 113.358756,22.764893,0 113.342432,22.758254,0 113.329327,22.749011,0 113.329097,22.741255,0 113.301431,22.736261,0 113.284877,22.738864,0 113.270546,22.726485,0 113.260889,22.730311,0 113.254069,22.74083,0 113.243033,22.745345,0 113.236289,22.740777,0 113.222264,22.712246,0 113.204254,22.697314,0 113.199273,22.682539,0 113.201035,22.675949,0 113.189386,22.673876,0 113.17199,22.680679,0 113.161414,22.673717,0 113.160801,22.665425,0 113.17061,22.651392,0 113.163176,22.651392,0 113.157199,22.63204,0 113.157045,22.614228,0 113.176358,22.590032,0 113.185095,22.574289,0 113.188697,22.552798,0 113.187087,22.539924,0 113.215367,22.513107,0 113.2251,22.497142,0 113.2251,22.497142,0 113.240121,22.476172,0 113.245179,22.457276,0 113.256444,22.43779,0 113.256368,22.410794,0 113.262652,22.392048,0 113.273841,22.384751,0 113.307178,22.346504,0 113.32036,22.329561,0 113.32128,22.312189,0 113.336607,22.280105,0 113.345114,22.258569,0 113.352395,22.249133,0 113.385272,22.230365,0 113.390943,22.231858,0 113.415774,22.202902,0 113.430565,22.201302,0 113.458384,22.213781,0 113.462676,22.218847,0 113.486357,22.227113,0 113.478847,22.23831,0 113.512797,22.249986,0 113.514407,22.261555,0 113.50475,22.266992,0 113.496397,22.282237,0 113.480456,22.303876,0 113.470493,22.310377,0 113.482985,22.318797,0 113.493331,22.317998,0 113.504137,22.324286,0 113.494787,22.339684,0 113.490342,22.34075,0 113.493255,22.354069,0 113.489193,22.365842,0 113.491339,22.376922,0 113.48697,22.390184,0 113.495247,22.395403,0 113.49586,22.407546,0 113.508889,22.413403,0 113.51433,22.408717,0 113.537168,22.416332,0 113.568743,22.411912,0</coordinates></LinearRing></outerBoundaryIs>
      </Polygon>
    </MultiGeometry>
    </Placemark>
  </Document>
</kml>
