<?xml version="1.0" encoding="UTF-8"?>
<kml xmlns="http://www.opengis.net/kml/2.2">
  <Document>
    <name><![CDATA[佛山市]]></name>
    <Placemark>
      <name><![CDATA[佛山市]]></name>
      <description><![CDATA[省级目录：广东省]]></description>
      <ExtendedData>
        <Data name="adcode"><value>440600</value></Data>
      </ExtendedData>
      <MultiGeometry>
      <Polygon>
        <outerBoundaryIs><LinearRing><coordinates>112.975184,23.463622,0 112.966294,23.460663,0 112.965835,23.452155,0 112.957634,23.447558,0 112.94223,23.460188,0 112.930198,23.463094,0 112.933493,23.47065,0 112.925753,23.472393,0 112.928435,23.483488,0 112.903298,23.488613,0 112.887741,23.517402,0 112.893259,23.526434,0 112.911192,23.541643,0 112.91533,23.55231,0 112.900309,23.566725,0 112.893412,23.55268,0 112.871647,23.570896,0 112.86291,23.57343,0 112.848502,23.566936,0 112.827197,23.567042,0 112.830493,23.545762,0 112.831642,23.537577,0 112.840762,23.536046,0 112.850418,23.527596,0 112.845284,23.502929,0 112.845743,23.487134,0 112.838156,23.484704,0 112.831029,23.468114,0 112.811793,23.462513,0 112.802673,23.444229,0 112.803669,23.435773,0 112.796389,23.429113,0 112.794166,23.407547,0 112.785736,23.394173,0 112.787269,23.371173,0 112.806582,23.367419,0 112.810107,23.371332,0 112.805892,23.387511,0 112.814092,23.391793,0 112.838386,23.387352,0 112.859691,23.364563,0 112.863907,23.349122,0 112.883296,23.347324,0 112.87134,23.315588,0 112.866895,23.293263,0 112.857546,23.287231,0 112.847966,23.275061,0 112.844977,23.263314,0 112.823595,23.24569,0 112.8472,23.238651,0 112.842984,23.224465,0 112.831949,23.215678,0 112.815012,23.217107,0 112.810873,23.200378,0 112.80091,23.200431,0 112.806582,23.212395,0 112.799837,23.228224,0 112.795316,23.226318,0 112.7934,23.208213,0 112.786349,23.205937,0 112.781521,23.225842,0 112.769412,23.223354,0 112.772861,23.215678,0 112.766347,23.21356,0 112.764431,23.202919,0 112.772938,23.199742,0 112.771941,23.191694,0 112.775773,23.166754,0 112.793936,23.150071,0 112.798458,23.13863,0 112.799684,23.109971,0 112.805355,23.091426,0 112.818767,23.072614,0 112.819227,23.052051,0 112.834094,23.014784,0 112.820453,23.010225,0 112.794856,22.990394,0 112.788189,22.991879,0 112.790564,23.00206,0 112.789721,23.00137,0 112.788572,23.001158,0 112.787882,23.000999,0 112.777076,22.996545,0 112.759679,22.979735,0 112.751556,22.99103,0 112.734772,22.98122,0 112.736228,22.963878,0 112.74144,22.962923,0 112.734082,22.940751,0 112.708869,22.927754,0 112.699749,22.94839,0 112.686874,22.948443,0 112.672696,22.940486,0 112.690092,22.927277,0 112.696683,22.917196,0 112.68649,22.907593,0 112.692468,22.901969,0 112.685418,22.89836,0 112.677524,22.902764,0 112.676374,22.895442,0 112.659284,22.887163,0 112.635526,22.883714,0 112.632384,22.877664,0 112.604258,22.870552,0 112.591613,22.869809,0 112.587168,22.862962,0 112.561648,22.873312,0 112.557816,22.863387,0 112.563104,22.854151,0 112.57414,22.84741,0 112.571841,22.833077,0 112.557433,22.826122,0 112.532449,22.822883,0 112.527544,22.815131,0 112.52034,22.82729,0 112.510531,22.823042,0 112.499035,22.826918,0 112.500414,22.812476,0 112.489992,22.809131,0 112.482788,22.795006,0 112.463398,22.789271,0 112.443779,22.791661,0 112.441403,22.787731,0 112.413507,22.774454,0 112.392509,22.76978,0 112.392739,22.744442,0 112.399023,22.726485,0 112.410748,22.704488,0 112.403085,22.700183,0 112.401475,22.690565,0 112.411898,22.671219,0 112.426306,22.670847,0 112.435809,22.680998,0 112.448607,22.70842,0 112.463168,22.711661,0 112.47658,22.704009,0 112.47704,22.715912,0 112.500108,22.728664,0 112.507542,22.723457,0 112.523176,22.728079,0 112.53835,22.71825,0 112.549462,22.70098,0 112.560038,22.695826,0 112.554214,22.682061,0 112.535591,22.67765,0 112.540189,22.661864,0 112.536281,22.648627,0 112.546474,22.642248,0 112.577359,22.656388,0 112.583566,22.664362,0 112.584716,22.677809,0 112.595981,22.680786,0 112.600273,22.688439,0 112.587321,22.696357,0 112.604182,22.706241,0 112.616674,22.707995,0 112.620965,22.70114,0 112.625104,22.711077,0 112.641044,22.712883,0 112.646256,22.726698,0 112.660127,22.727335,0 112.664649,22.713043,0 112.672083,22.713521,0 112.665109,22.724041,0 112.680053,22.713999,0 112.682659,22.72165,0 112.675914,22.727495,0 112.683885,22.733923,0 112.690322,22.726379,0 112.701128,22.728398,0 112.687563,22.737164,0 112.680436,22.747045,0 112.69653,22.75905,0 112.702891,22.756395,0 112.707796,22.74407,0 112.698599,22.733764,0 112.709022,22.729567,0 112.706646,22.718303,0 112.692392,22.705232,0 112.69538,22.695613,0 112.708256,22.71028,0 112.717989,22.691681,0 112.734082,22.698217,0 112.741286,22.691362,0 112.744505,22.696729,0 112.755771,22.692425,0 112.769489,22.701246,0 112.778302,22.715221,0 112.807961,22.72877,0 112.810413,22.750498,0 112.803899,22.752145,0 112.811486,22.765318,0 112.818001,22.765424,0 112.822369,22.784545,0 112.812099,22.791714,0 112.819303,22.803025,0 112.835857,22.803821,0 112.843061,22.810671,0 112.852947,22.809609,0 112.850648,22.830157,0 112.844594,22.835306,0 112.851491,22.839978,0 112.860305,22.833767,0 112.867892,22.835412,0 112.873639,22.848206,0 112.883679,22.852187,0 112.888967,22.845764,0 112.900463,22.845286,0 112.905904,22.851444,0 112.923454,22.856274,0 112.963995,22.826971,0 112.980396,22.802759,0 112.988596,22.800423,0 113.025229,22.802335,0 113.049523,22.807751,0 113.059562,22.801219,0 113.075273,22.777959,0 113.087228,22.717878,0 113.102096,22.698536,0 113.113362,22.701618,0 113.161414,22.673717,0 113.17199,22.680679,0 113.189386,22.673876,0 113.201035,22.675949,0 113.199273,22.682539,0 113.204254,22.697314,0 113.222264,22.712246,0 113.236289,22.740777,0 113.243033,22.745345,0 113.254069,22.74083,0 113.260889,22.730311,0 113.270546,22.726485,0 113.284877,22.738864,0 113.301431,22.736261,0 113.329097,22.741255,0 113.329327,22.749011,0 113.342432,22.758254,0 113.358756,22.764893,0 113.365116,22.772595,0 113.356533,22.792989,0 113.38305,22.799308,0 113.393396,22.809822,0 113.37439,22.822618,0 113.364273,22.823467,0 113.335994,22.817945,0 113.312083,22.830369,0 113.309631,22.851179,0 113.296296,22.862485,0 113.301354,22.866094,0 113.300434,22.87708,0 113.27706,22.894699,0 113.28595,22.901438,0 113.282424,22.927383,0 113.298212,22.934014,0 113.285183,22.951095,0 113.267557,22.958786,0 113.251923,22.970348,0 113.250007,23.009058,0 113.25836,23.013989,0 113.254912,23.044842,0 113.225713,23.041874,0 113.211688,23.043305,0 113.195747,23.056185,0 113.184865,23.05963,0 113.177201,23.076695,0 113.193678,23.083902,0 113.208776,23.083531,0 113.215826,23.100646,0 113.208163,23.099692,0 113.203718,23.121891,0 113.209695,23.121838,0 113.211535,23.142603,0 113.191992,23.14345,0 113.186857,23.14827,0 113.1877,23.159127,0 113.209465,23.17708,0 113.209006,23.192171,0 113.204867,23.201172,0 113.191072,23.214937,0 113.177508,23.220866,0 113.176511,23.236587,0 113.182029,23.251459,0 113.177738,23.271304,0 113.160877,23.286649,0 113.150608,23.289983,0 113.150838,23.297972,0 113.128,23.31453,0 113.124704,23.307653,0 113.105775,23.302733,0 113.11022,23.295961,0 113.105545,23.289718,0 113.090524,23.28993,0 113.086156,23.285274,0 113.072284,23.284268,0 113.081941,23.261726,0 113.079795,23.250083,0 113.070215,23.248813,0 113.053508,23.253418,0 113.044925,23.2522,0 113.052742,23.26342,0 113.051439,23.278395,0 113.042549,23.283422,0 113.032509,23.300881,0 113.037567,23.320084,0 113.023466,23.324898,0 113.027604,23.33352,0 113.043392,23.351131,0 113.034808,23.357372,0 113.018331,23.341347,0 113.012583,23.352612,0 112.989822,23.354728,0 112.980626,23.380268,0 112.988366,23.390102,0 112.990588,23.402631,0 113.001088,23.406332,0 112.988673,23.419811,0 112.982771,23.434451,0 112.989132,23.443277,0 112.978633,23.441586,0 112.974188,23.434081,0 112.96024,23.425995,0 112.961926,23.44444,0 112.972962,23.450042,0 112.975184,23.463622,0</coordinates></LinearRing></outerBoundaryIs>
      </Polygon>
      <Polygon>
        <outerBoundaryIs><LinearRing><coordinates>112.789721,23.00137,0 112.790564,23.00206,0 112.787882,23.000999,0 112.788572,23.001158,0 112.789721,23.00137,0</coordinates></LinearRing></outerBoundaryIs>
      </Polygon>
    </MultiGeometry>
    </Placemark>
  </Document>
</kml>
