<?xml version="1.0" encoding="UTF-8"?>
<kml xmlns="http://www.opengis.net/kml/2.2">
  <Document>
    <name><![CDATA[广州市]]></name>
    <Placemark>
      <name><![CDATA[广州市]]></name>
      <description><![CDATA[省级目录：广东省]]></description>
      <ExtendedData>
        <Data name="adcode"><value>440100</value></Data>
      </ExtendedData>
      <MultiGeometry>
      <Polygon>
        <outerBoundaryIs><LinearRing><coordinates>113.365116,22.772595,0 113.412172,22.742849,0 113.42612,22.738014,0 113.447808,22.735836,0 113.467964,22.728504,0 113.464822,22.72096,0 113.491875,22.699811,0 113.523373,22.679297,0 113.540693,22.666222,0 113.533106,22.656388,0 113.536861,22.647511,0 113.561615,22.607528,0 113.578552,22.604603,0 113.589971,22.59519,0 113.599628,22.594393,0 113.62078,22.579554,0 113.639326,22.548276,0 113.651588,22.515715,0 113.692052,22.515129,0 113.728149,22.521993,0 113.740487,22.534284,0 113.716883,22.645172,0 113.685308,22.717719,0 113.678181,22.726113,0 113.648139,22.761759,0 113.612119,22.802281,0 113.58407,22.831325,0 113.571195,22.853143,0 113.575104,22.888331,0 113.564298,22.906903,0 113.550503,22.936189,0 113.541766,22.959369,0 113.529198,22.982599,0 113.52299,23.011338,0 113.522913,23.037262,0 113.531957,23.050938,0 113.543759,23.06228,0 113.54897,23.076006,0 113.556327,23.081252,0 113.586446,23.08777,0 113.60139,23.0954,0 113.610433,23.103772,0 113.640245,23.103878,0 113.642698,23.113467,0 113.651281,23.119295,0 113.661244,23.117971,0 113.662011,23.111454,0 113.670671,23.116434,0 113.687837,23.119772,0 113.71696,23.138895,0 113.738572,23.141331,0 113.754052,23.129572,0 113.777427,23.131108,0 113.791298,23.127665,0 113.814673,23.127771,0 113.841113,23.116169,0 113.844715,23.125599,0 113.849849,23.148853,0 113.858739,23.157221,0 113.874757,23.165377,0 113.895679,23.164529,0 113.902116,23.177186,0 113.889011,23.178616,0 113.8838,23.191694,0 113.893993,23.21266,0 113.903802,23.212554,0 113.890084,23.242144,0 113.895142,23.253523,0 113.877209,23.264213,0 113.890314,23.282681,0 113.888475,23.290512,0 113.894989,23.314689,0 113.889394,23.334154,0 113.895985,23.34505,0 113.927483,23.339972,0 113.939285,23.342934,0 113.958905,23.33262,0 113.958445,23.314953,0 113.977451,23.304849,0 113.978217,23.30104,0 113.996687,23.297443,0 113.996151,23.309346,0 113.984195,23.330505,0 113.993928,23.333149,0 114.000902,23.346636,0 113.990556,23.354833,0 113.982049,23.379369,0 113.995997,23.386771,0 114.000442,23.39338,0 113.986801,23.405591,0 113.984195,23.421238,0 113.98795,23.431439,0 113.975382,23.429378,0 113.960054,23.43276,0 113.952774,23.442907,0 113.955456,23.466053,0 113.974462,23.46489,0 113.981743,23.472129,0 113.974156,23.478839,0 113.96105,23.480371,0 113.938749,23.476726,0 113.931162,23.483066,0 113.940895,23.483594,0 113.946643,23.492522,0 113.929936,23.494213,0 113.923115,23.503088,0 113.911543,23.504144,0 113.906408,23.511856,0 113.89315,23.520254,0 113.888168,23.535095,0 113.871384,23.541327,0 113.862495,23.566303,0 113.852838,23.570579,0 113.864027,23.587368,0 113.858356,23.593491,0 113.859582,23.60996,0 113.843565,23.617877,0 113.834215,23.61756,0 113.832223,23.624263,0 113.817432,23.623471,0 113.816742,23.63582,0 113.825555,23.639883,0 113.827778,23.648009,0 113.818811,23.656188,0 113.839963,23.655449,0 113.847857,23.679348,0 113.881884,23.685151,0 113.897595,23.700184,0 113.900967,23.715426,0 113.912386,23.716534,0 113.920049,23.729454,0 113.93645,23.732143,0 113.940282,23.738155,0 113.955916,23.732671,0 113.96105,23.738207,0 113.972853,23.739262,0 113.976071,23.757716,0 113.998756,23.762988,0 114.013087,23.777959,0 114.017686,23.778276,0 114.009945,23.762988,0 114.018222,23.76283,0 114.02489,23.752549,0 114.027419,23.760141,0 114.038454,23.771212,0 114.05999,23.775851,0 114.056311,23.784021,0 114.037228,23.793509,0 114.047728,23.803312,0 114.035312,23.813378,0 114.040294,23.824444,0 114.052249,23.830029,0 114.057767,23.846784,0 114.050487,23.85474,0 114.047728,23.867488,0 114.041827,23.871491,0 114.04267,23.889874,0 114.036232,23.901776,0 114.031327,23.906305,0 114.033856,23.91889,0 114.017992,23.925261,0 114.008413,23.933001,0 113.984502,23.926157,0 113.982126,23.929684,0 113.952697,23.929632,0 113.941201,23.923577,0 113.93645,23.928737,0 113.907787,23.924577,0 113.892536,23.931685,0 113.887478,23.923998,0 113.879815,23.930369,0 113.865177,23.928947,0 113.851152,23.920312,0 113.841496,23.918732,0 113.807315,23.900407,0 113.800265,23.902566,0 113.791605,23.903882,0 113.781105,23.896299,0 113.775358,23.877918,0 113.767081,23.871439,0 113.758191,23.857479,0 113.749071,23.854371,0 113.742327,23.859165,0 113.733667,23.855003,0 113.713511,23.862484,0 113.709756,23.856267,0 113.718033,23.843887,0 113.714814,23.834982,0 113.720178,23.825129,0 113.706384,23.815275,0 113.687378,23.825709,0 113.684312,23.812956,0 113.666379,23.813694,0 113.651664,23.820123,0 113.640245,23.814274,0 113.633731,23.797198,0 113.615185,23.779804,0 113.626144,23.767416,0 113.636414,23.750229,0 113.630742,23.738946,0 113.63649,23.731985,0 113.631662,23.727872,0 113.628137,23.711682,0 113.638176,23.704562,0 113.622619,23.699446,0 113.623845,23.694699,0 113.61166,23.686206,0 113.615721,23.680192,0 113.597252,23.664946,0 113.587212,23.669008,0 113.587289,23.675234,0 113.568053,23.679454,0 113.568053,23.690215,0 113.55878,23.700712,0 113.546901,23.702558,0 113.545445,23.696387,0 113.527052,23.686153,0 113.510268,23.682461,0 113.481069,23.684043,0 113.468731,23.691006,0 113.464286,23.70799,0 113.443823,23.715901,0 113.438459,23.727134,0 113.404278,23.723495,0 113.397841,23.730562,0 113.378375,23.731511,0 113.372397,23.709731,0 113.366343,23.710311,0 113.347413,23.667215,0 113.338447,23.665737,0 113.334845,23.656399,0 113.327947,23.655502,0 113.32833,23.645371,0 113.31101,23.643313,0 113.289245,23.644368,0 113.299438,23.637456,0 113.290548,23.617085,0 113.280049,23.608957,0 113.2766,23.615977,0 113.248474,23.601567,0 113.24035,23.606212,0 113.245868,23.588265,0 113.227859,23.594441,0 113.227015,23.585731,0 113.214524,23.584253,0 113.202262,23.576492,0 113.200805,23.561815,0 113.210155,23.552997,0 113.211918,23.543914,0 113.191149,23.523212,0 113.192069,23.514761,0 113.172066,23.512384,0 113.15352,23.502823,0 113.128689,23.512596,0 113.108994,23.497964,0 113.083933,23.494266,0 113.075503,23.484228,0 113.063854,23.482537,0 113.055884,23.471971,0 113.042932,23.474137,0 113.018025,23.469065,0 113.00469,23.462037,0 112.993347,23.466845,0 112.975184,23.463622,0 112.972962,23.450042,0 112.961926,23.44444,0 112.96024,23.425995,0 112.974188,23.434081,0 112.978633,23.441586,0 112.989132,23.443277,0 112.982771,23.434451,0 112.988673,23.419811,0 113.001088,23.406332,0 112.990588,23.402631,0 112.988366,23.390102,0 112.980626,23.380268,0 112.989822,23.354728,0 113.012583,23.352612,0 113.018331,23.341347,0 113.034808,23.357372,0 113.043392,23.351131,0 113.027604,23.33352,0 113.023466,23.324898,0 113.037567,23.320084,0 113.032509,23.300881,0 113.042549,23.283422,0 113.051439,23.278395,0 113.052742,23.26342,0 113.044925,23.2522,0 113.053508,23.253418,0 113.070215,23.248813,0 113.079795,23.250083,0 113.081941,23.261726,0 113.072284,23.284268,0 113.086156,23.285274,0 113.090524,23.28993,0 113.105545,23.289718,0 113.11022,23.295961,0 113.105775,23.302733,0 113.124704,23.307653,0 113.128,23.31453,0 113.150838,23.297972,0 113.150608,23.289983,0 113.160877,23.286649,0 113.177738,23.271304,0 113.182029,23.251459,0 113.176511,23.236587,0 113.177508,23.220866,0 113.191072,23.214937,0 113.204867,23.201172,0 113.209006,23.192171,0 113.209465,23.17708,0 113.1877,23.159127,0 113.186857,23.14827,0 113.191992,23.14345,0 113.211535,23.142603,0 113.209695,23.121838,0 113.203718,23.121891,0 113.208163,23.099692,0 113.215826,23.100646,0 113.208776,23.083531,0 113.193678,23.083902,0 113.177201,23.076695,0 113.184865,23.05963,0 113.195747,23.056185,0 113.211688,23.043305,0 113.225713,23.041874,0 113.254912,23.044842,0 113.25836,23.013989,0 113.250007,23.009058,0 113.251923,22.970348,0 113.267557,22.958786,0 113.285183,22.951095,0 113.298212,22.934014,0 113.282424,22.927383,0 113.28595,22.901438,0 113.27706,22.894699,0 113.300434,22.87708,0 113.301354,22.866094,0 113.296296,22.862485,0 113.309631,22.851179,0 113.312083,22.830369,0 113.335994,22.817945,0 113.364273,22.823467,0 113.37439,22.822618,0 113.393396,22.809822,0 113.38305,22.799308,0 113.356533,22.792989,0 113.365116,22.772595,0</coordinates></LinearRing></outerBoundaryIs>
      </Polygon>
    </MultiGeometry>
    </Placemark>
  </Document>
</kml>
