<?xml version="1.0" encoding="UTF-8"?>
<kml xmlns="http://www.opengis.net/kml/2.2">
  <Document>
    <name><![CDATA[揭阳市]]></name>
    <Placemark>
      <name><![CDATA[揭阳市]]></name>
      <description><![CDATA[省级目录：广东省]]></description>
      <ExtendedData>
        <Data name="adcode"><value>445200</value></Data>
      </ExtendedData>
      <MultiGeometry>
      <Polygon>
        <outerBoundaryIs><LinearRing><coordinates>116.552551,23.105891,0 116.520287,23.094553,0 116.509787,23.100646,0 116.478826,23.104249,0 116.453919,23.091161,0 116.445488,23.093281,0 116.446561,23.085863,0 116.437212,23.080246,0 116.426865,23.063393,0 116.405484,23.053959,0 116.395904,23.044524,0 116.3805,23.039807,0 116.370077,23.046856,0 116.374982,23.050408,0 116.368314,23.05751,0 116.346703,23.05857,0 116.340648,23.086498,0 116.327543,23.09646,0 116.312829,23.102712,0 116.302866,23.096036,0 116.29137,23.099162,0 116.29183,23.110501,0 116.261558,23.12295,0 116.244545,23.140431,0 116.254891,23.152507,0 116.252362,23.176286,0 116.262325,23.175174,0 116.252745,23.191536,0 116.26447,23.196724,0 116.269222,23.204984,0 116.261328,23.205301,0 116.259719,23.216842,0 116.26677,23.227906,0 116.279415,23.226,0 116.294129,23.239815,0 116.298727,23.263526,0 116.305548,23.272839,0 116.302406,23.279348,0 116.312752,23.286649,0 116.308997,23.296067,0 116.323558,23.302839,0 116.328846,23.299559,0 116.330839,23.316487,0 116.319343,23.325903,0 116.319573,23.332303,0 116.329689,23.336376,0 116.348848,23.335794,0 116.354903,23.347324,0 116.349768,23.358112,0 116.350994,23.386559,0 116.34517,23.399565,0 116.34563,23.408182,0 116.331758,23.424409,0 116.322868,23.421767,0 116.316891,23.442273,0 116.319649,23.449196,0 116.332371,23.443647,0 116.350764,23.449619,0 116.355363,23.472288,0 116.377051,23.500658,0 116.401115,23.500394,0 116.408856,23.512596,0 116.41491,23.510271,0 116.415676,23.479737,0 116.426482,23.468642,0 116.435832,23.473344,0 116.448707,23.488349,0 116.465797,23.497647,0 116.482581,23.500552,0 116.492314,23.492839,0 116.491164,23.478734,0 116.482658,23.465472,0 116.472005,23.455802,0 116.465721,23.442485,0 116.469553,23.437622,0 116.512316,23.439472,0 116.523429,23.437517,0 116.544887,23.424356,0 116.553088,23.412305,0 116.561978,23.38693,0 116.568339,23.378258,0 116.569105,23.388093,0 116.577535,23.40242,0 116.575313,23.40797,0 116.58198,23.423194,0 116.591177,23.426524,0 116.58949,23.443383,0 116.579834,23.447981,0 116.580294,23.461139,0 116.588111,23.461984,0 116.58995,23.453265,0 116.605431,23.443013,0 116.614015,23.433289,0 116.630108,23.429378,0 116.633557,23.45057,0 116.619762,23.466423,0 116.608343,23.464785,0 116.586578,23.475563,0 116.580754,23.473873,0 116.559908,23.482432,0 116.554774,23.495586,0 116.543661,23.505623,0 116.544811,23.528546,0 116.554007,23.534356,0 116.553624,23.541591,0 116.570638,23.548614,0 116.564966,23.557063,0 116.567036,23.569207,0 116.551555,23.579502,0 116.542282,23.573694,0 116.533315,23.581508,0 116.533775,23.590113,0 116.526264,23.590165,0 116.527261,23.603309,0 116.533698,23.606265,0 116.533545,23.617296,0 116.526111,23.626532,0 116.527184,23.63429,0 116.514156,23.655924,0 116.48488,23.658879,0 116.474534,23.655924,0 116.470319,23.669589,0 116.448477,23.677766,0 116.444722,23.6698,0 116.434376,23.67977,0 116.43154,23.690637,0 116.404104,23.694382,0 116.385481,23.714688,0 116.377741,23.712209,0 116.37161,23.717431,0 116.368468,23.73304,0 116.35475,23.743058,0 116.350151,23.751969,0 116.338732,23.758823,0 116.335437,23.773953,0 116.320033,23.775534,0 116.306621,23.769841,0 116.295892,23.759139,0 116.288458,23.763199,0 116.271215,23.757294,0 116.271598,23.746433,0 116.233126,23.718169,0 116.236957,23.727608,0 116.227684,23.728821,0 116.214119,23.71896,0 116.214349,23.702558,0 116.19588,23.685784,0 116.181089,23.68552,0 116.183005,23.674442,0 116.17764,23.657296,0 116.187373,23.652336,0 116.191358,23.641361,0 116.179939,23.637139,0 116.17787,23.628221,0 116.165455,23.616082,0 116.150664,23.616241,0 116.133497,23.62421,0 116.117326,23.620885,0 116.106137,23.628379,0 116.09878,23.622574,0 116.087208,23.626426,0 116.074256,23.636295,0 116.072417,23.642785,0 116.056476,23.646374,0 116.055786,23.639514,0 116.039386,23.648168,0 116.021223,23.644685,0 116.01126,23.654236,0 116.017467,23.661939,0 116.006585,23.675497,0 115.985816,23.676974,0 115.972328,23.664102,0 115.95861,23.655871,0 115.954471,23.64516,0 115.923663,23.628168,0 115.914696,23.630859,0 115.897836,23.620093,0 115.896227,23.625846,0 115.876148,23.633973,0 115.863656,23.646057,0 115.86036,23.65756,0 115.83461,23.660884,0 115.81844,23.644632,0 115.800047,23.615502,0 115.808247,23.606687,0 115.807787,23.59877,0 115.798131,23.597133,0 115.812309,23.578974,0 115.802116,23.557168,0 115.80794,23.554158,0 115.801349,23.543122,0 115.788398,23.539267,0 115.793302,23.525694,0 115.786175,23.517455,0 115.776059,23.524638,0 115.759735,23.522895,0 115.751612,23.52749,0 115.736437,23.525958,0 115.733755,23.51624,0 115.723179,23.514656,0 115.713829,23.519092,0 115.70195,23.534092,0 115.69467,23.550092,0 115.687389,23.557538,0 115.669686,23.548403,0 115.659493,23.532613,0 115.639797,23.528758,0 115.642096,23.513863,0 115.637115,23.514972,0 115.622094,23.507102,0 115.623167,23.489934,0 115.616116,23.475035,0 115.606537,23.471865,0 115.61443,23.469751,0 115.625236,23.45168,0 115.646235,23.439684,0 115.648304,23.430329,0 115.657884,23.420445,0 115.682868,23.407759,0 115.673058,23.395071,0 115.671602,23.38344,0 115.676813,23.354992,0 115.694057,23.354675,0 115.703023,23.368265,0 115.725938,23.369375,0 115.739886,23.379263,0 115.777668,23.383651,0 115.787401,23.368952,0 115.811236,23.346689,0 115.819666,23.335741,0 115.812845,23.326696,0 115.802039,23.324422,0 115.797288,23.309134,0 115.797671,23.286596,0 115.824571,23.272416,0 115.831621,23.258128,0 115.810929,23.24876,0 115.797288,23.249184,0 115.768089,23.24442,0 115.758126,23.244949,0 115.749236,23.236375,0 115.750079,23.225683,0 115.757743,23.215942,0 115.752148,23.193601,0 115.73866,23.211125,0 115.730613,23.199107,0 115.733525,23.192806,0 115.725631,23.183805,0 115.752991,23.167813,0 115.76349,23.159233,0 115.780657,23.15828,0 115.791386,23.13953,0 115.79951,23.133015,0 115.833154,23.122897,0 115.832924,23.112196,0 115.85147,23.098791,0 115.864345,23.117865,0 115.883505,23.11956,0 115.898832,23.129466,0 115.908795,23.125652,0 115.916612,23.112302,0 115.923126,23.110977,0 115.920751,23.100116,0 115.939833,23.082206,0 115.937688,23.067156,0 115.950333,23.06599,0 115.951099,23.061273,0 115.964741,23.052952,0 115.966963,23.04728,0 115.955314,23.038322,0 115.950716,23.024327,0 115.937688,23.030424,0 115.923586,23.017594,0 115.942209,23.006195,0 115.954471,23.021571,0 115.959989,23.017435,0 115.945505,22.996015,0 115.94949,22.990023,0 115.941213,22.987053,0 115.9488,22.972682,0 115.943819,22.956293,0 115.958993,22.957036,0 115.963515,22.94961,0 115.973247,22.969818,0 115.977846,22.951838,0 115.967116,22.943775,0 115.979225,22.938629,0 115.983287,22.925897,0 116.0026,22.937409,0 116.005665,22.945632,0 116.017697,22.934067,0 116.026894,22.939107,0 116.055633,22.920433,0 116.080234,22.915764,0 116.086595,22.901491,0 116.109969,22.891143,0 116.124453,22.892523,0 116.135106,22.900589,0 116.143843,22.890294,0 116.156105,22.886208,0 116.172505,22.893425,0 116.16806,22.913695,0 116.181549,22.92611,0 116.198256,22.93168,0 116.211667,22.926004,0 116.223929,22.926852,0 116.226918,22.914491,0 116.246844,22.921918,0 116.269452,22.938364,0 116.302789,22.951519,0 116.31735,22.952845,0 116.334977,22.938736,0 116.382646,22.919213,0 116.45024,22.936773,0 116.473691,22.937728,0 116.486949,22.93115,0 116.505572,22.930884,0 116.515995,22.939001,0 116.52956,22.96531,0 116.533162,22.984561,0 116.540979,22.994583,0 116.550405,22.993894,0 116.563051,23.000734,0 116.561978,23.006991,0 116.576002,23.017117,0 116.563204,23.025812,0 116.557379,23.056238,0 116.565809,23.08316,0 116.56374,23.092963,0 116.552551,23.105891,0</coordinates></LinearRing></outerBoundaryIs>
      </Polygon>
    </MultiGeometry>
    </Placemark>
  </Document>
</kml>
