<?xml version="1.0" encoding="UTF-8"?>
<kml xmlns="http://www.opengis.net/kml/2.2">
  <Document>
    <name><![CDATA[梅州市]]></name>
    <Placemark>
      <name><![CDATA[梅州市]]></name>
      <description><![CDATA[省级目录：广东省]]></description>
      <ExtendedData>
        <Data name="adcode"><value>441400</value></Data>
      </ExtendedData>
      <MultiGeometry>
      <Polygon>
        <outerBoundaryIs><LinearRing><coordinates>116.368468,23.73304,0 116.373296,23.740264,0 116.380883,23.737364,0 116.401958,23.76225,0 116.402955,23.769261,0 116.416903,23.777854,0 116.436215,23.780331,0 116.439357,23.773584,0 116.451849,23.76905,0 116.464954,23.755238,0 116.485187,23.751547,0 116.496146,23.752496,0 116.504729,23.763673,0 116.505955,23.793614,0 116.516761,23.802679,0 116.510324,23.808793,0 116.513389,23.815854,0 116.509864,23.827764,0 116.518371,23.823443,0 116.525881,23.8324,0 116.516608,23.845994,0 116.498981,23.85848,0 116.496989,23.869226,0 116.514386,23.866698,0 116.522279,23.882131,0 116.535384,23.88171,0 116.536304,23.886608,0 116.558682,23.899037,0 116.557992,23.907253,0 116.575083,23.909149,0 116.590487,23.900933,0 116.604741,23.910781,0 116.604205,23.929474,0 116.608343,23.94153,0 116.604205,23.950322,0 116.623518,23.947269,0 116.62574,23.950006,0 116.60842,23.961166,0 116.610796,23.968483,0 116.628652,23.973693,0 116.637312,23.968851,0 116.641144,23.989588,0 116.646969,23.994429,0 116.657775,23.988588,0 116.684751,23.989588,0 116.68797,23.981062,0 116.69548,23.991903,0 116.690422,24.005375,0 116.697166,24.002586,0 116.708815,24.019161,0 116.708662,24.033471,0 116.700155,24.050094,0 116.71257,24.062455,0 116.734642,24.053619,0 116.744069,24.061982,0 116.75748,24.082125,0 116.76752,24.074657,0 116.772195,24.09401,0 116.766447,24.107523,0 116.76637,24.124032,0 116.780241,24.147319,0 116.789745,24.157095,0 116.796872,24.157043,0 116.809594,24.169183,0 116.831819,24.161878,0 116.836034,24.173387,0 116.847836,24.182689,0 116.859485,24.177276,0 116.867072,24.163717,0 116.878568,24.167817,0 116.883856,24.181638,0 116.884315,24.193671,0 116.900333,24.196771,0 116.904548,24.202813,0 116.896577,24.218784,0 116.917116,24.232809,0 116.933363,24.222251,0 116.939188,24.239585,0 116.935203,24.249879,0 116.939418,24.274561,0 116.935892,24.284748,0 116.918189,24.283383,0 116.914281,24.287741,0 116.912978,24.31147,0 116.919569,24.320972,0 116.909299,24.329212,0 116.908226,24.341756,0 116.896118,24.35073,0 116.896961,24.360071,0 116.903935,24.369883,0 116.885235,24.396221,0 116.87328,24.391132,0 116.869448,24.407237,0 116.863547,24.409807,0 116.8555,24.423812,0 116.848219,24.426906,0 116.838946,24.442586,0 116.841475,24.453389,0 116.85343,24.453127,0 116.860788,24.46225,0 116.849369,24.47908,0 116.832278,24.496117,0 116.814269,24.483798,0 116.816798,24.490403,0 116.796795,24.50204,0 116.783307,24.51834,0 116.781085,24.533747,0 116.772348,24.534743,0 116.758323,24.546637,0 116.757327,24.557483,0 116.767826,24.564189,0 116.761159,24.582943,0 116.781621,24.603056,0 116.787522,24.614735,0 116.798864,24.624003,0 116.798558,24.637146,0 116.811969,24.644895,0 116.815342,24.65458,0 116.80124,24.678293,0 116.777559,24.67955,0 116.753802,24.654528,0 116.741923,24.666568,0 116.707282,24.665103,0 116.700462,24.655732,0 116.690116,24.659501,0 116.667048,24.658611,0 116.650954,24.651387,0 116.635167,24.647722,0 116.632101,24.640078,0 116.624131,24.641387,0 116.596465,24.654057,0 116.586425,24.636727,0 116.57217,24.628978,0 116.570484,24.621752,0 116.553318,24.613059,0 116.530096,24.604941,0 116.510477,24.615572,0 116.513466,24.645052,0 116.517681,24.651544,0 116.504959,24.66704,0 116.501511,24.698339,0 116.486949,24.71859,0 116.469706,24.719323,0 116.455911,24.713724,0 116.446102,24.714456,0 116.437365,24.733606,0 116.417209,24.743076,0 116.41537,24.756467,0 116.419125,24.767295,0 116.40717,24.777808,0 116.399659,24.794019,0 116.38939,24.790359,0 116.374905,24.807197,0 116.377894,24.821836,0 116.417822,24.840656,0 116.407323,24.853253,0 116.393911,24.856912,0 116.394754,24.877869,0 116.379274,24.877503,0 116.374599,24.86841,0 116.3618,24.869873,0 116.349768,24.856703,0 116.351071,24.848549,0 116.345783,24.829103,0 116.332295,24.826646,0 116.318193,24.818176,0 116.299954,24.802909,0 116.29137,24.800242,0 116.26493,24.799876,0 116.251289,24.793392,0 116.233049,24.80066,0 116.23895,24.813262,0 116.250906,24.822777,0 116.250063,24.827901,0 116.23895,24.83041,0 116.229294,24.826019,0 116.22117,24.830828,0 116.22048,24.842642,0 116.210901,24.854455,0 116.200938,24.85801,0 116.191741,24.877137,0 116.181012,24.875099,0 116.153269,24.846667,0 116.139551,24.844681,0 116.116023,24.851424,0 116.094871,24.849229,0 116.09058,24.838199,0 116.083222,24.853515,0 116.068891,24.84996,0 116.06276,24.859891,0 116.051648,24.862034,0 116.043907,24.87165,0 116.038313,24.886909,0 116.023368,24.902166,0 116.015245,24.905719,0 116.00306,24.896471,0 115.985586,24.899658,0 115.976696,24.915959,0 115.962748,24.91319,0 115.954625,24.918519,0 115.908412,24.923272,0 115.8973,24.937115,0 115.878447,24.932571,0 115.882049,24.923847,0 115.885421,24.898823,0 115.904044,24.888007,0 115.907033,24.880168,0 115.893544,24.871075,0 115.871779,24.868671,0 115.8599,24.864804,0 115.864729,24.876144,0 115.865572,24.89041,0 115.856145,24.891769,0 115.850474,24.900338,0 115.831621,24.908175,0 115.819666,24.906816,0 115.809243,24.892866,0 115.805105,24.873218,0 115.80725,24.862766,0 115.796674,24.858584,0 115.782573,24.862922,0 115.79108,24.855083,0 115.785562,24.846145,0 115.791846,24.83867,0 115.78081,24.835115,0 115.779278,24.819797,0 115.77284,24.814046,0 115.774143,24.80453,0 115.765406,24.79381,0 115.776672,24.77446,0 115.765406,24.76332,0 115.757129,24.749929,0 115.757359,24.73617,0 115.771614,24.726282,0 115.769162,24.709904,0 115.780887,24.702054,0 115.794988,24.70174,0 115.801196,24.705665,0 115.808017,24.697606,0 115.805641,24.685883,0 115.797747,24.682114,0 115.798284,24.674944,0 115.779584,24.677299,0 115.761804,24.668139,0 115.780197,24.663166,0 115.789471,24.644895,0 115.786712,24.634162,0 115.796828,24.629606,0 115.818056,24.603213,0 115.840971,24.584043,0 115.840971,24.576238,0 115.848941,24.569952,0 115.844113,24.562722,0 115.806101,24.562932,0 115.785102,24.56728,0 115.759429,24.5502,0 115.743948,24.543651,0 115.717968,24.539721,0 115.708541,24.544856,0 115.686086,24.547004,0 115.678269,24.56487,0 115.687083,24.570633,0 115.685167,24.585352,0 115.671679,24.604732,0 115.660566,24.606774,0 115.649607,24.614735,0 115.635582,24.612168,0 115.629068,24.619762,0 115.608682,24.62615,0 115.594198,24.615206,0 115.578181,24.615206,0 115.570747,24.61929,0 115.567681,24.631963,0 115.559481,24.64301,0 115.529056,24.634476,0 115.520779,24.628507,0 115.520702,24.618296,0 115.506065,24.601485,0 115.513882,24.576186,0 115.493649,24.569166,0 115.50024,24.562093,0 115.483227,24.562722,0 115.488055,24.547947,0 115.485679,24.541502,0 115.491427,24.522847,0 115.486982,24.516348,0 115.493266,24.498004,0 115.505452,24.493181,0 115.515951,24.495068,0 115.530129,24.491661,0 115.538712,24.48233,0 115.554116,24.484427,0 115.551511,24.469433,0 115.560401,24.477035,0 115.57067,24.478398,0 115.576495,24.470953,0 115.575728,24.461044,0 115.593048,24.459733,0 115.58891,24.45061,0 115.575805,24.441747,0 115.573812,24.42785,0 115.582166,24.42271,0 115.583852,24.411276,0 115.576035,24.395801,0 115.557948,24.386201,0 115.550898,24.359914,0 115.552737,24.333359,0 115.560477,24.329002,0 115.563619,24.312993,0 115.571743,24.309948,0 115.567758,24.295249,0 115.577721,24.290313,0 115.580863,24.277554,0 115.576725,24.270098,0 115.592205,24.255289,0 115.590826,24.242894,0 115.577874,24.242264,0 115.570823,24.235751,0 115.573276,24.227136,0 115.571437,24.204231,0 115.564156,24.200816,0 115.557718,24.206333,0 115.551204,24.198504,0 115.538099,24.192777,0 115.538789,24.179588,0 115.545303,24.170234,0 115.520626,24.182689,0 115.515185,24.190728,0 115.503612,24.187575,0 115.510356,24.175542,0 115.507061,24.165977,0 115.520856,24.143324,0 115.509897,24.140381,0 115.521929,24.137122,0 115.522235,24.128868,0 115.532581,24.12256,0 115.537409,24.108838,0 115.529592,24.098479,0 115.513192,24.099058,0 115.508364,24.105157,0 115.500393,24.128395,0 115.494339,24.122297,0 115.483763,24.123506,0 115.480084,24.130761,0 115.481387,24.143167,0 115.473494,24.142168,0 115.463301,24.130077,0 115.453261,24.125504,0 115.446824,24.130498,0 115.442302,24.124452,0 115.44874,24.112781,0 115.437551,24.104,0 115.428967,24.076708,0 115.417778,24.068241,0 115.426132,24.053934,0 115.445598,24.038311,0 115.445214,24.016109,0 115.449889,24.012531,0 115.446517,23.99364,0 115.452495,23.983956,0 115.453261,23.967009,0 115.425212,23.953796,0 115.408505,23.950585,0 115.411877,23.939898,0 115.400688,23.927999,0 115.403524,23.909675,0 115.391491,23.89672,0 115.391875,23.881921,0 115.381835,23.88034,0 115.378846,23.867646,0 115.371872,23.865223,0 115.37647,23.851052,0 115.354399,23.842411,0 115.356315,23.829028,0 115.349801,23.818489,0 115.363136,23.80426,0 115.35072,23.800677,0 115.358461,23.792455,0 115.349264,23.782545,0 115.317153,23.761617,0 115.325966,23.75761,0 115.347961,23.75392,0 115.365588,23.760246,0 115.387276,23.778223,0 115.399385,23.768734,0 115.382985,23.748173,0 115.388503,23.734516,0 115.403677,23.724392,0 115.412567,23.723021,0 115.411724,23.707568,0 115.407432,23.703349,0 115.420231,23.696123,0 115.443528,23.703349,0 115.445981,23.709572,0 115.454028,23.706672,0 115.457093,23.696281,0 115.451652,23.680509,0 115.452648,23.663363,0 115.448893,23.662888,0 115.441919,23.643102,0 115.432722,23.63772,0 115.43142,23.600195,0 115.428737,23.581138,0 115.437781,23.571688,0 115.436708,23.561762,0 115.450349,23.555954,0 115.435328,23.534356,0 115.432569,23.516134,0 115.440616,23.500975,0 115.432569,23.495903,0 115.418468,23.495956,0 115.416858,23.484122,0 115.426438,23.483119,0 115.426208,23.468431,0 115.432876,23.468906,0 115.440693,23.447981,0 115.435558,23.43165,0 115.454871,23.418119,0 115.454411,23.404904,0 115.460082,23.400252,0 115.457017,23.38381,0 115.463914,23.375456,0 115.475486,23.373658,0 115.505068,23.378734,0 115.510816,23.388621,0 115.50936,23.399935,0 115.513652,23.407177,0 115.507827,23.411142,0 115.518403,23.422506,0 115.52668,23.421978,0 115.527293,23.428743,0 115.543234,23.436935,0 115.561244,23.434557,0 115.582013,23.448668,0 115.596804,23.464838,0 115.594964,23.469434,0 115.606537,23.471865,0 115.616116,23.475035,0 115.623167,23.489934,0 115.622094,23.507102,0 115.637115,23.514972,0 115.642096,23.513863,0 115.639797,23.528758,0 115.659493,23.532613,0 115.669686,23.548403,0 115.687389,23.557538,0 115.69467,23.550092,0 115.70195,23.534092,0 115.713829,23.519092,0 115.723179,23.514656,0 115.733755,23.51624,0 115.736437,23.525958,0 115.751612,23.52749,0 115.759735,23.522895,0 115.776059,23.524638,0 115.786175,23.517455,0 115.793302,23.525694,0 115.788398,23.539267,0 115.801349,23.543122,0 115.80794,23.554158,0 115.802116,23.557168,0 115.812309,23.578974,0 115.798131,23.597133,0 115.807787,23.59877,0 115.808247,23.606687,0 115.800047,23.615502,0 115.81844,23.644632,0 115.83461,23.660884,0 115.86036,23.65756,0 115.863656,23.646057,0 115.876148,23.633973,0 115.896227,23.625846,0 115.897836,23.620093,0 115.914696,23.630859,0 115.923663,23.628168,0 115.954471,23.64516,0 115.95861,23.655871,0 115.972328,23.664102,0 115.985816,23.676974,0 116.006585,23.675497,0 116.017467,23.661939,0 116.01126,23.654236,0 116.021223,23.644685,0 116.039386,23.648168,0 116.055786,23.639514,0 116.056476,23.646374,0 116.072417,23.642785,0 116.074256,23.636295,0 116.087208,23.626426,0 116.09878,23.622574,0 116.106137,23.628379,0 116.117326,23.620885,0 116.133497,23.62421,0 116.150664,23.616241,0 116.165455,23.616082,0 116.17787,23.628221,0 116.179939,23.637139,0 116.191358,23.641361,0 116.187373,23.652336,0 116.17764,23.657296,0 116.183005,23.674442,0 116.181089,23.68552,0 116.19588,23.685784,0 116.214349,23.702558,0 116.214119,23.71896,0 116.227684,23.728821,0 116.236957,23.727608,0 116.233126,23.718169,0 116.271598,23.746433,0 116.271215,23.757294,0 116.288458,23.763199,0 116.295892,23.759139,0 116.306621,23.769841,0 116.320033,23.775534,0 116.335437,23.773953,0 116.338732,23.758823,0 116.350151,23.751969,0 116.35475,23.743058,0 116.368468,23.73304,0</coordinates></LinearRing></outerBoundaryIs>
      </Polygon>
    </MultiGeometry>
    </Placemark>
  </Document>
</kml>
