<?xml version="1.0" encoding="UTF-8"?>
<kml xmlns="http://www.opengis.net/kml/2.2">
  <Document>
    <name><![CDATA[汕头市]]></name>
    <Placemark>
      <name><![CDATA[汕头市]]></name>
      <description><![CDATA[省级目录：广东省]]></description>
      <ExtendedData>
        <Data name="adcode"><value>440500</value></Data>
      </ExtendedData>
      <MultiGeometry>
      <Polygon>
        <outerBoundaryIs><LinearRing><coordinates>116.552551,23.105891,0 116.552245,23.114527,0 116.566423,23.134339,0 116.577765,23.141755,0 116.597691,23.146522,0 116.651874,23.152931,0 116.665285,23.158174,0 116.676014,23.168078,0 116.701458,23.198207,0 116.71487,23.20996,0 116.724756,23.214407,0 116.744682,23.215042,0 116.788518,23.199266,0 116.806758,23.20096,0 116.814728,23.207631,0 116.823542,23.230447,0 116.816644,23.243044,0 116.799861,23.244209,0 116.791277,23.265801,0 116.791814,23.278236,0 116.786986,23.288554,0 116.782771,23.313842,0 116.806452,23.347958,0 116.833045,23.36578,0 116.858488,23.408023,0 116.8719,23.414631,0 116.873433,23.445074,0 116.885235,23.454481,0 116.896194,23.476197,0 116.885158,23.478734,0 116.88853,23.501609,0 116.899183,23.518881,0 116.91704,23.531662,0 116.918342,23.561603,0 116.909146,23.58193,0 116.911062,23.602201,0 116.900563,23.611965,0 116.900639,23.61946,0 116.891289,23.622785,0 116.874812,23.616082,0 116.86278,23.623471,0 116.863087,23.632601,0 116.83818,23.644632,0 116.830976,23.645793,0 116.821319,23.635609,0 116.822545,23.627429,0 116.831895,23.622152,0 116.827527,23.611807,0 116.815035,23.612493,0 116.805379,23.606793,0 116.795799,23.610488,0 116.791737,23.59935,0 116.794496,23.589532,0 116.785223,23.579554,0 116.772578,23.584147,0 116.761389,23.573958,0 116.755794,23.575648,0 116.747211,23.59233,0 116.738934,23.60162,0 116.71303,23.597925,0 116.714946,23.584728,0 116.702991,23.574433,0 116.718701,23.563135,0 116.719391,23.552522,0 116.70621,23.542541,0 116.70483,23.517561,0 116.71326,23.493103,0 116.717935,23.471072,0 116.7128,23.459236,0 116.702378,23.456172,0 116.698469,23.446977,0 116.702608,23.438204,0 116.68659,23.429483,0 116.681915,23.438627,0 116.668504,23.428638,0 116.654403,23.431069,0 116.650264,23.426312,0 116.630108,23.429378,0 116.614015,23.433289,0 116.605431,23.443013,0 116.58995,23.453265,0 116.588111,23.461984,0 116.580294,23.461139,0 116.579834,23.447981,0 116.58949,23.443383,0 116.591177,23.426524,0 116.58198,23.423194,0 116.575313,23.40797,0 116.577535,23.40242,0 116.569105,23.388093,0 116.568339,23.378258,0 116.561978,23.38693,0 116.553088,23.412305,0 116.544887,23.424356,0 116.523429,23.437517,0 116.512316,23.439472,0 116.469553,23.437622,0 116.465721,23.442485,0 116.472005,23.455802,0 116.482658,23.465472,0 116.491164,23.478734,0 116.492314,23.492839,0 116.482581,23.500552,0 116.465797,23.497647,0 116.448707,23.488349,0 116.435832,23.473344,0 116.426482,23.468642,0 116.415676,23.479737,0 116.41491,23.510271,0 116.408856,23.512596,0 116.401115,23.500394,0 116.377051,23.500658,0 116.355363,23.472288,0 116.350764,23.449619,0 116.332371,23.443647,0 116.319649,23.449196,0 116.316891,23.442273,0 116.322868,23.421767,0 116.331758,23.424409,0 116.34563,23.408182,0 116.34517,23.399565,0 116.350994,23.386559,0 116.349768,23.358112,0 116.354903,23.347324,0 116.348848,23.335794,0 116.329689,23.336376,0 116.319573,23.332303,0 116.319343,23.325903,0 116.330839,23.316487,0 116.328846,23.299559,0 116.323558,23.302839,0 116.308997,23.296067,0 116.312752,23.286649,0 116.302406,23.279348,0 116.305548,23.272839,0 116.298727,23.263526,0 116.294129,23.239815,0 116.279415,23.226,0 116.26677,23.227906,0 116.259719,23.216842,0 116.261328,23.205301,0 116.269222,23.204984,0 116.26447,23.196724,0 116.252745,23.191536,0 116.262325,23.175174,0 116.252362,23.176286,0 116.254891,23.152507,0 116.244545,23.140431,0 116.261558,23.12295,0 116.29183,23.110501,0 116.29137,23.099162,0 116.302866,23.096036,0 116.312829,23.102712,0 116.327543,23.09646,0 116.340648,23.086498,0 116.346703,23.05857,0 116.368314,23.05751,0 116.374982,23.050408,0 116.370077,23.046856,0 116.3805,23.039807,0 116.395904,23.044524,0 116.405484,23.053959,0 116.426865,23.063393,0 116.437212,23.080246,0 116.446561,23.085863,0 116.445488,23.093281,0 116.453919,23.091161,0 116.478826,23.104249,0 116.509787,23.100646,0 116.520287,23.094553,0 116.552551,23.105891,0</coordinates></LinearRing></outerBoundaryIs>
      </Polygon>
      <Polygon>
        <outerBoundaryIs><LinearRing><coordinates>117.14542,23.456119,0 117.141281,23.460029,0 117.12764,23.458814,0 117.132928,23.47271,0 117.129479,23.48333,0 117.109247,23.476831,0 117.103882,23.464573,0 117.093383,23.459395,0 117.084569,23.461878,0 117.079435,23.472922,0 117.06449,23.475669,0 117.051232,23.467849,0 117.0228,23.43683,0 117.016669,23.438785,0 117.001341,23.457334,0 116.98563,23.460822,0 116.974441,23.457123,0 116.961413,23.447241,0 116.951067,23.44629,0 116.944706,23.440001,0 116.945089,23.422824,0 116.964708,23.416375,0 116.981722,23.414525,0 116.999502,23.416216,0 117.028854,23.414789,0 117.029927,23.406332,0 117.051155,23.400781,0 117.079128,23.409027,0 117.098747,23.405063,0 117.102196,23.393644,0 117.114075,23.399459,0 117.124268,23.389732,0 117.142967,23.400411,0 117.145496,23.411829,0 117.135993,23.422665,0 117.136836,23.439895,0 117.148562,23.437992,0 117.154769,23.445074,0 117.145113,23.450095,0 117.14542,23.456119,0</coordinates></LinearRing></outerBoundaryIs>
      </Polygon>
    </MultiGeometry>
    </Placemark>
  </Document>
</kml>
