<?xml version="1.0" encoding="UTF-8"?>
<kml xmlns="http://www.opengis.net/kml/2.2">
  <Document>
    <name><![CDATA[江门市]]></name>
    <Placemark>
      <name><![CDATA[江门市]]></name>
      <description><![CDATA[省级目录：广东省]]></description>
      <ExtendedData>
        <Data name="adcode"><value>440700</value></Data>
      </ExtendedData>
      <MultiGeometry>
      <Polygon>
        <outerBoundaryIs><LinearRing><coordinates>112.165431,22.385018,0 112.154012,22.37591,0 112.153323,22.368452,0 112.144433,22.358597,0 112.150564,22.35327,0 112.147268,22.339098,0 112.13447,22.337233,0 112.1347,22.349221,0 112.128185,22.349754,0 112.119832,22.337766,0 112.119985,22.35636,0 112.107877,22.347463,0 112.098757,22.351618,0 112.081896,22.351086,0 112.065036,22.324392,0 112.068945,22.318477,0 112.062201,22.304515,0 112.068332,22.295988,0 112.061511,22.28357,0 112.049479,22.270777,0 112.036604,22.262781,0 112.019973,22.268271,0 112.010547,22.266193,0 112.004262,22.248333,0 112.021353,22.242842,0 112.024112,22.235217,0 112.037906,22.232178,0 112.037906,22.215061,0 112.051625,22.207542,0 112.052161,22.194742,0 112.041585,22.187489,0 112.03668,22.168019,0 112.051165,22.14684,0 112.038826,22.131366,0 112.027254,22.127044,0 112.034381,22.113437,0 112.072776,22.125177,0 112.073236,22.130192,0 112.086341,22.131313,0 112.089867,22.137342,0 112.105884,22.135795,0 112.106727,22.125497,0 112.126806,22.105538,0 112.126116,22.096572,0 112.143206,22.095185,0 112.149721,22.090915,0 112.156541,22.095718,0 112.16773,22.085417,0 112.173785,22.085204,0 112.185051,22.066841,0 112.199075,22.064706,0 112.212334,22.069243,0 112.226818,22.063585,0 112.231263,22.0528,0 112.216779,22.03956,0 112.221607,22.01788,0 112.232029,22.019589,0 112.225669,22.012219,0 112.239387,22.006185,0 112.263757,22.001432,0 112.273644,21.99358,0 112.276939,21.982524,0 112.299011,21.985248,0 112.318477,21.976381,0 112.323841,21.962919,0 112.331045,21.9595,0 112.340472,21.942831,0 112.341085,21.919213,0 112.346909,21.920442,0 112.345147,21.906067,0 112.350818,21.901631,0 112.348365,21.885276,0 112.343077,21.876723,0 112.356872,21.872019,0 112.370054,21.861434,0 112.351737,21.849298,0 112.358558,21.834006,0 112.342464,21.818499,0 112.34576,21.811814,0 112.32775,21.799193,0 112.333574,21.770844,0 112.326754,21.767527,0 112.313955,21.751263,0 112.304529,21.744415,0 112.310047,21.732483,0 112.303456,21.71445,0 112.307824,21.704174,0 112.315105,21.700749,0 112.323995,21.705994,0 112.35327,21.707118,0 112.409522,21.728417,0 112.415806,21.734784,0 112.427379,21.790207,0 112.439411,21.803685,0 112.47773,21.795663,0 112.497502,21.785393,0 112.523406,21.761,0 112.535591,21.754099,0 112.558812,21.750996,0 112.598817,21.75014,0 112.639358,21.756025,0 112.651697,21.762124,0 112.686031,21.810531,0 112.737454,21.864214,0 112.767113,21.89046,0 112.792327,21.921297,0 112.800374,21.924824,0 112.832332,21.924557,0 112.840915,21.920496,0 112.86291,21.883084,0 112.885135,21.852185,0 112.893565,21.844326,0 112.911345,21.838979,0 112.944529,21.84208,0 112.972042,21.857157,0 112.989669,21.86956,0 113.037797,21.935297,0 113.04753,21.956455,0 113.051822,21.977556,0 113.054198,22.003835,0 113.050672,22.018254,0 113.032279,22.045753,0 113.03067,22.066521,0 113.035498,22.077357,0 113.045844,22.088513,0 113.078568,22.116212,0 113.087152,22.126137,0 113.091903,22.136595,0 113.097421,22.187702,0 113.109453,22.204609,0 113.106388,22.209355,0 113.115584,22.215115,0 113.120413,22.209622,0 113.129686,22.218208,0 113.158885,22.228712,0 113.168541,22.238417,0 113.176128,22.267792,0 113.176281,22.280158,0 113.185478,22.294762,0 113.193065,22.358171,0 113.183255,22.369837,0 113.169154,22.377987,0 113.1631,22.387947,0 113.165399,22.40025,0 113.181646,22.40238,0 113.18839,22.394924,0 113.192145,22.381662,0 113.209389,22.388054,0 113.212224,22.398599,0 113.237285,22.391782,0 113.24947,22.399344,0 113.262652,22.392048,0 113.256368,22.410794,0 113.256444,22.43779,0 113.245179,22.457276,0 113.240121,22.476172,0 113.2251,22.497142,0 113.2251,22.497142,0 113.215367,22.513107,0 113.187087,22.539924,0 113.188697,22.552798,0 113.185095,22.574289,0 113.176358,22.590032,0 113.157045,22.614228,0 113.157199,22.63204,0 113.163176,22.651392,0 113.17061,22.651392,0 113.160801,22.665425,0 113.161414,22.673717,0 113.113362,22.701618,0 113.102096,22.698536,0 113.087228,22.717878,0 113.075273,22.777959,0 113.059562,22.801219,0 113.049523,22.807751,0 113.025229,22.802335,0 112.988596,22.800423,0 112.980396,22.802759,0 112.963995,22.826971,0 112.923454,22.856274,0 112.905904,22.851444,0 112.900463,22.845286,0 112.888967,22.845764,0 112.883679,22.852187,0 112.873639,22.848206,0 112.867892,22.835412,0 112.860305,22.833767,0 112.851491,22.839978,0 112.844594,22.835306,0 112.850648,22.830157,0 112.852947,22.809609,0 112.843061,22.810671,0 112.835857,22.803821,0 112.819303,22.803025,0 112.812099,22.791714,0 112.822369,22.784545,0 112.818001,22.765424,0 112.811486,22.765318,0 112.803899,22.752145,0 112.810413,22.750498,0 112.807961,22.72877,0 112.778302,22.715221,0 112.769489,22.701246,0 112.755771,22.692425,0 112.744505,22.696729,0 112.741286,22.691362,0 112.734082,22.698217,0 112.717989,22.691681,0 112.708256,22.71028,0 112.69538,22.695613,0 112.692392,22.705232,0 112.706646,22.718303,0 112.709022,22.729567,0 112.698599,22.733764,0 112.707796,22.74407,0 112.702891,22.756395,0 112.69653,22.75905,0 112.680436,22.747045,0 112.687563,22.737164,0 112.701128,22.728398,0 112.690322,22.726379,0 112.683885,22.733923,0 112.675914,22.727495,0 112.682659,22.72165,0 112.680053,22.713999,0 112.665109,22.724041,0 112.672083,22.713521,0 112.664649,22.713043,0 112.660127,22.727335,0 112.646256,22.726698,0 112.641044,22.712883,0 112.625104,22.711077,0 112.620965,22.70114,0 112.616674,22.707995,0 112.604182,22.706241,0 112.587321,22.696357,0 112.600273,22.688439,0 112.595981,22.680786,0 112.584716,22.677809,0 112.583566,22.664362,0 112.577359,22.656388,0 112.546474,22.642248,0 112.536281,22.648627,0 112.540189,22.661864,0 112.535591,22.67765,0 112.554214,22.682061,0 112.560038,22.695826,0 112.549462,22.70098,0 112.53835,22.71825,0 112.523176,22.728079,0 112.507542,22.723457,0 112.500108,22.728664,0 112.47704,22.715912,0 112.47658,22.704009,0 112.492674,22.686897,0 112.489992,22.676215,0 112.500261,22.668667,0 112.506545,22.657664,0 112.505243,22.638473,0 112.515742,22.626617,0 112.52172,22.607262,0 112.505626,22.597849,0 112.483171,22.592372,0 112.475047,22.585511,0 112.463552,22.584873,0 112.456348,22.600562,0 112.441787,22.606039,0 112.435732,22.619971,0 112.440867,22.627627,0 112.443243,22.642248,0 112.428375,22.657133,0 112.435272,22.661279,0 112.429218,22.666063,0 112.419562,22.664202,0 112.412741,22.656814,0 112.416113,22.647723,0 112.400402,22.635921,0 112.407146,22.628425,0 112.405077,22.618216,0 112.398333,22.619917,0 112.396034,22.602636,0 112.390363,22.594765,0 112.380247,22.594978,0 112.379404,22.57881,0 112.371127,22.558278,0 112.377411,22.552479,0 112.366835,22.550404,0 112.364306,22.558544,0 112.344533,22.564342,0 112.342694,22.558065,0 112.353577,22.556682,0 112.359631,22.545457,0 112.342541,22.55067,0 112.33641,22.545457,0 112.323918,22.554554,0 112.331505,22.563916,0 112.328133,22.569874,0 112.309127,22.572427,0 112.303609,22.560139,0 112.307747,22.556841,0 112.302153,22.544818,0 112.307364,22.525399,0 112.301233,22.515289,0 112.275636,22.510659,0 112.25732,22.500229,0 112.262531,22.480803,0 112.252875,22.458926,0 112.242835,22.445191,0 112.235938,22.427035,0 112.243678,22.408238,0 112.226895,22.408025,0 112.211184,22.399078,0 112.196163,22.404936,0 112.188423,22.398066,0 112.192791,22.384432,0 112.186353,22.376069,0 112.189189,22.36467,0 112.175088,22.36989,0 112.172022,22.381769,0 112.165431,22.385018,0</coordinates></LinearRing></outerBoundaryIs>
      </Polygon>
      <Polygon>
        <outerBoundaryIs><LinearRing><coordinates>112.77539,21.564101,0 112.806735,21.578778,0 112.817311,21.59008,0 112.81164,21.599935,0 112.798918,21.610861,0 112.798611,21.618572,0 112.805432,21.639509,0 112.821066,21.653697,0 112.813096,21.674843,0 112.805432,21.68132,0 112.811256,21.703746,0 112.81869,21.712202,0 112.826124,21.729005,0 112.832945,21.736389,0 112.866436,21.742542,0 112.875785,21.750354,0 112.876015,21.772716,0 112.859232,21.770576,0 112.840839,21.776674,0 112.817311,21.767367,0 112.806888,21.769346,0 112.800067,21.759502,0 112.789108,21.759556,0 112.781368,21.768329,0 112.776386,21.751103,0 112.782287,21.737994,0 112.77493,21.732269,0 112.765351,21.733874,0 112.740443,21.727507,0 112.724196,21.719694,0 112.707872,21.698501,0 112.712164,21.688118,0 112.70542,21.682605,0 112.713467,21.673344,0 112.727568,21.672381,0 112.734542,21.666599,0 112.749257,21.671417,0 112.754621,21.682658,0 112.763358,21.681802,0 112.780295,21.671524,0 112.77608,21.655625,0 112.752399,21.649896,0 112.738681,21.630353,0 112.73094,21.613752,0 112.735385,21.602506,0 112.744888,21.604006,0 112.756001,21.611932,0 112.753548,21.583546,0 112.76696,21.588099,0 112.770255,21.583224,0 112.761289,21.573743,0 112.77539,21.564101,0</coordinates></LinearRing></outerBoundaryIs>
      </Polygon>
      <Polygon>
        <outerBoundaryIs><LinearRing><coordinates>112.530993,21.583921,0 112.53766,21.591259,0 112.546703,21.586813,0 112.562414,21.59008,0 112.560881,21.59474,0 112.544788,21.600631,0 112.54701,21.60754,0 112.568622,21.619429,0 112.583566,21.613324,0 112.595138,21.613324,0 112.598817,21.606416,0 112.610543,21.611396,0 112.621502,21.606737,0 112.62495,21.616162,0 112.634683,21.623766,0 112.637672,21.632655,0 112.659821,21.630942,0 112.665645,21.642507,0 112.650241,21.646362,0 112.639895,21.6545,0 112.640431,21.673719,0 112.665952,21.683943,0 112.669707,21.693952,0 112.664036,21.713754,0 112.657215,21.708242,0 112.648631,21.715092,0 112.631465,21.706904,0 112.610006,21.702676,0 112.592303,21.693042,0 112.589237,21.676128,0 112.572377,21.672381,0 112.559808,21.665475,0 112.561648,21.657177,0 112.570155,21.652787,0 112.570461,21.64572,0 112.550382,21.633726,0 112.544328,21.638866,0 112.535055,21.628479,0 112.524249,21.596293,0 112.524938,21.586277,0 112.530993,21.583921,0</coordinates></LinearRing></outerBoundaryIs>
      </Polygon>
      <Polygon>
        <outerBoundaryIs><LinearRing><coordinates>112.435426,21.663548,0 112.445772,21.649146,0 112.456348,21.648772,0 112.460869,21.660764,0 112.468073,21.66692,0 112.466081,21.686673,0 112.458417,21.690098,0 112.449987,21.673077,0 112.435426,21.663548,0</coordinates></LinearRing></outerBoundaryIs>
      </Polygon>
      <Polygon>
        <outerBoundaryIs><LinearRing><coordinates>112.680513,21.69818,0 112.690092,21.699893,0 112.686184,21.713701,0 112.6799,21.707493,0 112.680513,21.69818,0</coordinates></LinearRing></outerBoundaryIs>
      </Polygon>
      <Polygon>
        <outerBoundaryIs><LinearRing><coordinates>112.883449,21.593776,0 112.893105,21.594794,0 112.902532,21.602292,0 112.903222,21.610861,0 112.883066,21.615466,0 112.861991,21.60663,0 112.867049,21.595597,0 112.883449,21.593776,0</coordinates></LinearRing></outerBoundaryIs>
      </Polygon>
      <Polygon>
        <outerBoundaryIs><LinearRing><coordinates>113.025459,21.847801,0 113.032663,21.854698,0 113.04684,21.854752,0 113.051975,21.868812,0 113.045844,21.882763,0 113.023466,21.879823,0 113.007372,21.869186,0 113.020247,21.849619,0 113.025459,21.847801,0</coordinates></LinearRing></outerBoundaryIs>
      </Polygon>
      <Polygon>
        <outerBoundaryIs><LinearRing><coordinates>112.656372,21.595704,0 112.667025,21.607862,0 112.65369,21.60588,0 112.656372,21.595704,0</coordinates></LinearRing></outerBoundaryIs>
      </Polygon>
      <Polygon>
        <outerBoundaryIs><LinearRing><coordinates>112.587934,21.58617,0 112.60035,21.591741,0 112.59989,21.599185,0 112.581727,21.600578,0 112.579274,21.591634,0 112.587934,21.58617,0</coordinates></LinearRing></outerBoundaryIs>
      </Polygon>
      <Polygon>
        <outerBoundaryIs><LinearRing><coordinates>112.674228,21.610646,0 112.672312,21.617608,0 112.664802,21.612467,0 112.674228,21.610646,0</coordinates></LinearRing></outerBoundaryIs>
      </Polygon>
      <Polygon>
        <outerBoundaryIs><LinearRing><coordinates>112.801677,21.564261,0 112.814245,21.569458,0 112.818077,21.579635,0 112.807195,21.577439,0 112.794013,21.568922,0 112.801677,21.564261,0</coordinates></LinearRing></outerBoundaryIs>
      </Polygon>
    </MultiGeometry>
    </Placemark>
  </Document>
</kml>
