<?xml version="1.0" encoding="UTF-8"?>
<kml xmlns="http://www.opengis.net/kml/2.2">
  <Document>
    <name><![CDATA[河源市]]></name>
    <Placemark>
      <name><![CDATA[河源市]]></name>
      <description><![CDATA[省级目录：广东省]]></description>
      <ExtendedData>
        <Data name="adcode"><value>441600</value></Data>
      </ExtendedData>
      <MultiGeometry>
      <Polygon>
        <outerBoundaryIs><LinearRing><coordinates>115.419311,23.243785,0 115.418161,23.25527,0 115.430883,23.270617,0 115.423909,23.277178,0 115.437934,23.281993,0 115.445674,23.279718,0 115.459009,23.288554,0 115.452342,23.29321,0 115.460235,23.30067,0 115.458396,23.312414,0 115.468359,23.311409,0 115.485756,23.315218,0 115.497328,23.322465,0 115.471348,23.327543,0 115.47564,23.333467,0 115.470888,23.35642,0 115.475486,23.373658,0 115.463914,23.375456,0 115.457017,23.38381,0 115.460082,23.400252,0 115.454411,23.404904,0 115.454871,23.418119,0 115.435558,23.43165,0 115.440693,23.447981,0 115.432876,23.468906,0 115.426208,23.468431,0 115.426438,23.483119,0 115.416858,23.484122,0 115.418468,23.495956,0 115.432569,23.495903,0 115.440616,23.500975,0 115.432569,23.516134,0 115.435328,23.534356,0 115.450349,23.555954,0 115.436708,23.561762,0 115.437781,23.571688,0 115.428737,23.581138,0 115.43142,23.600195,0 115.432722,23.63772,0 115.441919,23.643102,0 115.448893,23.662888,0 115.452648,23.663363,0 115.451652,23.680509,0 115.457093,23.696281,0 115.454028,23.706672,0 115.445981,23.709572,0 115.443528,23.703349,0 115.420231,23.696123,0 115.407432,23.703349,0 115.411724,23.707568,0 115.412567,23.723021,0 115.403677,23.724392,0 115.388503,23.734516,0 115.382985,23.748173,0 115.399385,23.768734,0 115.387276,23.778223,0 115.365588,23.760246,0 115.347961,23.75392,0 115.325966,23.75761,0 115.317153,23.761617,0 115.349264,23.782545,0 115.358461,23.792455,0 115.35072,23.800677,0 115.363136,23.80426,0 115.349801,23.818489,0 115.356315,23.829028,0 115.354399,23.842411,0 115.37647,23.851052,0 115.371872,23.865223,0 115.378846,23.867646,0 115.381835,23.88034,0 115.391875,23.881921,0 115.391491,23.89672,0 115.403524,23.909675,0 115.400688,23.927999,0 115.411877,23.939898,0 115.408505,23.950585,0 115.425212,23.953796,0 115.453261,23.967009,0 115.452495,23.983956,0 115.446517,23.99364,0 115.449889,24.012531,0 115.445214,24.016109,0 115.445598,24.038311,0 115.426132,24.053934,0 115.417778,24.068241,0 115.428967,24.076708,0 115.437551,24.104,0 115.44874,24.112781,0 115.442302,24.124452,0 115.446824,24.130498,0 115.453261,24.125504,0 115.463301,24.130077,0 115.473494,24.142168,0 115.481387,24.143167,0 115.480084,24.130761,0 115.483763,24.123506,0 115.494339,24.122297,0 115.500393,24.128395,0 115.508364,24.105157,0 115.513192,24.099058,0 115.529592,24.098479,0 115.537409,24.108838,0 115.532581,24.12256,0 115.522235,24.128868,0 115.521929,24.137122,0 115.509897,24.140381,0 115.520856,24.143324,0 115.507061,24.165977,0 115.510356,24.175542,0 115.503612,24.187575,0 115.515185,24.190728,0 115.520626,24.182689,0 115.545303,24.170234,0 115.538789,24.179588,0 115.538099,24.192777,0 115.551204,24.198504,0 115.557718,24.206333,0 115.564156,24.200816,0 115.571437,24.204231,0 115.573276,24.227136,0 115.570823,24.235751,0 115.577874,24.242264,0 115.590826,24.242894,0 115.592205,24.255289,0 115.576725,24.270098,0 115.580863,24.277554,0 115.577721,24.290313,0 115.567758,24.295249,0 115.571743,24.309948,0 115.563619,24.312993,0 115.560477,24.329002,0 115.552737,24.333359,0 115.550898,24.359914,0 115.557948,24.386201,0 115.576035,24.395801,0 115.583852,24.411276,0 115.582166,24.42271,0 115.573812,24.42785,0 115.575805,24.441747,0 115.58891,24.45061,0 115.593048,24.459733,0 115.575728,24.461044,0 115.576495,24.470953,0 115.57067,24.478398,0 115.560401,24.477035,0 115.551511,24.469433,0 115.554116,24.484427,0 115.538712,24.48233,0 115.530129,24.491661,0 115.515951,24.495068,0 115.505452,24.493181,0 115.493266,24.498004,0 115.486982,24.516348,0 115.491427,24.522847,0 115.485679,24.541502,0 115.488055,24.547947,0 115.483227,24.562722,0 115.50024,24.562093,0 115.493649,24.569166,0 115.513882,24.576186,0 115.506065,24.601485,0 115.520702,24.618296,0 115.520779,24.628507,0 115.529056,24.634476,0 115.559481,24.64301,0 115.559634,24.660915,0 115.555189,24.671803,0 115.556186,24.68269,0 115.534191,24.691954,0 115.523078,24.703049,0 115.52783,24.712573,0 115.523691,24.717544,0 115.507904,24.716497,0 115.506601,24.724921,0 115.496485,24.734077,0 115.500087,24.74114,0 115.48292,24.749667,0 115.478705,24.761123,0 115.465677,24.767243,0 115.450962,24.766301,0 115.41295,24.792869,0 115.401301,24.790359,0 115.389499,24.774408,0 115.372562,24.774408,0 115.362829,24.757461,0 115.363749,24.739361,0 115.358537,24.735176,0 115.338995,24.749092,0 115.321981,24.748725,0 115.306654,24.758664,0 115.278528,24.754113,0 115.269944,24.749406,0 115.258908,24.728793,0 115.247566,24.731671,0 115.233771,24.723508,0 115.224575,24.726386,0 115.200204,24.713671,0 115.18434,24.711421,0 115.188095,24.697135,0 115.195146,24.691902,0 115.168859,24.695094,0 115.155448,24.688761,0 115.14832,24.68986,0 115.138511,24.681277,0 115.125636,24.681486,0 115.120731,24.66437,0 115.111611,24.671437,0 115.104943,24.667825,0 115.08724,24.687087,0 115.083255,24.700484,0 115.074212,24.697972,0 115.073829,24.704252,0 115.059421,24.702735,0 115.054899,24.709904,0 115.045549,24.69792,0 115.046699,24.688761,0 115.030911,24.678136,0 115.024857,24.669133,0 115.007844,24.672431,0 115.003858,24.679183,0 114.991213,24.673321,0 114.978875,24.673216,0 114.962321,24.665155,0 114.955194,24.655418,0 114.937414,24.651911,0 114.936801,24.665417,0 114.919634,24.667092,0 114.909594,24.661543,0 114.905839,24.632538,0 114.898558,24.623008,0 114.901854,24.607926,0 114.893807,24.590957,0 114.89327,24.582367,0 114.88668,24.580271,0 114.882924,24.569218,0 114.869053,24.562355,0 114.861619,24.56728,0 114.854262,24.582524,0 114.859243,24.597295,0 114.846675,24.60248,0 114.83288,24.596352,0 114.826366,24.588286,0 114.804217,24.605413,0 114.796017,24.602166,0 114.781226,24.612954,0 114.768964,24.605779,0 114.752717,24.616253,0 114.729879,24.608922,0 114.730415,24.592424,0 114.735703,24.582838,0 114.732868,24.57519,0 114.738079,24.56508,0 114.72666,24.549781,0 114.71869,24.55413,0 114.705202,24.526096,0 114.699914,24.537101,0 114.686502,24.538568,0 114.677842,24.553815,0 114.665197,24.583676,0 114.638604,24.570371,0 114.624349,24.575662,0 114.608255,24.563613,0 114.592468,24.537991,0 114.572159,24.542288,0 114.562579,24.53752,0 114.546715,24.542812,0 114.534147,24.559002,0 114.500656,24.534166,0 114.481113,24.529974,0 114.469924,24.510688,0 114.451455,24.500362,0 114.442718,24.498633,0 114.42877,24.486262,0 114.422256,24.496903,0 114.41099,24.502564,0 114.402023,24.498528,0 114.406315,24.517973,0 114.403403,24.528716,0 114.390758,24.533537,0 114.387309,24.548,0 114.391677,24.563455,0 114.379722,24.563403,0 114.37658,24.571995,0 114.363858,24.582524,0 114.351059,24.57849,0 114.338567,24.583362,0 114.331593,24.576971,0 114.324006,24.579538,0 114.308142,24.574143,0 114.310518,24.558583,0 114.293275,24.551982,0 114.288906,24.537991,0 114.273732,24.533695,0 114.280169,24.523109,0 114.280399,24.511526,0 114.286607,24.500572,0 114.310595,24.480757,0 114.306839,24.472998,0 114.292968,24.468856,0 114.283465,24.453965,0 114.257868,24.435245,0 114.242004,24.426014,0 114.245683,24.411328,0 114.254879,24.400155,0 114.249898,24.386935,0 114.249208,24.362695,0 114.278637,24.364951,0 114.293581,24.352672,0 114.292508,24.346952,0 114.280859,24.337348,0 114.272966,24.324856,0 114.280553,24.313098,0 114.279326,24.303176,0 114.263692,24.27829,0 114.266451,24.272776,0 114.254649,24.266055,0 114.272889,24.257495,0 114.254802,24.256707,0 114.263156,24.246676,0 114.274958,24.224195,0 114.274192,24.212742,0 114.290899,24.207594,0 114.298026,24.195142,0 114.289289,24.1819,0 114.292891,24.175069,0 114.306533,24.165399,0 114.316419,24.147319,0 114.33029,24.137279,0 114.329831,24.126871,0 114.337418,24.125294,0 114.340713,24.135807,0 114.352209,24.143219,0 114.365161,24.132233,0 114.378879,24.139172,0 114.393517,24.140959,0 114.419956,24.139329,0 114.422179,24.131181,0 114.433215,24.133337,0 114.439499,24.121982,0 114.446856,24.121245,0 114.46387,24.110836,0 114.479044,24.112939,0 114.482953,24.118827,0 114.474063,24.135229,0 114.463946,24.14017,0 114.469311,24.144376,0 114.469848,24.162141,0 114.46272,24.161931,0 114.460574,24.169604,0 114.470537,24.171811,0 114.474216,24.16624,0 114.48119,24.172284,0 114.491613,24.192357,0 114.511155,24.205335,0 114.512458,24.210904,0 114.548324,24.230603,0 114.556065,24.245888,0 114.566028,24.233019,0 114.577293,24.227241,0 114.591318,24.225981,0 114.597602,24.21248,0 114.590935,24.203653,0 114.590782,24.187838,0 114.600055,24.174911,0 114.594077,24.164138,0 114.568327,24.159303,0 114.558134,24.15063,0 114.565568,24.136175,0 114.554226,24.124295,0 114.546715,24.130393,0 114.535833,24.124347,0 114.533993,24.138856,0 114.527939,24.135807,0 114.522957,24.12419,0 114.509469,24.106682,0 114.495828,24.118617,0 114.489697,24.114043,0 114.493222,24.106787,0 114.481267,24.086595,0 114.46364,24.07592,0 114.44586,24.07066,0 114.437813,24.062192,0 114.436587,24.048569,0 114.440725,24.033208,0 114.425628,24.032998,0 114.420416,24.019582,0 114.412523,24.027421,0 114.398038,24.026,0 114.399494,24.018003,0 114.389685,24.012741,0 114.385546,24.003901,0 114.391984,23.991693,0 114.385393,23.994482,0 114.382941,23.981851,0 114.389685,23.97043,0 114.384856,23.967798,0 114.386696,23.95627,0 114.378036,23.942794,0 114.382481,23.932159,0 114.370449,23.92742,0 114.36769,23.912519,0 114.360486,23.910412,0 114.362632,23.901091,0 114.34991,23.887925,0 114.346154,23.878392,0 114.356347,23.869595,0 114.343855,23.86654,0 114.33029,23.852948,0 114.326918,23.8324,0 114.332666,23.808635,0 114.34102,23.807844,0 114.342706,23.796882,0 114.348913,23.791453,0 114.337954,23.770632,0 114.341556,23.7516,0 114.357267,23.747593,0 114.355351,23.736046,0 114.368839,23.725499,0 114.378649,23.744693,0 114.388612,23.739262,0 114.405395,23.708201,0 114.421413,23.709942,0 114.424248,23.697178,0 114.440112,23.687578,0 114.473143,23.703349,0 114.493529,23.699182,0 114.512688,23.688527,0 114.520428,23.668428,0 114.530545,23.666634,0 114.545872,23.631757,0 114.557061,23.622204,0 114.55047,23.605315,0 114.556985,23.5965,0 114.554609,23.590165,0 114.567561,23.579554,0 114.567637,23.570738,0 114.57898,23.561498,0 114.583041,23.563504,0 114.600591,23.555214,0 114.611321,23.544178,0 114.606646,23.536838,0 114.623583,23.529233,0 114.625039,23.549406,0 114.636764,23.548614,0 114.6396,23.556429,0 114.65554,23.562871,0 114.661825,23.535623,0 114.677076,23.529338,0 114.692173,23.532402,0 114.698764,23.520624,0 114.685582,23.508317,0 114.68267,23.493949,0 114.698381,23.470438,0 114.697155,23.46061,0 114.676079,23.45522,0 114.66673,23.447347,0 114.642435,23.416956,0 114.632779,23.407865,0 114.650712,23.396922,0 114.652858,23.411882,0 114.659985,23.403318,0 114.665657,23.409662,0 114.686119,23.413521,0 114.707501,23.40427,0 114.693246,23.393538,0 114.70022,23.389256,0 114.703746,23.367578,0 114.697461,23.366203,0 114.719916,23.358588,0 114.715854,23.347905,0 114.727427,23.338333,0 114.72758,23.327649,0 114.73509,23.334366,0 114.73693,23.328389,0 114.75448,23.328812,0 114.761684,23.314636,0 114.776628,23.313472,0 114.779617,23.294903,0 114.768581,23.2794,0 114.779234,23.275114,0 114.78023,23.265801,0 114.786821,23.266277,0 114.786821,23.25654,0 114.793258,23.23971,0 114.786284,23.236269,0 114.782989,23.224571,0 114.786361,23.207101,0 114.802455,23.205566,0 114.804294,23.199795,0 114.827362,23.184493,0 114.834413,23.171784,0 114.850353,23.165271,0 114.856944,23.177451,0 114.868823,23.189841,0 114.861926,23.199901,0 114.859933,23.211072,0 114.87595,23.222877,0 114.879629,23.241139,0 114.898865,23.246643,0 114.89488,23.254899,0 114.91174,23.274532,0 114.91174,23.295908,0 114.919097,23.314848,0 114.915419,23.316064,0 114.913043,23.338756,0 114.923236,23.338597,0 114.944158,23.350179,0 114.953891,23.343727,0 114.948066,23.329606,0 114.961631,23.326749,0 114.970981,23.313631,0 114.976116,23.316858,0 114.971058,23.302469,0 114.978032,23.294374,0 114.992133,23.296755,0 114.996884,23.31379,0 115.007384,23.324475,0 115.007154,23.332356,0 115.031525,23.329235,0 115.048768,23.320561,0 115.056125,23.321195,0 115.06126,23.331351,0 115.069384,23.330875,0 115.078274,23.344944,0 115.087623,23.343886,0 115.100269,23.355997,0 115.11345,23.35954,0 115.12234,23.368159,0 115.141346,23.360809,0 115.157517,23.362342,0 115.169089,23.368794,0 115.168553,23.377307,0 115.17637,23.381008,0 115.189551,23.376619,0 115.197675,23.380796,0 115.205799,23.377412,0 115.221739,23.384445,0 115.235457,23.385343,0 115.240822,23.376725,0 115.265039,23.384445,0 115.277608,23.375879,0 115.295618,23.357319,0 115.306117,23.360597,0 115.303282,23.346425,0 115.306884,23.344415,0 115.303665,23.324634,0 115.310792,23.307971,0 115.334856,23.322412,0 115.345585,23.316964,0 115.348191,23.308552,0 115.362369,23.305114,0 115.365971,23.299823,0 115.377313,23.302892,0 115.384517,23.289877,0 115.39494,23.288342,0 115.401378,23.276437,0 115.403447,23.250083,0 115.419311,23.243785,0</coordinates></LinearRing></outerBoundaryIs>
      </Polygon>
    </MultiGeometry>
    </Placemark>
  </Document>
</kml>
