<?xml version="1.0" encoding="UTF-8"?>
<kml xmlns="http://www.opengis.net/kml/2.2">
  <Document>
    <name><![CDATA[深圳市]]></name>
    <Placemark>
      <name><![CDATA[深圳市]]></name>
      <description><![CDATA[省级目录：广东省]]></description>
      <ExtendedData>
        <Data name="adcode"><value>440300</value></Data>
      </ExtendedData>
      <MultiGeometry>
      <Polygon>
        <outerBoundaryIs><LinearRing><coordinates>114.229205,22.81253,0 114.215641,22.807751,0 114.20721,22.789802,0 114.189967,22.785713,0 114.180847,22.775728,0 114.187974,22.770364,0 114.182073,22.765265,0 114.201079,22.764787,0 114.203149,22.75512,0 114.215641,22.73557,0 114.208513,22.729248,0 114.208053,22.71469,0 114.196711,22.710227,0 114.19947,22.702043,0 114.195332,22.680095,0 114.187515,22.673557,0 114.187515,22.666382,0 114.172494,22.654368,0 114.15548,22.668933,0 114.16391,22.665372,0 114.167436,22.680679,0 114.151801,22.690139,0 114.145057,22.701193,0 114.144674,22.714159,0 114.121989,22.716231,0 114.117621,22.723244,0 114.107198,22.722979,0 114.098462,22.747205,0 114.08436,22.750551,0 114.074781,22.740883,0 114.064588,22.755916,0 114.049414,22.756448,0 114.049797,22.771161,0 114.039911,22.764309,0 114.035236,22.766752,0 114.017916,22.760219,0 114.002971,22.763459,0 113.995308,22.771267,0 113.990863,22.800211,0 113.984578,22.803662,0 113.974999,22.798458,0 113.978371,22.806529,0 113.972393,22.812476,0 113.954996,22.815078,0 113.954613,22.821025,0 113.937829,22.832705,0 113.910929,22.829997,0 113.904875,22.840137,0 113.893916,22.846189,0 113.89951,22.855478,0 113.887325,22.858504,0 113.883263,22.850542,0 113.877669,22.85447,0 113.872611,22.837271,0 113.857053,22.832599,0 113.851305,22.837483,0 113.841496,22.833979,0 113.834675,22.822193,0 113.838737,22.819591,0 113.837204,22.800901,0 113.824942,22.792935,0 113.813446,22.790439,0 113.811071,22.782473,0 113.802257,22.784863,0 113.801874,22.777109,0 113.791835,22.767655,0 113.790838,22.75342,0 113.762406,22.736899,0 113.751447,22.715381,0 113.757808,22.678766,0 113.765471,22.665744,0 113.773288,22.643205,0 113.782255,22.625713,0 113.803407,22.593169,0 113.832223,22.570246,0 113.838354,22.559342,0 113.834675,22.539552,0 113.851152,22.542584,0 113.856593,22.539605,0 113.864027,22.515981,0 113.859352,22.495652,0 113.862801,22.475853,0 113.870005,22.459565,0 113.881731,22.446788,0 113.89177,22.442635,0 113.915758,22.455945,0 113.946873,22.477343,0 113.959135,22.504912,0 113.976531,22.510606,0 114.024047,22.509808,0 114.030867,22.504274,0 114.054702,22.49959,0 114.064588,22.510553,0 114.077003,22.515502,0 114.081601,22.512415,0 114.090338,22.520982,0 114.084284,22.52508,0 114.094093,22.533593,0 114.114862,22.532795,0 114.117238,22.526942,0 114.135094,22.53886,0 114.153488,22.539285,0 114.157166,22.551947,0 114.165596,22.558916,0 114.182303,22.556788,0 114.182686,22.552798,0 114.201463,22.554341,0 114.223304,22.552745,0 114.232578,22.54003,0 114.258864,22.55881,0 114.292432,22.562959,0 114.304847,22.568704,0 114.311821,22.578597,0 114.325309,22.588649,0 114.346997,22.588702,0 114.359489,22.591574,0 114.381868,22.601519,0 114.398345,22.602848,0 114.422562,22.592744,0 114.430686,22.583384,0 114.434748,22.566576,0 114.467625,22.53338,0 114.471917,22.522206,0 114.468162,22.491395,0 114.474446,22.464515,0 114.48027,22.45291,0 114.48985,22.443647,0 114.50694,22.438589,0 114.52541,22.440559,0 114.539281,22.449237,0 114.549244,22.46574,0 114.585417,22.473405,0 114.611397,22.482027,0 114.627798,22.502996,0 114.627031,22.519918,0 114.614539,22.545191,0 114.589632,22.549766,0 114.568097,22.560778,0 114.559743,22.573172,0 114.559054,22.583277,0 114.572312,22.602689,0 114.58672,22.612845,0 114.60312,22.638739,0 114.60289,22.655272,0 114.580282,22.661491,0 114.553229,22.656229,0 114.515217,22.655485,0 114.514451,22.660747,0 114.505867,22.668455,0 114.481956,22.668136,0 114.478278,22.661864,0 114.453447,22.669943,0 114.449692,22.665319,0 114.431912,22.660907,0 114.428157,22.676746,0 114.441338,22.682167,0 114.445324,22.68897,0 114.442028,22.697579,0 114.426394,22.699918,0 114.42057,22.713999,0 114.409227,22.713574,0 114.403403,22.723935,0 114.413902,22.736261,0 114.414055,22.752251,0 114.41827,22.766327,0 114.404706,22.781305,0 114.396352,22.777322,0 114.394819,22.759794,0 114.388075,22.757191,0 114.36562,22.766062,0 114.355964,22.764893,0 114.354125,22.778172,0 114.342706,22.783642,0 114.351136,22.789696,0 114.353128,22.806636,0 114.33052,22.809291,0 114.318565,22.806583,0 114.314503,22.800157,0 114.294347,22.803397,0 114.284844,22.808282,0 114.282852,22.802388,0 114.26147,22.781783,0 114.250817,22.781677,0 114.245529,22.790652,0 114.234953,22.792989,0 114.229205,22.81253,0</coordinates></LinearRing></outerBoundaryIs>
      </Polygon>
      <Polygon>
        <outerBoundaryIs><LinearRing><coordinates>113.819961,22.396362,0 113.824176,22.40435,0 113.811224,22.420432,0 113.798885,22.422509,0 113.7867,22.413563,0 113.801338,22.407386,0 113.807315,22.40025,0 113.819961,22.396362,0</coordinates></LinearRing></outerBoundaryIs>
      </Polygon>
      <Polygon>
        <outerBoundaryIs><LinearRing><coordinates>113.844485,22.510234,0 113.856823,22.503582,0 113.8569,22.509595,0 113.842569,22.515821,0 113.844485,22.510234,0</coordinates></LinearRing></outerBoundaryIs>
      </Polygon>
      <Polygon>
        <outerBoundaryIs><LinearRing><coordinates>113.839657,22.498526,0 113.847244,22.491927,0 113.851995,22.49661,0 113.844485,22.503369,0 113.839657,22.498526,0</coordinates></LinearRing></outerBoundaryIs>
      </Polygon>
    </MultiGeometry>
    </Placemark>
  </Document>
</kml>
