<?xml version="1.0" encoding="UTF-8"?>
<kml xmlns="http://www.opengis.net/kml/2.2">
  <Document>
    <name><![CDATA[清远市]]></name>
    <Placemark>
      <name><![CDATA[清远市]]></name>
      <description><![CDATA[省级目录：广东省]]></description>
      <ExtendedData>
        <Data name="adcode"><value>441800</value></Data>
      </ExtendedData>
      <MultiGeometry>
      <Polygon>
        <outerBoundaryIs><LinearRing><coordinates>112.994804,24.927347,0 112.984457,24.921183,0 112.966831,24.919302,0 112.959244,24.923481,0 112.94177,24.915907,0 112.937402,24.920452,0 112.924527,24.918884,0 112.904371,24.92181,0 112.879311,24.907809,0 112.873486,24.89668,0 112.842065,24.897151,0 112.804436,24.890724,0 112.788342,24.892396,0 112.780755,24.897307,0 112.786732,24.912406,0 112.782211,24.922698,0 112.784433,24.938577,0 112.773474,24.949963,0 112.746344,24.956492,0 112.742206,24.977484,0 112.745348,24.981348,0 112.741823,24.998577,0 112.725882,25.010062,0 112.715153,25.026035,0 112.719215,25.048268,0 112.715613,25.078375,0 112.697296,25.089957,0 112.695227,25.095538,0 112.679746,25.109935,0 112.668864,25.113951,0 112.667868,25.12214,0 112.659821,25.132779,0 112.648018,25.133613,0 112.628169,25.140601,0 112.624797,25.134082,0 112.612765,25.133196,0 112.596518,25.12626,0 112.562644,25.124487,0 112.537047,25.134239,0 112.507695,25.136742,0 112.502637,25.144616,0 112.491065,25.144459,0 112.4775,25.151394,0 112.458264,25.152072,0 112.452669,25.159841,0 112.454815,25.1735,0 112.443013,25.185594,0 112.430674,25.175273,0 112.426153,25.156244,0 112.413354,25.141331,0 112.399483,25.140653,0 112.387374,25.152177,0 112.393122,25.160154,0 112.373732,25.177567,0 112.364842,25.191693,0 112.350894,25.187054,0 112.329896,25.173813,0 112.313648,25.173917,0 112.302536,25.157182,0 112.288435,25.15859,0 112.281997,25.164742,0 112.256094,25.159372,0 112.255557,25.171571,0 112.246591,25.184969,0 112.201758,25.185803,0 112.18735,25.183092,0 112.193174,25.172197,0 112.183288,25.14884,0 112.183901,25.14107,0 112.174168,25.129493,0 112.17708,25.107379,0 112.165815,25.085001,0 112.162749,25.068462,0 112.152173,25.055939,0 112.153553,25.045502,0 112.148878,25.035429,0 112.155698,25.026974,0 112.134623,24.99581,0 112.122744,24.990485,0 112.120062,24.963698,0 112.142134,24.937951,0 112.15248,24.932414,0 112.175164,24.927504,0 112.16819,24.890828,0 112.165661,24.867208,0 112.171103,24.862713,0 112.161063,24.844211,0 112.149491,24.836945,0 112.141444,24.844524,0 112.124047,24.841074,0 112.112628,24.831508,0 112.097224,24.826385,0 112.096458,24.817235,0 112.083812,24.804844,0 112.059212,24.79951,0 112.05423,24.788895,0 112.033845,24.771165,0 112.030473,24.745064,0 112.013919,24.731514,0 111.999128,24.733135,0 111.985026,24.727485,0 111.972688,24.72738,0 111.961345,24.721206,0 111.952839,24.69635,0 111.939657,24.686616,0 111.944179,24.676409,0 111.939197,24.6695,0 111.947551,24.665364,0 111.953528,24.647199,0 111.934292,24.641911,0 111.927472,24.629397,0 111.938431,24.609498,0 111.937128,24.595828,0 111.948547,24.592686,0 111.963338,24.5809,0 111.971998,24.578648,0 111.978282,24.56136,0 111.989855,24.550776,0 111.997825,24.551196,0 112.007405,24.534533,0 112.005259,24.512051,0 112.009704,24.502878,0 111.996369,24.494911,0 111.987096,24.480862,0 111.986636,24.464505,0 111.996522,24.459261,0 111.999741,24.450452,0 112.023192,24.441538,0 112.042121,24.410279,0 112.043578,24.392706,0 112.057679,24.387093,0 112.061817,24.368152,0 112.059442,24.339709,0 112.050552,24.332572,0 112.045187,24.320762,0 112.033231,24.31336,0 112.026104,24.295091,0 112.015911,24.293989,0 112.003113,24.28165,0 111.990391,24.279812,0 111.988015,24.259018,0 111.975983,24.255079,0 111.969009,24.263691,0 111.956057,24.26033,0 111.952685,24.25156,0 111.94073,24.245153,0 111.942646,24.234858,0 111.961575,24.234753,0 111.978052,24.222671,0 111.986866,24.205124,0 111.994223,24.19861,0 111.997672,24.186945,0 112.006868,24.19015,0 112.024955,24.188364,0 112.041815,24.191516,0 112.04603,24.197611,0 112.041355,24.216682,0 112.050398,24.224247,0 112.053157,24.24594,0 112.058369,24.247043,0 112.067872,24.260698,0 112.086878,24.256917,0 112.106114,24.228555,0 112.11508,24.229027,0 112.122591,24.222986,0 112.129258,24.207489,0 112.144433,24.201394,0 112.148341,24.190098,0 112.157538,24.185841,0 112.166658,24.187943,0 112.169876,24.197454,0 112.196929,24.204074,0 112.215093,24.223459,0 112.218311,24.244365,0 112.235708,24.246203,0 112.249503,24.243367,0 112.256324,24.2597,0 112.255557,24.279182,0 112.261995,24.290576,0 112.256937,24.320762,0 112.258316,24.324279,0 112.27441,24.320604,0 112.293723,24.327585,0 112.293646,24.344538,0 112.284679,24.377334,0 112.288971,24.388666,0 112.307211,24.378593,0 112.319703,24.380167,0 112.342004,24.353512,0 112.373732,24.347949,0 112.384845,24.328373,0 112.393888,24.326641,0 112.401858,24.310211,0 112.411285,24.307061,0 112.423777,24.284958,0 112.444239,24.287741,0 112.449987,24.28102,0 112.458723,24.238377,0 112.453052,24.20938,0 112.439564,24.19057,0 112.439028,24.180324,0 112.43144,24.173387,0 112.434813,24.164453,0 112.429525,24.160564,0 112.434659,24.147529,0 112.428452,24.139802,0 112.429831,24.127081,0 112.446921,24.121929,0 112.455351,24.12482,0 112.452516,24.115725,0 112.463782,24.120772,0 112.486696,24.114148,0 112.49367,24.095377,0 112.489532,24.086122,0 112.500798,24.08081,0 112.497885,24.064401,0 112.507542,24.051778,0 112.507618,24.043309,0 112.518501,24.016635,0 112.506469,24.007269,0 112.511297,24.001376,0 112.516125,23.977009,0 112.535668,23.970746,0 112.564253,23.977325,0 112.567012,23.964903,0 112.575136,23.967325,0 112.588318,23.956692,0 112.608167,23.952586,0 112.622651,23.943636,0 112.645106,23.941004,0 112.662886,23.949585,0 112.675838,23.939846,0 112.682582,23.939056,0 112.683272,23.92405,0 112.693464,23.912729,0 112.693235,23.904251,0 112.685494,23.895351,0 112.692162,23.88961,0 112.672159,23.864801,0 112.679516,23.857216,0 112.672159,23.851473,0 112.675225,23.831241,0 112.661353,23.821651,0 112.655376,23.812587,0 112.675455,23.815169,0 112.689479,23.806369,0 112.70588,23.806369,0 112.700668,23.793192,0 112.704194,23.790557,0 112.69768,23.765677,0 112.706033,23.752813,0 112.730021,23.758507,0 112.743126,23.752444,0 112.725882,23.725816,0 112.711321,23.712104,0 112.713467,23.706883,0 112.724579,23.710258,0 112.72159,23.698549,0 112.715076,23.691639,0 112.728718,23.678504,0 112.744965,23.686523,0 112.739907,23.672596,0 112.744965,23.668481,0 112.751249,23.675286,0 112.75922,23.672332,0 112.768646,23.677397,0 112.780908,23.671224,0 112.784663,23.655291,0 112.778302,23.641255,0 112.752092,23.628643,0 112.750483,23.610065,0 112.756844,23.603309,0 112.772171,23.603309,0 112.781828,23.588529,0 112.799761,23.588951,0 112.800144,23.571846,0 112.7934,23.571688,0 112.796772,23.551835,0 112.802137,23.545551,0 112.830493,23.545762,0 112.827197,23.567042,0 112.848502,23.566936,0 112.86291,23.57343,0 112.871647,23.570896,0 112.893412,23.55268,0 112.900309,23.566725,0 112.91533,23.55231,0 112.911192,23.541643,0 112.893259,23.526434,0 112.887741,23.517402,0 112.903298,23.488613,0 112.928435,23.483488,0 112.925753,23.472393,0 112.933493,23.47065,0 112.930198,23.463094,0 112.94223,23.460188,0 112.957634,23.447558,0 112.965835,23.452155,0 112.966294,23.460663,0 112.975184,23.463622,0 112.993347,23.466845,0 113.00469,23.462037,0 113.018025,23.469065,0 113.042932,23.474137,0 113.055884,23.471971,0 113.063854,23.482537,0 113.075503,23.484228,0 113.083933,23.494266,0 113.108994,23.497964,0 113.128689,23.512596,0 113.15352,23.502823,0 113.172066,23.512384,0 113.192069,23.514761,0 113.191149,23.523212,0 113.211918,23.543914,0 113.210155,23.552997,0 113.200805,23.561815,0 113.202262,23.576492,0 113.214524,23.584253,0 113.227015,23.585731,0 113.227859,23.594441,0 113.245868,23.588265,0 113.24035,23.606212,0 113.248474,23.601567,0 113.2766,23.615977,0 113.280049,23.608957,0 113.290548,23.617085,0 113.299438,23.637456,0 113.289245,23.644368,0 113.31101,23.643313,0 113.32833,23.645371,0 113.327947,23.655502,0 113.334845,23.656399,0 113.338447,23.665737,0 113.347413,23.667215,0 113.366343,23.710311,0 113.372397,23.709731,0 113.378375,23.731511,0 113.397841,23.730562,0 113.404278,23.723495,0 113.438459,23.727134,0 113.443823,23.715901,0 113.464286,23.70799,0 113.468731,23.691006,0 113.481069,23.684043,0 113.510268,23.682461,0 113.527052,23.686153,0 113.545445,23.696387,0 113.546901,23.702558,0 113.55878,23.700712,0 113.568053,23.690215,0 113.568053,23.679454,0 113.587289,23.675234,0 113.587212,23.669008,0 113.597252,23.664946,0 113.615721,23.680192,0 113.61166,23.686206,0 113.623845,23.694699,0 113.622619,23.699446,0 113.638176,23.704562,0 113.628137,23.711682,0 113.631662,23.727872,0 113.63649,23.731985,0 113.630742,23.738946,0 113.636414,23.750229,0 113.626144,23.767416,0 113.615185,23.779804,0 113.633731,23.797198,0 113.640245,23.814274,0 113.651664,23.820123,0 113.666379,23.813694,0 113.684312,23.812956,0 113.687378,23.825709,0 113.706384,23.815275,0 113.720178,23.825129,0 113.714814,23.834982,0 113.718033,23.843887,0 113.709756,23.856267,0 113.713511,23.862484,0 113.733667,23.855003,0 113.742327,23.859165,0 113.749071,23.854371,0 113.758191,23.857479,0 113.767081,23.871439,0 113.775358,23.877918,0 113.781105,23.896299,0 113.791605,23.903882,0 113.800265,23.902566,0 113.799345,23.923524,0 113.792294,23.931527,0 113.775358,23.938424,0 113.774285,23.952691,0 113.766468,23.96085,0 113.744703,23.95906,0 113.739415,23.969588,0 113.730448,23.974641,0 113.732364,23.981114,0 113.718646,23.993008,0 113.728149,23.997166,0 113.747078,24.023212,0 113.753592,24.026842,0 113.763555,24.02137,0 113.772982,24.026947,0 113.784171,24.022317,0 113.790608,24.025106,0 113.790379,24.034471,0 113.803637,24.053566,0 113.813063,24.052567,0 113.83115,24.063507,0 113.828467,24.069608,0 113.837434,24.072764,0 113.845711,24.086806,0 113.836821,24.088331,0 113.836668,24.098637,0 113.842415,24.104053,0 113.836974,24.111729,0 113.839273,24.119931,0 113.850999,24.124978,0 113.853911,24.132811,0 113.86464,24.133021,0 113.870465,24.141169,0 113.862265,24.147319,0 113.857053,24.16151,0 113.880045,24.174123,0 113.901043,24.188521,0 113.909167,24.184318,0 113.930242,24.188416,0 113.930319,24.19593,0 113.922119,24.19304,0 113.921199,24.200974,0 113.896522,24.210326,0 113.890391,24.229763,0 113.890774,24.241476,0 113.88311,24.245415,0 113.870541,24.242264,0 113.872074,24.253976,0 113.862878,24.259018,0 113.855827,24.252926,0 113.84004,24.265109,0 113.850003,24.274561,0 113.844715,24.279707,0 113.844791,24.304541,0 113.850462,24.318872,0 113.8405,24.336246,0 113.831303,24.33656,0 113.817048,24.34459,0 113.818581,24.3522,0 113.800955,24.377334,0 113.805553,24.384364,0 113.803867,24.401781,0 113.77827,24.410909,0 113.765318,24.417727,0 113.762866,24.43299,0 113.753439,24.437185,0 113.726999,24.437028,0 113.723934,24.43493,0 113.722248,24.414633,0 113.709909,24.412377,0 113.686381,24.437709,0 113.683163,24.454175,0 113.666072,24.467493,0 113.656799,24.468227,0 113.643234,24.477717,0 113.63718,24.486471,0 113.625761,24.491923,0 113.609667,24.489983,0 113.596792,24.500886,0 113.599628,24.512994,0 113.589665,24.515248,0 113.579548,24.50052,0 113.57564,24.509115,0 113.552572,24.511055,0 113.540463,24.506233,0 113.531343,24.489826,0 113.530271,24.479551,0 113.518852,24.469852,0 113.507816,24.484007,0 113.499309,24.473785,0 113.489269,24.471006,0 113.478847,24.477769,0 113.467428,24.461726,0 113.440988,24.453703,0 113.419223,24.459943,0 113.412172,24.472526,0 113.415544,24.485266,0 113.379754,24.485213,0 113.37416,24.49402,0 113.362051,24.47908,0 113.350632,24.472159,0 113.331243,24.472579,0 113.31944,24.465291,0 113.294993,24.457164,0 113.272155,24.466969,0 113.270392,24.47672,0 113.261809,24.482225,0 113.252766,24.497794,0 113.25108,24.510216,0 113.244642,24.502144,0 113.235829,24.505866,0 113.230158,24.498475,0 113.216516,24.495697,0 113.20617,24.476458,0 113.19705,24.474676,0 113.186781,24.480705,0 113.174979,24.475882,0 113.16195,24.479027,0 113.153367,24.467703,0 113.151451,24.478713,0 113.13712,24.482907,0 113.114128,24.502983,0 113.096808,24.496431,0 113.087305,24.471583,0 113.063701,24.468804,0 113.047377,24.475515,0 113.025612,24.493863,0 113.02063,24.513675,0 112.999708,24.528716,0 112.991048,24.544751,0 112.981928,24.542917,0 112.96936,24.568118,0 112.96139,24.570266,0 112.964378,24.586138,0 112.950507,24.59499,0 112.926366,24.596457,0 112.91717,24.60049,0 112.902072,24.595671,0 112.8987,24.600542,0 112.887971,24.595304,0 112.884599,24.616358,0 112.89778,24.632277,0 112.896401,24.650602,0 112.914487,24.662695,0 112.900616,24.713776,0 112.930351,24.718695,0 112.938781,24.73821,0 112.933647,24.755369,0 112.940161,24.757514,0 112.954109,24.782201,0 112.95112,24.788476,0 112.960087,24.800974,0 112.95158,24.815771,0 112.95978,24.824241,0 112.979246,24.832553,0 112.998942,24.850483,0 113.014729,24.851528,0 113.019557,24.855971,0 113.022163,24.870866,0 113.010974,24.882781,0 113.009901,24.896889,0 113.004766,24.900129,0 113.00515,24.914078,0 112.994804,24.927347,0</coordinates></LinearRing></outerBoundaryIs>
      </Polygon>
    </MultiGeometry>
    </Placemark>
  </Document>
</kml>
