<?xml version="1.0" encoding="UTF-8"?>
<kml xmlns="http://www.opengis.net/kml/2.2">
  <Document>
    <name><![CDATA[肇庆市]]></name>
    <Placemark>
      <name><![CDATA[肇庆市]]></name>
      <description><![CDATA[省级目录：广东省]]></description>
      <ExtendedData>
        <Data name="adcode"><value>441200</value></Data>
      </ExtendedData>
      <MultiGeometry>
      <Polygon>
        <outerBoundaryIs><LinearRing><coordinates>112.830493,23.545762,0 112.802137,23.545551,0 112.796772,23.551835,0 112.7934,23.571688,0 112.800144,23.571846,0 112.799761,23.588951,0 112.781828,23.588529,0 112.772171,23.603309,0 112.756844,23.603309,0 112.750483,23.610065,0 112.752092,23.628643,0 112.778302,23.641255,0 112.784663,23.655291,0 112.780908,23.671224,0 112.768646,23.677397,0 112.75922,23.672332,0 112.751249,23.675286,0 112.744965,23.668481,0 112.739907,23.672596,0 112.744965,23.686523,0 112.728718,23.678504,0 112.715076,23.691639,0 112.72159,23.698549,0 112.724579,23.710258,0 112.713467,23.706883,0 112.711321,23.712104,0 112.725882,23.725816,0 112.743126,23.752444,0 112.730021,23.758507,0 112.706033,23.752813,0 112.69768,23.765677,0 112.704194,23.790557,0 112.700668,23.793192,0 112.70588,23.806369,0 112.689479,23.806369,0 112.675455,23.815169,0 112.655376,23.812587,0 112.661353,23.821651,0 112.675225,23.831241,0 112.672159,23.851473,0 112.679516,23.857216,0 112.672159,23.864801,0 112.692162,23.88961,0 112.685494,23.895351,0 112.693235,23.904251,0 112.693464,23.912729,0 112.683272,23.92405,0 112.682582,23.939056,0 112.675838,23.939846,0 112.662886,23.949585,0 112.645106,23.941004,0 112.622651,23.943636,0 112.608167,23.952586,0 112.588318,23.956692,0 112.575136,23.967325,0 112.567012,23.964903,0 112.564253,23.977325,0 112.535668,23.970746,0 112.516125,23.977009,0 112.511297,24.001376,0 112.506469,24.007269,0 112.518501,24.016635,0 112.507618,24.043309,0 112.507542,24.051778,0 112.497885,24.064401,0 112.500798,24.08081,0 112.489532,24.086122,0 112.49367,24.095377,0 112.486696,24.114148,0 112.463782,24.120772,0 112.452516,24.115725,0 112.455351,24.12482,0 112.446921,24.121929,0 112.429831,24.127081,0 112.428452,24.139802,0 112.434659,24.147529,0 112.429525,24.160564,0 112.434813,24.164453,0 112.43144,24.173387,0 112.439028,24.180324,0 112.439564,24.19057,0 112.453052,24.20938,0 112.458723,24.238377,0 112.449987,24.28102,0 112.444239,24.287741,0 112.423777,24.284958,0 112.411285,24.307061,0 112.401858,24.310211,0 112.393888,24.326641,0 112.384845,24.328373,0 112.373732,24.347949,0 112.342004,24.353512,0 112.319703,24.380167,0 112.307211,24.378593,0 112.288971,24.388666,0 112.284679,24.377334,0 112.293646,24.344538,0 112.293723,24.327585,0 112.27441,24.320604,0 112.258316,24.324279,0 112.256937,24.320762,0 112.261995,24.290576,0 112.255557,24.279182,0 112.256324,24.2597,0 112.249503,24.243367,0 112.235708,24.246203,0 112.218311,24.244365,0 112.215093,24.223459,0 112.196929,24.204074,0 112.169876,24.197454,0 112.166658,24.187943,0 112.157538,24.185841,0 112.148341,24.190098,0 112.144433,24.201394,0 112.129258,24.207489,0 112.122591,24.222986,0 112.11508,24.229027,0 112.106114,24.228555,0 112.086878,24.256917,0 112.067872,24.260698,0 112.058369,24.247043,0 112.053157,24.24594,0 112.050398,24.224247,0 112.041355,24.216682,0 112.04603,24.197611,0 112.041815,24.191516,0 112.024955,24.188364,0 112.006868,24.19015,0 111.997672,24.186945,0 111.994223,24.19861,0 111.986866,24.205124,0 111.978052,24.222671,0 111.961575,24.234753,0 111.942646,24.234858,0 111.920804,24.233492,0 111.912834,24.221726,0 111.877887,24.228922,0 111.87122,24.176593,0 111.886777,24.163875,0 111.88785,24.15473,0 111.878807,24.126818,0 111.878653,24.1101,0 111.883482,24.095587,0 111.88877,24.092064,0 111.887927,24.07918,0 111.89697,24.069608,0 111.905783,24.046833,0 111.921034,24.037364,0 111.921494,24.012005,0 111.940347,23.987746,0 111.917585,23.95227,0 111.910151,23.952164,0 111.911991,23.943952,0 111.897506,23.946637,0 111.8867,23.944321,0 111.87896,23.936213,0 111.866085,23.946321,0 111.854436,23.947427,0 111.851294,23.93416,0 111.857655,23.918311,0 111.845929,23.904409,0 111.838879,23.91136,0 111.822861,23.911202,0 111.822631,23.903567,0 111.812668,23.887504,0 111.816884,23.875073,0 111.823781,23.871755,0 111.820102,23.855372,0 111.824777,23.832348,0 111.815274,23.829081,0 111.810599,23.807001,0 111.796191,23.815696,0 111.791593,23.809162,0 111.774963,23.80816,0 111.765843,23.815011,0 111.752355,23.812745,0 111.745994,23.820755,0 111.737794,23.819227,0 111.719707,23.825814,0 111.714572,23.837195,0 111.696946,23.835931,0 111.693497,23.817277,0 111.664451,23.834877,0 111.654872,23.833296,0 111.653722,23.821967,0 111.645828,23.815327,0 111.649354,23.811059,0 111.641153,23.79704,0 111.639161,23.786551,0 111.628048,23.788607,0 111.629351,23.736362,0 111.618315,23.73478,0 111.621611,23.725974,0 111.66675,23.718907,0 111.662689,23.706408,0 111.665294,23.699973,0 111.643223,23.696123,0 111.635559,23.684518,0 111.637092,23.678293,0 111.625596,23.6765,0 111.61479,23.658773,0 111.615633,23.638986,0 111.607433,23.637403,0 111.594405,23.643471,0 111.58858,23.638142,0 111.584288,23.644685,0 111.564286,23.633181,0 111.551104,23.640464,0 111.538382,23.630859,0 111.508264,23.62574,0 111.487035,23.626638,0 111.482744,23.605684,0 111.488951,23.592277,0 111.489028,23.561339,0 111.481901,23.558858,0 111.478452,23.543914,0 111.480215,23.532613,0 111.464274,23.511486,0 111.459599,23.49976,0 111.452012,23.500975,0 111.438754,23.481005,0 111.433849,23.480266,0 111.428867,23.466581,0 111.399745,23.469382,0 111.399975,23.456859,0 111.392848,23.446712,0 111.395607,23.43831,0 111.383421,23.399671,0 111.392081,23.391106,0 111.389169,23.375985,0 111.37798,23.369587,0 111.373382,23.355203,0 111.364722,23.343886,0 111.361963,23.330293,0 111.365565,23.31982,0 111.375068,23.315271,0 111.375757,23.319926,0 111.392618,23.325586,0 111.408712,23.315958,0 111.421127,23.316276,0 111.442202,23.301411,0 111.437834,23.295115,0 111.453391,23.289559,0 111.456917,23.281729,0 111.472551,23.275061,0 111.49286,23.284586,0 111.506348,23.282311,0 111.515774,23.288448,0 111.519989,23.305484,0 111.52796,23.310351,0 111.523898,23.322624,0 111.532175,23.324634,0 111.550185,23.298183,0 111.573866,23.270881,0 111.576318,23.253682,0 111.569191,23.243097,0 111.542598,23.234787,0 111.533784,23.22113,0 111.539839,23.212978,0 111.575322,23.194077,0 111.594251,23.188518,0 111.624446,23.189894,0 111.637781,23.185446,0 111.649507,23.164741,0 111.656098,23.158492,0 111.679089,23.154732,0 111.692118,23.157909,0 111.707522,23.150971,0 111.726988,23.150865,0 111.753658,23.137994,0 111.770441,23.13328,0 111.814048,23.129943,0 111.836963,23.131585,0 111.860414,23.141225,0 111.876737,23.138365,0 111.884708,23.131267,0 111.899192,23.125599,0 111.9218,23.124857,0 111.959353,23.130843,0 111.967553,23.129678,0 111.979049,23.119719,0 111.982727,23.097308,0 111.991464,23.087028,0 112.025951,23.081199,0 112.035761,23.07272,0 112.047563,23.072349,0 112.083736,23.079716,0 112.099446,23.089943,0 112.118299,23.083001,0 112.133473,23.08581,0 112.165431,23.075052,0 112.191182,23.074522,0 112.234712,23.114898,0 112.265137,23.119507,0 112.285676,23.129731,0 112.301233,23.122315,0 112.311886,23.121255,0 112.312729,23.115163,0 112.327137,23.104196,0 112.32637,23.093599,0 112.317634,23.080298,0 112.301233,23.079557,0 112.295869,23.060849,0 112.285446,23.042563,0 112.289814,23.024274,0 112.286825,23.020033,0 112.299087,23.010331,0 112.286595,22.984985,0 112.285369,22.976235,0 112.277322,22.970613,0 112.290197,22.952633,0 112.283683,22.944518,0 112.280158,22.949026,0 112.270885,22.943775,0 112.257167,22.951625,0 112.262914,22.939796,0 112.261075,22.918735,0 112.257703,22.910564,0 112.26598,22.906638,0 112.278319,22.91465,0 112.285369,22.911254,0 112.295332,22.915605,0 112.307364,22.911254,0 112.305602,22.896132,0 112.29993,22.89178,0 112.296022,22.873312,0 112.298704,22.865138,0 112.312269,22.850489,0 112.310353,22.824848,0 112.319703,22.825378,0 112.336257,22.806476,0 112.323841,22.802706,0 112.315488,22.790015,0 112.32844,22.786722,0 112.356336,22.787997,0 112.374116,22.794369,0 112.384232,22.792245,0 112.382622,22.784545,0 112.392509,22.76978,0 112.413507,22.774454,0 112.441403,22.787731,0 112.443779,22.791661,0 112.463398,22.789271,0 112.482788,22.795006,0 112.489992,22.809131,0 112.500414,22.812476,0 112.499035,22.826918,0 112.510531,22.823042,0 112.52034,22.82729,0 112.527544,22.815131,0 112.532449,22.822883,0 112.557433,22.826122,0 112.571841,22.833077,0 112.57414,22.84741,0 112.563104,22.854151,0 112.557816,22.863387,0 112.561648,22.873312,0 112.587168,22.862962,0 112.591613,22.869809,0 112.604258,22.870552,0 112.632384,22.877664,0 112.635526,22.883714,0 112.659284,22.887163,0 112.676374,22.895442,0 112.677524,22.902764,0 112.685418,22.89836,0 112.692468,22.901969,0 112.68649,22.907593,0 112.696683,22.917196,0 112.690092,22.927277,0 112.672696,22.940486,0 112.686874,22.948443,0 112.699749,22.94839,0 112.708869,22.927754,0 112.734082,22.940751,0 112.74144,22.962923,0 112.736228,22.963878,0 112.734772,22.98122,0 112.751556,22.99103,0 112.759679,22.979735,0 112.777076,22.996545,0 112.787882,23.000999,0 112.790564,23.00206,0 112.788189,22.991879,0 112.794856,22.990394,0 112.820453,23.010225,0 112.834094,23.014784,0 112.819227,23.052051,0 112.818767,23.072614,0 112.805355,23.091426,0 112.799684,23.109971,0 112.798458,23.13863,0 112.793936,23.150071,0 112.775773,23.166754,0 112.771941,23.191694,0 112.772938,23.199742,0 112.764431,23.202919,0 112.766347,23.21356,0 112.772861,23.215678,0 112.769412,23.223354,0 112.781521,23.225842,0 112.786349,23.205937,0 112.7934,23.208213,0 112.795316,23.226318,0 112.799837,23.228224,0 112.806582,23.212395,0 112.80091,23.200431,0 112.810873,23.200378,0 112.815012,23.217107,0 112.831949,23.215678,0 112.842984,23.224465,0 112.8472,23.238651,0 112.823595,23.24569,0 112.844977,23.263314,0 112.847966,23.275061,0 112.857546,23.287231,0 112.866895,23.293263,0 112.87134,23.315588,0 112.883296,23.347324,0 112.863907,23.349122,0 112.859691,23.364563,0 112.838386,23.387352,0 112.814092,23.391793,0 112.805892,23.387511,0 112.810107,23.371332,0 112.806582,23.367419,0 112.787269,23.371173,0 112.785736,23.394173,0 112.794166,23.407547,0 112.796389,23.429113,0 112.803669,23.435773,0 112.802673,23.444229,0 112.811793,23.462513,0 112.831029,23.468114,0 112.838156,23.484704,0 112.845743,23.487134,0 112.845284,23.502929,0 112.850418,23.527596,0 112.840762,23.536046,0 112.831642,23.537577,0 112.830493,23.545762,0</coordinates></LinearRing></outerBoundaryIs>
      </Polygon>
    </MultiGeometry>
    </Placemark>
  </Document>
</kml>
