<?xml version="1.0" encoding="UTF-8"?>
<kml xmlns="http://www.opengis.net/kml/2.2">
  <Document>
    <name>忻州市</name>
    <Placemark>
      <name>忻州市</name>
      <Polygon><outerBoundaryIs><LinearRing><coordinates>111.930280000000,39.611411000000,0 111.902031000000,39.617170000000,0 111.878902000000,39.605892000000,0 111.842538000000,39.620109000000,0 111.787645000000,39.589691000000,0 111.722684000000,39.606012000000,0 111.707844000000,39.621429000000,0 111.646528000000,39.644278000000,0 111.616630000000,39.633305000000,0 111.589596000000,39.644938000000,0 111.568637000000,39.643559000000,0 111.557615000000,39.654231000000,0 111.501941000000,39.663104000000,0 111.461541000000,39.646377000000,0 111.438108000000,39.643019000000,0 111.442751000000,39.630186000000,0 111.462930000000,39.624488000000,0 111.451951000000,39.608112000000,0 111.443359000000,39.620169000000,0 111.428952000000,39.613691000000,0 111.438803000000,39.601452000000,0 111.433205000000,39.561841000000,0 111.422487000000,39.542148000000,0 111.433986000000,39.523409000000,0 111.426479000000,39.503404000000,0 111.388640000000,39.492167000000,0 111.364165000000,39.467284000000,0 111.364079000000,39.446361000000,0 111.352449000000,39.426754000000,0 111.337218000000,39.420920000000,0 111.289268000000,39.417190000000,0 111.262060000000,39.424228000000,0 111.199356000000,39.420799000000,0 111.172192000000,39.423386000000,0 111.145331000000,39.409429000000,0 111.119598000000,39.377233000000,0 111.125587000000,39.366458000000,0 111.155051000000,39.368264000000,0 111.155398000000,39.338699000000,0 111.167505000000,39.337253000000,0 111.183648000000,39.350924000000,0 111.195017000000,39.344962000000,0 111.179438000000,39.326773000000,0 111.187987000000,39.314303000000,0 111.213806000000,39.301288000000,0 111.247480000000,39.302313000000,0 111.227171000000,39.284354000000,0 111.213546000000,39.257165000000,0 111.219013000000,39.245648000000,0 111.163079000000,39.152473000000,0 111.174144000000,39.135140000000,0 111.162515000000,39.108437000000,0 111.147327000000,39.100521000000,0 111.138345000000,39.064314000000,0 111.094170000000,39.030205000000,0 111.038235000000,39.020102000000,0 110.998400000000,38.998500000000,0 110.983299000000,38.980342000000,0 111.009899000000,38.932626000000,0 111.015714000000,38.896211000000,0 111.012329000000,38.878330000000,0 110.996013000000,38.868024000000,0 111.010116000000,38.841584000000,0 110.996490000000,38.825085000000,0 110.979133000000,38.787705000000,0 110.956308000000,38.776717000000,0 110.965030000000,38.755709000000,0 110.945286000000,38.729471000000,0 110.955006000000,38.709482000000,0 110.949495000000,38.685841000000,0 110.985946000000,38.684321000000,0 111.003086000000,38.663225000000,0 111.025087000000,38.659334000000,0 111.071301000000,38.686327000000,0 111.123634000000,38.706505000000,0 111.151753000000,38.723882000000,0 111.202437000000,38.729350000000,0 111.219664000000,38.711791000000,0 111.227519000000,38.667360000000,0 111.248044000000,38.657449000000,0 111.250040000000,38.636041000000,0 111.276206000000,38.594301000000,0 111.346938000000,38.603430000000,0 111.348934000000,38.586815000000,0 111.373625000000,38.573057000000,0 111.432771000000,38.570256000000,0 111.446310000000,38.563620000000,0 111.450779000000,38.530306000000,0 111.468397000000,38.510384000000,0 111.503633000000,38.483873000000,0 111.505846000000,38.518975000000,0 111.522422000000,38.524763000000,0 111.551757000000,38.506849000000,0 111.565599000000,38.511907000000,0 111.609557000000,38.542184000000,0 111.684368000000,38.566603000000,0 111.706325000000,38.598318000000,0 111.719256000000,38.602335000000,0 111.749762000000,38.581884000000,0 111.769029000000,38.537129000000,0 111.725375000000,38.514161000000,0 111.728759000000,38.500024000000,0 111.793546000000,38.450827000000,0 111.793720000000,38.429723000000,0 111.782828000000,38.421000000000,0 111.793763000000,38.402572000000,0 111.788860000000,38.387803000000,0 111.823314000000,38.369062000000,0 111.821535000000,38.336758000000,0 111.841149000000,38.320997000000,0 111.842364000000,38.304072000000,0 111.777274000000,38.292705000000,0 111.779183000000,38.248015000000,0 111.800272000000,38.235416000000,0 111.817630000000,38.214311000000,0 111.849611000000,38.214984000000,0 111.847658000000,38.229788000000,0 111.869138000000,38.220062000000,0 111.872870000000,38.193383000000,0 111.898125000000,38.198034000000,0 111.915136000000,38.180713000000,0 111.951326000000,38.167919000000,0 112.011730000000,38.184202000000,0 112.046445000000,38.171837000000,0 112.101381000000,38.167368000000,0 112.134751000000,38.140976000000,0 112.160353000000,38.150040000000,0 112.214726000000,38.132401000000,0 112.212166000000,38.143671000000,0 112.236206000000,38.142752000000,0 112.251480000000,38.150101000000,0 112.267753000000,38.182488000000,0 112.251480000000,38.219572000000,0 112.220888000000,38.250583000000,0 112.234036000000,38.261590000000,0 112.269966000000,38.267888000000,0 112.248009000000,38.291728000000,0 112.274002000000,38.313910000000,0 112.305202000000,38.306700000000,0 112.319739000000,38.310977000000,0 112.340611000000,38.303034000000,0 112.363740000000,38.278036000000,0 112.406483000000,38.266787000000,0 112.433126000000,38.280664000000,0 112.446926000000,38.276080000000,0 112.458685000000,38.249972000000,0 112.499606000000,38.237312000000,0 112.524731000000,38.249972000000,0 112.524947000000,38.267826000000,0 112.562526000000,38.239147000000,0 112.557536000000,38.223426000000,0 112.569036000000,38.210640000000,0 112.620761000000,38.206540000000,0 112.648359000000,38.227586000000,0 112.639984000000,38.246425000000,0 112.681686000000,38.235844000000,0 112.693879000000,38.241471000000,0 112.748989000000,38.242021000000,0 112.796115000000,38.251011000000,0 112.822628000000,38.287327000000,0 112.850834000000,38.306089000000,0 112.911021000000,38.321181000000,0 112.945129000000,38.333887000000,0 112.972207000000,38.357461000000,0 112.978238000000,38.342255000000,0 113.003450000000,38.343354000000,0 113.031135000000,38.367597000000,0 113.039293000000,38.381699000000,0 113.069365000000,38.388108000000,0 113.083902000000,38.399216000000,0 113.085551000000,38.415753000000,0 113.121351000000,38.421305000000,0 113.145695000000,38.411664000000,0 113.203018000000,38.415386000000,0 113.208572000000,38.420450000000,0 113.284858000000,38.451559000000,0 113.294492000000,38.468022000000,0 113.333242000000,38.485823000000,0 113.368174000000,38.495941000000,0 113.416688000000,38.517878000000,0 113.435087000000,38.520681000000,0 113.458086000000,38.510079000000,0 113.484860000000,38.508556000000,0 113.517449000000,38.519828000000,0 113.555548000000,38.521046000000,0 113.562057000000,38.558322000000,0 113.602804000000,38.586876000000,0 113.604236000000,38.616087000000,0 113.612871000000,38.646016000000,0 113.632616000000,38.653070000000,0 113.667070000000,38.646989000000,0 113.702132000000,38.651672000000,0 113.713805000000,38.663712000000,0 113.709987000000,38.698301000000,0 113.729036000000,38.711974000000,0 113.745396000000,38.701522000000,0 113.775641000000,38.709847000000,0 113.780415000000,38.728317000000,0 113.802936000000,38.763300000000,0 113.839560000000,38.758381000000,0 113.836566000000,38.795959000000,0 113.853663000000,38.810159000000,0 113.855529000000,38.828967000000,0 113.835611000000,38.842555000000,0 113.801330000000,38.854866000000,0 113.776205000000,38.885665000000,0 113.775121000000,38.919056000000,0 113.767527000000,38.959637000000,0 113.776726000000,38.986940000000,0 113.806798000000,38.989725000000,0 113.830534000000,39.011813000000,0 113.884429000000,39.051676000000,0 113.898012000000,39.067639000000,0 113.930297000000,39.063467000000,0 113.942881000000,39.087467000000,0 113.961757000000,39.100823000000,0 113.952514000000,39.127468000000,0 113.940104000000,39.206920000000,0 113.958589000000,39.222908000000,0 113.967181000000,39.281521000000,0 113.946873000000,39.295805000000,0 113.942186000000,39.308760000000,0 113.898185000000,39.345083000000,0 113.899574000000,39.373019000000,0 113.840602000000,39.370913000000,0 113.791306000000,39.378437000000,0 113.772777000000,39.390715000000,0 113.766529000000,39.405217000000,0 113.739234000000,39.420859000000,0 113.698314000000,39.418814000000,0 113.649496000000,39.434634000000,0 113.599159000000,39.424048000000,0 113.586141000000,39.441249000000,0 113.577289000000,39.438122000000,0 113.560842000000,39.426815000000,0 113.561103000000,39.404315000000,0 113.533895000000,39.384877000000,0 113.515062000000,39.346949000000,0 113.452879000000,39.339120000000,0 113.449234000000,39.321653000000,0 113.422677000000,39.332194000000,0 113.380628000000,39.301710000000,0 113.362403000000,39.314303000000,0 113.258649000000,39.314725000000,0 113.225105000000,39.296407000000,0 113.212174000000,39.295322000000,0 113.164701000000,39.307073000000,0 113.130073000000,39.325388000000,0 113.135888000000,39.343818000000,0 113.108940000000,39.361882000000,0 113.088632000000,39.361280000000,0 113.054264000000,39.349659000000,0 113.035995000000,39.321171000000,0 112.967346000000,39.297251000000,0 112.921089000000,39.287126000000,0 112.898264000000,39.246552000000,0 112.886330000000,39.238953000000,0 112.872922000000,39.212532000000,0 112.833694000000,39.206256000000,0 112.819764000000,39.174933000000,0 112.807701000000,39.173303000000,0 112.780927000000,39.192679000000,0 112.751029000000,39.183384000000,0 112.747254000000,39.158873000000,0 112.725947000000,39.140032000000,0 112.686502000000,39.126381000000,0 112.672399000000,39.132240000000,0 112.655302000000,39.119011000000,0 112.649965000000,39.089764000000,0 112.638292000000,39.085230000000,0 112.589344000000,39.088434000000,0 112.577584000000,39.113513000000,0 112.557797000000,39.118890000000,0 112.546167000000,39.138099000000,0 112.505377000000,39.140455000000,0 112.457514000000,39.112063000000,0 112.437726000000,39.104389000000,0 112.405137000000,39.114661000000,0 112.365345000000,39.108075000000,0 112.331455000000,39.124750000000,0 112.312579000000,39.115446000000,0 112.314054000000,39.100702000000,0 112.294397000000,39.099071000000,0 112.289537000000,39.112183000000,0 112.304681000000,39.119131000000,0 112.298866000000,39.129703000000,0 112.274088000000,39.126985000000,0 112.263500000000,39.175476000000,0 112.250265000000,39.182720000000,0 112.218675000000,39.175657000000,0 112.219716000000,39.203601000000,0 112.201881000000,39.211385000000,0 112.192248000000,39.229966000000,0 112.194374000000,39.249688000000,0 112.182831000000,39.266631000000,0 112.134795000000,39.279170000000,0 112.107977000000,39.270128000000,0 112.100644000000,39.255778000000,0 112.085412000000,39.253125000000,0 112.068055000000,39.282304000000,0 112.048528000000,39.297070000000,0 112.064193000000,39.304904000000,0 112.019671000000,39.357065000000,0 112.023186000000,39.368866000000,0 112.007174000000,39.383011000000,0 112.012251000000,39.402810000000,0 111.999753000000,39.413219000000,0 111.987299000000,39.448405000000,0 111.971287000000,39.446481000000,0 111.951543000000,39.460070000000,0 111.914875000000,39.463256000000,0 111.895782000000,39.497395000000,0 111.906023000000,39.517582000000,0 111.943819000000,39.525511000000,0 111.987516000000,39.526112000000,0 112.002227000000,39.537163000000,0 111.971721000000,39.567064000000,0 111.942734000000,39.585311000000,0 111.930280000000,39.611411000000,0</coordinates></LinearRing></outerBoundaryIs></Polygon>
    </Placemark>
  </Document>
</kml>
