<?xml version="1.0" encoding="UTF-8"?>
<kml xmlns="http://www.opengis.net/kml/2.2">
  <Document>
    <name>朔州市</name>
    <Placemark>
      <name>朔州市</name>
      <Polygon><outerBoundaryIs><LinearRing><coordinates>112.624319000000,40.236839000000,0 112.564175000000,40.257939000000,0 112.511539000000,40.269170000000,0 112.456168000000,40.300059000000,0 112.418156000000,40.295249000000,0 112.345558000000,40.256453000000,0 112.310322000000,40.256394000000,0 112.290535000000,40.223403000000,0 112.299994000000,40.211868000000,0 112.285501000000,40.198189000000,0 112.232778000000,40.169633000000,0 112.223274000000,40.128801000000,0 112.209909000000,40.107720000000,0 112.183916000000,40.084787000000,0 112.181833000000,40.061487000000,0 112.142388000000,40.027329000000,0 112.133580000000,40.001684000000,0 112.094786000000,39.955498000000,0 112.077081000000,39.920868000000,0 112.042539000000,39.886161000000,0 112.035119000000,39.854366000000,0 112.005872000000,39.820821000000,0 111.976190000000,39.798090000000,0 111.967468000000,39.782652000000,0 111.970896000000,39.766014000000,0 111.964518000000,39.725240000000,0 111.968857000000,39.710385000000,0 111.956360000000,39.687737000000,0 111.923944000000,39.665742000000,0 111.937874000000,39.644638000000,0 111.930280000000,39.611411000000,0 111.942734000000,39.585311000000,0 111.971721000000,39.567064000000,0 112.002227000000,39.537163000000,0 111.987516000000,39.526112000000,0 111.943819000000,39.525511000000,0 111.906023000000,39.517582000000,0 111.895782000000,39.497395000000,0 111.914875000000,39.463256000000,0 111.951543000000,39.460070000000,0 111.971287000000,39.446481000000,0 111.987299000000,39.448405000000,0 111.999753000000,39.413219000000,0 112.012251000000,39.402810000000,0 112.007174000000,39.383011000000,0 112.023186000000,39.368866000000,0 112.019671000000,39.357065000000,0 112.064193000000,39.304904000000,0 112.048528000000,39.297070000000,0 112.068055000000,39.282304000000,0 112.085412000000,39.253125000000,0 112.100644000000,39.255778000000,0 112.107977000000,39.270128000000,0 112.134795000000,39.279170000000,0 112.182831000000,39.266631000000,0 112.194374000000,39.249688000000,0 112.192248000000,39.229966000000,0 112.201881000000,39.211385000000,0 112.219716000000,39.203601000000,0 112.218675000000,39.175657000000,0 112.250265000000,39.182720000000,0 112.263500000000,39.175476000000,0 112.274088000000,39.126985000000,0 112.298866000000,39.129703000000,0 112.304681000000,39.119131000000,0 112.289537000000,39.112183000000,0 112.294397000000,39.099071000000,0 112.314054000000,39.100702000000,0 112.312579000000,39.115446000000,0 112.331455000000,39.124750000000,0 112.365345000000,39.108075000000,0 112.405137000000,39.114661000000,0 112.437726000000,39.104389000000,0 112.457514000000,39.112063000000,0 112.505377000000,39.140455000000,0 112.546167000000,39.138099000000,0 112.557797000000,39.118890000000,0 112.577584000000,39.113513000000,0 112.589344000000,39.088434000000,0 112.638292000000,39.085230000000,0 112.649965000000,39.089764000000,0 112.655302000000,39.119011000000,0 112.672399000000,39.132240000000,0 112.686502000000,39.126381000000,0 112.725947000000,39.140032000000,0 112.747254000000,39.158873000000,0 112.751029000000,39.183384000000,0 112.780927000000,39.192679000000,0 112.807701000000,39.173303000000,0 112.819764000000,39.174933000000,0 112.833694000000,39.206256000000,0 112.872922000000,39.212532000000,0 112.886330000000,39.238953000000,0 112.898264000000,39.246552000000,0 112.921089000000,39.287126000000,0 112.967346000000,39.297251000000,0 113.035995000000,39.321171000000,0 113.054264000000,39.349659000000,0 113.088632000000,39.361280000000,0 113.108940000000,39.361882000000,0 113.135888000000,39.343818000000,0 113.130073000000,39.325388000000,0 113.164701000000,39.307073000000,0 113.212174000000,39.295322000000,0 113.225105000000,39.296407000000,0 113.258649000000,39.314725000000,0 113.362403000000,39.314303000000,0 113.380628000000,39.301710000000,0 113.422677000000,39.332194000000,0 113.449234000000,39.321653000000,0 113.452879000000,39.339120000000,0 113.515062000000,39.346949000000,0 113.533895000000,39.384877000000,0 113.561103000000,39.404315000000,0 113.560842000000,39.426815000000,0 113.577289000000,39.438122000000,0 113.570259000000,39.452975000000,0 113.518534000000,39.481109000000,0 113.506340000000,39.503044000000,0 113.511547000000,39.520406000000,0 113.485120000000,39.549834000000,0 113.474012000000,39.554577000000,0 113.458737000000,39.578769000000,0 113.431920000000,39.581770000000,0 113.429403000000,39.605772000000,0 113.383188000000,39.649195000000,0 113.394167000000,39.663524000000,0 113.386139000000,39.682524000000,0 113.410570000000,39.714818000000,0 113.393169000000,39.743684000000,0 113.339925000000,39.776548000000,0 113.329250000000,39.801560000000,0 113.344395000000,39.805807000000,0 113.373208000000,39.834516000000,0 113.396814000000,39.837625000000,0 113.439600000000,39.852154000000,0 113.381192000000,39.906056000000,0 113.352639000000,39.906593000000,0 113.325214000000,39.932632000000,0 113.305036000000,39.934424000000,0 113.285943000000,39.948454000000,0 113.235520000000,39.958303000000,0 113.168433000000,39.916747000000,0 113.122783000000,39.908325000000,0 113.051921000000,39.916449000000,0 113.023107000000,39.912327000000,0 112.939444000000,39.912566000000,0 112.947082000000,39.886878000000,0 112.966826000000,39.868173000000,0 112.954068000000,39.853050000000,0 112.938707000000,39.861120000000,0 112.934280000000,39.841811000000,0 112.911759000000,39.829194000000,0 112.891451000000,39.826084000000,0 112.861596000000,39.799765000000,0 112.831307000000,39.797970000000,0 112.817508000000,39.788816000000,0 112.820806000000,39.776788000000,0 112.752808000000,39.774214000000,0 112.751593000000,39.757933000000,0 112.734409000000,39.753324000000,0 112.693706000000,39.769067000000,0 112.669232000000,39.746199000000,0 112.648359000000,39.740690000000,0 112.621021000000,39.760388000000,0 112.620370000000,39.809397000000,0 112.600019000000,39.816036000000,0 112.591123000000,39.835951000000,0 112.603881000000,39.880604000000,0 112.596547000000,39.920450000000,0 112.617376000000,39.948693000000,0 112.642631000000,40.034484000000,0 112.610563000000,40.079365000000,0 112.622323000000,40.088778000000,0 112.589648000000,40.101050000000,0 112.595723000000,40.114748000000,0 112.581967000000,40.128444000000,0 112.580448000000,40.154398000000,0 112.589778000000,40.161480000000,0 112.622063000000,40.163742000000,0 112.622063000000,40.183377000000,0 112.603186000000,40.202947000000,0 112.609695000000,40.218468000000,0 112.626098000000,40.223047000000,0 112.624319000000,40.236839000000,0</coordinates></LinearRing></outerBoundaryIs></Polygon>
    </Placemark>
  </Document>
</kml>
