<?xml version="1.0" encoding="UTF-8"?>
<kml xmlns="http://www.opengis.net/kml/2.2">
<Document>
<name>阳泉市</name>
<Placemark><name>阳泉市</name><MultiGeometry><Polygon><outerBoundaryIs><LinearRing><coordinates>113.555548000000002,38.521045999999998,0 113.517448999999999,38.519827999999997,0 113.484859999999998,38.508555999999999,0 113.458085999999994,38.510078999999998,0 113.435086999999996,38.520681000000003,0 113.416687999999994,38.517878000000003,0 113.368173999999996,38.495941000000002,0 113.333241999999998,38.485823000000003,0 113.294492000000005,38.468021999999998,0 113.284858,38.451559000000003,0 113.208572000000004,38.420450000000002,0 113.203018,38.415385999999998,0 113.145695000000003,38.411664000000002,0 113.141571999999996,38.394334000000001,0 113.151683000000006,38.375777999999997,0 113.142397000000003,38.360574999999997,0 113.156630000000007,38.345247000000001,0 113.150294000000002,38.328206000000002,0 113.108984000000007,38.307006000000001,0 113.076699000000005,38.307067000000004,0 113.051877000000005,38.275652000000001,0 113.035387999999998,38.270822000000003,0 113.026319000000001,38.255474999999997,0 113.00076,38.248564999999999,0 112.957886999999999,38.217370000000003,0 112.958668000000003,38.206600999999999,0 112.936407000000003,38.178632,0 112.939009999999996,38.164062000000001,0 112.919873999999993,38.157142999999998,0 112.941050000000004,38.136749999999999,0 112.961358000000004,38.139935000000001,0 112.970905000000002,38.112124000000001,0 113.012129000000002,38.084915000000002,0 113.041420000000002,38.081606000000001,0 113.066847999999993,38.056469999999997,0 113.097179999999994,38.056224999999998,0 113.099827000000005,38.065114999999999,0 113.132503,38.082464000000002,0 113.164224000000004,38.054876,0 113.198026999999996,38.058247999999999,0 113.211912999999996,38.082096,0 113.228924000000006,38.091963999999997,0 113.253832000000003,38.090248000000003,0 113.266416000000007,38.071246000000002,0 113.255307000000002,38.058186999999997,0 113.265243999999996,38.033473000000001,0 113.284728000000001,38.028812000000002,0 113.301694999999995,37.986966000000002,0 113.335282000000007,37.980767,0 113.341746999999998,37.962105999999999,0 113.326082,37.902836000000001,0 113.332722000000004,37.889254999999999,0 113.369692999999998,37.867251000000003,0 113.372557,37.838537000000002,0 113.393777,37.822792,0 113.416861999999995,37.787722000000002,0 113.441944000000007,37.76538,0 113.443809999999999,37.743892000000002,0 113.480868000000001,37.700159999999997,0 113.517318000000003,37.697325999999997,0 113.532983999999999,37.678839000000004,0 113.588701,37.67662,0 113.613826000000003,37.680810999999999,0 113.646197999999998,37.664416000000003,0 113.670931999999993,37.663060000000002,0 113.694669000000005,37.670765000000003,0 113.705821,37.685248000000001,0 113.759281999999999,37.683399000000001,0 113.77243,37.662936000000002,0 113.798900000000003,37.672058999999997,0 113.836696000000003,37.675756999999997,0 113.883301000000003,37.705396999999998,0 113.905258000000003,37.706136000000001,0 113.979851999999994,37.675203000000003,0 113.992999999999995,37.684261999999997,0 113.996905999999996,37.704473,0 114.000810999999999,37.735332999999997,0 114.041167000000002,37.756822999999997,0 114.043858,37.777444000000003,0 114.018820000000005,37.794860999999997,0 114.006669000000002,37.813502999999997,0 113.982543000000007,37.812826000000001,0 113.970174999999998,37.833986000000003,0 113.971520999999996,37.868788000000002,0 113.959239999999994,37.906337999999998,0 113.936544999999995,37.923171000000004,0 113.901266000000007,37.984817999999997,0 113.872366,37.990341999999998,0 113.878354000000002,38.032369000000003,0 113.876271000000003,38.055059999999997,0 113.855963000000003,38.065911999999997,0 113.854748000000001,38.077131000000001,0 113.824198999999993,38.106732000000001,0 113.810052999999996,38.112552999999998,0 113.822507000000002,38.150467999999996,0 113.833572000000004,38.147468000000003,0 113.825457,38.169142999999998,0 113.796861000000007,38.162837000000003,0 113.756591,38.171652999999999,0 113.731119000000007,38.168346999999997,0 113.720618000000002,38.174652999999999,0 113.738495999999998,38.189526999999998,0 113.715063999999998,38.193750000000001,0 113.711721999999995,38.213698999999998,0 113.679090000000002,38.205376999999999,0 113.649799999999999,38.229787999999999,0 113.626149999999996,38.232540999999998,0 113.598899000000003,38.227158000000003,0 113.570346000000001,38.237434,0 113.566266999999996,38.252357000000003,0 113.544830000000005,38.270516000000001,0 113.546045000000007,38.293072000000002,0 113.557283999999996,38.343476000000003,0 113.534329,38.365215999999997,0 113.525433000000007,38.382981000000001,0 113.538016999999996,38.418070999999998,0 113.573166000000001,38.449179999999998,0 113.583494000000002,38.465949000000002,0 113.546565999999999,38.493015,0 113.557241000000005,38.503985,0 113.555548000000002,38.521045999999998,0</coordinates></LinearRing></outerBoundaryIs></Polygon></MultiGeometry></Placemark>
</Document>
</kml>