<?xml version="1.0" encoding="UTF-8"?>
<kml xmlns="http://www.opengis.net/kml/2.2">
  <Document>
    <name>固原市</name>
    <Placemark>
      <name>固原市</name>
      <MultiGeometry><Polygon><outerBoundaryIs><LinearRing><coordinates>106.074678000000,35.430692000000,0 106.073026000000,35.420755000000,0 106.064258000000,35.425809000000,0 106.063516000000,35.437911000000,0 106.074678000000,35.430692000000,0</coordinates></LinearRing></outerBoundaryIs></Polygon><Polygon><outerBoundaryIs><LinearRing><coordinates>106.017282000000,35.463767000000,0 106.008143000000,35.453196000000,0 106.009830000000,35.442242000000,0 106.004029000000,35.439015000000,0 105.994789000000,35.451116000000,0 105.992429000000,35.437359000000,0 105.975466000000,35.432773000000,0 105.965585000000,35.425639000000,0 105.960426000000,35.432901000000,0 105.949399000000,35.429631000000,0 105.946802000000,35.422708000000,0 105.930682000000,35.425809000000,0 105.925624000000,35.420670000000,0 105.893958000000,35.415403000000,0 105.889811000000,35.439482000000,0 105.897600000000,35.451498000000,0 105.914833000000,35.453493000000,0 105.925523000000,35.450819000000,0 105.938405000000,35.459734000000,0 105.959853000000,35.463809000000,0 105.970374000000,35.470176000000,0 105.977759000000,35.469497000000,0 105.988483000000,35.475567000000,0 106.023015000000,35.482230000000,0 106.028546000000,35.486983000000,0 106.039270000000,35.485752000000,0 106.054276000000,35.489741000000,0 106.058829000000,35.486177000000,0 106.052219000000,35.474718000000,0 106.054580000000,35.451625000000,0 106.041832000000,35.454003000000,0 106.034548000000,35.469242000000,0 106.017282000000,35.463767000000,0</coordinates></LinearRing></outerBoundaryIs></Polygon><Polygon><outerBoundaryIs><LinearRing><coordinates>106.068102000000,35.488129000000,0 106.088437000000,35.490250000000,0 106.099431000000,35.499628000000,0 106.094608000000,35.508368000000,0 106.078523000000,35.509641000000,0 106.074914000000,35.493221000000,0 106.070699000000,35.491863000000,0 106.068102000000,35.503107000000,0 106.031142000000,35.494536000000,0 106.020520000000,35.493900000000,0 106.011280000000,35.509641000000,0 106.017451000000,35.512144000000,0 106.016102000000,35.522240000000,0 106.004670000000,35.519568000000,0 105.996711000000,35.526227000000,0 105.974286000000,35.531783000000,0 105.963090000000,35.531147000000,0 105.948387000000,35.535770000000,0 105.913248000000,35.539672000000,0 105.902794000000,35.547305000000,0 105.884347000000,35.543785000000,0 105.884415000000,35.534879000000,0 105.868532000000,35.539969000000,0 105.862023000000,35.515071000000,0 105.856223000000,35.511423000000,0 105.846949000000,35.490505000000,0 105.836596000000,35.494791000000,0 105.834033000000,35.517574000000,0 105.836967000000,35.522537000000,0 105.834674000000,35.540986000000,0 105.823040000000,35.537891000000,0 105.827727000000,35.547983000000,0 105.820983000000,35.555065000000,0 105.824220000000,35.559771000000,0 105.816464000000,35.575075000000,0 105.798220000000,35.565749000000,0 105.777615000000,35.586816000000,0 105.785810000000,35.591987000000,0 105.778391000000,35.599954000000,0 105.762170000000,35.602921000000,0 105.749659000000,35.616861000000,0 105.758022000000,35.617496000000,0 105.763924000000,35.630417000000,0 105.759034000000,35.634442000000,0 105.750367000000,35.623682000000,0 105.742004000000,35.626351000000,0 105.744095000000,35.639990000000,0 105.736575000000,35.642489000000,0 105.726323000000,35.638550000000,0 105.714722000000,35.646979000000,0 105.719814000000,35.678059000000,0 105.704201000000,35.685891000000,0 105.690476000000,35.683986000000,0 105.690948000000,35.698589000000,0 105.704268000000,35.702991000000,0 105.711822000000,35.710397000000,0 105.720995000000,35.726010000000,0 105.728481000000,35.699689000000,0 105.737620000000,35.697404000000,0 105.756606000000,35.717294000000,0 105.755055000000,35.730580000000,0 105.746523000000,35.731807000000,0 105.734888000000,35.724445000000,0 105.727840000000,35.731849000000,0 105.707843000000,35.737941000000,0 105.702279000000,35.733203000000,0 105.691083000000,35.736418000000,0 105.690172000000,35.745555000000,0 105.684068000000,35.746867000000,0 105.679752000000,35.737603000000,0 105.668927000000,35.750039000000,0 105.621547000000,35.729353000000,0 105.597839000000,35.722922000000,0 105.595715000000,35.715602000000,0 105.570086000000,35.716321000000,0 105.575110000000,35.699308000000,0 105.564353000000,35.687668000000,0 105.560104000000,35.698758000000,0 105.567826000000,35.714247000000,0 105.561250000000,35.724614000000,0 105.546750000000,35.727787000000,0 105.537914000000,35.721864000000,0 105.530225000000,35.726857000000,0 105.509385000000,35.718902000000,0 105.481800000000,35.727068000000,0 105.476708000000,35.732737000000,0 105.472661000000,35.750631000000,0 105.464028000000,35.752704000000,0 105.453844000000,35.747628000000,0 105.457283000000,35.771650000000,0 105.447537000000,35.780783000000,0 105.437319000000,35.779937000000,0 105.431755000000,35.787590000000,0 105.428821000000,35.818911000000,0 105.417221000000,35.815023000000,0 105.416378000000,35.821574000000,0 105.408588000000,35.822292000000,0 105.394694000000,35.809698000000,0 105.383903000000,35.792494000000,0 105.374966000000,35.804330000000,0 105.386196000000,35.817601000000,0 105.375472000000,35.816545000000,0 105.378642000000,35.824870000000,0 105.371021000000,35.844263000000,0 105.385387000000,35.853684000000,0 105.391254000000,35.846883000000,0 105.398437000000,35.855162000000,0 105.390816000000,35.866482000000,0 105.379182000000,35.872142000000,0 105.370515000000,35.871128000000,0 105.357869000000,35.879279000000,0 105.350247000000,35.875985000000,0 105.334499000000,35.886373000000,0 105.327114000000,35.904738000000,0 105.340266000000,35.909255000000,0 105.335241000000,35.930612000000,0 105.325057000000,35.941794000000,0 105.331767000000,35.951456000000,0 105.335612000000,35.980140000000,0 105.333184000000,36.000634000000,0 105.341547000000,36.004555000000,0 105.338984000000,36.017203000000,0 105.343941000000,36.033852000000,0 105.365895000000,36.034653000000,0 105.360432000000,36.044219000000,0 105.378035000000,36.061579000000,0 105.391288000000,36.066003000000,0 105.391389000000,36.074807000000,0 105.399988000000,36.079693000000,0 105.407981000000,36.075818000000,0 105.431249000000,36.104120000000,0 105.441939000000,36.099488000000,0 105.452394000000,36.100878000000,0 105.459981000000,36.107152000000,0 105.468176000000,36.101046000000,0 105.486521000000,36.098856000000,0 105.491343000000,36.101046000000,0 105.500347000000,36.123277000000,0 105.497144000000,36.130644000000,0 105.505372000000,36.128455000000,0 105.513600000000,36.150173000000,0 105.502101000000,36.157705000000,0 105.488342000000,36.185010000000,0 105.488679000000,36.191109000000,0 105.496941000000,36.192666000000,0 105.516669000000,36.203559000000,0 105.537004000000,36.218024000000,0 105.588127000000,36.237447000000,0 105.603606000000,36.230721000000,0 105.608530000000,36.214450000000,0 105.618107000000,36.209236000000,0 105.625323000000,36.195315000000,0 105.635474000000,36.190142000000,0 105.645894000000,36.177270000000,0 105.673547000000,36.155812000000,0 105.687036000000,36.152403000000,0 105.696816000000,36.155265000000,0 105.706932000000,36.167593000000,0 105.725581000000,36.174704000000,0 105.745241000000,36.172222000000,0 105.759270000000,36.179121000000,0 105.768679000000,36.174662000000,0 105.779773000000,36.154886000000,0 105.757145000000,36.136495000000,0 105.765340000000,36.133211000000,0 105.774580000000,36.139146000000,0 105.784697000000,36.136873000000,0 105.800007000000,36.141335000000,0 105.809180000000,36.138725000000,0 105.812518000000,36.126939000000,0 105.818521000000,36.121256000000,0 105.839867000000,36.141251000000,0 105.857032000000,36.150762000000,0 105.861787000000,36.165953000000,0 105.876861000000,36.185010000000,0 105.885022000000,36.190605000000,0 105.882864000000,36.209110000000,0 105.886371000000,36.216132000000,0 105.902726000000,36.216552000000,0 105.952906000000,36.211885000000,0 105.981840000000,36.196030000000,0 106.003557000000,36.193843000000,0 105.999173000000,36.225382000000,0 105.993069000000,36.246275000000,0 105.967946000000,36.291740000000,0 105.971892000000,36.298839000000,0 105.981401000000,36.302619000000,0 105.979749000000,36.311607000000,0 105.984639000000,36.319082000000,0 106.014011000000,36.313203000000,0 106.026118000000,36.327942000000,0 106.038089000000,36.327228000000,0 106.058727000000,36.332770000000,0 106.074914000000,36.325003000000,0 106.078320000000,36.332015000000,0 106.085672000000,36.331637000000,0 106.091169000000,36.324205000000,0 106.105501000000,36.315429000000,0 106.127286000000,36.325171000000,0 106.141618000000,36.324919000000,0 106.158783000000,36.331973000000,0 106.197395000000,36.341797000000,0 106.203937000000,36.353928000000,0 106.227274000000,36.372101000000,0 106.245821000000,36.382465000000,0 106.270405000000,36.382507000000,0 106.281061000000,36.411537000000,0 106.288784000000,36.406965000000,0 106.302812000000,36.411872000000,0 106.315256000000,36.412040000000,0 106.316807000000,36.436405000000,0 106.327126000000,36.454181000000,0 106.316504000000,36.451037000000,0 106.311951000000,36.479538000000,0 106.330296000000,36.486243000000,0 106.337412000000,36.500279000000,0 106.347798000000,36.499274000000,0 106.356600000000,36.510375000000,0 106.371269000000,36.515821000000,0 106.401721000000,36.509914000000,0 106.410927000000,36.519381000000,0 106.420909000000,36.514606000000,0 106.433285000000,36.518082000000,0 106.453856000000,36.497849000000,0 106.462759000000,36.499567000000,0 106.477091000000,36.494623000000,0 106.483735000000,36.480921000000,0 106.491019000000,36.482430000000,0 106.494762000000,36.494456000000,0 106.502586000000,36.485279000000,0 106.518098000000,36.480921000000,0 106.523258000000,36.468474000000,0 106.519784000000,36.456319000000,0 106.503395000000,36.441730000000,0 106.500461000000,36.432925000000,0 106.509870000000,36.427138000000,0 106.504643000000,36.414641000000,0 106.492705000000,36.422945000000,0 106.492435000000,36.399247000000,0 106.504676000000,36.401386000000,0 106.514152000000,36.391444000000,0 106.526967000000,36.390185000000,0 106.524977000000,36.382759000000,0 106.531048000000,36.378982000000,0 106.525112000000,36.372730000000,0 106.510308000000,36.378857000000,0 106.507610000000,36.367065000000,0 106.506363000000,36.328236000000,0 106.497426000000,36.313791000000,0 106.509802000000,36.303585000000,0 106.510409000000,36.286111000000,0 106.499584000000,36.296193000000,0 106.497122000000,36.302997000000,0 106.480227000000,36.316100000000,0 106.470819000000,36.312867000000,0 106.470751000000,36.306315000000,0 106.478373000000,36.298251000000,0 106.484038000000,36.285523000000,0 106.502417000000,36.271028000000,0 106.518874000000,36.270481000000,0 106.541198000000,36.253882000000,0 106.545649000000,36.259346000000,0 106.556238000000,36.260648000000,0 106.561533000000,36.274053000000,0 106.559611000000,36.292244000000,0 106.577787000000,36.286027000000,0 106.582306000000,36.289093000000,0 106.586724000000,36.277834000000,0 106.594311000000,36.270397000000,0 106.599302000000,36.274221000000,0 106.600213000000,36.292832000000,0 106.609082000000,36.290354000000,0 106.609655000000,36.275691000000,0 106.638016000000,36.265943000000,0 106.643782000000,36.284892000000,0 106.648740000000,36.258883000000,0 106.654945000000,36.257917000000,0 106.656766000000,36.266447000000,0 106.663443000000,36.262833000000,0 106.670626000000,36.268632000000,0 106.685329000000,36.273339000000,0 106.702123000000,36.239465000000,0 106.708665000000,36.240138000000,0 106.716556000000,36.231983000000,0 106.719288000000,36.236943000000,0 106.729674000000,36.232151000000,0 106.736081000000,36.237279000000,0 106.741275000000,36.228661000000,0 106.762925000000,36.215165000000,0 106.772907000000,36.213020000000,0 106.776043000000,36.223406000000,0 106.783900000000,36.217730000000,0 106.789127000000,36.226265000000,0 106.808282000000,36.210876000000,0 106.810609000000,36.218318000000,0 106.821636000000,36.220967000000,0 106.828077000000,36.215459000000,0 106.834181000000,36.229124000000,0 106.838801000000,36.221766000000,0 106.841330000000,36.206460000000,0 106.857854000000,36.203306000000,0 106.865577000000,36.193843000000,0 106.867128000000,36.185515000000,0 106.874614000000,36.176891000000,0 106.878425000000,36.179331000000,0 106.888677000000,36.166373000000,0 106.896601000000,36.169529000000,0 106.905167000000,36.157663000000,0 106.912552000000,36.153582000000,0 106.907056000000,36.136368000000,0 106.918386000000,36.129297000000,0 106.930324000000,36.138515000000,0 106.925670000000,36.116120000000,0 106.932988000000,36.114310000000,0 106.940475000000,36.126560000000,0 106.946342000000,36.122393000000,0 106.940643000000,36.108204000000,0 106.944083000000,36.099614000000,0 106.950592000000,36.099446000000,0 106.957572000000,36.091571000000,0 106.955245000000,36.083063000000,0 106.958820000000,36.075144000000,0 106.947927000000,36.077545000000,0 106.949546000000,36.067941000000,0 106.940643000000,36.064950000000,0 106.942768000000,36.051804000000,0 106.942093000000,36.032503000000,0 106.930897000000,36.029047000000,0 106.928436000000,36.011385000000,0 106.932921000000,36.007464000000,0 106.951232000000,36.004513000000,0 106.944252000000,35.984231000000,0 106.934843000000,35.981237000000,0 106.917678000000,35.961201000000,0 106.917577000000,35.946604000000,0 106.910529000000,35.950148000000,0 106.907730000000,35.963311000000,0 106.898591000000,35.960442000000,0 106.891847000000,35.966137000000,0 106.896736000000,35.950106000000,0 106.902537000000,35.943566000000,0 106.918960000000,35.940486000000,0 106.922231000000,35.948545000000,0 106.938384000000,35.953144000000,0 106.944791000000,35.940275000000,0 106.940508000000,35.931034000000,0 106.934472000000,35.933439000000,0 106.925131000000,35.926223000000,0 106.912923000000,35.932215000000,0 106.904864000000,35.924872000000,0 106.905437000000,35.912674000000,0 106.885979000000,35.917486000000,0 106.872692000000,35.905920000000,0 106.861766000000,35.909044000000,0 106.862474000000,35.895366000000,0 106.850132000000,35.887555000000,0 106.852897000000,35.883375000000,0 106.873097000000,35.878307000000,0 106.880786000000,35.880841000000,0 106.883618000000,35.868974000000,0 106.873974000000,35.874760000000,0 106.877953000000,35.852797000000,0 106.899906000000,35.827278000000,0 106.911271000000,35.831250000000,0 106.919229000000,35.819249000000,0 106.917206000000,35.812910000000,0 106.926277000000,35.811684000000,0 106.919634000000,35.803569000000,0 106.897681000000,35.808472000000,0 106.904088000000,35.803907000000,0 106.905302000000,35.793889000000,0 106.914340000000,35.791353000000,0 106.908910000000,35.767717000000,0 106.902065000000,35.774948000000,0 106.897613000000,35.759809000000,0 106.885540000000,35.761712000000,0 106.885304000000,35.771861000000,0 106.875997000000,35.776597000000,0 106.868983000000,35.774145000000,0 106.867060000000,35.738660000000,0 106.854280000000,35.743990000000,0 106.836002000000,35.743821000000,0 106.834484000000,35.738068000000,0 106.827807000000,35.745301000000,0 106.818129000000,35.739464000000,0 106.823255000000,35.731045000000,0 106.817454000000,35.728634000000,0 106.816375000000,35.717590000000,0 106.806258000000,35.709635000000,0 106.782484000000,35.723726000000,0 106.768725000000,35.722795000000,0 106.764409000000,35.728126000000,0 106.756956000000,35.723049000000,0 106.751526000000,35.726095000000,0 106.746131000000,35.698208000000,0 106.753482000000,35.699266000000,0 106.754730000000,35.691266000000,0 106.737498000000,35.689446000000,0 106.713757000000,35.704176000000,0 106.692714000000,35.715051000000,0 106.681451000000,35.729691000000,0 106.674875000000,35.728041000000,0 106.662397000000,35.707561000000,0 106.651943000000,35.715475000000,0 106.648537000000,35.709466000000,0 106.633227000000,35.714882000000,0 106.624122000000,35.727322000000,0 106.621020000000,35.743821000000,0 106.616130000000,35.741198000000,0 106.613533000000,35.729734000000,0 106.606013000000,35.743906000000,0 106.599606000000,35.743694000000,0 106.601460000000,35.731638000000,0 106.597549000000,35.727957000000,0 106.581935000000,35.730411000000,0 106.566591000000,35.738787000000,0 106.530407000000,35.741791000000,0 106.531014000000,35.725714000000,0 106.524539000000,35.739464000000,0 106.494155000000,35.736630000000,0 106.488287000000,35.725334000000,0 106.465828000000,35.717971000000,0 106.448730000000,35.694145000000,0 106.434972000000,35.688515000000,0 106.437838000000,35.662182000000,0 106.445223000000,35.663155000000,0 106.449675000000,35.647656000000,0 106.460061000000,35.643125000000,0 106.453789000000,35.636644000000,0 106.454362000000,35.629104000000,0 106.465457000000,35.620631000000,0 106.465895000000,35.604827000000,0 106.471493000000,35.600929000000,0 106.478946000000,35.575202000000,0 106.460567000000,35.579399000000,0 106.450922000000,35.553496000000,0 106.454767000000,35.537679000000,0 106.440772000000,35.526609000000,0 106.443638000000,35.519355000000,0 106.451968000000,35.516131000000,0 106.449506000000,35.509598000000,0 106.463332000000,35.501665000000,0 106.465592000000,35.480999000000,0 106.470414000000,35.478792000000,0 106.486601000000,35.483121000000,0 106.490142000000,35.480405000000,0 106.483431000000,35.450564000000,0 106.497527000000,35.428399000000,0 106.503496000000,35.415063000000,0 106.494964000000,35.401428000000,0 106.493244000000,35.392549000000,0 106.497966000000,35.386600000000,0 106.496111000000,35.376147000000,0 106.502282000000,35.363058000000,0 106.509330000000,35.358765000000,0 106.493784000000,35.351921000000,0 106.488017000000,35.337297000000,0 106.490412000000,35.329602000000,0 106.472269000000,35.310678000000,0 106.457161000000,35.308169000000,0 106.443065000000,35.296855000000,0 106.430520000000,35.293027000000,0 106.421179000000,35.278350000000,0 106.410961000000,35.279796000000,0 106.387355000000,35.269797000000,0 106.376294000000,35.275967000000,0 106.368201000000,35.273499000000,0 106.375620000000,35.248604000000,0 106.363614000000,35.238304000000,0 106.355555000000,35.239538000000,0 106.352452000000,35.249541000000,0 106.335928000000,35.251030000000,0 106.318729000000,35.267117000000,0 106.320753000000,35.277711000000,0 106.310501000000,35.288560000000,0 106.300182000000,35.288220000000,0 106.285715000000,35.301492000000,0 106.287165000000,35.309913000000,0 106.275328000000,35.329134000000,0 106.261772000000,35.330325000000,0 106.253645000000,35.337425000000,0 106.251655000000,35.346863000000,0 106.241403000000,35.358552000000,0 106.249699000000,35.366840000000,0 106.244405000000,35.377507000000,0 106.237491000000,35.409456000000,0 106.221676000000,35.412090000000,0 106.207579000000,35.409329000000,0 106.192067000000,35.412217000000,0 106.187447000000,35.426063000000,0 106.180669000000,35.424534000000,0 106.178848000000,35.436383000000,0 106.170653000000,35.433198000000,0 106.166977000000,35.421009000000,0 106.154871000000,35.415530000000,0 106.129916000000,35.393568000000,0 106.123779000000,35.373470000000,0 106.113021000000,35.371600000000,0 106.115854000000,35.362208000000,0 106.106546000000,35.367138000000,0 106.102432000000,35.379972000000,0 106.104725000000,35.388852000000,0 106.098588000000,35.390977000000,0 106.100206000000,35.401980000000,0 106.087291000000,35.402320000000,0 106.081288000000,35.413109000000,0 106.084087000000,35.420287000000,0 106.078118000000,35.429418000000,0 106.076196000000,35.446785000000,0 106.071306000000,35.449418000000,0 106.069789000000,35.458121000000,0 106.072486000000,35.470176000000,0 106.068102000000,35.488129000000,0</coordinates></LinearRing></outerBoundaryIs></Polygon></MultiGeometry>
    </Placemark>
  </Document>
</kml>
