<?xml version="1.0" encoding="UTF-8"?>
<kml xmlns="http://www.opengis.net/kml/2.2">
<Document>
<name>银川市</name>
<Placemark><name>银川市</name><MultiGeometry><Polygon><outerBoundaryIs><LinearRing><coordinates>106.824333999999993,38.163409999999999,0 106.778908999999999,38.171849999999999,0 106.754088999999993,38.182215999999997,0 106.728088999999997,38.204171000000002,0 106.704145999999994,38.212688999999997,0 106.673930999999996,38.220877999999999,0 106.655653000000001,38.228943999999998,0 106.627797999999999,38.232588,0 106.592725999999999,38.249533999999997,0 106.555395000000004,38.263734999999997,0 106.546762000000001,38.269872999999997,0 106.532228000000003,38.286484000000002,0 106.516041000000001,38.299287,0 106.490343999999993,38.306198999999999,0 106.482453000000007,38.319488999999997,0 106.587532999999993,38.382635999999998,0 106.601865000000004,38.392522,0 106.637880999999993,38.455891000000001,0 106.648740000000004,38.472745000000003,0 106.65137,38.492572000000003,0 106.662531999999999,38.601484999999997,0 106.641623999999993,38.619973999999999,0 106.643040999999997,38.638866,0 106.639567,38.642935999999999,0 106.604056999999997,38.653559999999999,0 106.587095000000005,38.655717000000003,0 106.595862999999994,38.668536000000003,0 106.596266999999997,38.682574000000002,0 106.572121999999993,38.681679000000003,0 106.539815000000004,38.688473000000002,0 106.524944000000005,38.697868999999997,0 106.495031999999995,38.698317000000003,0 106.476821000000001,38.708241000000001,0 106.461275000000001,38.707996999999999,0 106.457025999999999,38.700757000000003,0 106.438243,38.693556999999998,0 106.434837000000002,38.706409999999998,0 106.440703999999997,38.71369,0 106.437702999999999,38.719504999999998,0 106.423438000000004,38.722189,0 106.415615000000003,38.718772999999999,0 106.405026000000007,38.720399999999998,0 106.397034000000005,38.726213999999999,0 106.397741999999994,38.752516,0 106.375012999999996,38.754995000000001,0 106.382667999999995,38.771332000000001,0 106.354206000000005,38.770316000000001,0 106.335355000000007,38.775435000000002,0 106.320448999999996,38.771047000000003,0 106.311614000000006,38.776248000000002,0 106.312119999999993,38.787745999999999,0 106.300484999999995,38.786405000000002,0 106.282781,38.780189,0 106.281499999999994,38.787135999999997,0 106.258297999999996,38.799810000000001,0 106.241977000000006,38.798184999999997,0 106.230309000000005,38.814186999999997,0 106.207545999999994,38.803261999999997,0 106.196450999999996,38.805252000000003,0 106.196214999999995,38.810492000000004,0 106.174025,38.815365,0 106.146642999999997,38.816380000000002,0 106.137907999999996,38.818531999999998,0 106.128297000000003,38.828885999999997,0 106.124959000000004,38.839401000000002,0 106.100239999999999,38.841349000000001,0 106.065201999999999,38.856976000000003,0 106.050701000000004,38.868461000000003,0 106.030434,38.870123999999997,0 106.003321,38.875155999999997,0 105.992496000000003,38.857585,0 105.976984000000002,38.846057999999999,0 105.970913999999993,38.844597,0 105.964134999999999,38.834691999999997,0 105.946667000000005,38.824013999999998,0 105.936010999999993,38.810045000000002,0 105.936381999999995,38.803911999999997,0 105.926433000000003,38.802855999999998,0 105.909638999999999,38.79128,0 105.898612,38.789574000000002,0 105.899118000000001,38.777264000000002,0 105.907313000000002,38.770113000000002,0 105.901073999999994,38.755848999999998,0 105.907953000000006,38.737273000000002,0 105.905828999999997,38.731296,0 105.886033999999995,38.717064999999998,0 105.894632999999999,38.694085999999999,0 105.884853000000007,38.681027999999998,0 105.873118000000005,38.671588,0 105.873185000000007,38.658647000000002,0 105.854097999999993,38.643465999999997,0 105.852209999999999,38.632351999999997,0 105.857673000000005,38.612726000000002,0 105.864822000000004,38.607512999999997,0 105.867283999999998,38.598553000000003,0 105.874297999999996,38.593297999999997,0 105.871600000000001,38.582053999999999,0 105.861315000000005,38.579773000000003,0 105.856796000000003,38.572194000000003,0 105.864013,38.539181999999997,0 105.862629999999996,38.526380000000003,0 105.846072000000007,38.513047,0 105.848770000000002,38.497425999999997,0 105.836697000000001,38.475845,0 105.850657999999996,38.443646000000001,0 105.842901999999995,38.437685999999999,0 105.831638999999996,38.437277999999999,0 105.828333999999998,38.409022999999998,0 105.835583999999997,38.390357000000002,0 105.821758000000003,38.368130999999998,0 105.828873999999999,38.345899000000003,0 105.838080000000005,38.335352999999998,0 105.843609999999998,38.321942999999997,0 105.858144999999993,38.308407000000003,0 105.865900999999994,38.297283,0 105.852749000000003,38.264716999999997,0 105.892373000000006,38.259847999999998,0 105.907178000000002,38.244622999999997,0 105.923803000000007,38.239792999999999,0 105.967271999999994,38.224072,0 105.970172000000005,38.219403999999997,0 105.940158999999994,38.160294999999998,0 105.966125000000005,38.146402000000002,0 105.979714999999999,38.178856000000003,0 106.005311000000006,38.173611999999999,0 106.012865000000005,38.185533999999997,0 106.041899999999998,38.175742999999997,0 106.055691999999993,38.186722000000003,0 106.058154000000002,38.194710000000001,0 106.077342000000002,38.210887,0 106.077106000000001,38.204006999999997,0 106.084862999999999,38.200034000000002,0 106.077815000000001,38.197454,0 106.082232000000005,38.190122000000002,0 106.078995000000006,38.183486000000002,0 106.090326000000005,38.180658999999999,0 106.096665999999999,38.186067000000001,0 106.109581000000006,38.183034999999997,0 106.108333999999999,38.175865999999999,0 106.125229000000004,38.169350999999999,0 106.126880999999997,38.145417999999999,0 106.129881999999995,38.144517,0 106.140640000000005,38.157181000000001,0 106.152544000000006,38.159188999999998,0 106.164886999999993,38.152386,0 106.184849999999997,38.150460000000002,0 106.183501000000007,38.143245999999998,0 106.200834999999998,38.134638000000002,0 106.218404000000007,38.131030000000003,0 106.218808999999993,38.123035999999999,0 106.229229000000004,38.107495,0 106.225587000000004,38.097816000000002,0 106.212569999999999,38.089613,0 106.207106999999993,38.071356999999999,0 106.210547000000005,38.065899999999999,0 106.227306999999996,38.059499000000002,0 106.239953,38.035283999999997,0 106.248789000000002,38.035325,0 106.238671999999994,38.045380999999999,0 106.266155999999995,38.043000999999997,0 106.266121999999996,38.019232000000002,0 106.258635999999996,38.019437000000003,0 106.259039999999999,38.008144999999999,0 106.265480999999994,38.003627999999999,0 106.272664000000006,37.987609999999997,0 106.283456000000001,37.994016999999999,0 106.292593999999994,37.988678,0 106.298394999999999,37.977052999999998,0 106.313029999999998,37.966369999999998,0 106.298259999999999,37.949275999999998,0 106.304868999999997,37.942658999999999,0 106.335725999999994,37.941837,0 106.336770999999999,37.926340000000003,0 106.358016000000006,37.924325000000003,0 106.358690999999993,37.886657999999997,0 106.345809000000003,37.873823000000002,0 106.333500000000001,37.875591999999997,0 106.318021000000002,37.872342000000003,0 106.289558999999997,37.871108,0 106.278329999999997,37.854607999999999,0 106.284906000000007,37.851646000000002,0 106.282713999999999,37.838557999999999,0 106.292291000000006,37.825961999999997,0 106.303352000000004,37.819293000000002,0 106.303217000000004,37.815010999999998,0 106.314447000000001,37.811058000000003,0 106.342941999999994,37.808093999999997,0 106.342605000000006,37.802123000000002,0 106.361827000000005,37.787213999999999,0 106.378283999999994,37.778523,0 106.392312000000004,37.758871999999997,0 106.423573000000005,37.740285999999998,0 106.438209000000001,37.738554999999998,0 106.470212000000004,37.721820000000001,0 106.482453000000007,37.707431,0 106.499280999999996,37.693328999999999,0 106.545311999999996,37.667673000000001,0 106.536578000000006,37.656202999999998,0 106.603044999999995,37.653975000000003,0 106.643985000000001,37.642131999999997,0 106.649111000000005,37.655501999999998,0 106.713959000000003,37.639902999999997,0 106.773816999999994,37.637179000000003,0 106.775233999999998,37.658349000000001,0 106.773176000000007,37.665115,0 106.767004999999997,37.722067000000003,0 106.769602000000006,37.737813000000003,0 106.807101000000003,37.750095000000002,0 106.832089999999994,37.761054999999999,0 106.861665000000002,37.796892999999997,0 106.880786000000001,37.836294000000002,0 106.885675000000006,37.863166999999997,0 106.845343,37.866418000000003,0 106.834585000000004,37.859217000000001,0 106.822681000000003,37.875016000000002,0 106.817622999999998,37.930286000000002,0 106.821635999999998,37.944755000000001,0 106.791488000000001,37.943193000000001,0 106.781640999999993,37.939698999999997,0 106.771422999999999,37.954042999999999,0 106.764847000000003,37.976846999999999,0 106.765790999999993,37.999932000000001,0 106.762384999999995,38.002560000000003,0 106.771692999999999,38.020381,0 106.784878000000006,38.040455999999999,0 106.831281000000004,38.034174999999998,0 106.857247000000001,38.048541,0 106.852390999999997,38.058514000000002,0 106.816038000000006,38.112743999999999,0 106.811182000000002,38.135826999999999,0 106.817184999999995,38.151524999999999,0 106.827301000000006,38.157876999999999,0 106.824333999999993,38.163409999999999,0</coordinates></LinearRing></outerBoundaryIs></Polygon></MultiGeometry></Placemark>
</Document>
</kml>