<?xml version="1.0" encoding="UTF-8"?>
<kml xmlns="http://www.opengis.net/kml/2.2">
<Document>
<name>乌鲁木齐市</name>
<Placemark><name>乌鲁木齐市</name><MultiGeometry><Polygon><outerBoundaryIs><LinearRing><coordinates>87.504658000000006,44.066423999999998,0 87.462779999999995,44.078812999999997,0 87.404426000000001,44.046827,0 87.404426000000001,44.046827,0 87.383144000000001,44.044232999999998,0 87.287030000000001,43.959569000000002,0 87.262545000000003,43.923763999999998,0 87.280851999999996,43.865968000000002,0 87.278563000000005,43.800446000000001,0 87.222497000000004,43.740212,0 87.202588000000006,43.698186,0 87.169635,43.679628000000001,0 87.102813999999995,43.596187999999998,0 86.997318000000007,43.530951999999999,0 86.971230000000006,43.474231000000003,0 86.900976,43.429397999999999,0 86.904866999999996,43.393129000000002,0 86.940107999999995,43.367187999999999,0 86.922715999999994,43.325046999999998,0 86.895942000000005,43.302726,0 86.854749999999996,43.211458,0 86.815161000000003,43.171402999999998,0 86.844680999999994,43.159703,0 86.797998000000007,43.112442000000001,0 86.853835000000004,43.083452000000001,0 86.912188999999998,43.074665000000003,0 86.926378,43.051518999999999,0 87.054528000000005,43.022941000000003,0 87.111052000000001,43.046683999999999,0 87.111281000000005,43.063093000000002,0 87.270095999999995,43.032322000000001,0 87.345156000000003,42.999775,0 87.403053,42.96369,0 87.497106000000002,42.940061999999998,0 87.538068999999993,42.908200999999998,0 87.569648999999998,42.899095000000003,0 87.668049999999994,42.903207000000002,0 87.758212999999998,42.898947999999997,0 87.789336000000006,42.872208999999998,0 87.882244999999998,42.829872999999999,0 87.941514999999995,42.827815000000001,0 87.931674999999998,42.854425999999997,0 87.862565000000004,42.884551000000002,0 87.815423999999993,42.925381999999999,0 87.755925000000005,42.961196000000001,0 87.638071999999994,42.998162000000001,0 87.634411,43.036572,0 87.597566999999998,43.040089000000002,0 87.487953000000005,43.102780000000003,0 87.414265999999998,43.105561999999999,0 87.385203000000004,43.123564999999999,0 87.393899000000005,43.184123999999997,0 87.368039999999993,43.281272000000001,0 87.587727000000001,43.260978999999999,0 87.752492000000004,43.298056000000003,0 87.886134999999996,43.298639999999999,0 87.974697000000006,43.313814999999998,0 87.999639999999999,43.300244999999997,0 88.045407999999995,43.318044999999998,0 88.164634000000007,43.331028000000003,0 88.225048000000001,43.325192999999999,0 88.218869999999995,43.271344999999997,0 88.247932000000006,43.224609000000001,0 88.310176999999996,43.212187999999998,0 88.351596999999998,43.227093000000004,0 88.430775999999994,43.197426999999998,0 88.482494000000003,43.242139000000002,0 88.523456999999993,43.262585000000001,0 88.532610000000005,43.352027,0 88.555036999999999,43.342548999999998,0 88.641537999999997,43.353921999999997,0 88.753899000000004,43.396625,0 88.842688999999993,43.388466000000001,0 88.871522999999996,43.413961,0 88.931479999999993,43.435367999999997,0 88.936284999999998,43.489942999999997,0 88.974272999999997,43.551009999999998,0 88.936284999999998,43.632480000000001,0 88.835138000000001,43.720796999999997,0 88.758476000000002,43.706448999999999,0 88.704926999999998,43.708913000000003,0 88.723005999999998,43.742964000000001,0 88.693484999999995,43.759621000000003,0 88.626892999999995,43.765703000000002,0 88.600117999999995,43.803919,0 88.531465999999995,43.801313999999998,0 88.512015000000005,43.858015999999999,0 88.460068000000007,43.807681000000002,0 88.413842000000002,43.791617000000002,0 88.339240000000004,43.801459000000001,0 88.315669,43.790604000000002,0 88.282487000000003,43.830973999999998,0 88.247246000000004,43.803339999999999,0 88.259146000000001,43.786985000000001,0 88.210859999999997,43.758896999999997,0 88.169898000000003,43.772074000000003,0 88.138317999999998,43.756869000000002,0 88.132825999999994,43.817086000000003,0 88.090719000000007,43.813180000000003,0 88.064859999999996,43.854256999999997,0 88.018405000000001,43.874496000000001,0 88.018405000000001,43.937482000000003,0 87.996893999999998,43.994632000000003,0 87.958449000000002,44.009199000000002,0 87.866225999999997,44.063974999999999,0 87.859589999999997,44.096240000000002,0 87.824348000000001,44.123305999999999,0 87.774231999999998,44.117260000000002,0 87.818627000000006,44.225268,0 87.816109999999995,44.288598999999998,0 87.794827999999995,44.329205000000002,0 87.802150999999995,44.378238000000003,0 87.989114000000001,44.961168999999998,0 88.004446000000002,45.002015,0 87.336230999999998,45.001874000000001,0 87.555460999999994,44.665872999999998,0 87.581320000000005,44.596525,0 87.575141000000002,44.583531000000001,0 87.575141000000002,44.583531000000001,0 87.591160000000002,44.533383000000001,0 87.598710999999994,44.477755999999999,0 87.652717999999993,44.450423000000001,0 87.663702000000001,44.417062999999999,0 87.693451999999994,44.416632999999997,0 87.692764999999994,44.370212000000002,0 87.716106999999994,44.356881000000001,0 87.712215999999998,44.262901999999997,0 87.691163000000003,44.221963000000002,0 87.652489000000003,44.196235999999999,0 87.640131999999994,44.226560999999997,0 87.584066000000007,44.239347000000002,0 87.564614000000006,44.170929000000001,0 87.576742999999993,44.116540999999998,0 87.527541999999997,44.093648000000002,0 87.508319,44.021456000000001,0 87.492529000000005,44.007756999999998,0 87.504658000000006,44.066423999999998,0</coordinates></LinearRing></outerBoundaryIs></Polygon></MultiGeometry></Placemark>
</Document>
</kml>