<?xml version="1.0" encoding="UTF-8"?>
<kml xmlns="http://www.opengis.net/kml/2.2">
  <Document>
    <name>克拉玛依市</name>
    <Placemark>
      <name>克拉玛依市</name>
      <MultiGeometry><Polygon><outerBoundaryIs><LinearRing><coordinates>85.010295000000,44.755219000000,0 85.047367000000,44.770167000000,0 85.021965000000,44.814421000000,0 85.027229000000,44.886208000000,0 85.051486000000,44.931793000000,0 85.156066000000,44.970958000000,0 85.171627000000,45.022711000000,0 85.240737000000,45.019735000000,0 85.258358000000,45.031639000000,0 85.238449000000,45.080223000000,0 85.250348000000,45.158607000000,0 85.205953000000,45.207365000000,0 85.201834000000,45.244224000000,0 85.239593000000,45.293050000000,0 85.245772000000,45.329008000000,0 85.239593000000,45.375508000000,0 85.283530000000,45.421406000000,0 85.388111000000,45.436182000000,0 85.434336000000,45.459814000000,0 85.491775000000,45.512670000000,0 85.547384000000,45.593123000000,0 85.596813000000,45.641929000000,0 85.591550000000,45.654404000000,0 85.621299000000,45.763058000000,0 85.642353000000,45.789210000000,0 85.814212000000,45.895369000000,0 85.839613000000,45.921877000000,0 85.886297000000,45.938751000000,0 85.880347000000,45.952973000000,0 85.931836000000,45.975273000000,0 85.954720000000,46.001325000000,0 85.962501000000,46.044764000000,0 86.024288000000,46.068001000000,0 85.993165000000,46.123897000000,0 85.903002000000,46.181819000000,0 85.813754000000,46.178209000000,0 85.791557000000,46.192924000000,0 85.679882000000,46.190842000000,0 85.648302000000,46.211936000000,0 85.557453000000,46.198059000000,0 85.437998000000,46.150296000000,0 85.419462000000,46.128066000000,0 85.380101000000,46.143628000000,0 85.282844000000,46.090811000000,0 85.263392000000,46.053114000000,0 85.293142000000,45.993246000000,0 85.259044000000,45.978199000000,0 85.288565000000,45.967608000000,0 85.258358000000,45.925364000000,0 85.228380000000,45.850136000000,0 85.193825000000,45.802491000000,0 85.129978000000,45.745430000000,0 85.059953000000,45.713098000000,0 85.023796000000,45.721218000000,0 84.956746000000,45.707777000000,0 84.910291000000,45.648938000000,0 84.847589000000,45.631414000000,0 84.791981000000,45.663794000000,0 84.772071000000,45.648658000000,0 84.805940000000,45.608275000000,0 84.783513000000,45.597613000000,0 84.739576000000,45.520819000000,0 84.710742000000,45.451797000000,0 84.651701000000,45.395646000000,0 84.623325000000,45.343808000000,0 84.579388000000,45.310680000000,0 84.588770000000,45.241401000000,0 84.633394000000,45.185888000000,0 84.668864000000,45.158607000000,0 84.661541000000,45.102872000000,0 84.657422000000,45.063514000000,0 84.706394000000,45.067196000000,0 84.805253000000,45.025687000000,0 84.861548000000,44.899419000000,0 84.917156000000,44.888481000000,0 84.917156000000,44.836891000000,0 84.849420000000,44.826511000000,0 84.898163000000,44.802899000000,0 84.954000000000,44.799911000000,0 85.010295000000,44.755219000000,0</coordinates></LinearRing></outerBoundaryIs></Polygon><Polygon><outerBoundaryIs><LinearRing><coordinates>85.113273000000,44.343690000000,0 84.974595000000,44.384687000000,0 84.778250000000,44.390848000000,0 84.779166000000,44.343546000000,0 84.798159000000,44.258737000000,0 84.792209000000,44.224262000000,0 84.737974000000,44.126185000000,0 84.797244000000,44.161436000000,0 84.830426000000,44.160142000000,0 84.917385000000,44.179270000000,0 84.939354000000,44.252275000000,0 84.969103000000,44.297354000000,0 84.996106000000,44.310699000000,0 85.065445000000,44.317299000000,0 85.108467000000,44.309551000000,0 85.113273000000,44.343690000000,0</coordinates></LinearRing></outerBoundaryIs></Polygon></MultiGeometry>
    </Placemark>
  </Document>
</kml>
