<?xml version="1.0" encoding="UTF-8"?>
<kml xmlns="http://www.opengis.net/kml/2.2">
<Document>
<name>北屯市</name>
<Placemark><name>北屯市</name><MultiGeometry><Polygon><outerBoundaryIs><LinearRing><coordinates>87.556146999999996,47.356673000000001,0 87.527541999999997,47.338603999999997,0 87.595507999999995,47.289121000000002,0 87.668049999999994,47.267491999999997,0 87.743110000000001,47.204866000000003,0 87.794370000000001,47.184156000000002,0 87.886364,47.161121000000001,0 87.910849999999996,47.172572000000002,0 88.005360999999994,47.145713000000001,0 88.055019999999999,47.147486000000001,0 88.077904000000004,47.128663000000003,0 88.176762999999994,47.114882999999999,0 88.273562999999996,47.132891999999998,0 88.342673000000005,47.174343999999998,0 88.343359000000007,47.232512,0 88.428717000000006,47.234690999999998,0 88.430090000000007,47.258239000000003,0 88.339697999999999,47.239727999999999,0 88.312236999999996,47.258102999999998,0 88.262120999999993,47.238503000000001,0 88.098042000000007,47.28096,0 88.038771999999994,47.312237000000003,0 87.985910000000004,47.316859000000001,0 87.906730999999994,47.341321999999998,0 87.862565000000004,47.317538999999996,0 87.828695999999994,47.351919000000002,0 87.873091000000002,47.346212999999999,0 87.853410999999994,47.367266999999998,0 87.831671,47.357216000000001,0 87.803066000000001,47.382339000000002,0 87.753636999999998,47.380167,0 87.771715,47.357081000000001,0 87.556146999999996,47.356673000000001,0</coordinates></LinearRing></outerBoundaryIs></Polygon><Polygon><outerBoundaryIs><LinearRing><coordinates>87.540357,47.429699999999997,0 87.481316000000007,47.411113999999998,0 87.490240999999997,47.400663999999999,0 87.554773999999995,47.421289999999999,0 87.540357,47.429699999999997,0</coordinates></LinearRing></outerBoundaryIs></Polygon></MultiGeometry></Placemark>
</Document>
</kml>