<?xml version="1.0" encoding="UTF-8"?>
<kml xmlns="http://www.opengis.net/kml/2.2">
  <Document>
    <name>双河市</name>
    <Placemark>
      <name>双河市</name>
      <MultiGeometry><Polygon><outerBoundaryIs><LinearRing><coordinates>82.206996000000,44.821248000000,0 82.268097000000,44.832625000000,0 82.312721000000,44.803610000000,0 82.347047000000,44.799769000000,0 82.499912000000,44.740836000000,0 82.542934000000,44.740124000000,0 82.543163000000,44.709067000000,0 82.596483000000,44.722888000000,0 82.666737000000,44.770025000000,0 82.674518000000,44.792797000000,0 82.735847000000,44.827364000000,0 82.738822000000,44.858641000000,0 82.679552000000,44.871432000000,0 82.656439000000,44.944425000000,0 82.539502000000,44.902685000000,0 82.496480000000,44.903395000000,0 82.496480000000,44.884219000000,0 82.446364000000,44.883509000000,0 82.356200000000,44.901833000000,0 82.278395000000,44.860631000000,0 82.223244000000,44.889192000000,0 82.145667000000,44.896720000000,0 82.138344000000,44.884930000000,0 82.079990000000,44.895584000000,0 82.088915000000,44.879247000000,0 82.162372000000,44.864326000000,0 82.138115000000,44.843005000000,0 82.100814000000,44.857504000000,0 82.083422000000,44.837602000000,0 82.122096000000,44.806313000000,0 82.150015000000,44.833905000000,0 82.206996000000,44.821248000000,0</coordinates></LinearRing></outerBoundaryIs></Polygon><Polygon><outerBoundaryIs><LinearRing><coordinates>82.200360000000,44.984291000000,0 82.133767000000,45.037165000000,0 82.058936000000,45.041274000000,0 81.940397000000,45.010238000000,0 81.993946000000,44.961169000000,0 82.045892000000,44.972802000000,0 82.063971000000,44.933638000000,0 82.130564000000,44.925121000000,0 82.200589000000,44.917880000000,0 82.211115000000,44.943290000000,0 82.200360000000,44.984291000000,0</coordinates></LinearRing></outerBoundaryIs></Polygon><Polygon><outerBoundaryIs><LinearRing><coordinates>82.235830000000,44.681700000000,0 82.239263000000,44.724028000000,0 82.192579000000,44.752229000000,0 82.172213000000,44.713627000000,0 82.126216000000,44.680702000000,0 82.084338000000,44.666444000000,0 82.080905000000,44.644050000000,0 82.128962000000,44.637773000000,0 82.156651000000,44.669581000000,0 82.192350000000,44.662308000000,0 82.235830000000,44.681700000000,0</coordinates></LinearRing></outerBoundaryIs></Polygon><Polygon><outerBoundaryIs><LinearRing><coordinates>82.393959000000,44.669724000000,0 82.347276000000,44.691252000000,0 82.358947000000,44.668440000000,0 82.393959000000,44.669724000000,0</coordinates></LinearRing></outerBoundaryIs></Polygon><Polygon><outerBoundaryIs><LinearRing><coordinates>82.454144000000,45.068895000000,0 82.295786000000,45.106693000000,0 82.272902000000,45.091407000000,0 82.287319000000,45.050624000000,0 82.275191000000,45.030080000000,0 82.438812000000,45.006977000000,0 82.454144000000,45.068895000000,0</coordinates></LinearRing></outerBoundaryIs></Polygon></MultiGeometry>
    </Placemark>
  </Document>
</kml>
