<?xml version="1.0" encoding="UTF-8"?>
<kml xmlns="http://www.opengis.net/kml/2.2">
  <Document>
    <name>和田地区</name>
    <Placemark>
      <name>和田地区</name>
      <Polygon><outerBoundaryIs><LinearRing><coordinates>81.363947000000,35.354583000000,0 81.314289000000,35.337247000000,0 81.285226000000,35.345425000000,0 81.266232000000,35.322688000000,0 81.219549000000,35.319089000000,0 81.191859000000,35.365212000000,0 81.142429000000,35.365212000000,0 81.099179000000,35.407551000000,0 81.054555000000,35.402321000000,0 81.031671000000,35.380581000000,0 81.026178000000,35.311890000000,0 80.963705000000,35.311072000000,0 80.924573000000,35.330704000000,0 80.894366000000,35.323997000000,0 80.844479000000,35.345425000000,0 80.760037000000,35.334630000000,0 80.689325000000,35.339046000000,0 80.691156000000,35.364395000000,0 80.656372000000,35.393985000000,0 80.599848000000,35.409675000000,0 80.568039000000,35.391370000000,0 80.516550000000,35.392187000000,0 80.444237000000,35.417192000000,0 80.419979000000,35.442353000000,0 80.374669000000,35.388101000000,0 80.304415000000,35.379764000000,0 80.268029000000,35.295853000000,0 80.362769000000,35.208907000000,0 80.257731000000,35.203337000000,0 80.223176000000,35.177282000000,0 80.236449000000,35.148268000000,0 80.118139000000,35.066088000000,0 80.078320000000,35.076590000000,0 80.030950000000,35.038840000000,0 80.042621000000,34.980210000000,0 80.036671000000,34.903122000000,0 80.003489000000,34.894900000000,0 79.995938000000,34.856078000000,0 79.926828000000,34.849332000000,0 79.946279000000,34.822835000000,0 79.899138000000,34.733572000000,0 79.907147000000,34.683793000000,0 79.866872000000,34.671426000000,0 79.885865000000,34.642892000000,0 79.843759000000,34.557398000000,0 79.860922000000,34.528164000000,0 79.801194000000,34.478923000000,0 79.699818000000,34.477931000000,0 79.675561000000,34.451150000000,0 79.581278000000,34.456110000000,0 79.545350000000,34.476278000000,0 79.504617000000,34.454787000000,0 79.435049000000,34.447678000000,0 79.362964000000,34.427999000000,0 79.326808000000,34.443048000000,0 79.274174000000,34.436102000000,0 79.229550000000,34.413939000000,0 79.161356000000,34.441394000000,0 79.078287000000,34.411624000000,0 79.052199000000,34.427172000000,0 79.010779000000,34.399878000000,0 79.048995000000,34.348409000000,0 79.039612000000,34.334502000000,0 78.974393000000,34.361651000000,0 78.958603000000,34.386310000000,0 78.892468000000,34.355858000000,0 78.855853000000,34.411789000000,0 78.742806000000,34.454457000000,0 78.758596000000,34.481567000000,0 78.708480000000,34.522052000000,0 78.617630000000,34.536258000000,0 78.583991000000,34.506356000000,0 78.563166000000,34.512965000000,0 78.558132000000,34.560370000000,0 78.492912000000,34.578367000000,0 78.433871000000,34.548645000000,0 78.427693000000,34.594049000000,0 78.345996000000,34.604117000000,0 78.280777000000,34.623094000000,0 78.259952000000,34.710169000000,0 78.213040000000,34.717916000000,0 78.229974000000,34.774263000000,0 78.237526000000,34.882400000000,0 78.209607000000,34.889308000000,0 78.181918000000,34.936991000000,0 78.198852000000,34.977745000000,0 78.160635000000,34.991052000000,0 78.122877000000,35.036870000000,0 78.150795000000,35.069534000000,0 78.124707000000,35.108254000000,0 78.078710000000,35.099888000000,0 78.062692000000,35.114651000000,0 78.060174000000,35.180232000000,0 78.016923000000,35.228237000000,0 78.021271000000,35.315162000000,0 78.013262000000,35.365866000000,0 78.107087000000,35.437289000000,0 78.140497000000,35.494773000000,0 78.048504000000,35.491345000000,0 78.035917000000,35.467833000000,0 78.010058000000,35.491508000000,0 77.951475000000,35.478610000000,0 77.917607000000,35.491019000000,0 77.915089000000,35.464893000000,0 77.816459000000,35.518604000000,0 77.781675000000,35.554011000000,0 77.814399000000,35.602609000000,0 77.844149000000,35.612716000000,0 77.851929000000,35.687014000000,0 77.821722000000,35.714858000000,0 77.826299000000,35.748225000000,0 77.851701000000,35.748225000000,0 77.835224000000,35.804836000000,0 77.878704000000,35.811828000000,0 77.866804000000,35.880904000000,0 77.844835000000,35.912577000000,0 77.887857000000,35.908355000000,0 77.923785000000,35.930764000000,0 77.872983000000,35.994707000000,0 77.800669000000,36.027308000000,0 77.742544000000,36.039145000000,0 77.732246000000,36.100247000000,0 77.791287000000,36.112234000000,0 77.790829000000,36.131508000000,0 77.854675000000,36.182504000000,0 77.910055000000,36.198525000000,0 77.810967000000,36.294579000000,0 77.724465000000,36.282620000000,0 77.610045000000,36.359680000000,0 77.624462000000,36.387772000000,0 77.579151000000,36.448924000000,0 77.484869000000,36.493104000000,0 77.425370000000,36.492137000000,0 77.407750000000,36.545959000000,0 77.503634000000,36.561260000000,0 77.534756000000,36.610849000000,0 77.582126000000,36.610366000000,0 77.576405000000,36.633701000000,0 77.623089000000,36.643193000000,0 77.648490000000,36.669252000000,0 77.616910000000,36.699964000000,0 77.542308000000,36.746732000000,0 77.492650000000,36.792991000000,0 77.505693000000,36.842911000000,0 77.528806000000,36.865052000000,0 77.518966000000,36.930315000000,0 77.608214000000,36.935284000000,0 77.642311000000,36.975981000000,0 77.651236000000,37.056512000000,0 77.681214000000,37.128485000000,0 77.664967000000,37.144630000000,0 77.642769000000,37.266481000000,0 77.600205000000,37.297591000000,0 77.642540000000,37.350369000000,0 77.639794000000,37.376505000000,0 77.667713000000,37.444035000000,0 77.664051000000,37.581611000000,0 77.699979000000,37.588762000000,0 77.741399000000,37.637365000000,0 77.752155000000,37.678954000000,0 77.806161000000,37.727023000000,0 77.878246000000,37.811662000000,0 78.006397000000,37.963420000000,0 78.245078000000,38.188343000000,0 78.506871000000,38.422471000000,0 79.003227000000,38.667116000000,0 79.238704000000,38.794283000000,0 79.285387000000,38.807253000000,0 79.333902000000,38.802253000000,0 79.390425000000,38.830218000000,0 79.566633000000,38.784437000000,0 79.599814000000,38.829905000000,0 79.616062000000,38.919196000000,0 79.733686000000,39.477500000000,0 79.764351000000,39.622831000000,0 80.162305000000,39.464034000000,0 80.726855000000,39.477346000000,0 81.062335000000,39.483381000000,0 81.438092000000,39.484929000000,0 81.955958000000,39.483691000000,0 82.101272000000,39.485393000000,0 82.585041000000,39.484000000000,0 83.151879000000,39.484465000000,0 83.414817000000,39.483227000000,0 83.395137000000,39.321629000000,0 83.387814000000,38.983440000000,0 83.386670000000,38.388217000000,0 83.502692000000,38.281581000000,0 83.648921000000,38.187713000000,0 83.747781000000,38.115339000000,0 83.819179000000,38.048104000000,0 83.885543000000,37.947294000000,0 83.938405000000,37.832252000000,0 83.932455000000,37.785520000000,0 83.963577000000,37.653400000000,0 83.989894000000,37.612273000000,0 83.987377000000,37.514525000000,0 83.974104000000,37.481913000000,0 83.975706000000,37.410437000000,0 83.894467000000,37.349732000000,0 83.862201000000,37.291211000000,0 83.791260000000,37.250203000000,0 83.855336000000,37.117773000000,0 83.860828000000,37.070112000000,0 83.821010000000,36.963326000000,0 83.858311000000,36.867459000000,0 83.833138000000,36.832320000000,0 83.914148000000,36.766974000000,0 83.991038000000,36.768580000000,0 84.013693000000,36.739502000000,0 84.084634000000,36.694980000000,0 84.167932000000,36.694820000000,0 84.201114000000,36.660728000000,0 84.251917000000,36.643837000000,0 84.302719000000,36.611171000000,0 84.346428000000,36.545636000000,0 84.341851000000,36.490525000000,0 84.322857000000,36.478757000000,0 84.308211000000,36.422630000000,0 84.355810000000,36.397779000000,0 84.346885000000,36.364524000000,0 84.363362000000,36.311223000000,0 84.410274000000,36.309931000000,0 84.416682000000,36.276639000000,0 84.537739000000,36.269364000000,0 84.570463000000,36.225704000000,0 84.618519000000,36.220042000000,0 84.637284000000,36.192214000000,0 84.673441000000,36.182828000000,0 84.681222000000,36.142844000000,0 84.775046000000,36.102353000000,0 84.843470000000,36.098950000000,0 84.873677000000,35.984486000000,0 84.861319000000,35.945212000000,0 84.914182000000,35.854418000000,0 84.917614000000,35.774420000000,0 84.986266000000,35.725113000000,0 84.797015000000,35.646778000000,0 84.729049000000,35.613368000000,0 84.702733000000,35.617117000000,0 84.604331000000,35.589239000000,0 84.570005000000,35.588261000000,0 84.448948000000,35.550422000000,0 84.471375000000,35.526764000000,0 84.453068000000,35.473385000000,0 84.416224000000,35.462770000000,0 84.332926000000,35.413924000000,0 84.200656000000,35.381071000000,0 84.161525000000,35.358999000000,0 84.140929000000,35.378946000000,0 84.096076000000,35.362760000000,0 84.077082000000,35.399870000000,0 84.005913000000,35.422421000000,0 83.904765000000,35.401831000000,0 83.885085000000,35.367338000000,0 83.797439000000,35.354747000000,0 83.785539000000,35.363087000000,0 83.684621000000,35.362596000000,0 83.622376000000,35.335448000000,0 83.599263000000,35.351149000000,0 83.541824000000,35.341663000000,0 83.540222000000,35.364068000000,0 83.502463000000,35.360470000000,0 83.448915000000,35.382052000000,0 83.280259000000,35.401177000000,0 83.242272000000,35.419807000000,0 83.178196000000,35.389572000000,0 83.126707000000,35.398562000000,0 83.089177000000,35.425526000000,0 83.067666000000,35.462607000000,0 82.999014000000,35.484488000000,0 82.971782000000,35.548301000000,0 82.981622000000,35.599837000000,0 82.956221000000,35.636186000000,0 82.961026000000,35.671541000000,0 82.894663000000,35.673984000000,0 82.873609000000,35.688805000000,0 82.788709000000,35.684571000000,0 82.731270000000,35.637815000000,0 82.628521000000,35.692225000000,0 82.546138000000,35.708508000000,0 82.501972000000,35.701344000000,0 82.468561000000,35.717462000000,0 82.425081000000,35.712741000000,0 82.392815000000,35.656228000000,0 82.336062000000,35.651340000000,0 82.350251000000,35.611086000000,0 82.328053000000,35.559394000000,0 82.272216000000,35.550259000000,0 82.234457000000,35.520399000000,0 82.044291000000,35.452971000000,0 82.029416000000,35.429284000000,0 82.054588000000,35.355237000000,0 82.044291000000,35.332340000000,0 81.991886000000,35.305836000000,0 81.955272000000,35.307308000000,0 81.928040000000,35.271138000000,0 81.853895000000,35.258696000000,0 81.804237000000,35.270647000000,0 81.736729000000,35.262298000000,0 81.674942000000,35.233478000000,0 81.513151000000,35.234952000000,0 81.494158000000,35.292253000000,0 81.441295000000,35.333485000000,0 81.385458000000,35.335448000000,0 81.363947000000,35.354583000000,0</coordinates></LinearRing></outerBoundaryIs><innerBoundaryIs><LinearRing><coordinates>81.030984000000,36.280195000000,0 81.031213000000,36.278740000000,0 81.033730000000,36.275992000000,0 81.031671000000,36.259341000000,0 81.047461000000,36.250771000000,0 81.049978000000,36.315101000000,0 81.033959000000,36.280033000000,0 81.030984000000,36.280195000000,0</coordinates></LinearRing></innerBoundaryIs><innerBoundaryIs><LinearRing><coordinates>79.256325000000,37.236316000000,0 79.211243000000,37.231367000000,0 79.197513000000,37.206299000000,0 79.251061000000,37.197036000000,0 79.254494000000,37.214283000000,0 79.374406000000,37.174033000000,0 79.367083000000,37.325021000000,0 79.365710000000,37.354354000000,0 79.338250000000,37.371406000000,0 79.370974000000,37.385428000000,0 79.377152000000,37.416489000000,0 79.249917000000,37.414896000000,0 79.256325000000,37.236316000000,0</coordinates></LinearRing></innerBoundaryIs><innerBoundaryIs><LinearRing><coordinates>79.776022000000,37.284670000000,0 79.806686000000,37.297910000000,0 79.811034000000,37.364554000000,0 79.889298000000,37.454381000000,0 79.883577000000,37.471411000000,0 79.818586000000,37.537742000000,0 79.818128000000,37.574937000000,0 79.783116000000,37.580499000000,0 79.694326000000,37.517546000000,0 79.699131000000,37.561269000000,0 79.661601000000,37.554116000000,0 79.632768000000,37.474275000000,0 79.643294000000,37.424292000000,0 79.618122000000,37.392438000000,0 79.572354000000,37.382560000000,0 79.580363000000,37.340008000000,0 79.581965000000,37.333153000000,0 79.584024000000,37.330761000000,0 79.587686000000,37.325021000000,0 79.589745000000,37.322789000000,0 79.765037000000,37.281320000000,0 79.776022000000,37.284670000000,0</coordinates></LinearRing></innerBoundaryIs><innerBoundaryIs><LinearRing><coordinates>78.543028000000,37.574301000000,0 78.544630000000,37.791066000000,0 78.350344000000,37.731146000000,0 78.350344000000,37.685460000000,0 78.359956000000,37.653876000000,0 78.330664000000,37.603537000000,0 78.414191000000,37.621167000000,0 78.441881000000,37.642128000000,0 78.491081000000,37.616879000000,0 78.488793000000,37.568739000000,0 78.521746000000,37.555706000000,0 78.543028000000,37.574301000000,0</coordinates></LinearRing></innerBoundaryIs></Polygon>
    </Placemark>
  </Document>
</kml>
