<?xml version="1.0" encoding="UTF-8"?>
<kml xmlns="http://www.opengis.net/kml/2.2">
  <Document>
    <name>塔城地区</name>
    <Placemark>
      <name>塔城地区</name>
      <Polygon><outerBoundaryIs><LinearRing><coordinates>85.868447000000,44.865890000000,0 85.891331000000,44.813141000000,0 85.942134000000,44.759633000000,0 85.906892000000,44.736563000000,0 85.955635000000,44.638629000000,0 85.988588000000,44.637773000000,0 86.017880000000,44.603378000000,0 86.068225000000,44.601807000000,0 86.065250000000,44.564105000000,0 86.084015000000,44.490345000000,0 86.130927000000,44.463447000000,0 86.122689000000,44.448992000000,0 86.111018000000,44.459011000000,0 86.043281000000,44.452141000000,0 86.011015000000,44.411334000000,0 85.981037000000,44.407037000000,0 85.912156000000,44.426515000000,0 85.904833000000,44.332647000000,0 85.954262000000,44.309551000000,0 85.985842000000,44.157265000000,0 86.065937000000,44.160286000000,0 86.096144000000,44.125897000000,0 86.038018000000,44.062102000000,0 85.967535000000,44.003575000000,0 85.955407000000,43.967074000000,0 85.965018000000,43.931706000000,0 85.919250000000,43.934306000000,0 85.883779000000,43.920586000000,0 85.786293000000,43.839507000000,0 85.767757000000,43.791183000000,0 85.779199000000,43.763676000000,0 85.739152000000,43.731809000000,0 85.719701000000,43.678758000000,0 85.719701000000,43.638575000000,0 85.697274000000,43.619272000000,0 85.665008000000,43.622901000000,0 85.579879000000,43.539528000000,0 85.597500000000,43.530806000000,0 85.519694000000,43.536185000000,0 85.483537000000,43.498235000000,0 85.434108000000,43.478887000000,0 85.328154000000,43.486743000000,0 85.315110000000,43.529207000000,0 85.286734000000,43.502307000000,0 85.241881000000,43.520920000000,0 85.170483000000,43.510742000000,0 85.156981000000,43.546795000000,0 85.056292000000,43.563942000000,0 85.020364000000,43.513650000000,0 84.979859000000,43.479760000000,0 84.950567000000,43.484270000000,0 84.899078000000,43.521502000000,0 84.895188000000,43.577162000000,0 84.849420000000,43.570044000000,0 84.821043000000,43.581229000000,0 84.786717000000,43.641913000000,0 84.708454000000,43.631610000000,0 84.597695000000,43.669476000000,0 84.634767000000,43.719638000000,0 84.553300000000,43.750931000000,0 84.504557000000,43.750207000000,0 84.492199000000,43.734707000000,0 84.440710000000,43.738474000000,0 84.395171000000,43.724709000000,0 84.363820000000,43.743399000000,0 84.339563000000,43.726158000000,0 84.287845000000,43.730795000000,0 84.281437000000,43.765848000000,0 84.253747000000,43.785248000000,0 84.229490000000,43.774246000000,0 84.084405000000,43.825477000000,0 84.114841000000,43.854546000000,0 84.088753000000,43.855992000000,0 84.064267000000,43.885769000000,0 84.029941000000,43.879844000000,0 83.983944000000,43.910042000000,0 83.939549000000,43.901663000000,0 83.886229000000,43.952785000000,0 83.804533000000,43.939648000000,0 83.738398000000,43.947300000000,0 83.686680000000,43.981648000000,0 83.621003000000,43.965631000000,0 83.571802000000,44.010353000000,0 83.499946000000,44.001988000000,0 83.502692000000,44.022321000000,0 83.468824000000,44.036882000000,0 83.448457000000,44.076508000000,0 83.445482000000,44.121723000000,0 83.412071000000,44.168916000000,0 83.448915000000,44.254285000000,0 83.439761000000,44.282571000000,0 83.486216000000,44.317442000000,0 83.489877000000,44.367346000000,0 83.531526000000,44.414915000000,0 83.517567000000,44.467597000000,0 83.602924000000,44.462875000000,0 83.639310000000,44.474751000000,0 83.752815000000,44.461730000000,0 83.793320000000,44.466739000000,0 83.791947000000,44.520375000000,0 83.745492000000,44.552962000000,0 83.759680000000,44.633207000000,0 83.794464000000,44.719469000000,0 83.795837000000,44.756785000000,0 83.730389000000,44.801049000000,0 83.701784000000,44.853951000000,0 83.666313000000,44.888339000000,0 83.600178000000,44.894163000000,0 83.573862000000,44.931225000000,0 83.513448000000,44.939316000000,0 83.474087000000,44.976064000000,0 83.391476000000,44.980887000000,0 83.263554000000,44.998329000000,0 83.094440000000,45.028947000000,0 83.002675000000,45.050766000000,0 82.855531000000,45.100891000000,0 82.757816000000,45.152102000000,0 82.683214000000,45.153799000000,0 82.582753000000,45.219089000000,0 82.601060000000,45.346203000000,0 82.546825000000,45.425910000000,0 82.447966000000,45.461361000000,0 82.282056000000,45.538939000000,0 82.266724000000,45.620196000000,0 82.288464000000,45.655385000000,0 82.290065000000,45.716458000000,0 82.340182000000,45.772569000000,0 82.349564000000,45.823035000000,0 82.336062000000,45.882249000000,0 82.342699000000,45.935126000000,0 82.401282000000,45.972207000000,0 82.461467000000,45.980011000000,0 82.518220000000,46.153769000000,0 82.608841000000,46.295124000000,0 82.727151000000,46.495503000000,0 82.774292000000,46.600170000000,0 82.788938000000,46.677815000000,0 82.829672000000,46.772655000000,0 82.878415000000,46.797232000000,0 82.876355000000,46.823855000000,0 82.923496000000,46.931995000000,0 82.937913000000,47.014085000000,0 82.988030000000,47.058771000000,0 83.031738000000,47.168210000000,0 83.027390000000,47.215491000000,0 83.108400000000,47.222164000000,0 83.154854000000,47.236052000000,0 83.207030000000,47.213720000000,0 83.222134000000,47.186882000000,0 83.257833000000,47.173253000000,0 83.306347000000,47.179659000000,0 83.332435000000,47.167801000000,0 83.370422000000,47.178569000000,0 83.418937000000,47.118840000000,0 83.463332000000,47.132074000000,0 83.576150000000,47.059181000000,0 83.700639000000,47.032128000000,0 83.699266000000,47.015589000000,0 83.766546000000,47.027071000000,0 83.885772000000,46.981948000000,0 83.932913000000,46.970046000000,0 83.951449000000,46.987283000000,0 84.002709000000,46.990566000000,0 84.086465000000,46.965257000000,0 84.150311000000,46.977297000000,0 84.195164000000,47.003557000000,0 84.289218000000,46.994805000000,0 84.336588000000,47.005335000000,0 84.371600000000,46.993301000000,0 84.425378000000,47.008890000000,0 84.506616000000,46.973056000000,0 84.563140000000,46.991660000000,0 84.668635000000,46.994805000000,0 84.748043000000,47.009847000000,0 84.795413000000,46.972509000000,0 84.849420000000,46.956909000000,0 84.867040000000,46.927476000000,0 84.943702000000,46.861982000000,0 84.980088000000,46.883092000000,0 84.987182000000,46.918164000000,0 85.081922000000,46.939799000000,0 85.111442000000,46.973193000000,0 85.175518000000,46.998087000000,0 85.213963000000,47.041147000000,0 85.276436000000,47.068878000000,0 85.326095000000,47.044836000000,0 85.441202000000,47.063415000000,0 85.540061000000,47.057405000000,0 85.679882000000,47.051531000000,0 85.797735000000,47.053853000000,0 85.953347000000,47.078028000000,0 86.005752000000,47.066420000000,0 86.082642000000,47.025568000000,0 86.197749000000,47.041557000000,0 86.377618000000,47.087312000000,0 86.492724000000,47.089770000000,0 86.493640000000,47.064235000000,0 86.581057000000,47.051941000000,0 87.037365000000,47.118840000000,0 87.029585000000,46.970867000000,0 87.068488000000,46.932543000000,0 87.203732000000,46.849505000000,0 87.201673000000,46.715771000000,0 87.037136000000,46.503509000000,0 87.300761000000,46.060489000000,0 87.336002000000,46.005085000000,0 87.339435000000,45.957852000000,0 87.336918000000,45.330559000000,0 86.487003000000,45.332532000000,0 85.666838000000,45.331123000000,0 85.670729000000,45.278097000000,0 85.668898000000,44.919300000000,0 85.781488000000,44.922849000000,0 85.868447000000,44.865890000000,0</coordinates></LinearRing></outerBoundaryIs><innerBoundaryIs><LinearRing><coordinates>84.655820000000,45.152244000000,0 84.541171000000,45.152668000000,0 84.540256000000,45.094804000000,0 84.558334000000,45.084187000000,0 84.538654000000,45.055582000000,0 84.544604000000,45.009954000000,0 84.516456000000,44.988829000000,0 84.528127000000,44.970390000000,0 84.558334000000,44.991239000000,0 84.610052000000,44.995351000000,0 84.635682000000,44.930231000000,0 84.634996000000,44.867453000000,0 84.648726000000,44.866316000000,0 84.652388000000,44.791231000000,0 84.626071000000,44.791658000000,0 84.677331000000,44.739839000000,0 84.708454000000,44.733857000000,0 84.782598000000,44.669153000000,0 84.802050000000,44.683411000000,0 84.845300000000,44.663164000000,0 84.880084000000,44.626929000000,0 84.853768000000,44.552104000000,0 84.861090000000,44.495637000000,0 84.798159000000,44.438971000000,0 84.778250000000,44.390848000000,0 84.779166000000,44.343546000000,0 84.798159000000,44.258737000000,0 84.792209000000,44.224262000000,0 84.737974000000,44.126185000000,0 84.797244000000,44.161436000000,0 84.830426000000,44.160142000000,0 84.917385000000,44.179270000000,0 84.939354000000,44.252275000000,0 84.969103000000,44.297354000000,0 84.996106000000,44.310699000000,0 85.065445000000,44.317299000000,0 85.108467000000,44.309551000000,0 85.113273000000,44.343690000000,0 85.177348000000,44.324902000000,0 85.212819000000,44.479187000000,0 85.254696000000,44.476754000000,0 85.229753000000,44.550675000000,0 85.238678000000,44.598809000000,0 85.202978000000,44.636061000000,0 85.068420000000,44.626358000000,0 85.018304000000,44.619650000000,0 85.025398000000,44.686690000000,0 85.052859000000,44.698093000000,0 85.046680000000,44.740266000000,0 85.010295000000,44.755219000000,0 85.047367000000,44.770167000000,0 85.021965000000,44.814421000000,0 85.027229000000,44.886208000000,0 85.051486000000,44.931793000000,0 85.156066000000,44.970958000000,0 85.171627000000,45.022711000000,0 85.240737000000,45.019735000000,0 85.258358000000,45.031639000000,0 85.238449000000,45.080223000000,0 85.250348000000,45.158607000000,0 85.205953000000,45.207365000000,0 85.201834000000,45.244224000000,0 85.239593000000,45.293050000000,0 85.245772000000,45.329008000000,0 85.239593000000,45.375508000000,0 85.283530000000,45.421406000000,0 85.388111000000,45.436182000000,0 85.434336000000,45.459814000000,0 85.491775000000,45.512670000000,0 85.547384000000,45.593123000000,0 85.596813000000,45.641929000000,0 85.591550000000,45.654404000000,0 85.621299000000,45.763058000000,0 85.642353000000,45.789210000000,0 85.814212000000,45.895369000000,0 85.839613000000,45.921877000000,0 85.886297000000,45.938751000000,0 85.880347000000,45.952973000000,0 85.931836000000,45.975273000000,0 85.954720000000,46.001325000000,0 85.962501000000,46.044764000000,0 86.024288000000,46.068001000000,0 85.993165000000,46.123897000000,0 85.903002000000,46.181819000000,0 85.813754000000,46.178209000000,0 85.791557000000,46.192924000000,0 85.679882000000,46.190842000000,0 85.648302000000,46.211936000000,0 85.557453000000,46.198059000000,0 85.437998000000,46.150296000000,0 85.419462000000,46.128066000000,0 85.380101000000,46.143628000000,0 85.282844000000,46.090811000000,0 85.263392000000,46.053114000000,0 85.293142000000,45.993246000000,0 85.259044000000,45.978199000000,0 85.288565000000,45.967608000000,0 85.258358000000,45.925364000000,0 85.228380000000,45.850136000000,0 85.193825000000,45.802491000000,0 85.129978000000,45.745430000000,0 85.059953000000,45.713098000000,0 85.023796000000,45.721218000000,0 84.956746000000,45.707777000000,0 84.910291000000,45.648938000000,0 84.847589000000,45.631414000000,0 84.791981000000,45.663794000000,0 84.772071000000,45.648658000000,0 84.805940000000,45.608275000000,0 84.783513000000,45.597613000000,0 84.739576000000,45.520819000000,0 84.710742000000,45.451797000000,0 84.651701000000,45.395646000000,0 84.623325000000,45.343808000000,0 84.579388000000,45.310680000000,0 84.588770000000,45.241401000000,0 84.633394000000,45.185888000000,0 84.668864000000,45.158607000000,0 84.661541000000,45.102872000000,0 84.655820000000,45.152244000000,0</coordinates></LinearRing></innerBoundaryIs></Polygon>
    </Placemark>
  </Document>
</kml>
