<?xml version="1.0" encoding="UTF-8"?>
<kml xmlns="http://www.opengis.net/kml/2.2">
  <Document>
    <name>昆玉市</name>
    <Placemark>
      <name>昆玉市</name>
      <MultiGeometry><Polygon><outerBoundaryIs><LinearRing><coordinates>79.618122000000,37.392438000000,0 79.572354000000,37.382560000000,0 79.580363000000,37.340008000000,0 79.610341000000,37.373797000000,0 79.618122000000,37.392438000000,0</coordinates></LinearRing></outerBoundaryIs></Polygon><Polygon><outerBoundaryIs><LinearRing><coordinates>79.694326000000,37.517546000000,0 79.699131000000,37.561269000000,0 79.661601000000,37.554116000000,0 79.632768000000,37.474275000000,0 79.643294000000,37.424292000000,0 79.686774000000,37.447537000000,0 79.694326000000,37.517546000000,0</coordinates></LinearRing></outerBoundaryIs></Polygon><Polygon><outerBoundaryIs><LinearRing><coordinates>78.543028000000,37.574301000000,0 78.544630000000,37.791066000000,0 78.350344000000,37.731146000000,0 78.350344000000,37.685460000000,0 78.359956000000,37.653876000000,0 78.330664000000,37.603537000000,0 78.414191000000,37.621167000000,0 78.441881000000,37.642128000000,0 78.491081000000,37.616879000000,0 78.488793000000,37.568739000000,0 78.521746000000,37.555706000000,0 78.543028000000,37.574301000000,0</coordinates></LinearRing></outerBoundaryIs></Polygon><Polygon><outerBoundaryIs><LinearRing><coordinates>79.367083000000,37.325021000000,0 79.365710000000,37.354354000000,0 79.338250000000,37.371406000000,0 79.370974000000,37.385428000000,0 79.377152000000,37.416489000000,0 79.249917000000,37.414896000000,0 79.256325000000,37.236316000000,0 79.211243000000,37.231367000000,0 79.197513000000,37.206299000000,0 79.251061000000,37.197036000000,0 79.254494000000,37.214283000000,0 79.374406000000,37.174033000000,0 79.367083000000,37.325021000000,0</coordinates></LinearRing></outerBoundaryIs></Polygon><Polygon><outerBoundaryIs><LinearRing><coordinates>81.047461000000,36.250771000000,0 81.049978000000,36.315101000000,0 81.033959000000,36.280033000000,0 81.033730000000,36.275992000000,0 81.031671000000,36.259341000000,0 81.047461000000,36.250771000000,0</coordinates></LinearRing></outerBoundaryIs></Polygon><Polygon><outerBoundaryIs><LinearRing><coordinates>79.783116000000,37.580499000000,0 79.783802000000,37.537265000000,0 79.818586000000,37.537742000000,0 79.818128000000,37.574937000000,0 79.783116000000,37.580499000000,0</coordinates></LinearRing></outerBoundaryIs></Polygon></MultiGeometry>
    </Placemark>
  </Document>
</kml>
