<?xml version="1.0" encoding="UTF-8"?>
<kml xmlns="http://www.opengis.net/kml/2.2">
<Document>
<name>石河子市</name>
<Placemark><name>石河子市</name><MultiGeometry><Polygon><outerBoundaryIs><LinearRing><coordinates>86.122688999999994,44.448991999999997,0 86.111018000000001,44.459010999999997,0 86.043280999999993,44.452140999999997,0 86.011015,44.411333999999997,0 85.981037000000001,44.407037000000003,0 85.912155999999996,44.426515000000002,0 85.904832999999996,44.332647000000001,0 85.954262,44.309550999999999,0 85.985842000000005,44.157265000000002,0 86.065937000000005,44.160285999999999,0 86.096143999999995,44.125897000000002,0 86.128867999999997,44.211472000000001,0 86.123833000000005,44.266204000000002,0 86.141683,44.32734,0 86.127037000000001,44.374225000000003,0 86.122688999999994,44.448991999999997,0</coordinates></LinearRing></outerBoundaryIs></Polygon></MultiGeometry></Placemark>
</Document>
</kml>