<?xml version="1.0" encoding="UTF-8"?>
<kml xmlns="http://www.opengis.net/kml/2.2">
  <Document>
    <name>阿勒泰地区</name>
    <Placemark>
      <name>阿勒泰地区</name>
      <Polygon><outerBoundaryIs><LinearRing><coordinates>88.797379000000,48.133941000000,0 88.824382000000,48.106768000000,0 88.930564000000,48.119486000000,0 88.953906000000,48.090833000000,0 89.027364000000,48.050906000000,0 89.044756000000,48.009875000000,0 89.078395000000,47.986931000000,0 89.156430000000,47.996861000000,0 89.231490000000,47.980221000000,0 89.282064000000,47.994044000000,0 89.308609000000,48.021946000000,0 89.359869000000,48.026372000000,0 89.381380000000,48.046215000000,0 89.408612000000,48.034953000000,0 89.498089000000,48.028383000000,0 89.568801000000,48.037769000000,0 89.599466000000,48.015643000000,0 89.603356000000,47.963172000000,0 89.645463000000,47.947864000000,0 89.650955000000,47.913740000000,0 89.735397000000,47.897476000000,0 89.762171000000,47.835734000000,0 89.933344000000,47.835734000000,0 89.958059000000,47.842867000000,0 89.960576000000,47.885779000000,0 90.086667000000,47.865605000000,0 90.070648000000,47.820522000000,0 90.076141000000,47.777421000000,0 90.134953000000,47.723226000000,0 90.192621000000,47.722416000000,0 90.216420000000,47.705418000000,0 90.331527000000,47.681529000000,0 90.384847000000,47.644257000000,0 90.346173000000,47.637367000000,0 90.376151000000,47.603039000000,0 90.398348000000,47.547714000000,0 90.468145000000,47.497614000000,0 90.474323000000,47.462380000000,0 90.458991000000,47.438923000000,0 90.468602000000,47.404872000000,0 90.507734000000,47.399986000000,0 90.526499000000,47.378945000000,0 90.488283000000,47.317267000000,0 90.521465000000,47.284633000000,0 90.561512000000,47.207046000000,0 90.579819000000,47.198191000000,0 90.653735000000,47.111608000000,0 90.692180000000,47.080622000000,0 90.767240000000,46.992480000000,0 90.830857000000,46.995899000000,0 90.901569000000,46.960741000000,0 90.922165000000,46.938704000000,0 90.929945000000,46.893095000000,0 90.957864000000,46.879528000000,0 90.942760000000,46.825775000000,0 91.019422000000,46.766201000000,0 91.053977000000,46.717421000000,0 91.036356000000,46.670386000000,0 91.017820000000,46.582257000000,0 91.067936000000,46.579225000000,0 91.079149000000,46.558824000000,0 91.037958000000,46.500886000000,0 91.025601000000,46.443854000000,0 90.996309000000,46.419393000000,0 90.983494000000,46.374866000000,0 90.900425000000,46.312301000000,0 90.955575000000,46.233855000000,0 90.948024000000,46.219151000000,0 90.984638000000,46.160574000000,0 91.021481000000,46.121118000000,0 91.014845000000,46.066471000000,0 91.028347000000,46.023049000000,0 90.850080000000,45.887972000000,0 90.799964000000,45.835050000000,0 90.714835000000,45.728916000000,0 90.670211000000,45.547926000000,0 90.671355000000,45.487654000000,0 90.494919000000,45.420280000000,0 90.481646000000,45.397335000000,0 90.379583000000,45.276968000000,0 90.353267000000,45.230670000000,0 90.292166000000,45.177267000000,0 90.251204000000,45.087727000000,0 90.222370000000,45.064364000000,0 90.238160000000,45.001732000000,0 88.004446000000,45.002015000000,0 87.336231000000,45.001874000000,0 87.336918000000,45.330559000000,0 87.339435000000,45.957852000000,0 87.336002000000,46.005085000000,0 87.300761000000,46.060489000000,0 87.037136000000,46.503509000000,0 87.201673000000,46.715771000000,0 87.203732000000,46.849505000000,0 87.068488000000,46.932543000000,0 87.029585000000,46.970867000000,0 87.037365000000,47.118840000000,0 86.581057000000,47.051941000000,0 86.493640000000,47.064235000000,0 86.492724000000,47.089770000000,0 86.377618000000,47.087312000000,0 86.197749000000,47.041557000000,0 86.082642000000,47.025568000000,0 86.005752000000,47.066420000000,0 85.953347000000,47.078028000000,0 85.797735000000,47.053853000000,0 85.679882000000,47.051531000000,0 85.540061000000,47.057405000000,0 85.546926000000,47.096732000000,0 85.582854000000,47.142849000000,0 85.682400000000,47.222709000000,0 85.701165000000,47.288441000000,0 85.675992000000,47.321617000000,0 85.701393000000,47.384240000000,0 85.684917000000,47.428886000000,0 85.652193000000,47.455195000000,0 85.610086000000,47.511295000000,0 85.617638000000,47.550691000000,0 85.546926000000,48.008265000000,0 85.531822000000,48.046349000000,0 85.551960000000,48.081591000000,0 85.556080000000,48.139962000000,0 85.592236000000,48.196396000000,0 85.622215000000,48.202945000000,0 85.633885000000,48.232871000000,0 85.661804000000,48.243422000000,0 85.694986000000,48.301476000000,0 85.711920000000,48.361462000000,0 85.758604000000,48.403943000000,0 85.838698000000,48.428830000000,0 85.916504000000,48.437876000000,0 86.053808000000,48.441069000000,0 86.226125000000,48.432422000000,0 86.270978000000,48.452906000000,0 86.302100000000,48.490793000000,0 86.371439000000,48.493052000000,0 86.412630000000,48.481091000000,0 86.585634000000,48.542194000000,0 86.594559000000,48.576697000000,0 86.642615000000,48.629601000000,0 86.693647000000,48.643779000000,0 86.702343000000,48.665370000000,0 86.781064000000,48.732069000000,0 86.754289000000,48.780979000000,0 86.764358000000,48.803699000000,0 86.818365000000,48.830369000000,0 86.822484000000,48.845810000000,0 86.782894000000,48.886172000000,0 86.758180000000,48.894873000000,0 86.730032000000,48.955475000000,0 86.732550000000,48.995354000000,0 86.772368000000,49.027707000000,0 86.836214000000,49.051103000000,0 86.847199000000,49.101015000000,0 86.881982000000,49.129494000000,0 86.953838000000,49.131200000000,0 87.002124000000,49.142613000000,0 87.088397000000,49.133693000000,0 87.112654000000,49.155597000000,0 87.211742000000,49.140645000000,0 87.238745000000,49.114535000000,0 87.304880000000,49.112304000000,0 87.388865000000,49.097995000000,0 87.436692000000,49.075277000000,0 87.511523000000,49.101671000000,0 87.495504000000,49.131987000000,0 87.517473000000,49.145499000000,0 87.563012000000,49.142482000000,0 87.685442000000,49.159924000000,0 87.700546000000,49.175788000000,0 87.820916000000,49.173822000000,0 87.820687000000,49.148253000000,0 87.845631000000,49.146023000000,0 87.867142000000,49.108760000000,0 87.858217000000,49.073570000000,0 87.835333000000,49.054257000000,0 87.883160000000,49.023762000000,0 87.884076000000,48.993906000000,0 87.911766000000,48.979959000000,0 87.871947000000,48.963638000000,0 87.876524000000,48.949155000000,0 87.814508000000,48.945336000000,0 87.759815000000,48.925974000000,0 87.742423000000,48.881293000000,0 87.780869000000,48.872194000000,0 87.828925000000,48.825617000000,0 87.826408000000,48.800926000000,0 87.872176000000,48.799473000000,0 87.938998000000,48.757852000000,0 87.961424000000,48.773447000000,0 88.029161000000,48.750185000000,0 88.061885000000,48.714344000000,0 88.090719000000,48.719768000000,0 88.089575000000,48.694893000000,0 88.026644000000,48.653185000000,0 88.027330000000,48.627348000000,0 87.961653000000,48.599377000000,0 87.973095000000,48.576034000000,0 88.041289000000,48.548300000000,0 88.101017000000,48.548034000000,0 88.130080000000,48.521613000000,0 88.151819000000,48.526261000000,0 88.196672000000,48.493982000000,0 88.257544000000,48.497702000000,0 88.363039000000,48.460485000000,0 88.360980000000,48.433353000000,0 88.438099000000,48.393559000000,0 88.503776000000,48.412994000000,0 88.535585000000,48.369056000000,0 88.573344000000,48.369722000000,0 88.606068000000,48.337876000000,0 88.575175000000,48.277595000000,0 88.598288000000,48.227262000000,0 88.641310000000,48.181959000000,0 88.700808000000,48.181024000000,0 88.721404000000,48.160564000000,0 88.797379000000,48.133941000000,0</coordinates></LinearRing></outerBoundaryIs><innerBoundaryIs><LinearRing><coordinates>87.556147000000,47.356673000000,0 87.527542000000,47.338604000000,0 87.595508000000,47.289121000000,0 87.668050000000,47.267492000000,0 87.743110000000,47.204866000000,0 87.794370000000,47.184156000000,0 87.886364000000,47.161121000000,0 87.910850000000,47.172572000000,0 88.005361000000,47.145713000000,0 88.055020000000,47.147486000000,0 88.077904000000,47.128663000000,0 88.176763000000,47.114883000000,0 88.273563000000,47.132892000000,0 88.342673000000,47.174344000000,0 88.343359000000,47.232512000000,0 88.428717000000,47.234691000000,0 88.430090000000,47.258239000000,0 88.339698000000,47.239728000000,0 88.312237000000,47.258103000000,0 88.262121000000,47.238503000000,0 88.098042000000,47.280960000000,0 88.038772000000,47.312237000000,0 87.985910000000,47.316859000000,0 87.906731000000,47.341322000000,0 87.862565000000,47.317539000000,0 87.828696000000,47.351919000000,0 87.873091000000,47.346213000000,0 87.853411000000,47.367267000000,0 87.831671000000,47.357216000000,0 87.803066000000,47.382339000000,0 87.753637000000,47.380167000000,0 87.771715000000,47.357081000000,0 87.556147000000,47.356673000000,0</coordinates></LinearRing></innerBoundaryIs><innerBoundaryIs><LinearRing><coordinates>87.540357000000,47.429700000000,0 87.481316000000,47.411114000000,0 87.490241000000,47.400664000000,0 87.554774000000,47.421290000000,0 87.540357000000,47.429700000000,0</coordinates></LinearRing></innerBoundaryIs></Polygon>
    </Placemark>
  </Document>
</kml>
