<?xml version="1.0" encoding="UTF-8"?>
<kml xmlns="http://www.opengis.net/kml/2.2">
<Document>
<name>阿拉尔市</name>
<Placemark><name>阿拉尔市</name><MultiGeometry><Polygon><outerBoundaryIs><LinearRing><coordinates>81.884101999999999,40.941004,0 81.863506000000001,40.944032999999997,0 81.457085000000006,40.804698999999999,0 81.385687000000004,40.825032999999998,0 81.325959999999995,40.805154000000002,0 81.329849999999993,40.762946999999997,0 81.140827999999999,40.698979000000001,0 80.990478999999993,40.702475999999997,0 80.867362999999997,40.658987000000003,0 80.791846000000007,40.703235999999997,0 80.725938999999997,40.701411999999998,0 80.683374999999998,40.666744000000001,0 80.592296000000005,40.619883999999999,0 80.621588000000003,40.556845000000003,0 80.670788999999999,40.569031000000003,0 80.70214,40.546028,0 80.696419000000006,40.520121000000003,0 80.741271999999995,40.533228000000001,0 80.780404000000004,40.505944,0 80.789786000000007,40.479564000000003,0 80.827774000000005,40.476512999999997,0 80.809923999999995,40.454698999999998,0 80.729371999999998,40.452410999999998,0 80.723421999999999,40.488408999999997,0 80.673992999999996,40.511584999999997,0 80.659346999999997,40.484597000000001,0 80.683833000000007,40.464615999999999,0 80.633717000000004,40.465378000000001,0 80.605797999999993,40.423262000000001,0 80.679485,40.381425,0 80.740127999999999,40.369357000000001,0 80.907867999999993,40.420361999999997,0 80.931438,40.432572999999998,0 80.981097000000005,40.423872000000003,0 81.003065000000007,40.396849000000003,0 81.210395000000005,40.397306999999998,0 81.281107000000006,40.435929999999999,0 81.377448999999999,40.439439999999998,0 81.760299000000003,40.437913999999999,0 81.880441000000005,40.467666999999999,0 81.978612999999996,40.468429,0 81.944744999999998,40.494356000000003,0 81.822543999999994,40.685144000000001,0 81.743364999999997,40.733325999999998,0 81.812703999999997,40.813197000000002,0 81.843140000000005,40.886152000000003,0 81.884101999999999,40.941004,0</coordinates></LinearRing></outerBoundaryIs></Polygon></MultiGeometry></Placemark>
</Document>
</kml>