<?xml version="1.0" encoding="UTF-8"?>
<kml xmlns="http://www.opengis.net/kml/2.2">
  <Document>
    <name><![CDATA[南通市]]></name>
    <Placemark>
      <name><![CDATA[南通市]]></name>
      <description><![CDATA[省级目录：江苏省]]></description>
      <ExtendedData>
        <Data name="adcode"><value>320600</value></Data>
      </ExtendedData>
      <MultiGeometry>
      <Polygon>
        <outerBoundaryIs><LinearRing><coordinates>120.202303,32.600908,0 120.207635,32.591567,0 120.224584,32.58183,0 120.23059,32.58683,0 120.255734,32.597619,0 120.262862,32.574855,0 120.262301,32.562001,0 120.270102,32.548707,0 120.263704,32.514562,0 120.270102,32.501788,0 120.258316,32.498934,0 120.271393,32.47228,0 120.275153,32.438897,0 120.280654,32.430989,0 120.279924,32.421454,0 120.289185,32.384975,0 120.284526,32.379876,0 120.292608,32.369544,0 120.302542,32.37249,0 120.310119,32.361542,0 120.323028,32.368445,0 120.351652,32.377898,0 120.352381,32.368929,0 120.359734,32.35798,0 120.346208,32.343996,0 120.353111,32.335947,0 120.354234,32.324951,0 120.365234,32.308806,0 120.352325,32.30445,0 120.352381,32.278663,0 120.347218,32.266515,0 120.350866,32.255995,0 120.345927,32.249919,0 120.35704,32.238736,0 120.364617,32.237812,0 120.371632,32.217555,0 120.343233,32.170067,0 120.347442,32.150545,0 120.351034,32.149487,0 120.356198,32.130754,0 120.374383,32.128065,0 120.387909,32.129696,0 120.417038,32.124847,0 120.435166,32.123921,0 120.440779,32.119865,0 120.482255,32.102933,0 120.486745,32.099141,0 120.512843,32.091732,0 120.518456,32.065885,0 120.5294,32.056444,0 120.550503,32.050929,0 120.547922,32.041046,0 120.558529,32.03372,0 120.553141,32.021143,0 120.588276,32.009711,0 120.628405,32.001147,0 120.652651,32.002383,0 120.70249,32.013375,0 120.76159,32.020437,0 120.78202,32.015979,0 120.790102,31.998101,0 120.803123,31.988432,0 120.853467,31.888641,0 120.860314,31.873037,0 120.883831,31.834702,0 120.916664,31.793652,0 120.932884,31.786705,0 120.959488,31.783032,0 121.060625,31.783077,0 121.076845,31.777014,0 121.101204,31.762542,0 121.11849,31.75909,0 121.149247,31.78728,0 121.181519,31.820416,0 121.200321,31.835144,0 121.225296,31.84704,0 121.265594,31.864107,0 121.301907,31.872727,0 121.323066,31.868528,0 121.369314,31.843281,0 121.385029,31.833552,0 121.41629,31.797634,0 121.410902,31.795598,0 121.420893,31.779581,0 121.4315,31.76927,0 121.455578,31.759356,0 121.487738,31.753424,0 121.49857,31.753247,0 121.51305,31.743686,0 121.539429,31.735496,0 121.565022,31.716722,0 121.599651,31.703127,0 121.600886,31.70698,0 121.63327,31.696173,0 121.642643,31.697458,0 121.715269,31.673848,0 121.81781,31.652049,0 121.975185,31.617035,0 121.96772,31.703924,0 121.970302,31.718892,0 121.960143,31.736868,0 121.941005,31.776572,0 121.897452,31.85354,0 121.889145,31.866627,0 121.874833,31.90212,0 121.870287,31.928279,0 121.856031,31.955225,0 121.772405,32.033235,0 121.759047,32.0594,0 121.729637,32.069194,0 121.59258,32.112943,0 121.544368,32.123039,0 121.52551,32.136528,0 121.542291,32.152131,0 121.50306,32.170067,0 121.473089,32.169803,0 121.458609,32.17769,0 121.461527,32.193726,0 121.479263,32.197999,0 121.49958,32.211169,0 121.493912,32.263478,0 121.457767,32.27391,0 121.45019,32.282272,0 121.447047,32.299258,0 121.440536,32.366071,0 121.425495,32.431033,0 121.417413,32.443115,0 121.390529,32.460729,0 121.351915,32.474256,0 121.287652,32.480185,0 121.269523,32.483434,0 121.153119,32.529266,0 121.122026,32.569328,0 121.076901,32.576391,0 121.051701,32.587137,0 121.020496,32.605513,0 120.988448,32.606741,0 120.961733,32.612178,0 120.979637,32.636335,0 120.976044,32.658426,0 120.908133,32.639316,0 120.895336,32.631601,0 120.863233,32.630242,0 120.863457,32.61915,0 120.851447,32.618273,0 120.851166,32.607442,0 120.856891,32.612178,0 120.868453,32.609766,0 120.85459,32.605074,0 120.837247,32.606741,0 120.832589,32.597005,0 120.818277,32.592006,0 120.805031,32.582619,0 120.792627,32.578452,0 120.793469,32.600601,0 120.74363,32.598321,0 120.740319,32.585427,0 120.721012,32.591611,0 120.720282,32.599724,0 120.701031,32.603496,0 120.680938,32.594812,0 120.671565,32.587883,0 120.663034,32.572048,0 120.653381,32.571872,0 120.649284,32.585032,0 120.656075,32.594637,0 120.656917,32.603496,0 120.643952,32.613187,0 120.629752,32.617527,0 120.620267,32.601873,0 120.615216,32.606127,0 120.621838,32.626033,0 120.612746,32.635634,0 120.614767,32.639755,0 120.600455,32.650011,0 120.590521,32.639667,0 120.578903,32.63502,0 120.549886,32.635765,0 120.544554,32.632258,0 120.51217,32.636116,0 120.506838,32.640763,0 120.495276,32.639492,0 120.496511,32.624367,0 120.484669,32.63125,0 120.475576,32.628664,0 120.465642,32.631469,0 120.44308,32.629277,0 120.443192,32.639097,0 120.436962,32.647075,0 120.431855,32.676525,0 120.415747,32.679416,0 120.410471,32.689406,0 120.394251,32.687478,0 120.389592,32.69072,0 120.392511,32.707235,0 120.376122,32.71087,0 120.366693,32.704913,0 120.340988,32.705351,0 120.333018,32.699788,0 120.319492,32.699306,0 120.315563,32.704388,0 120.292664,32.687566,0 120.276276,32.679285,0 120.251861,32.679898,0 120.225651,32.675911,0 120.224809,32.658382,0 120.228906,32.649924,0 120.221722,32.64839,0 120.222171,32.634319,0 120.213528,32.625639,0 120.209375,32.608188,0 120.213584,32.602706,0 120.202303,32.600908,0</coordinates></LinearRing></outerBoundaryIs>
      </Polygon>
      <Polygon>
        <outerBoundaryIs><LinearRing><coordinates>121.403775,32.530583,0 121.402652,32.521541,0 121.408601,32.519566,0 121.435205,32.520005,0 121.436495,32.529266,0 121.429255,32.531505,0 121.403775,32.530583,0</coordinates></LinearRing></outerBoundaryIs>
      </Polygon>
    </MultiGeometry>
    </Placemark>
  </Document>
</kml>
