<?xml version="1.0" encoding="UTF-8"?>
<kml xmlns="http://www.opengis.net/kml/2.2">
  <Document>
    <name><![CDATA[宿迁市]]></name>
    <Placemark>
      <name><![CDATA[宿迁市]]></name>
      <description><![CDATA[省级目录：江苏省]]></description>
      <ExtendedData>
        <Data name="adcode"><value>321300</value></Data>
      </ExtendedData>
      <MultiGeometry>
      <Polygon>
        <outerBoundaryIs><LinearRing><coordinates>119.174931,34.093494,0 119.166849,34.10746,0 119.176166,34.118579,0 119.168421,34.129654,0 119.15641,34.133618,0 119.150348,34.140555,0 119.142828,34.134049,0 119.129077,34.145768,0 119.145409,34.158692,0 119.141874,34.161578,0 119.144287,34.176265,0 119.136991,34.177858,0 119.13295,34.205415,0 119.099667,34.208042,0 119.09703,34.232921,0 119.09108,34.23688,0 119.091866,34.262353,0 119.074074,34.265107,0 119.082774,34.310868,0 119.073008,34.331763,0 119.075477,34.342681,0 119.062232,34.338683,0 119.057068,34.356176,0 119.056227,34.3823,0 119.065263,34.409232,0 119.086871,34.409747,0 119.089565,34.42087,0 119.061222,34.420183,0 119.041409,34.421901,0 119.038659,34.403735,0 119.033215,34.398881,0 119.015311,34.405324,0 118.994994,34.404121,0 118.995162,34.39029,0 118.980794,34.379636,0 118.974901,34.36911,0 118.96463,34.36086,0 118.963788,34.350546,0 118.95363,34.350116,0 118.953237,34.368508,0 118.939991,34.382343,0 118.931909,34.374738,0 118.924837,34.379293,0 118.913388,34.378262,0 118.907439,34.368036,0 118.874942,34.367692,0 118.864335,34.365887,0 118.837787,34.368809,0 118.825328,34.358797,0 118.812138,34.357336,0 118.810903,34.343196,0 118.78531,34.311814,0 118.766564,34.308891,0 118.758258,34.312932,0 118.759829,34.321058,0 118.748268,34.330817,0 118.739905,34.325056,0 118.708194,34.336362,0 118.693265,34.345904,0 118.676371,34.345345,0 118.676596,34.339414,0 118.6661,34.342423,0 118.644268,34.359012,0 118.635232,34.355058,0 118.633155,34.344744,0 118.621986,34.341133,0 118.631752,34.337179,0 118.634895,34.320456,0 118.632706,34.308246,0 118.624063,34.305752,0 118.593362,34.308031,0 118.571473,34.298957,0 118.57456,34.278399,0 118.566871,34.274184,0 118.56109,34.247983,0 118.565468,34.236794,0 118.573494,34.233566,0 118.559687,34.187806,0 118.560192,34.165454,0 118.519221,34.168598,0 118.505358,34.158562,0 118.50968,34.148784,0 118.503674,34.137194,0 118.503225,34.123147,0 118.517705,34.117545,0 118.489923,34.106684,0 118.482627,34.100046,0 118.469718,34.097201,0 118.451029,34.106598,0 118.43436,34.105089,0 118.428466,34.108623,0 118.382949,34.117286,0 118.363586,34.118795,0 118.306001,34.11358,0 118.292307,34.109701,0 118.28922,34.102589,0 118.232646,34.100304,0 118.222824,34.106986,0 118.213619,34.127241,0 118.213844,34.14202,0 118.187745,34.161664,0 118.177306,34.156366,0 118.15654,34.161147,0 118.150703,34.158476,0 118.154239,34.148784,0 118.150534,34.137281,0 118.139309,34.136419,0 118.120732,34.144045,0 118.10294,34.139521,0 118.097047,34.150292,0 118.088292,34.15503,0 118.083072,34.165411,0 118.072408,34.170924,0 118.060622,34.157055,0 118.064158,34.152532,0 118.055571,34.148827,0 117.998997,34.140038,0 117.994394,34.123793,0 117.996583,34.105649,0 118.007696,34.100348,0 118.005507,34.09164,0 118.013084,34.083923,0 118.048611,34.092545,0 118.063821,34.053781,0 118.059836,34.048174,0 118.063653,34.020738,0 118.054168,34.009692,0 118.049621,34.01336,0 118.034917,34.01267,0 118.028406,33.998386,0 118.03385,33.983927,0 118.046254,33.98151,0 118.053045,33.971883,0 118.072408,33.965408,0 118.085654,33.965192,0 118.085766,33.942048,0 118.100022,33.941184,0 118.106139,33.935138,0 118.113772,33.936865,0 118.117589,33.954614,0 118.125896,33.954959,0 118.141162,33.934749,0 118.149356,33.901011,0 118.156428,33.889691,0 118.168495,33.881005,0 118.174612,33.865186,0 118.176015,33.844133,0 118.184771,33.844176,0 118.18797,33.822945,0 118.183368,33.816155,0 118.169056,33.820134,0 118.168887,33.807591,0 118.159515,33.795653,0 118.170459,33.786221,0 118.178597,33.763115,0 118.170852,33.759134,0 118.168326,33.749569,0 118.185332,33.744937,0 118.177811,33.736107,0 118.160862,33.735327,0 118.153341,33.720175,0 118.167709,33.714979,0 118.164005,33.692633,0 118.168102,33.663739,0 118.120115,33.621659,0 118.112257,33.617064,0 118.117252,33.591657,0 118.108384,33.530017,0 118.099124,33.52941,0 118.107992,33.520167,0 118.106813,33.503934,0 118.108104,33.475107,0 118.05776,33.491693,0 118.050632,33.49204,0 118.04356,33.473718,0 118.028631,33.458432,0 118.023579,33.440928,0 118.021952,33.421596,0 118.016844,33.406692,0 118.028238,33.390569,0 118.029304,33.372269,0 118.0059,33.352095,0 117.995517,33.347095,0 117.971607,33.349313,0 117.975368,33.335745,0 117.99243,33.333135,0 117.985919,33.32026,0 117.983281,33.296768,0 117.974245,33.279711,0 117.939448,33.262606,0 117.948035,33.252115,0 117.938999,33.234309,0 117.942366,33.225078,0 117.953816,33.223945,0 117.977444,33.226253,0 117.993496,33.211272,0 117.993608,33.20561,0 117.980924,33.200166,0 117.986424,33.193371,0 117.989175,33.179648,0 118.003879,33.177033,0 118.008482,33.16784,0 118.017406,33.164615,0 118.025656,33.155943,0 118.036713,33.1525,0 118.038228,33.135196,0 118.046871,33.138422,0 118.069153,33.139948,0 118.088292,33.149667,0 118.11888,33.160562,0 118.149019,33.169495,0 118.159964,33.181042,0 118.156315,33.195461,0 118.168382,33.21345,0 118.178204,33.217979,0 118.194368,33.211664,0 118.211599,33.19912,0 118.221364,33.180693,0 118.261718,33.199948,0 118.320201,33.196246,0 118.424313,33.187141,0 118.443452,33.204783,0 118.511083,33.263868,0 118.667784,33.311734,0 118.703424,33.323697,0 118.780147,33.345834,0 118.746921,33.386701,0 118.782841,33.444012,0 118.779866,33.487568,0 118.785591,33.493082,0 118.789969,33.508709,0 118.789744,33.5367,0 118.797433,33.560604,0 118.803102,33.561776,0 118.806357,33.572749,0 118.78531,33.587018,0 118.770605,33.60705,0 118.757977,33.635746,0 118.799566,33.64671,0 118.792607,33.666555,0 118.798612,33.69155,0 118.813148,33.700948,0 118.809276,33.715975,0 118.814215,33.730868,0 118.80226,33.741215,0 118.805122,33.763245,0 118.79575,33.772852,0 118.805628,33.794355,0 118.799847,33.813517,0 118.807311,33.819356,0 118.818985,33.844954,0 118.828751,33.858615,0 118.857151,33.880227,0 118.863661,33.891376,0 118.874493,33.892543,0 118.885381,33.885888,0 118.907383,33.889777,0 118.922143,33.902524,0 118.933088,33.900709,0 118.941338,33.907751,0 118.948803,33.906801,0 118.950767,33.914275,0 118.972263,33.919372,0 118.987585,33.904554,0 118.999708,33.9049,0 118.997295,33.897296,0 119.008015,33.896604,0 119.024853,33.911164,0 119.035853,33.928054,0 119.044553,33.929436,0 119.053252,33.937383,0 119.050951,33.957507,0 119.040736,33.959622,0 119.0427,33.968905,0 119.055441,33.973135,0 119.058864,33.978359,0 119.07312,33.98151,0 119.081932,33.987769,0 119.08384,34.001407,0 119.114541,34.024406,0 119.129751,34.028849,0 119.148833,34.045845,0 119.155119,34.056973,0 119.15815,34.076421,0 119.166456,34.088105,0 119.174931,34.093494,0</coordinates></LinearRing></outerBoundaryIs>
      </Polygon>
    </MultiGeometry>
    </Placemark>
  </Document>
</kml>
