<?xml version="1.0" encoding="UTF-8"?>
<kml xmlns="http://www.opengis.net/kml/2.2">
  <Document>
    <name><![CDATA[淮安市]]></name>
    <Placemark>
      <name><![CDATA[淮安市]]></name>
      <description><![CDATA[省级目录：江苏省]]></description>
      <ExtendedData>
        <Data name="adcode"><value>320800</value></Data>
      </ExtendedData>
      <MultiGeometry>
      <Polygon>
        <outerBoundaryIs><LinearRing><coordinates>119.184922,32.82564,0 119.190927,32.825421,0 119.278651,32.798909,0 119.313729,32.804859,0 119.332699,32.81501,0 119.345383,32.838325,0 119.349817,32.868411,0 119.345608,32.890182,0 119.328265,32.945897,0 119.324954,32.96861,0 119.325122,32.998434,0 119.343082,33.011443,0 119.359246,33.029688,0 119.364185,33.03859,0 119.363736,33.053513,0 119.343251,33.065119,0 119.334776,33.084442,0 119.321081,33.102279,0 119.313897,33.128614,0 119.305422,33.13463,0 119.271467,33.146834,0 119.250251,33.157643,0 119.228531,33.151106,0 119.22376,33.16126,0 119.229541,33.165879,0 119.22202,33.188056,0 119.219158,33.206002,0 119.211413,33.203084,0 119.199907,33.205915,0 119.165222,33.207614,0 119.150685,33.212797,0 119.143277,33.230042,0 119.146644,33.248589,0 119.155512,33.254466,0 119.163145,33.271529,0 119.153435,33.285281,0 119.160114,33.283453,0 119.184697,33.289763,0 119.210683,33.292504,0 119.239924,33.301511,0 119.262655,33.303033,0 119.248848,33.318129,0 119.235041,33.345138,0 119.243123,33.352443,0 119.254517,33.352878,0 119.29184,33.3634,0 119.310979,33.3674,0 119.36542,33.369574,0 119.401284,33.375182,0 119.416831,33.376181,0 119.448429,33.384832,0 119.476773,33.403737,0 119.48839,33.407909,0 119.504498,33.407301,0 119.53127,33.414905,0 119.543898,33.414905,0 119.553103,33.410516,0 119.559164,33.400913,0 119.566853,33.399348,0 119.604177,33.422291,0 119.617983,33.427201,0 119.620004,33.43741,0 119.605299,33.449572,0 119.604121,33.455435,0 119.591436,33.464078,0 119.580997,33.464512,0 119.576282,33.474239,0 119.55894,33.471416,0 119.532449,33.501503,0 119.520775,33.500896,0 119.498156,33.520297,0 119.492712,33.536006,0 119.493329,33.545941,0 119.486594,33.560691,0 119.477783,33.588362,0 119.471104,33.597338,0 119.464369,33.627121,0 119.456455,33.64164,0 119.463751,33.645323,0 119.467624,33.638303,0 119.496136,33.654207,0 119.483732,33.658453,0 119.484911,33.667162,0 119.492263,33.673097,0 119.481655,33.685963,0 119.48261,33.69809,0 119.508932,33.72208,0 119.508988,33.739526,0 119.524311,33.770299,0 119.53228,33.776573,0 119.536153,33.79721,0 119.545526,33.803569,0 119.543169,33.812392,0 119.555292,33.827572,0 119.559389,33.840069,0 119.584814,33.858961,0 119.598733,33.874522,0 119.617871,33.879276,0 119.639199,33.893752,0 119.638974,33.904597,0 119.64599,33.924772,0 119.637571,33.939024,0 119.644026,33.947014,0 119.63426,33.951289,0 119.620397,33.946107,0 119.615121,33.9547,0 119.595309,33.976805,0 119.601427,33.980129,0 119.597273,33.995926,0 119.57892,33.999896,0 119.568257,34.013187,0 119.563318,34.01021,0 119.555236,34.018624,0 119.541148,34.016596,0 119.53576,34.030877,0 119.517968,34.031351,0 119.519596,34.025743,0 119.509269,34.017157,0 119.497819,34.014568,0 119.474135,33.999206,0 119.439169,33.979611,0 119.43002,33.985611,0 119.425474,34.003521,0 119.40931,34.001925,0 119.403305,34.022335,0 119.397917,34.024449,0 119.392809,34.036787,0 119.370752,34.032991,0 119.337919,34.029669,0 119.320015,34.026131,0 119.319285,34.032861,0 119.303458,34.034544,0 119.302897,34.04041,0 119.26838,34.042438,0 119.268211,34.034285,0 119.248624,34.033767,0 119.236164,34.036312,0 119.235715,34.043991,0 119.227352,34.052703,0 119.209504,34.05624,0 119.190534,34.076723,0 119.18408,34.089786,0 119.174931,34.093494,0 119.166456,34.088105,0 119.15815,34.076421,0 119.155119,34.056973,0 119.148833,34.045845,0 119.129751,34.028849,0 119.114541,34.024406,0 119.08384,34.001407,0 119.081932,33.987769,0 119.07312,33.98151,0 119.058864,33.978359,0 119.055441,33.973135,0 119.0427,33.968905,0 119.040736,33.959622,0 119.050951,33.957507,0 119.053252,33.937383,0 119.044553,33.929436,0 119.035853,33.928054,0 119.024853,33.911164,0 119.008015,33.896604,0 118.997295,33.897296,0 118.999708,33.9049,0 118.987585,33.904554,0 118.972263,33.919372,0 118.950767,33.914275,0 118.948803,33.906801,0 118.941338,33.907751,0 118.933088,33.900709,0 118.922143,33.902524,0 118.907383,33.889777,0 118.885381,33.885888,0 118.874493,33.892543,0 118.863661,33.891376,0 118.857151,33.880227,0 118.828751,33.858615,0 118.818985,33.844954,0 118.807311,33.819356,0 118.799847,33.813517,0 118.805628,33.794355,0 118.79575,33.772852,0 118.805122,33.763245,0 118.80226,33.741215,0 118.814215,33.730868,0 118.809276,33.715975,0 118.813148,33.700948,0 118.798612,33.69155,0 118.792607,33.666555,0 118.799566,33.64671,0 118.757977,33.635746,0 118.770605,33.60705,0 118.78531,33.587018,0 118.806357,33.572749,0 118.803102,33.561776,0 118.797433,33.560604,0 118.789744,33.5367,0 118.789969,33.508709,0 118.785591,33.493082,0 118.779866,33.487568,0 118.782841,33.444012,0 118.746921,33.386701,0 118.780147,33.345834,0 118.703424,33.323697,0 118.667784,33.311734,0 118.511083,33.263868,0 118.443452,33.204783,0 118.424313,33.187141,0 118.320201,33.196246,0 118.261718,33.199948,0 118.221364,33.180693,0 118.223722,33.155464,0 118.219625,33.114096,0 118.210476,33.111829,0 118.20969,33.104329,0 118.220915,33.105855,0 118.221308,33.087626,0 118.206491,33.091246,0 118.202899,33.088106,0 118.223666,33.083439,0 118.22765,33.069525,0 118.214854,33.070833,0 118.212441,33.061934,0 118.233375,33.060014,0 118.239605,33.046445,0 118.243478,33.027767,0 118.244825,32.998303,0 118.252402,32.982148,0 118.269352,32.969178,0 118.303812,32.968654,0 118.309649,32.959002,0 118.293373,32.947164,0 118.251335,32.936155,0 118.235396,32.926543,0 118.233039,32.916231,0 118.239774,32.883363,0 118.244432,32.874488,0 118.250606,32.848384,0 118.263178,32.856168,0 118.284618,32.857305,0 118.289557,32.845498,0 118.301736,32.846241,0 118.297863,32.83207,0 118.306619,32.810591,0 118.294439,32.800134,0 118.298761,32.785562,0 118.307124,32.778735,0 118.322334,32.777465,0 118.326431,32.763459,0 118.334064,32.761576,0 118.348769,32.773001,0 118.366224,32.768318,0 118.371163,32.757724,0 118.372285,32.741744,0 118.36628,32.735001,0 118.368188,32.724754,0 118.375316,32.719017,0 118.398664,32.721426,0 118.411011,32.716039,0 118.422854,32.718097,0 118.450467,32.743364,0 118.459279,32.726111,0 118.483469,32.721426,0 118.489755,32.724491,0 118.520456,32.723221,0 118.544702,32.729396,0 118.559743,32.729921,0 118.576581,32.719104,0 118.59078,32.724841,0 118.607562,32.726637,0 118.617047,32.738942,0 118.632313,32.739993,0 118.639385,32.744809,0 118.654033,32.740693,0 118.657569,32.736096,0 118.694163,32.726637,0 118.70724,32.720287,0 118.724471,32.721951,0 118.736706,32.73233,0 118.756294,32.737059,0 118.752702,32.755842,0 118.746359,32.759256,0 118.737941,32.773264,0 118.736874,32.793351,0 118.746808,32.800353,0 118.741813,32.853369,0 118.747875,32.858704,0 118.791035,32.848384,0 118.811689,32.854987,0 118.812531,32.865219,0 118.806189,32.870247,0 118.81124,32.875494,0 118.814608,32.902727,0 118.809332,32.907884,0 118.812194,32.91693,0 118.818985,32.920644,0 118.836945,32.911424,0 118.839471,32.922523,0 118.848956,32.927198,0 118.842502,32.943669,0 118.849405,32.945897,0 118.849349,32.956643,0 118.865233,32.955027,0 118.884652,32.960618,0 118.896214,32.957735,0 118.891162,32.951489,0 118.893239,32.940873,0 118.90626,32.944936,0 118.921414,32.939563,0 118.933818,32.938645,0 118.941619,32.946116,0 118.961207,32.94581,0 118.993647,32.958215,0 119.008913,32.959395,0 119.020812,32.955813,0 119.026312,32.947251,0 119.023281,32.935063,0 119.030016,32.927854,0 119.019801,32.925713,0 119.015592,32.907534,0 119.021541,32.905961,0 119.045002,32.911424,0 119.045731,32.892455,0 119.055104,32.874751,0 119.071324,32.864738,0 119.10427,32.826734,0 119.113081,32.822928,0 119.184922,32.82564,0</coordinates></LinearRing></outerBoundaryIs>
      </Polygon>
    </MultiGeometry>
    </Placemark>
  </Document>
</kml>
