<?xml version="1.0" encoding="UTF-8"?>
<kml xmlns="http://www.opengis.net/kml/2.2">
<Document>
<name>十堰市</name>
<Placemark><name>十堰市</name><MultiGeometry><MultiGeometry><Polygon><outerBoundaryIs><LinearRing><coordinates>111.007875999999996,31.966581000000001,0 111.010750000000002,31.951673,0 111.015411,31.946071,0 111.009817999999996,31.939668999999999,0 111.006245000000007,31.922481000000001,0 111.004768999999996,31.918142,0 111.015721999999997,31.908619999999999,0 111.000574,31.895599000000001,0 111.005156999999997,31.886074000000001,0 111.017275999999995,31.879625999999998,0 111.016343000000006,31.859181,0 111.025820999999993,31.847418000000001,0 111.020460999999997,31.832405999999999,0 111.000574,31.822832999999999,0 110.996067999999994,31.828569000000002,0 110.995756999999998,31.841726000000001,0 111.002671000000007,31.857410000000002,0 110.994748000000001,31.864028999999999,0 110.971676000000002,31.845984000000001,0 110.957303999999993,31.858801,0 110.955517999999998,31.869425,0 110.939126999999999,31.877012000000001,0 110.915199999999999,31.867106,0 110.917452999999995,31.859096999999998,0 110.907276999999993,31.861878999999998,0 110.892516999999998,31.875242,0 110.874184,31.871659000000001,0 110.880087000000003,31.860655999999999,0 110.867346999999995,31.863439,0 110.872862999999995,31.852056000000001,0 110.847071999999997,31.849062,0 110.842022999999998,31.852899000000001,0 110.816387000000006,31.856525000000001,0 110.808385999999999,31.853193999999998,0 110.795490999999998,31.864281999999999,0 110.782207,31.864155,0 110.785314,31.848808999999999,0 110.782595000000001,31.844213,0 110.765427000000003,31.840544999999999,0 110.766825999999995,31.832069000000001,0 110.760766000000004,31.828147000000001,0 110.752686999999995,31.839701999999999,0 110.723478,31.842527,0 110.708641,31.845858,0 110.700873000000001,31.852350999999999,0 110.685024999999996,31.85408,0 110.670809000000006,31.860403000000002,0 110.664595000000006,31.857831999999998,0 110.660555000000002,31.844888000000001,0 110.652321000000001,31.842991000000001,0 110.636472999999995,31.848597999999999,0 110.627073999999993,31.845815999999999,0 110.618296000000001,31.849568000000001,0 110.611148999999997,31.844382,0 110.598641999999998,31.848050000000001,0 110.585980000000006,31.844719000000001,0 110.536805999999999,31.849989999999998,0 110.530513999999997,31.840797999999999,0 110.518861000000001,31.838563000000001,0 110.518240000000006,31.854500999999999,0 110.509229000000005,31.856777999999998,0 110.482894000000002,31.847376000000001,0 110.489186000000004,31.836117000000002,0 110.472019000000003,31.828652999999999,0 110.472561999999996,31.814651000000001,0 110.464016999999998,31.813596,0 110.451043999999996,31.805961,0 110.432556000000005,31.812245999999998,0 110.428282999999993,31.820429000000001,0 110.405056000000002,31.817730000000001,0 110.399152000000001,31.806974,0 110.387265999999997,31.802586999999999,0 110.368622000000002,31.800815,0 110.370176000000001,31.771702000000001,0 110.348269000000002,31.762207,0 110.330168999999998,31.763178,0 110.314244000000002,31.760857000000001,0 110.298862999999997,31.763515999999999,0 110.283482000000006,31.762713999999999,0 110.271828999999997,31.753132999999998,0 110.249457000000007,31.745747000000001,0 110.233453999999995,31.732786999999998,0 110.233531999999997,31.716532000000001,0 110.222888999999995,31.686169,0 110.217374000000007,31.675355,0 110.233142999999998,31.667456000000001,0 110.237881999999999,31.659935000000001,0 110.236172999999994,31.645696000000001,0 110.212012999999999,31.632638,0 110.206187,31.619029000000001,0 110.223511000000002,31.612815000000001,0 110.234075000000004,31.599160999999999,0 110.233841999999996,31.591719999999999,0 110.223044000000002,31.586729999999999,0 110.219392999999997,31.570746,0 110.215508999999997,31.569096999999999,0 110.202691000000002,31.578949999999999,0 110.191505000000006,31.581444999999999,0 110.180162999999993,31.599119000000002,0 110.168666000000002,31.60398,0 110.129435999999998,31.603895999999999,0 110.098208,31.586096000000001,0 110.083836000000005,31.572057000000001,0 110.064959000000002,31.563894999999999,0 110.069930999999997,31.549641000000001,0 110.065892000000005,31.544861000000001,0 110.048646000000005,31.537585,0 110.041265999999993,31.529377,0 110.025186000000005,31.519604000000001,0 110.012601000000004,31.523665999999999,0 109.994656000000006,31.521338,0 109.982304999999997,31.512536999999998,0 109.965603000000002,31.507881999999999,0 109.945250000000001,31.506696999999999,0 109.934917999999996,31.517741999999998,0 109.923809000000006,31.521464999999999,0 109.894600999999994,31.519181,0 109.878209999999996,31.528870000000001,0 109.869197999999997,31.530097000000001,0 109.860186999999996,31.54355,0 109.837969999999999,31.555267000000001,0 109.822045000000003,31.553743999999998,0 109.800993000000005,31.541435,0 109.788562999999996,31.550445,0 109.765414000000007,31.549641000000001,0 109.740244000000004,31.546215,0 109.727815000000007,31.54833,0 109.718881999999994,31.557001,0 109.727503999999996,31.570746,0 109.746459000000002,31.577978000000002,0 109.745137999999997,31.597047,0 109.764249000000007,31.603007999999999,0 109.737369999999999,31.628665999999999,0 109.740399999999994,31.635173999999999,0 109.740633000000003,31.663611,0 109.731854999999996,31.673158999999998,0 109.728048000000001,31.688829999999999,0 109.731077999999997,31.700444000000001,0 109.709481999999994,31.70112,0 109.696043000000003,31.707073999999999,0 109.693324000000004,31.716574999999999,0 109.682991999999999,31.719784000000001,0 109.658987999999994,31.716954999999999,0 109.644926999999996,31.720880999999999,0 109.617039000000005,31.711592,0 109.606164000000007,31.714717,0 109.585733000000005,31.726707999999999,0 109.592414000000005,31.736502000000002,0 109.604455000000002,31.742412000000002,0 109.592956999999998,31.751909000000001,0 109.594356000000005,31.763684000000001,0 109.589928,31.777652,0 109.591791999999998,31.788875999999998,0 109.604532000000006,31.803768000000002,0 109.614475999999996,31.806256999999999,0 109.633895999999993,31.804611000000001,0 109.638247000000007,31.811064999999999,0 109.633662999999999,31.824815000000001,0 109.619292000000002,31.852982999999998,0 109.607562000000001,31.881648999999999,0 109.587675000000004,31.892437999999999,0 109.584956000000005,31.900486999999998,0 109.594510999999997,31.923366000000001,0 109.620613000000006,31.92859,0 109.630711000000005,31.943923000000002,0 109.631254999999996,31.962243000000001,0 109.613077000000004,31.989737999999999,0 109.601347000000004,31.997651999999999,0 109.590937999999994,32.012678999999999,0 109.587597000000002,32.025261999999998,0 109.590937999999994,32.047732000000003,0 109.617894000000007,32.085126000000002,0 109.621622000000002,32.106740000000002,0 109.609425999999999,32.122000999999997,0 109.603367000000006,32.124817,0 109.592568999999997,32.139150999999998,0 109.587130999999999,32.161465999999997,0 109.590394000000003,32.174154999999999,0 109.604298999999997,32.199275999999998,0 109.603832999999995,32.205660000000002,0 109.592724000000004,32.219309000000003,0 109.573847000000001,32.225230000000003,0 109.562117000000001,32.222625999999998,0 109.550387000000001,32.224851999999998,0 109.548677999999995,32.234425000000002,0 109.528713999999994,32.270316000000001,0 109.518614999999997,32.280137000000003,0 109.502301000000003,32.289577999999999,0 109.495464999999996,32.300404,0 109.510690999999994,32.324609000000002,0 109.513176999999999,32.342306999999998,0 109.500437000000005,32.378867999999997,0 109.506263000000004,32.395299000000001,0 109.511545999999996,32.399070999999999,0 109.526304999999994,32.399909000000001,0 109.529646,32.405735,0 109.526927000000001,32.433388999999998,0 109.541608999999994,32.444322999999997,0 109.547434999999993,32.454794,0 109.548212000000007,32.468992,0 109.552795000000003,32.477156999999998,0 109.565612999999999,32.481135000000002,0 109.576023000000006,32.491728000000002,0 109.575711999999996,32.506380999999998,0 109.587519999999998,32.516092,0 109.618127000000001,32.524754999999999,0 109.629778999999999,32.531492999999998,0 109.636770999999996,32.541075999999997,0 109.633353,32.551996000000003,0 109.619990999999999,32.567433999999999,0 109.615951999999993,32.581069999999997,0 109.619292000000002,32.593072999999997,0 109.631799000000001,32.600056000000002,0 109.697519,32.603777999999998,0 109.709016000000005,32.608252,0 109.726727999999994,32.608294000000001,0 109.736749000000003,32.600307000000001,0 109.758189000000002,32.589852,0 109.817072999999993,32.577388999999997,0 109.849467000000004,32.579773000000003,0 109.881238999999994,32.591985000000001,0 109.910526000000004,32.592695999999997,0 109.924818999999999,32.588723000000002,0 109.944783999999999,32.576844999999999,0 109.960942000000003,32.580275,0 109.971118000000004,32.577556000000001,0 109.987898000000001,32.556472999999997,0 109.995744000000002,32.550741000000002,0 110.017651000000001,32.546976000000001,0 110.028215000000003,32.548397999999999,0 110.051519999999996,32.558647999999998,0 110.088187000000005,32.585461000000002,0 110.088808,32.599679999999999,0 110.085312000000002,32.613143999999998,0 110.102558000000002,32.619039000000001,0 110.124076000000002,32.616781000000003,0 110.133398,32.612181999999997,0 110.153751,32.593156,0 110.165171000000001,32.593867000000003,0 110.184979999999996,32.617407999999998,0 110.200749000000002,32.624389999999998,0 110.206419999999994,32.633001,0 110.187854000000002,32.646335000000001,0 110.178920000000005,32.663344000000002,0 110.157168999999996,32.683273999999997,0 110.154449999999997,32.690083000000001,0 110.162295999999998,32.715938000000001,0 110.164237999999997,32.750802,0 110.159576999999999,32.767206999999999,0 110.139612999999997,32.764952999999998,0 110.127493999999999,32.777766,0 110.130989999999997,32.788156999999998,0 110.142176000000006,32.802844,0 110.140855999999999,32.808810000000001,0 110.129203000000004,32.807516999999997,0 110.119493000000006,32.812939999999998,0 110.116152999999997,32.822535000000002,0 110.101393000000002,32.834671999999998,0 110.084069999999997,32.842970999999999,0 110.051287000000002,32.851937,0 110.036528000000004,32.861235000000001,0 110.0321,32.870949000000003,0 110.004367000000002,32.873283999999998,0 109.991083000000003,32.885872999999997,0 109.975701999999998,32.884121999999998,0 109.950998999999996,32.886705999999997,0 109.931267000000005,32.885331000000001,0 109.915963000000005,32.900959999999998,0 109.907573999999997,32.903753000000002,0 109.883803,32.901752000000002,0 109.871916999999996,32.910879000000001,0 109.857079999999996,32.910294999999998,0 109.847757999999999,32.893292000000002,0 109.827483000000001,32.890791,0 109.808372000000006,32.878953000000003,0 109.798895000000002,32.877451999999998,0 109.789884000000001,32.882537999999997,0 109.772948999999997,32.903585999999997,0 109.764325999999997,32.909295,0 109.767278000000005,32.924087,0 109.773104000000004,32.935960999999999,0 109.773336999999998,32.952205999999997,0 109.784600999999995,32.985979,0 109.787397999999996,33.000259,0 109.790661,33.038173999999998,0 109.795866000000004,33.05827,0 109.794466999999997,33.066921999999998,0 109.768055000000004,33.074534,0 109.761606999999998,33.079858000000002,0 109.746148000000005,33.083809000000002,0 109.715231000000003,33.099487000000003,0 109.7042,33.101939999999999,0 109.688040999999998,33.116616999999998,0 109.666212999999999,33.114829,0 109.633274999999998,33.117989000000001,0 109.613932000000005,33.108510000000003,0 109.601968999999997,33.108176999999998,0 109.592180999999997,33.119610000000002,0 109.576177999999999,33.110256,0 109.560331000000005,33.125638000000002,0 109.545259999999999,33.128256999999998,0 109.514032,33.140269000000004,0 109.468508999999997,33.140269000000004,0 109.450874999999996,33.145547000000001,0 109.438912000000002,33.152071999999997,0 109.472082999999998,33.181406000000003,0 109.481948000000003,33.200223000000001,0 109.498261999999997,33.207324999999997,0 109.505797000000001,33.216918,0 109.507194999999996,33.230454000000002,0 109.514264999999995,33.237760999999999,0 109.537413999999998,33.243614999999998,0 109.549766000000005,33.242328000000001,0 109.587675000000004,33.229790000000001,0 109.606863000000004,33.236058999999997,0 109.607406999999995,33.264245000000003,0 109.616339999999994,33.274121999999998,0 109.636227000000005,33.275615999999999,0 109.647801999999999,33.268146000000002,0 109.649743999999998,33.251710000000003,0 109.659221000000002,33.248513000000003,0 109.675922999999997,33.255901999999999,0 109.693012999999993,33.254325000000001,0 109.701402999999999,33.241249000000003,0 109.717872,33.233443999999999,0 109.732476000000005,33.231326000000003,0 109.762928000000002,33.235810000000001,0 109.786777000000001,33.233651000000002,0 109.813188999999994,33.236390999999998,0 109.845271999999994,33.246977999999999,0 109.863838000000001,33.244902000000003,0 109.874713999999997,33.239213999999997,0 109.916584999999998,33.229706999999998,0 109.959232999999998,33.208322000000003,0 109.973603999999995,33.203918999999999,0 109.999083999999996,33.212640999999998,0 110.012135000000001,33.208612000000002,0 110.017961,33.199599999999997,0 110.031090000000006,33.191915999999999,0 110.040412000000003,33.191251000000001,0 110.077622000000005,33.20205,0 110.114444000000006,33.203878000000003,0 110.130601999999996,33.201718,0 110.142719999999997,33.206536,0 110.165014999999997,33.209318000000003,0 110.174492999999998,33.203088999999999,0 110.185057,33.189756000000003,0 110.204401000000004,33.178955000000002,0 110.218305999999998,33.163207999999997,0 110.232365999999999,33.159135999999997,0 110.250310999999996,33.160217000000003,0 110.264294000000007,33.166491000000001,0 110.285501999999994,33.171103000000002,0 110.297308999999998,33.170563000000001,0 110.337782000000004,33.160217000000003,0 110.341744000000006,33.172764999999998,0 110.353863000000004,33.172888999999998,0 110.360854000000003,33.181198000000002,0 110.372196000000002,33.186391,0 110.376002,33.176005000000004,0 110.404201,33.175839000000003,0 110.422301000000004,33.170271999999997,0 110.450733,33.179577999999999,0 110.472173999999995,33.172556999999998,0 110.468445000000003,33.181198000000002,0 110.481807000000003,33.199100999999999,0 110.492371000000006,33.201801000000003,0 110.508995999999996,33.221485999999999,0 110.527794999999998,33.230412999999999,0 110.528727000000003,33.246687000000001,0 110.541000999999994,33.255611999999999,0 110.563918000000001,33.254863999999998,0 110.577667000000005,33.250546999999997,0 110.584969999999998,33.225472000000003,0 110.593902999999997,33.207076000000001,0 110.596467000000004,33.183025999999998,0 110.594136000000006,33.168568,0 110.601050000000001,33.154482000000002,0 110.616354000000001,33.145589000000001,0 110.632745,33.146377999999999,0 110.651077999999998,33.157516000000001,0 110.657448000000002,33.154232999999998,0 110.669566000000003,33.130169000000002,0 110.686501000000007,33.111502999999999,0 110.702504000000005,33.097158,0 110.719904999999997,33.09957,0 110.717884999999995,33.116948999999998,0 110.727829,33.133868,0 110.745540000000005,33.147042999999996,0 110.765893000000005,33.152445999999998,0 110.795102,33.149911000000003,0 110.810561000000007,33.161422000000002,0 110.814134999999993,33.152695000000001,0 110.824233000000007,33.160299999999999,0 110.817319999999995,33.177292999999999,0 110.820971,33.191625000000002,0 110.830526000000006,33.202590000000001,0 110.858647000000005,33.206659999999999,0 110.865328000000005,33.214094000000003,0 110.881795999999994,33.212059000000004,0 110.903003999999996,33.204376000000003,0 110.921648000000005,33.204002000000003,0 110.941535000000002,33.221941999999999,0 110.945963000000006,33.228668999999996,0 110.942932999999996,33.236350000000002,0 110.956450000000004,33.250714000000002,0 110.966160000000002,33.256151000000003,0 110.985037000000005,33.255445999999999,0 110.996690000000001,33.239421999999998,0 111.011139,33.234107999999999,0 111.017975000000007,33.222149999999999,0 111.024966000000006,33.219492000000002,0 111.032424000000006,33.209359999999997,0 111.046717999999998,33.202922999999998,0 111.056505999999999,33.192746,0 111.057826000000006,33.183608,0 111.045784999999995,33.170064000000004,0 111.037239999999997,33.161006,0 111.045474999999996,33.158138999999998,0 111.061865999999995,33.174011,0 111.073206999999996,33.180658000000001,0 111.088821999999993,33.182029,0 111.098532000000006,33.176918999999998,0 111.106689000000003,33.164454999999997,0 111.128207000000003,33.154440999999998,0 111.132013000000001,33.137774999999998,0 111.139238000000006,33.134366999999997,0 111.146306999999993,33.123809000000001,0 111.162542999999999,33.124265999999999,0 111.179554999999993,33.115453000000002,0 111.176991999999998,33.101191999999998,0 111.190974999999995,33.08672,0 111.192916999999994,33.071623000000002,0 111.167824999999993,33.063969,0 111.150734999999997,33.053193999999998,0 111.148249000000007,33.042417999999998,0 111.152987999999993,33.039713999999996,0 111.179866000000004,33.043958000000003,0 111.189344000000006,33.038673000000003,0 111.22166,33.042625999999998,0 111.240459000000001,33.037174999999998,0 111.240537000000003,33.019987999999998,0 111.258792,33.006461000000002,0 111.269512000000006,32.987851999999997,0 111.273629999999997,32.971862999999999,0 111.267803000000001,32.963743000000001,0 111.253120999999993,32.955787999999998,0 111.245586000000003,32.944167,0 111.242789000000002,32.930627999999999,0 111.249936000000005,32.914211999999999,0 111.246363000000002,32.888499000000003,0 111.254908,32.884039000000001,0 111.269589999999994,32.89846,0 111.280154999999993,32.904336000000001,0 111.290719999999993,32.892583000000002,0 111.289865000000006,32.865071,0 111.293515999999997,32.859400000000001,0 111.316355000000001,32.850811,0 111.331270000000004,32.841177999999999,0 111.358615,32.837007,0 111.380054999999999,32.828833000000003,0 111.385104999999996,32.821325000000002,0 111.396135999999998,32.794541000000002,0 111.405691000000004,32.782524000000002,0 111.404137000000006,32.775638000000001,0 111.410195999999999,32.769336000000003,0 111.413537000000005,32.757148000000001,0 111.422936000000007,32.750968999999998,0 111.437540999999996,32.750259999999997,0 111.447328999999996,32.754935000000003,0 111.448261000000002,32.761488999999997,0 111.462942999999996,32.765453999999998,0 111.461933000000002,32.774386,0 111.475061999999994,32.761279999999999,0 111.469157999999993,32.752806,0 111.469002000000003,32.738612000000003,0 111.456962000000004,32.726962,0 111.444455000000005,32.736691,0 111.441736000000006,32.726754,0 111.427209000000005,32.736274000000002,0 111.4255,32.732641000000001,0 111.441113999999999,32.722786999999997,0 111.464652000000001,32.722369,0 111.472654000000006,32.717775000000003,0 111.467837000000003,32.707375999999996,0 111.479877999999999,32.694678000000003,0 111.512970999999993,32.673999000000002,0 111.526566000000003,32.654192000000002,0 111.524778999999995,32.647295999999997,0 111.530216999999993,32.628320000000002,0 111.559115000000006,32.601101999999997,0 111.572475999999995,32.594118000000002,0 111.583040999999994,32.596544000000002,0 111.585138999999998,32.577807,0 111.578691000000006,32.564171000000002,0 111.556396000000007,32.540405999999997,0 111.555774,32.533124999999998,0 111.542102,32.515129000000002,0 111.539305999999996,32.499305999999997,0 111.533169000000001,32.491016999999999,0 111.526177000000004,32.497965999999998,0 111.507998999999998,32.4893,0 111.499375999999998,32.475524,0 111.489976999999996,32.477786000000002,0 111.483217999999994,32.470498999999997,0 111.474362999999997,32.470457000000003,0 111.484617,32.448763,0 111.466672000000003,32.431755000000003,0 111.441346999999993,32.425513000000002,0 111.424024000000003,32.413403000000002,0 111.408099000000007,32.410469999999997,0 111.399630999999999,32.419227999999997,0 111.382307999999995,32.428193999999998,0 111.375316999999995,32.408417,0 111.354885999999993,32.396681999999998,0 111.329483999999994,32.388719000000002,0 111.316744,32.375723999999998,0 111.316121999999993,32.365201999999996,0 111.303848000000002,32.353755,0 111.275493999999995,32.347842999999997,0 111.254829999999998,32.337485000000001,0 111.235332,32.321630999999996,0 111.230749000000003,32.303173000000001,0 111.233778000000001,32.294404,0 111.211872,32.276612,0 111.224611999999993,32.265909000000001,0 111.240459000000001,32.268638000000003,0 111.236575000000002,32.254786000000003,0 111.237894999999995,32.239840999999998,0 111.248771000000005,32.234887000000001,0 111.257160999999996,32.219183000000001,0 111.254441999999997,32.204903999999999,0 111.231680999999995,32.163860999999997,0 111.219095999999993,32.148564999999998,0 111.183672999999999,32.126120999999998,0 111.158659,32.117165999999997,0 111.144987,32.121623,0 111.128285000000005,32.106150999999997,0 111.120361000000003,32.107371000000001,0 111.090840999999998,32.085883000000003,0 111.080664999999996,32.097068999999998,0 111.063884999999999,32.084494999999997,0 111.057670999999999,32.061782999999998,0 111.078179000000006,32.068176000000001,0 111.083383999999995,32.063676000000001,0 111.077168999999998,32.046889999999998,0 111.071498000000005,32.044071000000002,0 111.069556000000006,32.029049999999998,0 111.081519999999998,32.024588999999999,0 111.079965999999999,32.019286000000001,0 111.072119999999998,32.007964999999999,0 111.058447999999999,32.003461000000001,0 111.058525000000003,31.985233000000001,0 111.066215999999997,31.981528000000001,0 111.074372999999994,31.995294999999999,0 111.085713999999996,31.991211,0 111.086802000000006,31.968896999999998,0 111.098686999999998,31.962959000000001,0 111.105290999999994,31.948934999999999,0 111.094104000000002,31.943670000000001,0 111.073829000000003,31.966749,0 111.065050999999997,31.959716,0 111.063264000000004,31.970918000000001,0 111.054253000000003,31.982665000000001,0 111.046717999999998,32.009312000000001,0 111.036773999999994,32.013984000000001,0 111.018985000000001,32.013731,0 111.005701000000002,32.008806999999997,0 111.006011999999998,31.998199,0 110.995214000000004,31.991379999999999,0 110.999252999999996,31.985949000000002,0 111.010982999999996,31.977696999999999,0 111.017043000000001,31.967254000000001,0 111.007875999999996,31.966581000000001,0</coordinates></LinearRing></outerBoundaryIs><innerBoundaryIs><LinearRing><coordinates>110.992806000000002,31.927157999999999,0 110.996223999999998,31.940932,0 110.987600999999998,31.941143,0 110.978122999999997,31.94089,0 110.983872000000005,31.934867000000001,0 110.988455000000002,31.920290999999999,0 110.992806000000002,31.927157999999999,0</coordinates></LinearRing></innerBoundaryIs><innerBoundaryIs><LinearRing><coordinates>111.033900000000003,33.178041,0 111.035996999999995,33.187969000000002,0 111.030482000000006,33.187719999999999,0 111.015799999999999,33.174053000000001,0 111.033900000000003,33.178041,0</coordinates></LinearRing></innerBoundaryIs></Polygon><Polygon><outerBoundaryIs><LinearRing><coordinates>111.112281999999993,32.012258000000003,0 111.102805000000004,32.012341999999997,0 111.099231000000003,32.002493000000001,0 111.084470999999994,32.001019999999997,0 111.088821999999993,32.015120000000003,0 111.098765,32.023411000000003,0 111.101405999999997,32.034773000000001,0 111.110495,32.047984,0 111.122225,32.038601999999997,0 111.131004000000004,32.038390999999997,0 111.137296000000006,32.047437000000002,0 111.143665999999996,32.046805999999997,0 111.150502000000003,32.035950999999997,0 111.143355,32.030437999999997,0 111.122692000000001,32.028461,0 111.122846999999993,32.019790999999998,0 111.112281999999993,32.012258000000003,0</coordinates></LinearRing></outerBoundaryIs></Polygon></MultiGeometry></MultiGeometry></Placemark>
</Document>
</kml>