<?xml version="1.0" encoding="UTF-8"?>
<kml xmlns="http://www.opengis.net/kml/2.2">
<Document>
<name>恩施土家族苗族自治州</name>
<Placemark><name>恩施土家族苗族自治州</name><MultiGeometry><Polygon><outerBoundaryIs><LinearRing><coordinates>110.447781000000006,31.329128000000001,0 110.446771999999996,31.336081,0 110.437993000000006,31.343076,0 110.438536999999997,31.358336000000001,0 110.425409000000002,31.36232,0 110.403968000000006,31.375543,0 110.387033000000002,31.376729999999998,0 110.378332999999998,31.387366,0 110.359223,31.391349000000002,0 110.349667999999994,31.388255999999998,0 110.343841999999995,31.394866,0 110.321702000000002,31.394866,0 110.272839000000005,31.343966000000002,0 110.256214999999997,31.339303000000001,0 110.239745999999997,31.329764000000001,0 110.227316999999999,31.314965000000001,0 110.213877999999994,31.305890000000002,0 110.181095999999997,31.295584000000002,0 110.164005000000003,31.303218000000001,0 110.162218999999993,31.291003,0 110.155925999999994,31.279508,0 110.162452000000002,31.251930000000002,0 110.171385000000001,31.250571999999998,0 110.174880999999999,31.243527,0 110.169599000000005,31.227951000000001,0 110.175657999999999,31.215005000000001,0 110.180162999999993,31.179594999999999,0 110.186456000000007,31.169571999999999,0 110.196943000000005,31.163582999999999,0 110.198885000000004,31.156531999999999,0 110.186843999999994,31.145318,0 110.189408,31.129470999999999,0 110.180240999999995,31.121652999999998,0 110.162529000000006,31.116043000000001,0 110.146915000000007,31.116893000000001,0 110.145827999999995,31.108181999999999,0 110.135418000000001,31.106269000000001,0 110.120192000000003,31.088374999999999,0 110.122134000000003,31.072901000000002,0 110.133088000000001,31.059805999999998,0 110.126639999999995,31.054660999999999,0 110.120813999999996,31.031994000000001,0 110.140157000000002,31.030633000000002,0 110.140933000000004,31.005023999999999,0 110.136038999999997,30.986771000000001,0 110.163539,30.991622,0 110.171541000000005,30.987537,0 110.173249999999996,30.979621999999999,0 110.161675000000002,30.967918000000001,0 110.164005000000003,30.962129999999998,0 110.153907000000004,30.95383,0 110.145128,30.925816000000001,0 110.151730999999998,30.911508000000001,0 110.123998999999998,30.867975000000001,0 110.115375999999998,30.84488,0 110.095799999999997,30.829878999999998,0 110.095643999999993,30.821268,0 110.089429999999993,30.815897,0 110.081738999999999,30.799271000000001,0 110.052995999999993,30.799569000000002,0 110.042508999999995,30.806688999999999,0 110.039169000000001,30.820501,0 110.031943999999996,30.820457999999999,0 110.019593,30.82958,0 110.017961,30.855321,0 110.005065999999999,30.870404000000001,0 110.008251000000001,30.881864,0 109.995045000000005,30.887827999999999,0 109.975935000000007,30.888679,0 109.958377999999996,30.877476000000001,0 109.943696000000003,30.878966999999999,0 109.940899999999999,30.889702,0 109.932276999999999,30.887657000000001,0 109.905631999999997,30.899795999999998,0 109.894523000000007,30.899795999999998,0 109.878209999999996,30.889191,0 109.856070000000003,30.880244999999999,0 109.819402999999994,30.860220999999999,0 109.797651999999999,30.855619000000001,0 109.780794999999998,30.848587999999999,0 109.759044000000003,30.832819000000001,0 109.729602,30.815386,0 109.716550999999995,30.801701000000001,0 109.718104999999994,30.778675,0 109.702646000000001,30.770230999999999,0 109.702101999999996,30.783664999999999,0 109.692159000000004,30.778931,0 109.685400000000001,30.768653,0 109.656657999999993,30.760463999999999,0 109.660775000000001,30.737258000000001,0 109.649045000000001,30.718910999999999,0 109.625428999999997,30.702652,0 109.602278999999996,30.698810000000002,0 109.590626999999998,30.693432000000001,0 109.581615999999997,30.670850999999999,0 109.587986000000001,30.664660000000001,0 109.577110000000005,30.655308999999999,0 109.574157999999997,30.646854000000001,0 109.562894,30.646726000000001,0 109.538811999999993,30.638441,0 109.533685000000006,30.641559000000001,0 109.541376,30.651637000000001,0 109.537880000000001,30.663976999999999,0 109.528713999999994,30.663891,0 109.514652999999996,30.655394000000001,0 109.493368000000004,30.637203,0 109.482803000000004,30.623194000000002,0 109.465868,30.619520000000001,0 109.456468000000001,30.613796000000001,0 109.449321999999995,30.603714,0 109.437824000000006,30.598074,0 109.428036000000006,30.576153999999999,0 109.418092999999999,30.559999000000001,0 109.393777999999998,30.531144000000001,0 109.380804999999995,30.518317,0 109.368686999999994,30.50027,0 109.352529000000004,30.487010999999999,0 109.342817999999994,30.494710000000001,0 109.341575000000006,30.512715,0 109.337536,30.518616000000002,0 109.345303999999999,30.533494999999998,0 109.361074000000002,30.550979999999999,0 109.361151000000007,30.554742000000001,0 109.344294000000005,30.577137,0 109.314542000000003,30.599782999999999,0 109.323319999999995,30.604140999999998,0 109.328136000000001,30.616060000000001,0 109.313609,30.610164999999999,0 109.299548999999999,30.630583000000001,0 109.278807,30.610164999999999,0 109.251152000000005,30.592904999999998,0 109.234217000000001,30.589272999999999,0 109.227846999999997,30.580897,0 109.247733999999994,30.583205,0 109.222797999999997,30.569614999999999,0 109.192113000000006,30.545636999999999,0 109.168964000000003,30.545978999999999,0 109.163836000000003,30.537129,0 109.147523000000007,30.521652,0 109.141153000000003,30.525072999999999,0 109.139443999999997,30.534564,0 109.124373000000006,30.531700000000001,0 109.124840000000006,30.538924999999999,0 109.113498000000007,30.548672,0 109.104487000000006,30.565085,0 109.096795999999998,30.572179999999999,0 109.083590000000001,30.598244999999999,0 109.093145000000007,30.609010999999999,0 109.112487999999999,30.612684999999999,0 109.121731999999994,30.628746,0 109.114740999999995,30.643908,0 109.107206000000005,30.645530000000001,0 109.097883999999993,30.638100000000001,0 109.088018000000005,30.646640999999999,0 109.071549000000005,30.640533999999999,0 109.055546000000007,30.64237,0 109.045214000000001,30.653943000000002,0 109.022064999999998,30.642968,0 109.009713000000005,30.627251000000001,0 108.998760000000004,30.632290999999999,0 108.987495999999993,30.623279,0 108.978019000000003,30.629814,0 108.967454000000004,30.624817,0 108.943838,30.601834,0 108.919522999999998,30.589358000000001,0 108.894665000000003,30.567008000000001,0 108.893111000000005,30.557818999999999,0 108.871671000000006,30.532726,0 108.854425000000006,30.521909000000001,0 108.843782000000004,30.505915999999999,0 108.811543999999998,30.492016,0 108.806027999999998,30.492016,0 108.799270000000007,30.505915999999999,0 108.788550000000001,30.512929,0 108.772935000000004,30.503478000000001,0 108.761516,30.505317000000002,0 108.744891999999993,30.494624999999999,0 108.723995000000002,30.507541,0 108.726015000000004,30.515708,0 108.713973999999993,30.520754,0 108.715838000000005,30.530373999999998,0 108.710711000000003,30.537984000000002,0 108.699370000000002,30.544397,0 108.699990999999997,30.561793999999999,0 108.690436000000005,30.586708999999999,0 108.666199000000006,30.588588999999999,0 108.654469000000006,30.585000000000001,0 108.639864000000003,30.574743999999999,0 108.643360000000001,30.562179,0 108.649885999999995,30.553929,0 108.649342000000004,30.537856000000001,0 108.628600000000006,30.525200999999999,0 108.620132999999996,30.522891999999999,0 108.621763999999999,30.515452,0 108.604518999999996,30.510833000000002,0 108.611431999999994,30.502195,0 108.598536999999993,30.493898000000002,0 108.590536,30.494624999999999,0 108.591234999999998,30.487780999999998,0 108.581680000000006,30.485899,0 108.569950000000006,30.470414000000002,0 108.564977999999996,30.468574,0 108.555035000000004,30.487995000000002,0 108.543925999999999,30.491716,0 108.528312,30.487482,0 108.510910999999993,30.502537,0 108.491722999999993,30.501511000000001,0 108.479138000000006,30.488935999999999,0 108.469273000000001,30.486926,0 108.455056999999996,30.489321,0 108.456066000000007,30.495394999999998,0 108.440995999999998,30.491032000000001,0 108.427556999999993,30.492443000000002,0 108.414272999999994,30.476445999999999,0 108.421187000000003,30.464380999999999,0 108.421807999999999,30.448848999999999,0 108.412098,30.436183,0 108.422352000000004,30.428393,0 108.430430999999999,30.415595,0 108.421653000000006,30.410544000000002,0 108.425303999999997,30.399070999999999,0 108.418390000000002,30.393463000000001,0 108.399591000000001,30.390166000000001,0 108.403319999999994,30.374751,0 108.421886000000001,30.366485000000001,0 108.432683999999995,30.354108,0 108.451016999999993,30.355606999999999,0 108.459873000000002,30.359804,0 108.469040000000007,30.343827000000001,0 108.482788999999997,30.336030999999998,0 108.499336,30.315722000000001,0 108.514949999999999,30.315165,0 108.52637,30.305267000000001,0 108.524894000000003,30.294723999999999,0 108.533905000000004,30.291595000000001,0 108.534836999999996,30.282423000000001,0 108.546178999999995,30.276292999999999,0 108.545247000000003,30.269949,0 108.562026000000003,30.262875000000001,0 108.567308999999995,30.254901,0 108.581680000000006,30.255887000000001,0 108.573522999999994,30.237192,0 108.567464000000001,30.234361,0 108.568861999999996,30.225612000000002,0 108.553792000000001,30.174519,0 108.552238000000003,30.163319000000001,0 108.567464000000001,30.155722000000001,0 108.561481999999998,30.144134000000001,0 108.546100999999993,30.104378000000001,0 108.533206000000007,30.084194,0 108.532351000000006,30.07367,0 108.525282000000004,30.073841999999999,0 108.516271000000003,30.064219999999999,0 108.516425999999996,30.053007000000001,0 108.524193999999994,30.058678,0 108.531807000000001,30.055069,0 108.526137000000006,30.049527000000001,0 108.530642,30.043081999999998,0 108.528854999999993,30.005478,0 108.542604999999995,29.997354000000001,0 108.533360999999999,29.969149999999999,0 108.519456000000005,29.943518999999998,0 108.515882000000005,29.930399999999999,0 108.524039000000002,29.911643000000002,0 108.524271999999996,29.896798,0 108.516193000000001,29.885608999999999,0 108.517048000000003,29.865466999999999,0 108.509045999999998,29.878637000000001,0 108.497471000000004,29.878723000000001,0 108.491878,29.868867000000002,0 108.468029999999999,29.864218000000001,0 108.457386999999997,29.865423,0 108.453113999999999,29.871708000000002,0 108.433770999999993,29.880057999999998,0 108.402776000000003,29.855910000000002,0 108.392754999999994,29.863530000000001,0 108.386928999999995,29.860043000000001,0 108.391589999999994,29.853197999999999,0 108.371470000000002,29.841616999999999,0 108.366963999999996,29.820432,0 108.394231000000005,29.816469999999999,0 108.395473999999993,29.832058,0 108.404718000000003,29.834125,0 108.409379000000001,29.820432,0 108.424526999999998,29.815307000000001,0 108.425537000000006,29.804195,0 108.416991999999993,29.787353,0 108.425071000000003,29.772749000000001,0 108.441383999999999,29.778694000000002,0 108.445502000000005,29.764389999999999,0 108.438587999999996,29.756202999999999,0 108.437111999999999,29.740774999999999,0 108.460493999999997,29.740904,0 108.467641,29.729697999999999,0 108.487527999999998,29.724224,0 108.503608,29.708489,0 108.512853000000007,29.711290999999999,0 108.514561999999998,29.720344000000001,0 108.504152000000005,29.729438999999999,0 108.516659000000004,29.735645999999999,0 108.521009000000006,29.730172,0 108.547032999999999,29.742584999999998,0 108.548508999999996,29.749523,0 108.540119000000004,29.756762999999999,0 108.522485000000003,29.763787000000001,0 108.534448999999995,29.787482000000001,0 108.557443000000006,29.819054000000001,0 108.565832999999998,29.820862000000002,0 108.579892999999998,29.831197,0 108.577330000000003,29.844674000000001,0 108.588127999999998,29.848075000000001,0 108.587971999999993,29.853887,0 108.601410999999999,29.865596,0 108.608402999999996,29.862970000000001,0 108.622929999999997,29.867317,0 108.632951000000006,29.864692000000002,0 108.632795000000002,29.856728,0 108.648099000000002,29.852768000000001,0 108.658664000000002,29.854619,0 108.657731999999996,29.848075000000001,0 108.666898000000003,29.842392,0 108.670316,29.819054000000001,0 108.657653999999994,29.815221000000001,0 108.671014999999997,29.811819,0 108.680648000000005,29.801309,0 108.678394999999995,29.777875000000002,0 108.681813000000005,29.770465000000002,0 108.677307999999996,29.76146,0 108.677617999999995,29.748532000000001,0 108.686706999999998,29.740041999999999,0 108.681036000000006,29.721378999999999,0 108.693155000000004,29.704478999999999,0 108.684764999999999,29.693528000000001,0 108.691135000000003,29.689689999999999,0 108.710323000000002,29.699218999999999,0 108.718247000000005,29.691932000000001,0 108.710943999999998,29.679168000000001,0 108.733627999999996,29.671492000000001,0 108.740618999999995,29.665713,0 108.743027999999995,29.655920999999999,0 108.752660000000006,29.64902,0 108.762991999999997,29.653376000000002,0 108.765866000000003,29.661054,0 108.774567000000005,29.651737000000001,0 108.783266999999995,29.653808000000001,0 108.773013000000006,29.661529000000002,0 108.775964999999999,29.675373,0 108.765089000000003,29.682230000000001,0 108.758176000000006,29.678694,0 108.752583000000001,29.689344999999999,0 108.760661999999996,29.693528000000001,0 108.786297000000005,29.691500999999999,0 108.784666000000001,29.677185000000001,0 108.794143000000005,29.671189999999999,0 108.797483,29.660062,0 108.792278999999994,29.647337,0 108.785909000000004,29.650701999999999,0 108.779694000000006,29.644404000000002,0 108.785674999999998,29.633834,0 108.804396999999994,29.640564000000001,0 108.813641000000004,29.631547000000001,0 108.819856000000001,29.63241,0 108.817680999999993,29.647811999999998,0 108.828090000000003,29.671275999999999,0 108.835392999999996,29.668430000000001,0 108.827314000000001,29.654368999999999,0 108.832983999999996,29.651306000000002,0 108.844481999999999,29.658380000000001,0 108.855745999999996,29.636379000000002,0 108.869729000000007,29.642980000000001,0 108.886585999999994,29.633057000000001,0 108.885886999999997,29.621148999999999,0 108.870350000000002,29.596551000000002,0 108.885886999999997,29.588479,0 108.897616999999997,29.596506999999999,0 108.901268000000002,29.604793999999998,0 108.909192000000004,29.59327,0 108.900257999999994,29.583083999999999,0 108.912531999999999,29.572161999999999,0 108.886895999999993,29.553121999999998,0 108.878428999999997,29.539346999999999,0 108.886973999999995,29.53058,0 108.887439999999998,29.499869,0 108.871437999999998,29.488548999999999,0 108.866466000000003,29.472474999999999,0 108.873767999999998,29.462751999999998,0 108.873689999999996,29.449656000000001,0 108.884488000000005,29.440925,0 108.898083,29.441962,0 108.909580000000005,29.436817999999999,0 108.921232000000003,29.436904999999999,0 108.932029999999997,29.431716999999999,0 108.943682999999993,29.410748000000002,0 108.934128000000001,29.399462,0 108.934516000000002,29.386229,0 108.924417000000005,29.350238000000001,0 108.916649000000007,29.334617999999999,0 108.919756000000007,29.326309999999999,0 108.956112000000005,29.330939999999998,0 108.972347999999997,29.329208999999999,0 108.986175000000003,29.336739000000001,0 108.985088000000005,29.350455,0 108.994720999999998,29.355041,0 108.999459000000002,29.363909,0 109.009791000000007,29.360188999999998,0 109.034727000000004,29.360275000000001,0 109.033484000000001,29.378226999999999,0 109.039931999999993,29.389818000000002,0 109.053216000000006,29.402705000000001,0 109.065723000000006,29.40063,0 109.080793,29.390640000000001,0 109.090348000000006,29.37866,0 109.099282000000002,29.375112999999999,0 109.111943999999994,29.361833000000001,0 109.113731000000001,29.352315000000001,0 109.109924000000007,29.342061000000001,0 109.114275000000006,29.331676000000002,0 109.108525999999998,29.319904999999999,0 109.113885999999994,29.314191999999998,0 109.104641999999998,29.293156,0 109.106429000000006,29.288567,0 109.129966999999994,29.282463,0 109.142008000000004,29.27047,0 109.118547000000007,29.232403000000001,0 109.119478999999998,29.227855000000002,0 109.110391000000007,29.215119000000001,0 109.122974999999997,29.199261,0 109.123052999999999,29.191288,0 109.138823000000002,29.16949,0 109.152883000000003,29.171744,0 109.162515999999997,29.180671,0 109.170983000000007,29.177897999999999,0 109.203066000000007,29.151805,0 109.215496000000002,29.145302000000001,0 109.228545999999994,29.129954999999999,0 109.232585999999998,29.119461000000001,0 109.245326000000006,29.115082000000001,0 109.255968999999993,29.123234,0 109.274146000000002,29.122107,0 109.277175999999997,29.134073999999998,0 109.264048000000003,29.144002,0 109.261483999999996,29.161038000000001,0 109.273912999999993,29.172567000000001,0 109.271039000000002,29.183228,0 109.276088000000001,29.200301,0 109.257833000000005,29.222570000000001,0 109.261405999999994,29.227810999999999,0 109.286109999999994,29.242061,0 109.315084999999996,29.252109000000001,0 109.326814999999996,29.260684000000001,0 109.352217999999993,29.284627,0 109.352294999999998,29.305233000000001,0 109.344138999999998,29.306445,0 109.345303999999999,29.314668000000001,0 109.340176999999997,29.33596,0 109.343982999999994,29.369446,0 109.347401000000005,29.373815,0 109.368763999999999,29.382898000000001,0 109.376766000000003,29.376539999999999,0 109.391525000000001,29.372257999999999,0 109.382047999999998,29.382898000000001,0 109.385311000000002,29.393581000000001,0 109.368609000000006,29.411353999999999,0 109.372881000000007,29.425015999999999,0 109.397041000000002,29.439108999999998,0 109.404730999999998,29.434397000000001,0 109.402246000000005,29.444599,0 109.417160999999993,29.454799999999999,0 109.405119999999997,29.468758999999999,0 109.412811000000005,29.484704000000001,0 109.410014000000004,29.490580000000001,0 109.418325999999993,29.498011000000002,0 109.434872999999996,29.489068,0 109.440620999999993,29.493172000000001,0 109.431298999999996,29.505268999999998,0 109.430987999999999,29.529069,0 109.445282000000006,29.529371000000001,0 109.447613000000004,29.520733,0 109.458566000000005,29.513173999999999,0 109.465091000000001,29.516932000000001,0 109.458566000000005,29.530536999999999,0 109.461828999999994,29.554245000000002,0 109.467033000000001,29.559987,0 109.479928999999998,29.552734000000001,0 109.488707000000005,29.553165,0 109.497640000000004,29.568104000000002,0 109.504009999999994,29.588609000000002,0 109.503621999999993,29.597715999999998,0 109.495930999999999,29.598708999999999,0 109.501446999999999,29.605440999999999,0 109.514498000000003,29.600262000000001,0 109.525062000000005,29.608806999999999,0 109.514264999999995,29.617999000000001,0 109.516516999999993,29.625980999999999,0 109.529801000000006,29.625205000000001,0 109.531277000000003,29.615279999999998,0 109.550387000000001,29.612777000000001,0 109.558622,29.607037999999999,0 109.575867000000002,29.620889999999999,0 109.575400999999999,29.627880000000001,0 109.609425999999999,29.634481000000001,0 109.641431999999995,29.623867000000001,0 109.650830999999997,29.626456000000001,0 109.651064000000005,29.610102000000001,0 109.663494,29.599658000000002,0 109.678797000000003,29.607987000000001,0 109.704976000000002,29.608376,0 109.717793999999998,29.615020999999999,0 109.710880000000003,29.629605999999999,0 109.701248000000007,29.636292999999998,0 109.715773999999996,29.649494000000001,0 109.718416000000005,29.658639000000001,0 109.714920000000006,29.673345999999999,0 109.737059000000002,29.678391999999999,0 109.760131000000001,29.689129999999999,0 109.766191000000006,29.702884000000001,0 109.760209000000003,29.713360000000002,0 109.772948999999997,29.724224,0 109.753528000000003,29.734093999999999,0 109.755236999999994,29.743144999999998,0 109.769298000000006,29.744481,0 109.779473999999993,29.757753999999998,0 109.791904000000002,29.763399,0 109.820879000000005,29.769905000000001,0 109.836648999999994,29.769818999999998,0 109.869820000000004,29.774687,0 109.888463999999999,29.765898,0 109.896852999999993,29.770422,0 109.907883999999996,29.764174000000001,0 109.940201000000002,29.774170000000002,0 109.946493000000004,29.779125000000001,0 109.949755999999994,29.772964000000002,0 109.969719999999995,29.771801,0 109.976011999999997,29.768138,0 109.990849999999995,29.772231000000001,0 110.024175999999997,29.769646000000002,0 110.064104999999998,29.782830000000001,0 110.113511000000003,29.789679,0 110.131067999999999,29.781063,0 110.144895000000005,29.771111000000001,0 110.160820000000001,29.753789999999999,0 110.188164999999998,29.754479,0 110.219859,29.746635999999999,0 110.245806000000002,29.732240999999998,0 110.260409999999993,29.719525000000001,0 110.278199000000001,29.709091999999998,0 110.289929999999998,29.696373999999999,0 110.292027000000004,29.671837,0 110.299873000000005,29.662391,0 110.315719999999999,29.661141000000001,0 110.321235999999999,29.665022,0 110.339490999999995,29.668127999999999,0 110.352386999999993,29.654713999999998,0 110.355805000000004,29.638839000000001,0 110.373439000000005,29.633834,0 110.413601,29.654153000000001,0 110.417018999999996,29.661874000000001,0 110.447005000000004,29.664634,0 110.449335000000005,29.690811,0 110.465181999999999,29.713059000000001,0 110.493847000000002,29.700987000000001,0 110.507131000000001,29.692105000000002,0 110.525231000000005,29.693484999999999,0 110.545350999999997,29.705428000000001,0 110.562830000000005,29.712541000000002,0 110.574560000000005,29.723448000000001,0 110.602059999999994,29.742025000000002,0 110.614412000000002,29.747109999999999,0 110.623733000000001,29.755944,0 110.634997999999996,29.760425999999999,0 110.642454999999998,29.772144999999998,0 110.640046999999996,29.782485000000001,0 110.629715000000004,29.798424000000001,0 110.629249000000002,29.805143000000001,0 110.618373000000005,29.826589999999999,0 110.597786999999997,29.840024,0 110.584036999999995,29.835072,0 110.575415000000007,29.844846,0 110.549935000000005,29.847988999999998,0 110.547604000000007,29.863399999999999,0 110.535719,29.880316000000001,0 110.537893999999994,29.896798,0 110.526939999999996,29.904672000000001,0 110.515521000000007,29.902477999999999,0 110.507829999999998,29.908932,0 110.49812,29.910050999999999,0 110.506743,29.919042999999999,0 110.508063000000007,29.944120999999999,0 110.517385000000004,29.961366999999999,0 110.535330000000002,29.975083999999999,0 110.551100000000005,29.979683999999999,0 110.557158999999999,29.98695,0 110.547292999999996,29.999589,0 110.520104000000003,30.001781999999999,0 110.504644999999996,30.008787999999999,0 110.491595000000004,30.019704999999998,0 110.466269999999994,30.006724999999999,0 110.441878000000003,29.983640000000001,0 110.430070000000001,29.962613999999999,0 110.423389,29.957409999999999,0 110.382683,29.955646999999999,0 110.370254000000003,29.959389000000002,0 110.354639000000006,29.955131000000002,0 110.339956999999998,29.943089000000001,0 110.307253000000003,29.954485999999999,0 110.302592000000004,29.962786000000001,0 110.313311999999996,29.977836,0 110.305621000000002,30.001739000000001,0 110.316963000000001,30.017040000000001,0 110.318206000000004,30.037668,0 110.324110000000005,30.044543000000001,0 110.320303999999993,30.063146,0 110.324965000000006,30.069289000000001,0 110.343374999999995,30.081574,0 110.341356000000005,30.093727999999999,0 110.318905000000001,30.100728,0 110.348113999999995,30.127434999999998,0 110.342055000000002,30.135033,0 110.304845,30.151516000000001,0 110.303523999999996,30.169626999999998,0 110.284259000000006,30.176407000000001,0 110.275790999999998,30.182157,0 110.276955999999998,30.192067999999999,0 110.300572000000003,30.200133000000001,0 110.297076000000004,30.212145,0 110.279208999999994,30.220852000000001,0 110.266159000000002,30.221751999999999,0 110.255671000000007,30.234404000000001,0 110.276179999999997,30.243624000000001,0 110.298474999999996,30.243494999999999,0 110.323488999999995,30.25027,0 110.350211999999999,30.243452000000001,0 110.351997999999995,30.258588,0 110.357979999999998,30.273893000000001,0 110.373439000000005,30.304324000000001,0 110.367689999999996,30.315337,0 110.350910999999996,30.331275000000002,0 110.367146000000005,30.336245000000002,0 110.353474000000006,30.346869000000002,0 110.354872999999998,30.366700000000002,0 110.363417999999996,30.381430999999999,0 110.375613999999999,30.390936,0 110.377943999999999,30.401083,0 110.369399000000001,30.405449999999998,0 110.367223999999993,30.416366,0 110.375069999999994,30.423556999999999,0 110.373283000000001,30.441317999999999,0 110.377866999999995,30.445640000000001,0 110.367223999999993,30.466563000000001,0 110.373827000000006,30.474478000000001,0 110.387111000000004,30.469173000000001,0 110.411814000000007,30.482990000000001,0 110.439547000000005,30.489578000000002,0 110.445762000000002,30.512587,0 110.451509999999999,30.521267000000002,0 110.466581000000005,30.522805999999999,0 110.474193999999997,30.541703999999999,0 110.472407000000004,30.551707,0 110.487633000000002,30.553929,0 110.484215000000006,30.565384000000002,0 110.467434999999995,30.562605999999999,0 110.471941000000001,30.577991999999998,0 110.466037,30.594272,0 110.449413000000007,30.604227000000002,0 110.441489000000004,30.605765000000002,0 110.432866000000004,30.617384000000001,0 110.447393000000005,30.63101,0 110.449179999999998,30.649501999999998,0 110.469222000000002,30.649159999999998,0 110.463706000000002,30.666069,0 110.452442000000005,30.669654999999999,0 110.457802999999998,30.703589999999998,0 110.465570999999997,30.713405999999999,0 110.460521,30.721043999999999,0 110.460988,30.730772999999999,0 110.454228999999998,30.731071,0 110.442577,30.743272999999999,0 110.433643000000004,30.771639,0 110.422379000000006,30.782087000000001,0 110.384780000000006,30.781831,0 110.375069999999994,30.76763,0 110.360388,30.756924000000001,0 110.339180999999996,30.752573000000002,0 110.326052000000004,30.754535000000001,0 110.318284000000006,30.762212999999999,0 110.324965000000006,30.783366000000001,0 110.336617000000004,30.797011000000001,0 110.339336000000003,30.806304999999998,0 110.332811000000007,30.813424999999999,0 110.335995999999994,30.826979999999999,0 110.356970000000004,30.833117999999999,0 110.362097000000006,30.841470999999999,0 110.376002,30.847096000000001,0 110.404667000000003,30.872875000000001,0 110.413756000000006,30.875644000000001,0 110.421214000000006,30.870744999999999,0 110.443119999999993,30.881011999999998,0 110.440324000000004,30.892641000000001,0 110.430768999999998,30.910188000000002,0 110.425486000000006,30.910912,0 110.444907000000001,30.969577999999998,0 110.442886999999999,30.999281,0 110.443509000000006,31.023444000000001,0 110.446304999999995,31.030674999999999,0 110.459900000000005,31.031696,0 110.477688999999998,31.037777999999999,0 110.464561000000003,31.074517,0 110.465958999999998,31.081403999999999,0 110.479088000000004,31.084931999999998,0 110.498275000000007,31.085612000000001,0 110.512647000000001,31.097301000000002,0 110.517540999999994,31.107502,0 110.536107000000001,31.120760000000001,0 110.538826,31.132615000000001,0 110.514743999999993,31.143874,0 110.512102999999996,31.153770999999999,0 110.499207999999996,31.163031,0 110.500140000000002,31.182694999999999,0 110.476135999999997,31.186177000000001,0 110.476523999999998,31.204858999999999,0 110.487555,31.205494999999999,0 110.488876000000005,31.212458000000002,0 110.483825999999993,31.225829000000001,0 110.485068999999996,31.233129999999999,0 110.505189000000001,31.249171,0 110.498198000000002,31.254135999999999,0 110.473727999999994,31.253032999999999,0 110.464327999999995,31.262198000000001,0 110.452520000000007,31.260798000000001,0 110.450190000000006,31.269580000000001,0 110.438536999999997,31.276198999999998,0 110.434498000000005,31.282944000000001,0 110.438614999999999,31.289899999999999,0 110.436440000000005,31.301860999999999,0 110.427040000000005,31.310258000000001,0 110.443509000000006,31.319756999999999,0 110.447781000000006,31.329128000000001,0</coordinates></LinearRing></outerBoundaryIs></Polygon></MultiGeometry></Placemark>
</Document>
</kml>