<?xml version="1.0" encoding="UTF-8"?>
<kml xmlns="http://www.opengis.net/kml/2.2">
<Document>
<name>湖北省_全省轮廓</name>
<Placemark><name>湖北省_全省轮廓</name><MultiGeometry><Polygon><outerBoundaryIs><LinearRing><coordinates>112.791788999999994,29.713747999999999,0 112.795207000000005,29.697666999999999,0 112.784875,29.693570999999999,0 112.788604000000007,29.679901000000001,0 112.779127000000003,29.679728999999998,0 112.763667999999996,29.672311000000001,0 112.763823000000002,29.664807,0 112.731818000000004,29.645050999999999,0 112.727545000000006,29.655318000000001,0 112.714027999999999,29.647165000000001,0 112.713950999999994,29.637543999999998,0 112.698646999999994,29.619983999999999,0 112.699034999999995,29.610748999999998,0 112.689014,29.602377000000001,0 112.686916999999994,29.592752000000001,0 112.678993000000006,29.589514999999999,0 112.673400000000001,29.600045999999999,0 112.660272000000006,29.599529,0 112.650638999999998,29.592493000000001,0 112.640152,29.607900999999998,0 112.624692999999994,29.616531999999999,0 112.607758000000004,29.608031,0 112.607135999999997,29.612259999999999,0 112.589658,29.620242999999999,0 112.572256999999993,29.623867000000001,0 112.565110000000004,29.620760000000001,0 112.540795000000003,29.600822999999998,0 112.535201999999998,29.599701,0 112.505216000000004,29.611008000000002,0 112.499078999999995,29.629261,0 112.481988999999999,29.633489000000001,0 112.468472000000006,29.631332,0 112.456664000000004,29.635947999999999,0 112.439651999999995,29.633790999999999,0 112.427300000000002,29.616962999999998,0 112.423570999999995,29.595687000000002,0 112.408967000000004,29.578638000000002,0 112.402208999999999,29.576392999999999,0 112.397237000000004,29.564132000000001,0 112.391799000000006,29.567844999999998,0 112.370281000000006,29.542197000000002,0 112.332060999999996,29.544744999999999,0 112.32002,29.540555999999999,0 112.315747000000002,29.524274999999999,0 112.298423999999997,29.516932000000001,0 112.290733000000003,29.516932000000001,0 112.282653999999994,29.49503,0 112.278226000000004,29.508465000000001,0 112.279313999999999,29.529154999999999,0 112.282731999999996,29.537533,0 112.291588000000004,29.542759,0 112.303162999999998,29.567240999999999,0 112.302852000000001,29.586192,0 112.294307000000003,29.595859999999998,0 112.282032999999998,29.596247999999999,0 112.255543000000003,29.609929000000001,0 112.242337000000006,29.609971999999999,0 112.234413000000004,29.615798000000002,0 112.228431999999998,29.627707000000001,0 112.231460999999996,29.639658000000001,0 112.244201000000004,29.659631000000001,0 112.236121999999995,29.658466000000001,0 112.219498000000002,29.647379999999998,0 112.220429999999993,29.637242000000001,0 112.206680000000006,29.635085,0 112.199455999999998,29.629864999999999,0 112.198290999999998,29.617438,0 112.185861000000003,29.634352,0 112.183997000000005,29.648026999999999,0 112.178171000000006,29.656655000000001,0 112.164575999999997,29.662348000000001,0 112.150593000000001,29.654540999999998,0 112.143990000000002,29.657430999999999,0 112.124958000000007,29.657,0 112.118510000000001,29.662693000000001,0 112.112606,29.659243,0 112.107478999999998,29.671189999999999,0 112.091864999999999,29.685680000000001,0 112.087514999999996,29.681756,0 112.065453000000005,29.681756,0 112.059937000000005,29.69577,0 112.064520000000002,29.710343000000002,0 112.072909999999993,29.715084999999998,0 112.075706999999994,29.744222000000001,0 112.066152000000002,29.753703000000002,0 112.064442999999997,29.769818999999998,0 112.054810000000003,29.757237,0 112.064676000000006,29.745946,0 112.050692999999995,29.749178000000001,0 112.045565999999994,29.758400000000002,0 112.031193999999999,29.762277999999998,0 112.009754000000001,29.778047999999998,0 111.991264999999999,29.782786999999999,0 111.987071,29.793987000000001,0 111.977048999999994,29.790497999999999,0 111.954831999999996,29.796744,0 111.951569000000006,29.814229999999998,0 111.965242000000003,29.831154000000002,0 111.960969000000006,29.837440999999998,0 111.937043000000003,29.832402999999999,0 111.919252999999998,29.842434999999998,0 111.914591999999999,29.852681,0 111.880645000000001,29.859999999999999,0 111.863399000000001,29.856556000000001,0 111.852756999999997,29.86835,0 111.839628000000005,29.876830000000002,0 111.828986,29.873989000000002,0 111.830695000000006,29.887933,0 111.810342000000006,29.893785999999999,0 111.809641999999997,29.902263000000001,0 111.794650000000004,29.905705000000001,0 111.757439000000005,29.920075000000001,0 111.730172999999994,29.918053,0 111.723803000000004,29.906092000000001,0 111.699488000000002,29.887632,0 111.681775999999999,29.884577,0 111.668880999999999,29.888836999999999,0 111.662355000000005,29.885825000000001,0 111.651402000000004,29.893097000000001,0 111.621650000000002,29.894947999999999,0 111.620018000000002,29.891418999999999,0 111.597801000000004,29.889482999999998,0 111.583973,29.898046000000001,0 111.577914000000007,29.894431000000001,0 111.567660000000004,29.898261000000002,0 111.551345999999995,29.895249,0 111.546142000000003,29.904198999999998,0 111.538450999999995,29.904672000000001,0 111.527420000000006,29.925668000000002,0 111.514525000000006,29.927689999999998,0 111.475683000000004,29.918828000000001,0 111.462089000000006,29.927344999999999,0 111.445542000000003,29.924721000000002,0 111.437774000000005,29.930012999999999,0 111.418120000000002,29.915171000000001,0 111.404291999999998,29.910996999999998,0 111.390853000000007,29.914826000000001,0 111.382852,29.923646000000002,0 111.388677999999999,29.937669,0 111.378112999999999,29.936809,0 111.382852,29.949755,0 111.375394,29.954228000000001,0 111.351467999999997,29.951304,0 111.348904000000005,29.942271999999999,0 111.342067999999998,29.945367999999998,0 111.324123999999998,29.978179999999998,0 111.318763000000004,29.971902,0 111.297245000000004,29.990217999999999,0 111.297711000000007,30.004619000000002,0 111.285670999999994,30.011323999999998,0 111.267026999999999,30.011410000000001,0 111.257937999999996,30.031523,0 111.243798999999996,30.039559000000001,0 111.213347999999996,30.04175,0 111.199753000000001,30.040977000000002,0 111.179710999999998,30.044242000000001,0 111.178933999999998,30.040503999999999,0 111.133488999999997,30.045273000000002,0 111.124011999999993,30.044457000000001,0 111.086258000000001,30.049441000000002,0 111.031569000000005,30.048883,0 111.005855999999994,30.054468,0 110.998399000000006,30.059366000000001,0 110.970899000000003,30.058979000000001,0 110.929882000000006,30.063447,0 110.922967999999997,30.075731999999999,0 110.925220999999993,30.094501000000001,0 110.924289000000002,30.111333999999999,0 110.897876999999994,30.109788999999999,0 110.873949999999994,30.113437999999999,0 110.858024999999998,30.118548000000001,0 110.848625999999996,30.126104000000002,0 110.836118999999997,30.122712,0 110.814368000000002,30.125975,0 110.802948000000001,30.114426000000002,0 110.788343999999995,30.120007999999999,0 110.763019,30.119019999999999,0 110.746395000000007,30.112622999999999,0 110.753152999999998,30.101286000000002,0 110.748958999999999,30.088317,0 110.756028000000001,30.082991,0 110.754163000000005,30.064091000000001,0 110.756182999999993,30.054296000000001,0 110.748259000000004,30.045874999999999,0 110.735675000000001,30.039902000000001,0 110.722391000000002,30.039645,0 110.712370000000007,30.033156000000002,0 110.694036999999994,30.041535,0 110.682151000000005,30.053865999999999,0 110.686346,30.059151,0 110.659622999999996,30.071221999999999,0 110.650999999999996,30.077622000000002,0 110.626608000000004,30.063790000000001,0 110.597632000000004,30.054468,0 110.576346999999998,30.059065,0 110.568034999999995,30.054338999999999,0 110.551100000000005,30.055627999999999,0 110.531368000000001,30.061126999999999,0 110.521270000000001,30.058935999999999,0 110.508218999999997,30.050429000000001,0 110.496333000000007,30.054597000000001,0 110.495945000000006,30.040246,0 110.499829000000005,30.026968,0 110.491595000000004,30.019704999999998,0 110.504644999999996,30.008787999999999,0 110.520104000000003,30.001781999999999,0 110.547292999999996,29.999589,0 110.557158999999999,29.98695,0 110.551100000000005,29.979683999999999,0 110.535330000000002,29.975083999999999,0 110.517385000000004,29.961366999999999,0 110.508063000000007,29.944120999999999,0 110.506743,29.919042999999999,0 110.49812,29.910050999999999,0 110.507829999999998,29.908932,0 110.515521000000007,29.902477999999999,0 110.526939999999996,29.904672000000001,0 110.537893999999994,29.896798,0 110.535719,29.880316000000001,0 110.547604000000007,29.863399999999999,0 110.549935000000005,29.847988999999998,0 110.575415000000007,29.844846,0 110.584036999999995,29.835072,0 110.597786999999997,29.840024,0 110.618373000000005,29.826589999999999,0 110.629249000000002,29.805143000000001,0 110.629715000000004,29.798424000000001,0 110.640046999999996,29.782485000000001,0 110.642454999999998,29.772144999999998,0 110.634997999999996,29.760425999999999,0 110.623733000000001,29.755944,0 110.614412000000002,29.747109999999999,0 110.602059999999994,29.742025000000002,0 110.574560000000005,29.723448000000001,0 110.562830000000005,29.712541000000002,0 110.545350999999997,29.705428000000001,0 110.525231000000005,29.693484999999999,0 110.507131000000001,29.692105000000002,0 110.493847000000002,29.700987000000001,0 110.465181999999999,29.713059000000001,0 110.449335000000005,29.690811,0 110.447005000000004,29.664634,0 110.417018999999996,29.661874000000001,0 110.413601,29.654153000000001,0 110.373439000000005,29.633834,0 110.355805000000004,29.638839000000001,0 110.352386999999993,29.654713999999998,0 110.339490999999995,29.668127999999999,0 110.321235999999999,29.665022,0 110.315719999999999,29.661141000000001,0 110.299873000000005,29.662391,0 110.292027000000004,29.671837,0 110.289929999999998,29.696373999999999,0 110.278199000000001,29.709091999999998,0 110.260409999999993,29.719525000000001,0 110.245806000000002,29.732240999999998,0 110.219859,29.746635999999999,0 110.188164999999998,29.754479,0 110.160820000000001,29.753789999999999,0 110.144895000000005,29.771111000000001,0 110.131067999999999,29.781063,0 110.113511000000003,29.789679,0 110.064104999999998,29.782830000000001,0 110.024175999999997,29.769646000000002,0 109.990849999999995,29.772231000000001,0 109.976011999999997,29.768138,0 109.969719999999995,29.771801,0 109.949755999999994,29.772964000000002,0 109.946493000000004,29.779125000000001,0 109.940201000000002,29.774170000000002,0 109.907883999999996,29.764174000000001,0 109.896852999999993,29.770422,0 109.888463999999999,29.765898,0 109.869820000000004,29.774687,0 109.836648999999994,29.769818999999998,0 109.820879000000005,29.769905000000001,0 109.791904000000002,29.763399,0 109.779473999999993,29.757753999999998,0 109.769298000000006,29.744481,0 109.755236999999994,29.743144999999998,0 109.753528000000003,29.734093999999999,0 109.772948999999997,29.724224,0 109.760209000000003,29.713360000000002,0 109.766191000000006,29.702884000000001,0 109.760131000000001,29.689129999999999,0 109.737059000000002,29.678391999999999,0 109.714920000000006,29.673345999999999,0 109.718416000000005,29.658639000000001,0 109.715773999999996,29.649494000000001,0 109.701248000000007,29.636292999999998,0 109.710880000000003,29.629605999999999,0 109.717793999999998,29.615020999999999,0 109.704976000000002,29.608376,0 109.678797000000003,29.607987000000001,0 109.663494,29.599658000000002,0 109.651064000000005,29.610102000000001,0 109.650830999999997,29.626456000000001,0 109.641431999999995,29.623867000000001,0 109.609425999999999,29.634481000000001,0 109.575400999999999,29.627880000000001,0 109.575867000000002,29.620889999999999,0 109.558622,29.607037999999999,0 109.550387000000001,29.612777000000001,0 109.531277000000003,29.615279999999998,0 109.529801000000006,29.625205000000001,0 109.516516999999993,29.625980999999999,0 109.514264999999995,29.617999000000001,0 109.525062000000005,29.608806999999999,0 109.514498000000003,29.600262000000001,0 109.501446999999999,29.605440999999999,0 109.495930999999999,29.598708999999999,0 109.503621999999993,29.597715999999998,0 109.504009999999994,29.588609000000002,0 109.497640000000004,29.568104000000002,0 109.488707000000005,29.553165,0 109.479928999999998,29.552734000000001,0 109.467033000000001,29.559987,0 109.461828999999994,29.554245000000002,0 109.458566000000005,29.530536999999999,0 109.465091000000001,29.516932000000001,0 109.458566000000005,29.513173999999999,0 109.447613000000004,29.520733,0 109.445282000000006,29.529371000000001,0 109.430987999999999,29.529069,0 109.431298999999996,29.505268999999998,0 109.440620999999993,29.493172000000001,0 109.434872999999996,29.489068,0 109.418325999999993,29.498011000000002,0 109.410014000000004,29.490580000000001,0 109.412811000000005,29.484704000000001,0 109.405119999999997,29.468758999999999,0 109.417160999999993,29.454799999999999,0 109.402246000000005,29.444599,0 109.404730999999998,29.434397000000001,0 109.397041000000002,29.439108999999998,0 109.372881000000007,29.425015999999999,0 109.368609000000006,29.411353999999999,0 109.385311000000002,29.393581000000001,0 109.382047999999998,29.382898000000001,0 109.391525000000001,29.372257999999999,0 109.376766000000003,29.376539999999999,0 109.368763999999999,29.382898000000001,0 109.347401000000005,29.373815,0 109.343982999999994,29.369446,0 109.340176999999997,29.33596,0 109.345303999999999,29.314668000000001,0 109.344138999999998,29.306445,0 109.352294999999998,29.305233000000001,0 109.352217999999993,29.284627,0 109.326814999999996,29.260684000000001,0 109.315084999999996,29.252109000000001,0 109.286109999999994,29.242061,0 109.261405999999994,29.227810999999999,0 109.257833000000005,29.222570000000001,0 109.276088000000001,29.200301,0 109.271039000000002,29.183228,0 109.273912999999993,29.172567000000001,0 109.261483999999996,29.161038000000001,0 109.264048000000003,29.144002,0 109.277175999999997,29.134073999999998,0 109.274146000000002,29.122107,0 109.255968999999993,29.123234,0 109.245326000000006,29.115082000000001,0 109.232585999999998,29.119461000000001,0 109.228545999999994,29.129954999999999,0 109.215496000000002,29.145302000000001,0 109.203066000000007,29.151805,0 109.170983000000007,29.177897999999999,0 109.162515999999997,29.180671,0 109.152883000000003,29.171744,0 109.138823000000002,29.16949,0 109.123052999999999,29.191288,0 109.122974999999997,29.199261,0 109.110391000000007,29.215119000000001,0 109.119478999999998,29.227855000000002,0 109.118547000000007,29.232403000000001,0 109.142008000000004,29.27047,0 109.129966999999994,29.282463,0 109.106429000000006,29.288567,0 109.104641999999998,29.293156,0 109.113885999999994,29.314191999999998,0 109.108525999999998,29.319904999999999,0 109.114275000000006,29.331676000000002,0 109.109924000000007,29.342061000000001,0 109.113731000000001,29.352315000000001,0 109.111943999999994,29.361833000000001,0 109.099282000000002,29.375112999999999,0 109.090348000000006,29.37866,0 109.080793,29.390640000000001,0 109.065723000000006,29.40063,0 109.053216000000006,29.402705000000001,0 109.039931999999993,29.389818000000002,0 109.033484000000001,29.378226999999999,0 109.034727000000004,29.360275000000001,0 109.009791000000007,29.360188999999998,0 108.999459000000002,29.363909,0 108.994720999999998,29.355041,0 108.985088000000005,29.350455,0 108.986175000000003,29.336739000000001,0 108.972347999999997,29.329208999999999,0 108.956112000000005,29.330939999999998,0 108.919756000000007,29.326309999999999,0 108.916649000000007,29.334617999999999,0 108.924417000000005,29.350238000000001,0 108.934516000000002,29.386229,0 108.934128000000001,29.399462,0 108.943682999999993,29.410748000000002,0 108.932029999999997,29.431716999999999,0 108.921232000000003,29.436904999999999,0 108.909580000000005,29.436817999999999,0 108.898083,29.441962,0 108.884488000000005,29.440925,0 108.873689999999996,29.449656000000001,0 108.873767999999998,29.462751999999998,0 108.866466000000003,29.472474999999999,0 108.871437999999998,29.488548999999999,0 108.887439999999998,29.499869,0 108.886973999999995,29.53058,0 108.878428999999997,29.539346999999999,0 108.886895999999993,29.553121999999998,0 108.912531999999999,29.572161999999999,0 108.900257999999994,29.583083999999999,0 108.909192000000004,29.59327,0 108.901268000000002,29.604793999999998,0 108.897616999999997,29.596506999999999,0 108.885886999999997,29.588479,0 108.870350000000002,29.596551000000002,0 108.885886999999997,29.621148999999999,0 108.886585999999994,29.633057000000001,0 108.869729000000007,29.642980000000001,0 108.855745999999996,29.636379000000002,0 108.844481999999999,29.658380000000001,0 108.832983999999996,29.651306000000002,0 108.827314000000001,29.654368999999999,0 108.835392999999996,29.668430000000001,0 108.828090000000003,29.671275999999999,0 108.817680999999993,29.647811999999998,0 108.819856000000001,29.63241,0 108.813641000000004,29.631547000000001,0 108.804396999999994,29.640564000000001,0 108.785674999999998,29.633834,0 108.779694000000006,29.644404000000002,0 108.785909000000004,29.650701999999999,0 108.792278999999994,29.647337,0 108.797483,29.660062,0 108.794143000000005,29.671189999999999,0 108.784666000000001,29.677185000000001,0 108.786297000000005,29.691500999999999,0 108.760661999999996,29.693528000000001,0 108.752583000000001,29.689344999999999,0 108.758176000000006,29.678694,0 108.765089000000003,29.682230000000001,0 108.775964999999999,29.675373,0 108.773013000000006,29.661529000000002,0 108.783266999999995,29.653808000000001,0 108.774567000000005,29.651737000000001,0 108.765866000000003,29.661054,0 108.762991999999997,29.653376000000002,0 108.752660000000006,29.64902,0 108.743027999999995,29.655920999999999,0 108.740618999999995,29.665713,0 108.733627999999996,29.671492000000001,0 108.710943999999998,29.679168000000001,0 108.718247000000005,29.691932000000001,0 108.710323000000002,29.699218999999999,0 108.691135000000003,29.689689999999999,0 108.684764999999999,29.693528000000001,0 108.693155000000004,29.704478999999999,0 108.681036000000006,29.721378999999999,0 108.686706999999998,29.740041999999999,0 108.677617999999995,29.748532000000001,0 108.677307999999996,29.76146,0 108.681813000000005,29.770465000000002,0 108.678394999999995,29.777875000000002,0 108.680648000000005,29.801309,0 108.671014999999997,29.811819,0 108.657653999999994,29.815221000000001,0 108.670316,29.819054000000001,0 108.666898000000003,29.842392,0 108.657731999999996,29.848075000000001,0 108.658664000000002,29.854619,0 108.648099000000002,29.852768000000001,0 108.632795000000002,29.856728,0 108.632951000000006,29.864692000000002,0 108.622929999999997,29.867317,0 108.608402999999996,29.862970000000001,0 108.601410999999999,29.865596,0 108.587971999999993,29.853887,0 108.588127999999998,29.848075000000001,0 108.577330000000003,29.844674000000001,0 108.579892999999998,29.831197,0 108.565832999999998,29.820862000000002,0 108.557443000000006,29.819054000000001,0 108.534448999999995,29.787482000000001,0 108.522485000000003,29.763787000000001,0 108.540119000000004,29.756762999999999,0 108.548508999999996,29.749523,0 108.547032999999999,29.742584999999998,0 108.521009000000006,29.730172,0 108.516659000000004,29.735645999999999,0 108.504152000000005,29.729438999999999,0 108.514561999999998,29.720344000000001,0 108.512853000000007,29.711290999999999,0 108.503608,29.708489,0 108.487527999999998,29.724224,0 108.467641,29.729697999999999,0 108.460493999999997,29.740904,0 108.437111999999999,29.740774999999999,0 108.438587999999996,29.756202999999999,0 108.445502000000005,29.764389999999999,0 108.441383999999999,29.778694000000002,0 108.425071000000003,29.772749000000001,0 108.416991999999993,29.787353,0 108.425537000000006,29.804195,0 108.424526999999998,29.815307000000001,0 108.409379000000001,29.820432,0 108.404718000000003,29.834125,0 108.395473999999993,29.832058,0 108.394231000000005,29.816469999999999,0 108.366963999999996,29.820432,0 108.371470000000002,29.841616999999999,0 108.391589999999994,29.853197999999999,0 108.386928999999995,29.860043000000001,0 108.392754999999994,29.863530000000001,0 108.402776000000003,29.855910000000002,0 108.433770999999993,29.880057999999998,0 108.453113999999999,29.871708000000002,0 108.457386999999997,29.865423,0 108.468029999999999,29.864218000000001,0 108.491878,29.868867000000002,0 108.497471000000004,29.878723000000001,0 108.509045999999998,29.878637000000001,0 108.517048000000003,29.865466999999999,0 108.516193000000001,29.885608999999999,0 108.524271999999996,29.896798,0 108.524039000000002,29.911643000000002,0 108.515882000000005,29.930399999999999,0 108.519456000000005,29.943518999999998,0 108.533360999999999,29.969149999999999,0 108.542604999999995,29.997354000000001,0 108.528854999999993,30.005478,0 108.530642,30.043081999999998,0 108.526137000000006,30.049527000000001,0 108.531807000000001,30.055069,0 108.524193999999994,30.058678,0 108.516425999999996,30.053007000000001,0 108.516271000000003,30.064219999999999,0 108.525282000000004,30.073841999999999,0 108.532351000000006,30.07367,0 108.533206000000007,30.084194,0 108.546100999999993,30.104378000000001,0 108.561481999999998,30.144134000000001,0 108.567464000000001,30.155722000000001,0 108.552238000000003,30.163319000000001,0 108.553792000000001,30.174519,0 108.568861999999996,30.225612000000002,0 108.567464000000001,30.234361,0 108.573522999999994,30.237192,0 108.581680000000006,30.255887000000001,0 108.567308999999995,30.254901,0 108.562026000000003,30.262875000000001,0 108.545247000000003,30.269949,0 108.546178999999995,30.276292999999999,0 108.534836999999996,30.282423000000001,0 108.533905000000004,30.291595000000001,0 108.524894000000003,30.294723999999999,0 108.52637,30.305267000000001,0 108.514949999999999,30.315165,0 108.499336,30.315722000000001,0 108.482788999999997,30.336030999999998,0 108.469040000000007,30.343827000000001,0 108.459873000000002,30.359804,0 108.451016999999993,30.355606999999999,0 108.432683999999995,30.354108,0 108.421886000000001,30.366485000000001,0 108.403319999999994,30.374751,0 108.399591000000001,30.390166000000001,0 108.418390000000002,30.393463000000001,0 108.425303999999997,30.399070999999999,0 108.421653000000006,30.410544000000002,0 108.430430999999999,30.415595,0 108.422352000000004,30.428393,0 108.412098,30.436183,0 108.421807999999999,30.448848999999999,0 108.421187000000003,30.464380999999999,0 108.414272999999994,30.476445999999999,0 108.427556999999993,30.492443000000002,0 108.440995999999998,30.491032000000001,0 108.456066000000007,30.495394999999998,0 108.455056999999996,30.489321,0 108.469273000000001,30.486926,0 108.479138000000006,30.488935999999999,0 108.491722999999993,30.501511000000001,0 108.510910999999993,30.502537,0 108.528312,30.487482,0 108.543925999999999,30.491716,0 108.555035000000004,30.487995000000002,0 108.564977999999996,30.468574,0 108.569950000000006,30.470414000000002,0 108.581680000000006,30.485899,0 108.591234999999998,30.487780999999998,0 108.590536,30.494624999999999,0 108.598536999999993,30.493898000000002,0 108.611431999999994,30.502195,0 108.604518999999996,30.510833000000002,0 108.621763999999999,30.515452,0 108.620132999999996,30.522891999999999,0 108.628600000000006,30.525200999999999,0 108.649342000000004,30.537856000000001,0 108.649885999999995,30.553929,0 108.643360000000001,30.562179,0 108.639864000000003,30.574743999999999,0 108.654469000000006,30.585000000000001,0 108.666199000000006,30.588588999999999,0 108.690436000000005,30.586708999999999,0 108.699990999999997,30.561793999999999,0 108.699370000000002,30.544397,0 108.710711000000003,30.537984000000002,0 108.715838000000005,30.530373999999998,0 108.713973999999993,30.520754,0 108.726015000000004,30.515708,0 108.723995000000002,30.507541,0 108.744891999999993,30.494624999999999,0 108.761516,30.505317000000002,0 108.772935000000004,30.503478000000001,0 108.788550000000001,30.512929,0 108.799270000000007,30.505915999999999,0 108.806027999999998,30.492016,0 108.811543999999998,30.492016,0 108.843782000000004,30.505915999999999,0 108.854425000000006,30.521909000000001,0 108.871671000000006,30.532726,0 108.893111000000005,30.557818999999999,0 108.894665000000003,30.567008000000001,0 108.919522999999998,30.589358000000001,0 108.943838,30.601834,0 108.967454000000004,30.624817,0 108.978019000000003,30.629814,0 108.987495999999993,30.623279,0 108.998760000000004,30.632290999999999,0 109.009713000000005,30.627251000000001,0 109.022064999999998,30.642968,0 109.045214000000001,30.653943000000002,0 109.055546000000007,30.64237,0 109.071549000000005,30.640533999999999,0 109.088018000000005,30.646640999999999,0 109.097883999999993,30.638100000000001,0 109.107206000000005,30.645530000000001,0 109.114740999999995,30.643908,0 109.121731999999994,30.628746,0 109.112487999999999,30.612684999999999,0 109.093145000000007,30.609010999999999,0 109.083590000000001,30.598244999999999,0 109.096795999999998,30.572179999999999,0 109.104487000000006,30.565085,0 109.113498000000007,30.548672,0 109.124840000000006,30.538924999999999,0 109.124373000000006,30.531700000000001,0 109.139443999999997,30.534564,0 109.141153000000003,30.525072999999999,0 109.147523000000007,30.521652,0 109.163836000000003,30.537129,0 109.168964000000003,30.545978999999999,0 109.192113000000006,30.545636999999999,0 109.222797999999997,30.569614999999999,0 109.247733999999994,30.583205,0 109.227846999999997,30.580897,0 109.234217000000001,30.589272999999999,0 109.251152000000005,30.592904999999998,0 109.278807,30.610164999999999,0 109.299548999999999,30.630583000000001,0 109.313609,30.610164999999999,0 109.328136000000001,30.616060000000001,0 109.323319999999995,30.604140999999998,0 109.314542000000003,30.599782999999999,0 109.344294000000005,30.577137,0 109.361151000000007,30.554742000000001,0 109.361074000000002,30.550979999999999,0 109.345303999999999,30.533494999999998,0 109.337536,30.518616000000002,0 109.341575000000006,30.512715,0 109.342817999999994,30.494710000000001,0 109.352529000000004,30.487010999999999,0 109.368686999999994,30.50027,0 109.380804999999995,30.518317,0 109.393777999999998,30.531144000000001,0 109.418092999999999,30.559999000000001,0 109.428036000000006,30.576153999999999,0 109.437824000000006,30.598074,0 109.449321999999995,30.603714,0 109.456468000000001,30.613796000000001,0 109.465868,30.619520000000001,0 109.482803000000004,30.623194000000002,0 109.493368000000004,30.637203,0 109.514652999999996,30.655394000000001,0 109.528713999999994,30.663891,0 109.537880000000001,30.663976999999999,0 109.541376,30.651637000000001,0 109.533685000000006,30.641559000000001,0 109.538811999999993,30.638441,0 109.562894,30.646726000000001,0 109.574157999999997,30.646854000000001,0 109.577110000000005,30.655308999999999,0 109.587986000000001,30.664660000000001,0 109.581615999999997,30.670850999999999,0 109.590626999999998,30.693432000000001,0 109.602278999999996,30.698810000000002,0 109.625428999999997,30.702652,0 109.649045000000001,30.718910999999999,0 109.660775000000001,30.737258000000001,0 109.656657999999993,30.760463999999999,0 109.685400000000001,30.768653,0 109.692159000000004,30.778931,0 109.702101999999996,30.783664999999999,0 109.702646000000001,30.770230999999999,0 109.718104999999994,30.778675,0 109.716550999999995,30.801701000000001,0 109.729602,30.815386,0 109.759044000000003,30.832819000000001,0 109.780794999999998,30.848587999999999,0 109.797651999999999,30.855619000000001,0 109.819402999999994,30.860220999999999,0 109.856070000000003,30.880244999999999,0 109.878209999999996,30.889191,0 109.894523000000007,30.899795999999998,0 109.905631999999997,30.899795999999998,0 109.932276999999999,30.887657000000001,0 109.940899999999999,30.889702,0 109.943696000000003,30.878966999999999,0 109.958377999999996,30.877476000000001,0 109.975935000000007,30.888679,0 109.995045000000005,30.887827999999999,0 110.008251000000001,30.881864,0 110.005065999999999,30.870404000000001,0 110.017961,30.855321,0 110.019593,30.82958,0 110.031943999999996,30.820457999999999,0 110.039169000000001,30.820501,0 110.042508999999995,30.806688999999999,0 110.052995999999993,30.799569000000002,0 110.081738999999999,30.799271000000001,0 110.089429999999993,30.815897,0 110.095643999999993,30.821268,0 110.095799999999997,30.829878999999998,0 110.115375999999998,30.84488,0 110.123998999999998,30.867975000000001,0 110.151730999999998,30.911508000000001,0 110.145128,30.925816000000001,0 110.153907000000004,30.95383,0 110.164005000000003,30.962129999999998,0 110.161675000000002,30.967918000000001,0 110.173249999999996,30.979621999999999,0 110.171541000000005,30.987537,0 110.163539,30.991622,0 110.136038999999997,30.986771000000001,0 110.140933000000004,31.005023999999999,0 110.140157000000002,31.030633000000002,0 110.120813999999996,31.031994000000001,0 110.126639999999995,31.054660999999999,0 110.133088000000001,31.059805999999998,0 110.122134000000003,31.072901000000002,0 110.120192000000003,31.088374999999999,0 110.135418000000001,31.106269000000001,0 110.145827999999995,31.108181999999999,0 110.146915000000007,31.116893000000001,0 110.162529000000006,31.116043000000001,0 110.180240999999995,31.121652999999998,0 110.189408,31.129470999999999,0 110.186843999999994,31.145318,0 110.198885000000004,31.156531999999999,0 110.196943000000005,31.163582999999999,0 110.186456000000007,31.169571999999999,0 110.180162999999993,31.179594999999999,0 110.175657999999999,31.215005000000001,0 110.169599000000005,31.227951000000001,0 110.174880999999999,31.243527,0 110.171385000000001,31.250571999999998,0 110.162452000000002,31.251930000000002,0 110.155925999999994,31.279508,0 110.162218999999993,31.291003,0 110.164005000000003,31.303218000000001,0 110.159655000000001,31.315346999999999,0 110.151730999999998,31.317890999999999,0 110.158023999999997,31.333494999999999,0 110.147537,31.346425,0 110.149168000000003,31.355834999999999,0 110.140000999999998,31.368296000000001,0 110.145284000000004,31.381307,0 110.140000999999998,31.390502000000001,0 110.127339000000006,31.393383,0 110.118871999999996,31.400628000000001,0 110.114520999999996,31.412109000000001,0 110.106286999999995,31.408211000000001,0 110.054006000000001,31.410879999999999,0 110.049811000000005,31.418378000000001,0 110.03443,31.430831000000001,0 110.033497999999994,31.439682000000001,0 110.020679999999999,31.442095999999999,0 110.003668000000005,31.453655999999999,0 109.996364999999997,31.469363999999999,0 109.987819999999999,31.474656,0 109.967933000000002,31.474318,0 109.954727000000005,31.468391,0 109.946027000000001,31.469449000000001,0 109.940589000000003,31.478719999999999,0 109.949288999999993,31.488624999999999,0 109.957212999999996,31.490784000000001,0 109.961330000000004,31.499290999999999,0 109.982304999999997,31.512536999999998,0 109.965603000000002,31.507881999999999,0 109.945250000000001,31.506696999999999,0 109.934917999999996,31.517741999999998,0 109.923809000000006,31.521464999999999,0 109.894600999999994,31.519181,0 109.878209999999996,31.528870000000001,0 109.869197999999997,31.530097000000001,0 109.860186999999996,31.54355,0 109.837969999999999,31.555267000000001,0 109.822045000000003,31.553743999999998,0 109.800993000000005,31.541435,0 109.788562999999996,31.550445,0 109.765414000000007,31.549641000000001,0 109.740244000000004,31.546215,0 109.727815000000007,31.54833,0 109.718881999999994,31.557001,0 109.727503999999996,31.570746,0 109.746459000000002,31.577978000000002,0 109.745137999999997,31.597047,0 109.764249000000007,31.603007999999999,0 109.737369999999999,31.628665999999999,0 109.740399999999994,31.635173999999999,0 109.740633000000003,31.663611,0 109.731854999999996,31.673158999999998,0 109.728048000000001,31.688829999999999,0 109.731077999999997,31.700444000000001,0 109.709481999999994,31.70112,0 109.696043000000003,31.707073999999999,0 109.693324000000004,31.716574999999999,0 109.682991999999999,31.719784000000001,0 109.658987999999994,31.716954999999999,0 109.644926999999996,31.720880999999999,0 109.617039000000005,31.711592,0 109.606164000000007,31.714717,0 109.585733000000005,31.726707999999999,0 109.592414000000005,31.736502000000002,0 109.604455000000002,31.742412000000002,0 109.592956999999998,31.751909000000001,0 109.594356000000005,31.763684000000001,0 109.589928,31.777652,0 109.591791999999998,31.788875999999998,0 109.604532000000006,31.803768000000002,0 109.614475999999996,31.806256999999999,0 109.633895999999993,31.804611000000001,0 109.638247000000007,31.811064999999999,0 109.633662999999999,31.824815000000001,0 109.619292000000002,31.852982999999998,0 109.607562000000001,31.881648999999999,0 109.587675000000004,31.892437999999999,0 109.584956000000005,31.900486999999998,0 109.594510999999997,31.923366000000001,0 109.620613000000006,31.92859,0 109.630711000000005,31.943923000000002,0 109.631254999999996,31.962243000000001,0 109.613077000000004,31.989737999999999,0 109.601347000000004,31.997651999999999,0 109.590937999999994,32.012678999999999,0 109.587597000000002,32.025261999999998,0 109.590937999999994,32.047732000000003,0 109.617894000000007,32.085126000000002,0 109.621622000000002,32.106740000000002,0 109.609425999999999,32.122000999999997,0 109.603367000000006,32.124817,0 109.592568999999997,32.139150999999998,0 109.587130999999999,32.161465999999997,0 109.590394000000003,32.174154999999999,0 109.604298999999997,32.199275999999998,0 109.603832999999995,32.205660000000002,0 109.592724000000004,32.219309000000003,0 109.573847000000001,32.225230000000003,0 109.562117000000001,32.222625999999998,0 109.550387000000001,32.224851999999998,0 109.548677999999995,32.234425000000002,0 109.528713999999994,32.270316000000001,0 109.518614999999997,32.280137000000003,0 109.502301000000003,32.289577999999999,0 109.495464999999996,32.300404,0 109.510690999999994,32.324609000000002,0 109.513176999999999,32.342306999999998,0 109.500437000000005,32.378867999999997,0 109.506263000000004,32.395299000000001,0 109.511545999999996,32.399070999999999,0 109.526304999999994,32.399909000000001,0 109.529646,32.405735,0 109.526927000000001,32.433388999999998,0 109.541608999999994,32.444322999999997,0 109.547434999999993,32.454794,0 109.548212000000007,32.468992,0 109.552795000000003,32.477156999999998,0 109.565612999999999,32.481135000000002,0 109.576023000000006,32.491728000000002,0 109.575711999999996,32.506380999999998,0 109.587519999999998,32.516092,0 109.618127000000001,32.524754999999999,0 109.629778999999999,32.531492999999998,0 109.636770999999996,32.541075999999997,0 109.633353,32.551996000000003,0 109.619990999999999,32.567433999999999,0 109.615951999999993,32.581069999999997,0 109.619292000000002,32.593072999999997,0 109.631799000000001,32.600056000000002,0 109.697519,32.603777999999998,0 109.709016000000005,32.608252,0 109.726727999999994,32.608294000000001,0 109.736749000000003,32.600307000000001,0 109.758189000000002,32.589852,0 109.817072999999993,32.577388999999997,0 109.849467000000004,32.579773000000003,0 109.881238999999994,32.591985000000001,0 109.910526000000004,32.592695999999997,0 109.924818999999999,32.588723000000002,0 109.944783999999999,32.576844999999999,0 109.960942000000003,32.580275,0 109.971118000000004,32.577556000000001,0 109.987898000000001,32.556472999999997,0 109.995744000000002,32.550741000000002,0 110.017651000000001,32.546976000000001,0 110.028215000000003,32.548397999999999,0 110.051519999999996,32.558647999999998,0 110.088187000000005,32.585461000000002,0 110.088808,32.599679999999999,0 110.085312000000002,32.613143999999998,0 110.102558000000002,32.619039000000001,0 110.124076000000002,32.616781000000003,0 110.133398,32.612181999999997,0 110.153751,32.593156,0 110.165171000000001,32.593867000000003,0 110.184979999999996,32.617407999999998,0 110.200749000000002,32.624389999999998,0 110.206419999999994,32.633001,0 110.187854000000002,32.646335000000001,0 110.178920000000005,32.663344000000002,0 110.157168999999996,32.683273999999997,0 110.154449999999997,32.690083000000001,0 110.162295999999998,32.715938000000001,0 110.164237999999997,32.750802,0 110.159576999999999,32.767206999999999,0 110.139612999999997,32.764952999999998,0 110.127493999999999,32.777766,0 110.130989999999997,32.788156999999998,0 110.142176000000006,32.802844,0 110.140855999999999,32.808810000000001,0 110.129203000000004,32.807516999999997,0 110.119493000000006,32.812939999999998,0 110.116152999999997,32.822535000000002,0 110.101393000000002,32.834671999999998,0 110.084069999999997,32.842970999999999,0 110.051287000000002,32.851937,0 110.036528000000004,32.861235000000001,0 110.0321,32.870949000000003,0 110.004367000000002,32.873283999999998,0 109.991083000000003,32.885872999999997,0 109.975701999999998,32.884121999999998,0 109.950998999999996,32.886705999999997,0 109.931267000000005,32.885331000000001,0 109.915963000000005,32.900959999999998,0 109.907573999999997,32.903753000000002,0 109.883803,32.901752000000002,0 109.871916999999996,32.910879000000001,0 109.857079999999996,32.910294999999998,0 109.847757999999999,32.893292000000002,0 109.827483000000001,32.890791,0 109.808372000000006,32.878953000000003,0 109.798895000000002,32.877451999999998,0 109.789884000000001,32.882537999999997,0 109.772948999999997,32.903585999999997,0 109.764325999999997,32.909295,0 109.767278000000005,32.924087,0 109.773104000000004,32.935960999999999,0 109.773336999999998,32.952205999999997,0 109.784600999999995,32.985979,0 109.787397999999996,33.000259,0 109.790661,33.038173999999998,0 109.795866000000004,33.05827,0 109.794466999999997,33.066921999999998,0 109.768055000000004,33.074534,0 109.761606999999998,33.079858000000002,0 109.746148000000005,33.083809000000002,0 109.715231000000003,33.099487000000003,0 109.7042,33.101939999999999,0 109.688040999999998,33.116616999999998,0 109.666212999999999,33.114829,0 109.633274999999998,33.117989000000001,0 109.613932000000005,33.108510000000003,0 109.601968999999997,33.108176999999998,0 109.592180999999997,33.119610000000002,0 109.576177999999999,33.110256,0 109.560331000000005,33.125638000000002,0 109.545259999999999,33.128256999999998,0 109.514032,33.140269000000004,0 109.468508999999997,33.140269000000004,0 109.450874999999996,33.145547000000001,0 109.438912000000002,33.152071999999997,0 109.472082999999998,33.181406000000003,0 109.481948000000003,33.200223000000001,0 109.498261999999997,33.207324999999997,0 109.505797000000001,33.216918,0 109.507194999999996,33.230454000000002,0 109.514264999999995,33.237760999999999,0 109.537413999999998,33.243614999999998,0 109.549766000000005,33.242328000000001,0 109.587675000000004,33.229790000000001,0 109.606863000000004,33.236058999999997,0 109.607406999999995,33.264245000000003,0 109.616339999999994,33.274121999999998,0 109.636227000000005,33.275615999999999,0 109.647801999999999,33.268146000000002,0 109.649743999999998,33.251710000000003,0 109.659221000000002,33.248513000000003,0 109.675922999999997,33.255901999999999,0 109.693012999999993,33.254325000000001,0 109.701402999999999,33.241249000000003,0 109.717872,33.233443999999999,0 109.732476000000005,33.231326000000003,0 109.762928000000002,33.235810000000001,0 109.786777000000001,33.233651000000002,0 109.813188999999994,33.236390999999998,0 109.845271999999994,33.246977999999999,0 109.863838000000001,33.244902000000003,0 109.874713999999997,33.239213999999997,0 109.916584999999998,33.229706999999998,0 109.959232999999998,33.208322000000003,0 109.973603999999995,33.203918999999999,0 109.999083999999996,33.212640999999998,0 110.012135000000001,33.208612000000002,0 110.017961,33.199599999999997,0 110.031090000000006,33.191915999999999,0 110.040412000000003,33.191251000000001,0 110.077622000000005,33.20205,0 110.114444000000006,33.203878000000003,0 110.130601999999996,33.201718,0 110.142719999999997,33.206536,0 110.165014999999997,33.209318000000003,0 110.174492999999998,33.203088999999999,0 110.185057,33.189756000000003,0 110.204401000000004,33.178955000000002,0 110.218305999999998,33.163207999999997,0 110.232365999999999,33.159135999999997,0 110.250310999999996,33.160217000000003,0 110.264294000000007,33.166491000000001,0 110.285501999999994,33.171103000000002,0 110.297308999999998,33.170563000000001,0 110.337782000000004,33.160217000000003,0 110.341744000000006,33.172764999999998,0 110.353863000000004,33.172888999999998,0 110.360854000000003,33.181198000000002,0 110.372196000000002,33.186391,0 110.376002,33.176005000000004,0 110.404201,33.175839000000003,0 110.422301000000004,33.170271999999997,0 110.450733,33.179577999999999,0 110.472173999999995,33.172556999999998,0 110.468445000000003,33.181198000000002,0 110.481807000000003,33.199100999999999,0 110.492371000000006,33.201801000000003,0 110.508995999999996,33.221485999999999,0 110.527794999999998,33.230412999999999,0 110.528727000000003,33.246687000000001,0 110.541000999999994,33.255611999999999,0 110.563918000000001,33.254863999999998,0 110.577667000000005,33.250546999999997,0 110.584969999999998,33.225472000000003,0 110.593902999999997,33.207076000000001,0 110.596467000000004,33.183025999999998,0 110.594136000000006,33.168568,0 110.601050000000001,33.154482000000002,0 110.616354000000001,33.145589000000001,0 110.632745,33.146377999999999,0 110.651077999999998,33.157516000000001,0 110.657448000000002,33.154232999999998,0 110.669566000000003,33.130169000000002,0 110.686501000000007,33.111502999999999,0 110.702504000000005,33.097158,0 110.719904999999997,33.09957,0 110.717884999999995,33.116948999999998,0 110.727829,33.133868,0 110.745540000000005,33.147042999999996,0 110.765893000000005,33.152445999999998,0 110.795102,33.149911000000003,0 110.810561000000007,33.161422000000002,0 110.814134999999993,33.152695000000001,0 110.824233000000007,33.160299999999999,0 110.817319999999995,33.177292999999999,0 110.820971,33.191625000000002,0 110.830526000000006,33.202590000000001,0 110.858647000000005,33.206659999999999,0 110.865328000000005,33.214094000000003,0 110.881795999999994,33.212059000000004,0 110.903003999999996,33.204376000000003,0 110.921648000000005,33.204002000000003,0 110.941535000000002,33.221941999999999,0 110.945963000000006,33.228668999999996,0 110.942932999999996,33.236350000000002,0 110.956450000000004,33.250714000000002,0 110.966160000000002,33.256151000000003,0 110.985037000000005,33.255445999999999,0 110.996690000000001,33.239421999999998,0 111.011139,33.234107999999999,0 111.017975000000007,33.222149999999999,0 111.024966000000006,33.219492000000002,0 111.032424000000006,33.209359999999997,0 111.046717999999998,33.202922999999998,0 111.056505999999999,33.192746,0 111.057826000000006,33.183608,0 111.045784999999995,33.170064000000004,0 111.037239999999997,33.161006,0 111.045474999999996,33.158138999999998,0 111.061865999999995,33.174011,0 111.073206999999996,33.180658000000001,0 111.088821999999993,33.182029,0 111.098532000000006,33.176918999999998,0 111.106689000000003,33.164454999999997,0 111.128207000000003,33.154440999999998,0 111.132013000000001,33.137774999999998,0 111.139238000000006,33.134366999999997,0 111.146306999999993,33.123809000000001,0 111.162542999999999,33.124265999999999,0 111.179554999999993,33.115453000000002,0 111.176991999999998,33.101191999999998,0 111.190974999999995,33.08672,0 111.192916999999994,33.071623000000002,0 111.167824999999993,33.063969,0 111.150734999999997,33.053193999999998,0 111.148249000000007,33.042417999999998,0 111.152987999999993,33.039713999999996,0 111.179866000000004,33.043958000000003,0 111.189344000000006,33.038673000000003,0 111.22166,33.042625999999998,0 111.240459000000001,33.037174999999998,0 111.240537000000003,33.019987999999998,0 111.258792,33.006461000000002,0 111.269512000000006,32.987851999999997,0 111.273629999999997,32.971862999999999,0 111.267803000000001,32.963743000000001,0 111.253120999999993,32.955787999999998,0 111.245586000000003,32.944167,0 111.242789000000002,32.930627999999999,0 111.249936000000005,32.914211999999999,0 111.246363000000002,32.888499000000003,0 111.254908,32.884039000000001,0 111.269589999999994,32.89846,0 111.280154999999993,32.904336000000001,0 111.290719999999993,32.892583000000002,0 111.289865000000006,32.865071,0 111.293515999999997,32.859400000000001,0 111.316355000000001,32.850811,0 111.331270000000004,32.841177999999999,0 111.358615,32.837007,0 111.380054999999999,32.828833000000003,0 111.385104999999996,32.821325000000002,0 111.396135999999998,32.794541000000002,0 111.405691000000004,32.782524000000002,0 111.404137000000006,32.775638000000001,0 111.410195999999999,32.769336000000003,0 111.413537000000005,32.757148000000001,0 111.422936000000007,32.750968999999998,0 111.437540999999996,32.750259999999997,0 111.447328999999996,32.754935000000003,0 111.448261000000002,32.761488999999997,0 111.462942999999996,32.765453999999998,0 111.461933000000002,32.774386,0 111.475061999999994,32.761279999999999,0 111.469157999999993,32.752806,0 111.469002000000003,32.738612000000003,0 111.456962000000004,32.726962,0 111.444455000000005,32.736691,0 111.441736000000006,32.726754,0 111.427209000000005,32.736274000000002,0 111.4255,32.732641000000001,0 111.441113999999999,32.722786999999997,0 111.464652000000001,32.722369,0 111.472654000000006,32.717775000000003,0 111.467837000000003,32.707375999999996,0 111.479877999999999,32.694678000000003,0 111.512970999999993,32.673999000000002,0 111.526566000000003,32.654192000000002,0 111.524778999999995,32.647295999999997,0 111.530216999999993,32.628320000000002,0 111.559115000000006,32.601101999999997,0 111.572475999999995,32.594118000000002,0 111.583040999999994,32.596544000000002,0 111.603705000000005,32.610258999999999,0 111.618386999999998,32.627609,0 111.634000999999998,32.635133000000003,0 111.640837000000005,32.634757,0 111.640837000000005,32.617325000000001,0 111.646429999999995,32.606203000000001,0 111.672998000000007,32.614983000000002,0 111.692108000000005,32.605910000000002,0 111.713549,32.606537000000003,0 111.729241000000002,32.593992999999998,0 111.740348999999995,32.589267,0 111.747341000000006,32.577598000000002,0 111.766839000000004,32.565175000000004,0 111.785094999999998,32.557352000000002,0 111.809175999999994,32.536681999999999,0 111.827043000000003,32.538063000000001,0 111.828209000000001,32.531283999999999,0 111.858271999999999,32.528689,0 111.862778000000006,32.513621999999998,0 111.870234999999994,32.506338999999997,0 111.889888999999997,32.503157000000002,0 111.915290999999996,32.507719999999999,0 111.932304000000002,32.515213000000003,0 111.948695000000001,32.516970000000001,0 111.956462999999999,32.512282999999996,0 111.966795000000005,32.494909999999997,0 111.975572999999997,32.471881000000003,0 111.992818999999997,32.467317000000001,0 111.990410999999995,32.457475000000002,0 112.002140999999995,32.459023999999999,0 112.007035000000002,32.451025000000001,0 112.014336999999998,32.450313000000001,0 112.033835999999994,32.463338,0 112.038107999999994,32.470081,0 112.047973999999996,32.473723999999997,0 112.064053999999999,32.474226000000002,0 112.069802999999993,32.459988000000003,0 112.065995999999998,32.444657999999997,0 112.075163000000003,32.436908000000003,0 112.086039,32.435316,0 112.081378000000001,32.42568,0 112.084406999999999,32.419688999999998,0 112.093652000000006,32.418892,0 112.108411000000004,32.404770999999997,0 112.124414000000002,32.398736,0 112.130240000000001,32.403095,0 112.137387000000004,32.390563,0 112.156886,32.377108,0 112.164499000000006,32.385323999999997,0 112.150593000000001,32.384191999999999,0 112.161390999999995,32.393455000000003,0 112.158905000000004,32.401879000000001,0 112.150903999999997,32.401040999999999,0 112.143602000000001,32.407034000000003,0 112.150205,32.411642999999998,0 112.164653999999999,32.411307999999998,0 112.172499999999999,32.405901999999998,0 112.178792000000001,32.392113999999999,0 112.172732999999994,32.385156000000002,0 112.205904000000004,32.392994000000002,0 112.229052999999993,32.385365999999998,0 112.230918000000003,32.377485,0 112.251581000000002,32.368136,0 112.255387999999996,32.359751000000003,0 112.261990999999995,32.358871000000001,0 112.288325,32.345619999999997,0 112.299511999999993,32.334926000000003,0 112.328098999999995,32.321672999999997,0 112.329808,32.338155999999998,0 112.338586000000006,32.348514000000002,0 112.351170999999994,32.350442999999999,0 112.360027000000002,32.365620999999997,0 112.368183000000002,32.367927000000002,0 112.387915000000007,32.363692,0 112.391022000000007,32.371155000000002,0 112.414171999999994,32.363188999999998,0 112.418056000000007,32.356355000000001,0 112.444856999999999,32.343943000000003,0 112.451847999999998,32.343606999999999,0 112.446642999999995,32.357444999999998,0 112.460238000000004,32.368262000000001,0 112.472745000000003,32.371741999999998,0 112.476163,32.379581000000002,0 112.495660999999998,32.374927999999997,0 112.506536999999994,32.380755000000001,0 112.521607000000003,32.383102000000001,0 112.531239999999997,32.37715,0 112.544757000000004,32.395508999999997,0 112.545222999999993,32.403849000000001,0 112.561691999999994,32.398904000000002,0 112.577849999999998,32.387963999999997,0 112.577228000000005,32.382514999999998,0 112.589035999999993,32.381300000000003,0 112.596648999999999,32.385575000000003,0 112.612030000000004,32.387042000000001,0 112.630441000000005,32.379958000000002,0 112.645511999999997,32.368471999999997,0 112.672078999999997,32.368136,0 112.685596000000004,32.357697000000002,0 112.713639999999998,32.352581000000001,0 112.716746999999998,32.357781000000003,0 112.733604,32.366208,0 112.735856999999996,32.356313,0 112.734925000000004,32.351700999999998,0 112.754113000000004,32.342852999999998,0 112.767863000000006,32.344152999999999,0 112.776330000000002,32.358367999999999,0 112.803984999999997,32.372244999999999,0 112.835601999999994,32.381635000000003,0 112.860693999999995,32.395802000000003,0 112.870481999999996,32.397855999999997,0 112.878561000000005,32.392575000000001,0 112.87724,32.379539000000001,0 112.888814999999994,32.376772000000003,0 112.902332000000001,32.388677000000001,0 112.911886999999993,32.390731000000002,0 112.948165000000003,32.388258,0 112.960361000000006,32.385323999999997,0 112.969837999999996,32.371155000000002,0 112.988094000000004,32.372329000000001,0 112.991900000000001,32.378281999999999,0 112.988637999999995,32.399574000000001,0 113.000523000000001,32.416797000000003,0 113.012563999999998,32.417133,0 113.025304000000006,32.424590999999999,0 113.050318000000004,32.417929000000001,0 113.058863000000002,32.404603000000002,0 113.078905000000006,32.394418999999999,0 113.107958999999994,32.398485000000001,0 113.118679,32.375807999999999,0 113.150217999999995,32.376269000000001,0 113.155579000000003,32.380755000000001,0 113.159695999999997,32.400748,0 113.159152000000006,32.410679999999999,0 113.172668999999999,32.421154999999999,0 113.185720000000003,32.421866999999999,0 113.211821,32.432006000000001,0 113.226502999999994,32.425471000000002,0 113.236368999999996,32.406950000000002,0 113.259518,32.390563,0 113.273190999999997,32.384779000000002,0 113.295407999999995,32.367424,0 113.298748000000003,32.353965000000002,0 113.325160999999994,32.346584999999997,0 113.333860999999999,32.337651999999999,0 113.317702999999995,32.327041000000001,0 113.320032999999995,32.318232999999999,0 113.332074000000006,32.316094,0 113.347689000000003,32.298641000000003,0 113.365167,32.294739,0 113.376664000000005,32.298389999999998,0 113.394064999999998,32.288110000000003,0 113.397949999999994,32.279254999999999,0 113.409989999999993,32.278038000000002,0 113.420478000000003,32.269519000000003,0 113.428866999999997,32.270567999999997,0 113.471048999999994,32.299145000000003,0 113.480294000000001,32.298977000000001,0 113.500258000000002,32.312696000000003,0 113.511677000000006,32.316806999999997,0 113.529854999999998,32.330815999999999,0 113.541973999999996,32.326832000000003,0 113.550053000000005,32.328761,0 113.547567000000001,32.312570000000001,0 113.550830000000005,32.302543,0 113.561549999999997,32.307367999999997,0 113.556578000000002,32.324188999999997,0 113.551295999999994,32.329264000000002,0 113.565279000000004,32.340210999999996,0 113.582989999999995,32.343062000000003,0 113.579183999999998,32.355265000000003,0 113.589594000000005,32.349477999999998,0 113.604819000000006,32.350149000000002,0 113.606061999999994,32.354007000000003,0 113.593244999999996,32.358576999999997,0 113.592389999999995,32.364488999999999,0 113.606061999999994,32.363985999999997,0 113.615849999999995,32.357655000000001,0 113.625017,32.363567000000003,0 113.624628999999999,32.379497000000001,0 113.636591999999993,32.385911,0 113.643272999999994,32.402549999999998,0 113.651195999999999,32.413445000000003,0 113.662771000000006,32.410134999999997,0 113.665412000000003,32.421993000000001,0 113.672792000000001,32.417594000000001,0 113.683823000000004,32.420233000000003,0 113.690815000000001,32.415875999999997,0 113.702156000000002,32.420191000000003,0 113.706739999999996,32.410888999999997,0 113.718547000000001,32.417216000000003,0 113.735248999999996,32.410846999999997,0 113.740764999999996,32.393120000000003,0 113.752806000000007,32.388677000000001,0 113.743871999999996,32.369478000000001,0 113.754204000000001,32.359709000000002,0 113.760340999999997,32.369185000000002,0 113.768885999999995,32.369478000000001,0 113.770673000000002,32.358618999999997,0 113.758476000000002,32.352204,0 113.753893000000005,32.342098,0 113.753893000000005,32.328215999999998,0 113.766166999999996,32.318106999999998,0 113.772769999999994,32.302543,0 113.748532999999995,32.291927999999999,0 113.743871999999996,32.283619999999999,0 113.750552999999996,32.269981000000001,0 113.749775999999997,32.260285000000003,0 113.739366000000004,32.257598999999999,0 113.740454,32.242821999999997,0 113.748378000000002,32.234802999999999,0 113.752650000000003,32.216158999999998,0 113.767021999999997,32.203727999999998,0 113.777043000000006,32.208432000000002,0 113.78349,32.18638,0 113.763758999999993,32.161676,0 113.766166999999996,32.138393999999998,0 113.750320000000002,32.116326000000001,0 113.739909999999995,32.113045999999997,0 113.736958000000001,32.121580999999999,0 113.722431999999998,32.124271,0 113.728335000000001,32.099381999999999,0 113.728491000000005,32.083191999999997,0 113.744882000000004,32.076799000000001,0 113.747444999999999,32.069775,0 113.766400000000004,32.053327000000003,0 113.781315000000006,32.048783,0 113.791258999999997,32.035992999999998,0 113.779295000000005,32.018908000000003,0 113.769896000000003,32.017014000000003,0 113.758943000000002,32.000934999999998,0 113.759409000000005,31.986453999999998,0 113.770128999999997,31.978580999999998,0 113.776110000000003,31.980433999999999,0 113.788150999999999,31.973991999999999,0 113.798483000000004,31.974118000000001,0 113.817205000000001,31.964600999999998,0 113.807338999999999,31.948893000000002,0 113.805164000000005,31.931497,0 113.81635,31.92324,0 113.832508000000004,31.918690000000002,0 113.835848999999996,31.910937000000001,0 113.835305000000005,31.892817000000001,0 113.831265000000002,31.878993000000001,0 113.838024000000004,31.869509000000001,0 113.838645,31.854669999999999,0 113.858377000000004,31.841262,0 113.867154999999997,31.845099000000001,0 113.872980999999996,31.840629,0 113.896364000000005,31.849357000000001,0 113.906540000000007,31.868539999999999,0 113.920601000000005,31.879625999999998,0 113.934738999999993,31.879456999999999,0 113.933496000000005,31.869382999999999,0 113.954937000000001,31.856356000000002,0 113.957423000000006,31.843116999999999,0 113.947012999999998,31.826502000000001,0 113.952995000000001,31.813511999999999,0 113.952606000000003,31.793854,0 113.965345999999997,31.785627000000002,0 113.972337999999993,31.771618,0 113.972493,31.763093999999999,0 113.978941000000006,31.753809,0 113.988806999999994,31.750178999999999,0 114.015839999999997,31.770268000000002,0 114.038368000000006,31.768833000000001,0 114.048079000000001,31.773347999999999,0 114.059110000000004,31.772293000000001,0 114.063771000000003,31.781914,0 114.072316000000001,31.78491,0 114.086609999999993,31.782209000000002,0 114.089872,31.794867,0 114.099193999999997,31.803388000000002,0 114.118149000000003,31.805707999999999,0 114.127937000000003,31.826333000000002,0 114.127160000000003,31.8354,0 114.134073999999998,31.842780000000001,0 114.150076999999996,31.839238000000002,0 114.163359999999997,31.841683,0 114.167011000000002,31.851044000000002,0 114.180295000000001,31.854037000000002,0 114.194976999999994,31.850158,0 114.208883,31.842738000000001,0 114.221311999999998,31.832363999999998,0 114.236459999999994,31.841936,0 114.23545,31.833376000000001,0 114.248501000000005,31.810517000000001,0 114.260309000000007,31.798705999999999,0 114.264347999999998,31.788495999999999,0 114.287497999999999,31.762038,0 114.292779999999993,31.752289000000001,0 114.313910000000007,31.751950999999998,0 114.321522999999999,31.755075000000001,0 114.350420999999997,31.755412,0 114.373804000000007,31.744268999999999,0 114.390039000000002,31.741019000000001,0 114.401691999999997,31.747140000000002,0 114.416296000000003,31.742073999999999,0 114.419171000000006,31.733167000000002,0 114.430901000000006,31.734940000000002,0 114.446592999999993,31.728058999999998,0 114.450864999999993,31.737642000000001,0 114.463372000000007,31.733758000000002,0 114.471995000000007,31.740977000000001,0 114.488851999999994,31.735700000000001,0 114.508661000000004,31.740680999999999,0 114.504311000000001,31.756425,0 114.509670999999997,31.766891999999999,0 114.521246000000005,31.766933999999999,0 114.532122000000001,31.740808000000001,0 114.545327999999998,31.746127000000001,0 114.550298999999995,31.753174999999999,0 114.549522999999994,31.765457000000001,0 114.554959999999994,31.768536999999998,0 114.572749999999999,31.762587,0 114.584479999999999,31.764106000000002,0 114.588053000000002,31.756594,0 114.581605999999994,31.742539000000001,0 114.584091999999998,31.731901000000001,0 114.579740999999999,31.724681,0 114.579120000000003,31.708172000000001,0 114.591393999999994,31.700358999999999,0 114.586111000000002,31.692546,0 114.574225999999996,31.689167000000001,0 114.570808,31.660104,0 114.559155000000004,31.656047999999998,0 114.549678,31.642485000000001,0 114.552941000000004,31.635173999999999,0 114.548280000000005,31.625115000000001,0 114.548901000000001,31.609772,0 114.553640000000001,31.59544,0 114.558689000000001,31.568928,0 114.561097000000004,31.560934,0 114.572517000000005,31.554040000000001,0 114.574924999999993,31.559539000000001,0 114.587354000000005,31.560596,0 114.595665999999994,31.576286,0 114.612056999999993,31.578485000000001,0 114.616795999999994,31.585335000000001,0 114.641732000000005,31.582163999999999,0 114.644451000000004,31.574679,0 114.652996000000002,31.572692,0 114.656958000000003,31.56288,0 114.670086999999995,31.547060999999999,0 114.678476000000003,31.544015000000002,0 114.699838999999997,31.546130000000002,0 114.696577000000005,31.525822999999999,0 114.717240000000004,31.527939,0 114.723299999999995,31.520619,0 114.739535000000004,31.527176999999998,0 114.747225999999998,31.524045999999998,0 114.757013999999998,31.52722,0 114.770996999999994,31.520534999999999,0 114.778842999999995,31.520745999999999,0 114.774027000000004,31.512452,0 114.774647999999999,31.500899,0 114.783114999999995,31.494804999999999,0 114.783038000000005,31.484604000000001,0 114.789407999999995,31.480540000000001,0 114.813023000000001,31.478846999999998,0 114.824209999999994,31.469957000000001,0 114.829802999999998,31.458907,0 114.841532999999998,31.461955,0 114.848834999999994,31.474529,0 114.869964999999993,31.479355000000002,0 114.876801,31.470549999999999,0 114.886745000000005,31.469449000000001,0 114.896377000000001,31.474360000000001,0 114.925274999999999,31.480456,0 114.936462000000006,31.469788000000001,0 114.939958000000004,31.477153999999999,0 114.968001000000001,31.496625000000002,0 114.976157999999998,31.495905,0 114.985401999999993,31.477703999999999,0 114.998296999999994,31.471608,0 115.001405000000005,31.484435000000001,0 115.010803999999993,31.488244000000002,0 115.001716000000002,31.499967999999999,0 115.010028000000005,31.504878000000001,0 115.023077999999998,31.5276,0 115.030303000000004,31.527685000000002,0 115.038460000000001,31.517022999999998,0 115.048946999999998,31.517530000000001,0 115.066270000000003,31.510505999999999,0 115.096255999999997,31.508475000000001,0 115.092838,31.519096000000001,0 115.102081999999996,31.520576999999999,0 115.113346000000007,31.528953999999999,0 115.106121999999999,31.545538000000001,0 115.111092999999997,31.552347999999999,0 115.103092000000004,31.555774,0 115.106742999999994,31.567489999999999,0 115.127251000000001,31.579077000000002,0 115.125387000000003,31.599119000000002,0 115.134863999999993,31.602416000000002,0 115.164383999999998,31.604572000000001,0 115.176890999999998,31.598865,0 115.180385999999999,31.577766,0 115.192815999999993,31.569562000000001,0 115.192971,31.564063999999998,0 115.207265000000007,31.564233000000002,0 115.212625000000003,31.555520999999999,0 115.235929999999996,31.555478000000001,0 115.23057,31.538219999999999,0 115.218217999999993,31.515288000000002,0 115.219538999999997,31.506909,0 115.212314000000006,31.490106999999998,0 115.218063000000001,31.477069,0 115.218373,31.466867000000001,0 115.212237000000002,31.456747,0 115.210526999999999,31.445442,0 115.220471000000003,31.426722000000002,0 115.232978000000003,31.427104,0 115.252554000000003,31.421682000000001,0 115.260322000000002,31.412151000000001,0 115.250456999999997,31.391773000000001,0 115.260400000000004,31.387409000000002,0 115.281374,31.399864999999998,0 115.294037000000003,31.395035,0 115.301106000000004,31.384060999999999,0 115.313535000000002,31.383424999999999,0 115.327207000000001,31.391137000000001,0 115.335986000000005,31.403382000000001,0 115.355328999999998,31.39995,0 115.373661999999996,31.405754000000002,0 115.392771999999994,31.389866000000001,0 115.383217000000002,31.375627999999999,0 115.375759000000002,31.371051000000001,0 115.382440000000003,31.356598000000002,0 115.372029999999995,31.349308000000001,0 115.399063999999996,31.342991000000001,0 115.404579999999996,31.337819,0 115.420505000000006,31.349943,0 115.442023000000006,31.346128,0 115.449635999999998,31.315856,0 115.462609,31.317509999999999,0 115.457792999999995,31.281586000000001,0 115.466414999999998,31.276326000000001,0 115.473095999999998,31.265253000000001,0 115.493993000000003,31.265931999999999,0 115.501062000000005,31.262367999999999,0 115.507587000000001,31.267925999999999,0 115.515977000000007,31.263513,0 115.530038000000005,31.249341000000001,0 115.540058999999999,31.229140000000001,0 115.539282,31.203669999999999,0 115.542467000000002,31.187025999999999,0 115.559556999999998,31.160312999999999,0 115.585735999999997,31.144171,0 115.596767,31.150161000000001,0 115.603680999999995,31.173734,0 115.629084000000006,31.184647999999999,0 115.636308,31.199975999999999,0 115.645940999999993,31.209613999999998,0 115.655263000000005,31.210972000000002,0 115.678101999999996,31.207661000000002,0 115.700862999999998,31.201122999999999,0 115.730382000000006,31.171568000000001,0 115.740559000000005,31.152964000000001,0 115.755861999999993,31.142557,0 115.764019000000005,31.118210999999999,0 115.770077999999998,31.113026000000001,0 115.781497999999999,31.113536,0 115.797888999999998,31.127856000000001,0 115.813270000000003,31.130915999999999,0 115.834943999999993,31.126327,0 115.857161000000005,31.143279,0 115.869280000000003,31.147653999999999,0 115.880077,31.141919000000001,0 115.886369999999999,31.127345999999999,0 115.887456999999998,31.109244,0 115.902760999999998,31.089224999999999,0 115.909597000000005,31.090713000000001,0 115.925754999999995,31.076813000000001,0 115.939815999999993,31.071667999999999,0 115.942223999999996,31.060699,0 115.938573000000005,31.047304,0 115.946185999999997,31.042414000000001,0 115.961100999999999,31.046879000000001,0 115.983706999999995,31.041903000000001,0 115.994038000000003,31.034587999999999,0 116.006623000000005,31.034673000000002,0 116.010041000000001,31.017319000000001,0 116.015012999999996,31.011915999999999,0 116.039405000000002,31.014894000000002,0 116.058903999999998,31.012725,0 116.060301999999993,30.994941000000001,0 116.069702000000007,30.969152999999999,0 116.071720999999997,30.956682000000001,0 116.039561000000006,30.957830999999999,0 116.034510999999995,30.951148,0 116.024722999999994,30.953617000000001,0 116.009885999999995,30.949701000000001,0 115.993416999999994,30.936758999999999,0 115.976326999999998,30.931479,0 115.970578000000003,30.920024999999999,0 115.936087000000001,30.902863,0 115.932357999999994,30.889403999999999,0 115.912782000000007,30.887571999999999,0 115.885671000000002,30.877859000000001,0 115.876891999999998,30.868998000000001,0 115.865628000000001,30.864225999999999,0 115.863918999999996,30.855277999999998,0 115.851645000000005,30.844199,0 115.848770999999999,30.828557,0 115.863764000000003,30.815769,0 115.865860999999995,30.798247,0 115.858715000000004,30.784815999999999,0 115.869512999999998,30.782471000000001,0 115.868347,30.774283,0 115.854364000000004,30.767458999999999,0 115.851568,30.756710000000002,0 115.834632999999997,30.756368999999999,0 115.822436999999994,30.750354999999999,0 115.810473000000002,30.759440000000001,0 115.792761999999996,30.759270000000001,0 115.782895999999994,30.751719999999999,0 115.776370999999997,30.728853000000001,0 115.765573000000003,30.707516999999999,0 115.767358999999999,30.694329,0 115.762542999999994,30.685621000000001,0 115.772408999999996,30.677852000000001,0 115.775361000000004,30.668844,0 115.797033999999996,30.658597,0 115.798743000000002,30.650099999999998,0 115.809929999999994,30.642583999999999,0 115.814978999999994,30.624773999999999,0 115.807832000000005,30.615546999999999,0 115.819174000000004,30.597904,0 115.824145999999999,30.596108999999998,0 115.828108,30.606148999999998,0 115.848460000000003,30.60192,0 115.857315999999997,30.589486000000001,0 115.866249999999994,30.587904999999999,0 115.879068000000004,30.578291,0 115.875572000000005,30.569358999999999,0 115.883106999999995,30.559443000000002,0 115.887767999999994,30.542515999999999,0 115.899497999999994,30.537856000000001,0 115.905169000000001,30.524602000000002,0 115.919928999999996,30.514980999999999,0 115.909751999999997,30.506771000000001,0 115.898099999999999,30.482263,0 115.900818999999998,30.469729000000001,0 115.894059999999996,30.459547000000001,0 115.894836999999995,30.452743000000002,0 115.917986999999997,30.441103999999999,0 115.920783,30.429849000000001,0 115.946185999999997,30.425183000000001,0 115.938184000000007,30.417777999999998,0 115.930959999999999,30.420475,0 115.921481999999997,30.416366,0 115.909285999999994,30.398857,0 115.900896000000003,30.397829999999999,0 115.884894000000003,30.379546999999999,0 115.896468999999996,30.356677999999999,0 115.916666000000006,30.334402999999998,0 115.914336000000006,30.324292,0 115.903771000000006,30.315808000000001,0 115.904392000000001,30.310065999999999,0 115.921870999999996,30.301280999999999,0 115.938727999999998,30.306937999999999,0 115.953799000000004,30.306380999999998,0 115.980987999999996,30.295753000000001,0 115.985337999999999,30.291038,0 115.988911000000002,30.267033999999999,0 115.994815000000003,30.255029,0 116.013381999999993,30.248940999999999,0 116.026588000000004,30.239764999999998,0 116.031715000000005,30.227028000000001,0 116.046086000000003,30.223897000000001,0 116.064341999999996,30.206911000000002,0 116.063874999999996,30.193570000000001,0 116.056028999999995,30.181041,0 116.056729000000004,30.169927999999999,0 116.063175999999999,30.151602,0 116.075062000000003,30.133531000000001,0 116.085004999999995,30.126190000000001,0 116.087723999999994,30.103304999999999,0 116.083761999999993,30.095661,0 116.084772000000001,30.075946999999999,0 116.079256999999998,30.066196000000001,0 116.079955999999996,30.057261,0 116.091685999999996,30.036207000000001,0 116.088966999999997,30.026968,0 116.078325000000007,30.010249000000002,0 116.081509999999994,29.981748,0 116.073819,29.970009999999998,0 116.077935999999994,29.956119999999999,0 116.085704000000007,29.950786999999998,0 116.104038000000003,29.926829000000001,0 116.125788999999997,29.901358999999999,0 116.134567000000004,29.877431999999999,0 116.132002999999997,29.844242999999999,0 116.135187999999999,29.819441000000001,0 116.107145000000003,29.808287,0 116.077236999999997,29.787008,0 116.049582000000001,29.761890999999999,0 115.988212000000004,29.733879000000002,0 115.96584,29.724741000000002,0 115.932669000000004,29.721119999999999,0 115.909829999999999,29.72418,0 115.837196000000006,29.748532000000001,0 115.762542999999994,29.792995999999999,0 115.706222999999994,29.837871,0 115.683072999999993,29.847774000000001,0 115.667846999999995,29.850185,0 115.611682999999999,29.841574000000001,0 115.578823,29.840669999999999,0 115.550002000000006,29.837914000000001,0 115.511627000000004,29.840281999999998,0 115.505801000000005,29.822369999999999,0 115.487390000000005,29.817848000000001,0 115.479232999999994,29.811302000000001,0 115.473951,29.786318999999999,0 115.466571000000002,29.766286000000001,0 115.472009,29.742584999999998,0 115.462919999999997,29.733188999999999,0 115.436662999999996,29.716723000000002,0 115.419805999999994,29.699607,0 115.412581000000003,29.688870999999999,0 115.378556000000003,29.667524,0 115.363252000000003,29.653506,0 115.359834000000006,29.646431,0 115.349580000000003,29.650745000000001,0 115.329305000000005,29.646128999999998,0 115.320914999999999,29.637543999999998,0 115.307010000000005,29.637284999999999,0 115.285880000000006,29.618559999999999,0 115.273994999999999,29.623608000000001,0 115.265838000000002,29.638062000000001,0 115.270032999999998,29.646431,0 115.268557000000001,29.658337,0 115.250844999999998,29.659932999999999,0 115.228705000000005,29.654281999999998,0 115.214411999999996,29.657819,0 115.188931999999994,29.657388000000001,0 115.176658000000003,29.654800000000002,0 115.155216999999993,29.658595999999999,0 115.137737999999999,29.669637000000002,0 115.131912,29.679341000000001,0 115.122202000000001,29.686197,0 115.113500999999999,29.685033000000001,0 115.106043999999997,29.673604999999998,0 115.109072999999995,29.663125000000001,0 115.120726000000005,29.654713999999998,0 115.142321999999993,29.651608,0 115.139059000000003,29.636724999999998,0 115.132300999999998,29.632324000000001,0 115.132300999999998,29.619250000000001,0 115.136418000000006,29.616747,0 115.128805,29.606779,0 115.131367999999995,29.602333999999999,0 115.120958999999999,29.595168999999999,0 115.133621000000005,29.590032999999998,0 115.160033999999996,29.598406000000001,0 115.170908999999995,29.595687000000002,0 115.172462999999993,29.589084,0 115.157781,29.584852999999999,0 115.153508000000002,29.575745000000001,0 115.157314999999997,29.563915999999999,0 115.152575999999996,29.550013,0 115.153274999999994,29.528939000000001,0 115.157314999999997,29.518919,0 115.153974000000005,29.510366000000001,0 115.124688000000006,29.509717999999999,0 115.100916999999995,29.520517000000002,0 115.086623000000003,29.522936000000001,0 115.099518000000003,29.550229000000002,0 115.087554999999995,29.560030000000001,0 115.072096000000002,29.557784999999999,0 115.057259000000002,29.55105,0 115.046772000000004,29.551870000000001,0 115.034265000000005,29.546299999999999,0 115.018961000000004,29.554978999999999,0 115.012823999999995,29.564477,0 115.000473,29.572119000000001,0 114.995267999999996,29.563528000000002,0 114.980275000000006,29.564305000000001,0 114.970564999999993,29.552344999999999,0 114.956891999999996,29.553553999999998,0 114.947804000000005,29.542888000000001,0 114.948657999999995,29.525310999999999,0 114.966679999999997,29.522200999999999,0 114.968699999999998,29.515722,0 114.957592000000005,29.500516999999999,0 114.939257999999995,29.494295999999999,0 114.925507999999994,29.498832,0 114.923333,29.505873999999999,0 114.926674000000006,29.519739000000001,0 114.918982999999997,29.510755,0 114.900571999999997,29.505960000000002,0 114.908185000000003,29.520776000000001,0 114.901194000000004,29.530018999999999,0 114.897154,29.527082,0 114.885035999999999,29.495073000000001,0 114.875557999999998,29.490321000000002,0 114.871830000000003,29.482544000000001,0 114.860488000000004,29.476061999999999,0 114.864838000000006,29.469839,0 114.876256999999995,29.468240000000002,0 114.884180999999998,29.437768999999999,0 114.888531,29.436126999999999,0 114.904223000000002,29.447841,0 114.918051000000006,29.454497,0 114.907252999999997,29.462406000000001,0 114.905232999999996,29.472906999999999,0 114.923177999999993,29.484919999999999,0 114.935762999999994,29.486432000000001,0 114.934907999999993,29.475327,0 114.942909,29.46837,0 114.941822000000002,29.457566,0 114.931101999999996,29.445982000000001,0 114.930869000000001,29.422422000000001,0 114.926674000000006,29.416153000000001,0 114.913002000000006,29.42173,0 114.894824,29.397040000000001,0 114.876957000000004,29.391590999999998,0 114.877810999999994,29.399376,0 114.866314000000003,29.404565000000002,0 114.831590000000006,29.396694,0 114.811936000000003,29.383288,0 114.805177,29.381730000000001,0 114.784591000000006,29.386185000000001,0 114.768822,29.378833,0 114.759966000000006,29.363130999999999,0 114.740701000000001,29.366764,0 114.740701000000001,29.386444999999998,0 114.732776999999999,29.394228999999999,0 114.719026999999997,29.397257,0 114.688963999999999,29.391894000000001,0 114.673271999999997,29.396218999999999,0 114.654860999999997,29.388434,0 114.648491000000007,29.382033,0 114.621846000000005,29.380044000000002,0 114.592714000000001,29.354565000000001,0 114.556747000000001,29.344051,0 114.548046999999997,29.337603999999999,0 114.519615000000002,29.325400999999999,0 114.502523999999994,29.323799999999999,0 114.497086999999993,29.327608000000001,0 114.465935999999999,29.324189000000001,0 114.457234999999997,29.325531000000002,0 114.455214999999995,29.335916999999998,0 114.443019000000007,29.339594999999999,0 114.449854999999999,29.342970000000001,0 114.443873999999994,29.349112999999999,0 114.439989999999995,29.341584999999998,0 114.428803000000002,29.337864,0 114.398894999999996,29.336912000000002,0 114.375822999999997,29.322890999999998,0 114.344828000000007,29.325227999999999,0 114.333951999999996,29.337864,0 114.323775999999995,29.357809,0 114.306841000000006,29.365293000000001,0 114.266368,29.349761999999998,0 114.258988000000002,29.343965000000001,0 114.262251000000006,29.321895999999999,0 114.251919000000001,29.31034,0 114.251686000000007,29.301639999999999,0 114.261162999999996,29.291077999999999,0 114.253628000000006,29.281683000000001,0 114.253162000000003,29.269517,0 114.246325999999996,29.265229999999999,0 114.253162000000003,29.250333999999999,0 114.252307000000002,29.234828,0 114.238479999999996,29.232706,0 114.224341999999993,29.235434999999999,0 114.208416999999997,29.226078000000001,0 114.192413999999999,29.223913,0 114.179750999999996,29.214642000000001,0 114.165225000000007,29.217155000000002,0 114.149221999999995,29.213559,0 114.121256000000002,29.211306,0 114.093289999999996,29.211739000000001,0 114.063226999999998,29.204937000000001,0 114.059809000000001,29.186174999999999,0 114.052041000000003,29.175818,0 114.041087000000005,29.170442999999999,0 114.039223000000007,29.158003999999998,0 114.021433000000002,29.144175000000001,0 114.012888000000004,29.142008000000001,0 113.987174999999993,29.126225999999999,0 113.973348000000001,29.102157999999999,0 113.962084000000004,29.101855,0 113.952606000000003,29.092746999999999,0 113.951907000000006,29.064288999999999,0 113.942041000000003,29.047324,0 113.933340999999999,29.045978999999999,0 113.914851999999996,29.036301000000002,0 113.911666999999994,29.030746000000001,0 113.895353999999998,29.029488000000001,0 113.876554999999996,29.038211,0 113.876088999999993,29.056999999999999,0 113.881837000000004,29.065460999999999,0 113.868630999999993,29.065808000000001,0 113.854881000000006,29.058909,0 113.831575999999998,29.069322,0 113.837013999999996,29.086804000000001,0 113.827147999999994,29.102461999999999,0 113.815961999999999,29.105324,0 113.775566999999995,29.095219,0 113.766478000000006,29.089233,0 113.765467999999998,29.079906999999999,0 113.749387999999996,29.060905000000002,0 113.741230999999999,29.058128,0 113.734161999999998,29.064463,0 113.726237999999995,29.083638000000001,0 113.732063999999994,29.105063999999999,0 113.722741999999997,29.104717000000001,0 113.709536,29.092616,0 113.706350999999998,29.082899999999999,0 113.696330000000003,29.077650999999999,0 113.685609999999997,29.082293,0 113.690580999999995,29.114518,0 113.682969,29.132209,0 113.672636999999995,29.136198,0 113.667975999999996,29.143742,0 113.670383999999999,29.154363,0 113.661994000000007,29.167279000000001,0 113.671937999999997,29.179458,0 113.680327000000005,29.182448000000001,0 113.693765999999997,29.201817999999999,0 113.690115000000006,29.230799999999999,0 113.681881000000004,29.233961999999998,0 113.665801000000002,29.232229,0 113.660051999999993,29.224519000000001,0 113.646457999999996,29.231406,0 113.635271000000003,29.250637000000001,0 113.609635999999995,29.251546000000001,0 113.606916999999996,29.267655000000001,0 113.613597999999996,29.272417999999998,0 113.633018000000007,29.318390000000001,0 113.643428,29.326872999999999,0 113.661062000000001,29.333449999999999,0 113.665955999999994,29.347037,0 113.660983999999999,29.368192000000001,0 113.672404,29.386617999999999,0 113.691901999999999,29.392716,0 113.710701,29.393581000000001,0 113.723286000000002,29.389602,0 113.731831,29.394791999999999,0 113.741697000000002,29.412866999999999,0 113.736958000000001,29.426269999999999,0 113.754514999999998,29.441400000000002,0 113.754902999999999,29.447582000000001,0 113.740532000000002,29.465388000000001,0 113.742317999999997,29.468197,0 113.723830000000007,29.473555999999999,0 113.707283000000004,29.485741000000001,0 113.688872000000003,29.509588999999998,0 113.679162000000005,29.513476000000001,0 113.672481000000005,29.510539000000001,0 113.643428,29.507860999999998,0 113.635349000000005,29.510020999999998,0 113.630921000000001,29.522978999999999,0 113.654459000000003,29.530882999999999,0 113.657255000000006,29.537015,0 113.668986000000004,29.535720000000001,0 113.680792999999994,29.539346999999999,0 113.681569999999994,29.548631,0 113.691823999999997,29.547941000000002,0 113.701611999999997,29.555540000000001,0 113.709303000000006,29.554331000000001,0 113.711245000000005,29.569399000000001,0 113.735637999999994,29.576478999999999,0 113.740998000000005,29.591543999999999,0 113.732840999999993,29.593744999999998,0 113.722898000000001,29.610835999999999,0 113.708371,29.608979999999999,0 113.703788000000003,29.619292999999999,0 113.702777999999995,29.634740000000001,0 113.692446000000004,29.633575,0 113.688096000000002,29.640823000000001,0 113.679239999999993,29.640779999999999,0 113.671627000000001,29.658940999999999,0 113.664790999999994,29.683308,0 113.652671999999995,29.683567,0 113.637834999999995,29.669853,0 113.614296999999993,29.670931,0 113.606373000000005,29.666791,0 113.599770000000007,29.670931,0 113.575532999999993,29.674942000000001,0 113.547179,29.675373,0 113.538399999999996,29.683653,0 113.540109000000001,29.699649999999998,0 113.558442999999997,29.727067999999999,0 113.561161999999996,29.739051,0 113.555879000000004,29.763656999999998,0 113.550984999999997,29.768180999999998,0 113.559995999999998,29.783173999999999,0 113.567841999999999,29.786535000000001,0 113.561860999999993,29.791575000000002,0 113.569395999999998,29.804583000000001,0 113.565667000000005,29.810396999999998,0 113.577241999999998,29.818536999999999,0 113.580893000000003,29.835674999999998,0 113.571493000000004,29.848935999999998,0 113.517892000000003,29.812422000000002,0 113.493110999999999,29.786577999999999,0 113.456677999999997,29.759219000000002,0 113.438654999999997,29.751635,0 113.401756000000006,29.724050999999999,0 113.377364,29.703185999999999,0 113.326248000000007,29.647811999999998,0 113.298049000000006,29.613855999999998,0 113.277308000000005,29.595126,0 113.272257999999994,29.580839000000001,0 113.256643999999994,29.566507000000001,0 113.222386,29.543709,0 113.182068000000001,29.485568000000001,0 113.155733999999995,29.457134,0 113.145324000000002,29.449310000000001,0 113.132583999999994,29.457350000000002,0 113.113551999999999,29.456700999999999,0 113.099957000000003,29.459682999999998,0 113.102676000000002,29.443042999999999,0 113.090558000000001,29.430765999999998,0 113.080770000000001,29.434094999999999,0 113.076031,29.450175000000002,0 113.072767999999996,29.482759999999999,0 113.064689000000001,29.512440000000002,0 113.05762,29.522461,0 113.034392999999994,29.523584,0 113.018778999999995,29.516197999999999,0 112.990347,29.497968,0 112.973333999999994,29.472389,0 112.964089999999999,29.468067999999999,0 112.950185000000005,29.472906999999999,0 112.943270999999996,29.493907,0 112.937366999999995,29.527125000000002,0 112.927113000000006,29.556187999999999,0 112.924004999999994,29.571643999999999,0 112.911809000000005,29.606864999999999,0 112.912042,29.616143000000001,0 112.945368000000002,29.64751,0 112.965410000000006,29.658940999999999,0 112.976208,29.672139000000001,0 113.004951000000005,29.693743000000001,0 113.015204999999995,29.710902999999998,0 113.025070999999997,29.748660999999998,0 113.030896999999996,29.762277999999998,0 113.026081000000005,29.772791999999999,0 113.011786999999998,29.767664,0 113.003474999999995,29.755254999999998,0 112.979237999999995,29.737628000000001,0 112.962924999999998,29.706807000000001,0 112.959350999999998,29.696373999999999,0 112.944823999999997,29.682748,0 112.935192000000001,29.681927999999999,0 112.927035000000004,29.692148,0 112.927346,29.708403000000001,0 112.931308000000001,29.726206000000001,0 112.930685999999994,29.752237999999998,0 112.923772,29.766544,0 112.894407999999999,29.783778000000002,0 112.880657999999997,29.786878999999999,0 112.861626000000001,29.783131000000001,0 112.843603000000002,29.771111000000001,0 112.815404999999998,29.746635999999999,0 112.793964000000003,29.735904000000001,0 112.806083000000001,29.726077,0 112.791788999999994,29.713747999999999,0</coordinates></LinearRing></outerBoundaryIs><innerBoundaryIs><LinearRing><coordinates>112.919655000000006,29.799672999999999,0 112.901167000000001,29.803162,0 112.886561999999998,29.796441999999999,0 112.902021000000005,29.791273,0 112.929366000000002,29.774083999999998,0 112.937911,29.766587000000001,0 112.939620000000005,29.779986000000001,0 112.933792999999994,29.789292,0 112.919655000000006,29.799672999999999,0</coordinates></LinearRing></innerBoundaryIs><innerBoundaryIs><LinearRing><coordinates>112.734148000000005,32.356774000000001,0 112.730885000000001,32.363104999999997,0 112.724126999999996,32.358493000000003,0 112.734148000000005,32.356774000000001,0</coordinates></LinearRing></innerBoundaryIs><innerBoundaryIs><LinearRing><coordinates>111.035996999999995,33.187969000000002,0 111.030482000000006,33.187719999999999,0 111.015799999999999,33.174053000000001,0 111.033900000000003,33.178041,0 111.035996999999995,33.187969000000002,0</coordinates></LinearRing></innerBoundaryIs></Polygon><Polygon><outerBoundaryIs><LinearRing><coordinates>113.768186999999998,32.284039,0 113.769974000000005,32.275981999999999,0 113.762438000000003,32.275311000000002,0 113.760262999999995,32.268217999999997,0 113.754048999999995,32.288277999999998,0 113.758476000000002,32.291927999999999,0 113.768186999999998,32.284039,0</coordinates></LinearRing></outerBoundaryIs></Polygon></MultiGeometry></Placemark>
</Document>
</kml>