<?xml version="1.0" encoding="UTF-8"?>
<kml xmlns="http://www.opengis.net/kml/2.2">
  <Document>
    <name>潜江市</name>
    <Placemark>
      <name>潜江市</name>
      <Polygon><outerBoundaryIs><LinearRing><coordinates>113.024993000000,30.182929000000,0 113.028256000000,30.171944000000,0 113.015516000000,30.163405000000,0 113.020022000000,30.147825000000,0 113.001999000000,30.135849000000,0 112.989259000000,30.132243000000,0 112.977451000000,30.138124000000,0 112.963468000000,30.134089000000,0 112.946689000000,30.143404000000,0 112.945446000000,30.158727000000,0 112.923384000000,30.164821000000,0 112.904352000000,30.163362000000,0 112.892855000000,30.171258000000,0 112.881202000000,30.169370000000,0 112.880736000000,30.180741000000,0 112.869938000000,30.189279000000,0 112.853314000000,30.179625000000,0 112.844225000000,30.164864000000,0 112.835991000000,30.160701000000,0 112.817347000000,30.163362000000,0 112.810433000000,30.152246000000,0 112.818900000000,30.131170000000,0 112.818667000000,30.122455000000,0 112.810511000000,30.108844000000,0 112.792799000000,30.108973000000,0 112.788992000000,30.102832000000,0 112.794119000000,30.096777000000,0 112.809734000000,30.089605000000,0 112.817036000000,30.078309000000,0 112.740829000000,30.078309000000,0 112.739974000000,30.088918000000,0 112.708280000000,30.088231000000,0 112.699812000000,30.092826000000,0 112.684276000000,30.092569000000,0 112.670137000000,30.102231000000,0 112.649551000000,30.105065000000,0 112.632849000000,30.114039000000,0 112.622052000000,30.116272000000,0 112.603563000000,30.115156000000,0 112.590435000000,30.117431000000,0 112.583288000000,30.127435000000,0 112.597970000000,30.146709000000,0 112.598436000000,30.159542000000,0 112.592687000000,30.171558000000,0 112.580336000000,30.175463000000,0 112.575286000000,30.185632000000,0 112.575209000000,30.205367000000,0 112.580413000000,30.209485000000,0 112.570392000000,30.230759000000,0 112.545844000000,30.260046000000,0 112.527667000000,30.274879000000,0 112.521452000000,30.287652000000,0 112.516869000000,30.316494000000,0 112.520908000000,30.329733000000,0 112.521219000000,30.350638000000,0 112.512052000000,30.356592000000,0 112.502342000000,30.373894000000,0 112.513062000000,30.379632000000,0 112.527900000000,30.394447000000,0 112.533104000000,30.408789000000,0 112.527045000000,30.423856000000,0 112.535435000000,30.437381000000,0 112.545301000000,30.441489000000,0 112.568295000000,30.443158000000,0 112.578238000000,30.451160000000,0 112.582822000000,30.471569000000,0 112.581501000000,30.482734000000,0 112.569926000000,30.485685000000,0 112.568217000000,30.494881000000,0 112.572257000000,30.510278000000,0 112.579170000000,30.509722000000,0 112.579170000000,30.521994000000,0 112.584220000000,30.526997000000,0 112.597581000000,30.515152000000,0 112.597271000000,30.503692000000,0 112.612030000000,30.509294000000,0 112.621585000000,30.523320000000,0 112.616614000000,30.534693000000,0 112.603408000000,30.550595000000,0 112.610477000000,30.562820000000,0 112.625780000000,30.567479000000,0 112.625547000000,30.584487000000,0 112.638210000000,30.599143000000,0 112.636967000000,30.605038000000,0 112.623761000000,30.612600000000,0 112.622906000000,30.619007000000,0 112.632849000000,30.620161000000,0 112.638598000000,30.625372000000,0 112.649396000000,30.623279000000,0 112.651649000000,30.633701000000,0 112.663457000000,30.639039000000,0 112.660971000000,30.628960000000,0 112.669982000000,30.630369000000,0 112.670914000000,30.639338000000,0 112.681712000000,30.638142000000,0 112.688160000000,30.644634000000,0 112.710222000000,30.633829000000,0 112.717602000000,30.634000000000,0 112.711620000000,30.629216000000,0 112.689713000000,30.622382000000,0 112.682334000000,30.616444000000,0 112.676119000000,30.599228000000,0 112.677206000000,30.584102000000,0 112.684120000000,30.572735000000,0 112.702764000000,30.553673000000,0 112.711309000000,30.554143000000,0 112.722573000000,30.568932000000,0 112.738421000000,30.574017000000,0 112.765299000000,30.569103000000,0 112.785652000000,30.575983000000,0 112.791401000000,30.573462000000,0 112.800256000000,30.554485000000,0 112.805617000000,30.532213000000,0 112.818512000000,30.511475000000,0 112.833893000000,30.500313000000,0 112.871647000000,30.491545000000,0 112.884931000000,30.504889000000,0 112.884776000000,30.518103000000,0 112.875997000000,30.538155000000,0 112.877007000000,30.549313000000,0 112.883222000000,30.559358000000,0 112.897438000000,30.571453000000,0 112.908857000000,30.574445000000,0 112.938299000000,30.558888000000,0 112.950495000000,30.530588000000,0 112.954535000000,30.525714000000,0 112.943426000000,30.512886000000,0 112.944669000000,30.499543000000,0 112.953836000000,30.485557000000,0 112.951117000000,30.477643000000,0 112.961604000000,30.473836000000,0 112.968207000000,30.479953000000,0 112.977917000000,30.472039000000,0 112.979393000000,30.472296000000,0 112.995707000000,30.474863000000,0 112.997960000000,30.461215000000,0 112.989181000000,30.459161000000,0 112.980636000000,30.447181000000,0 112.990580000000,30.436268000000,0 112.992522000000,30.427452000000,0 112.984676000000,30.426253000000,0 112.985453000000,30.417778000000,0 112.980636000000,30.412599000000,0 112.957564000000,30.380874000000,0 112.960283000000,30.372781000000,0 112.973101000000,30.355821000000,0 112.984987000000,30.344170000000,0 112.976131000000,30.330504000000,0 112.984054000000,30.309723000000,0 113.000912000000,30.304667000000,0 113.010855000000,30.290438000000,0 113.008292000000,30.273593000000,0 113.011943000000,30.261503000000,0 113.007049000000,30.260174000000,0 113.002621000000,30.232389000000,0 113.006039000000,30.213946000000,0 113.013652000000,30.220594000000,0 113.021109000000,30.195800000000,0 113.029266000000,30.195843000000,0 113.032684000000,30.191639000000,0 113.033616000000,30.188979000000,0 113.024993000000,30.182929000000,0</coordinates></LinearRing></outerBoundaryIs></Polygon>
    </Placemark>
  </Document>
</kml>
