<?xml version="1.0" encoding="UTF-8"?>
<kml xmlns="http://www.opengis.net/kml/2.2">
<Document>
<name>黄冈市</name>
<Placemark><name>黄冈市</name><MultiGeometry><Polygon><outerBoundaryIs><LinearRing><coordinates>115.080174999999997,30.240065000000001,0 115.079786999999996,30.259231,0 115.086545000000001,30.281094,0 115.088643000000005,30.296095999999999,0 115.082739000000004,30.329819000000001,0 115.071009000000004,30.366741999999999,0 115.056016,30.388667000000002,0 115.037760000000006,30.401126000000001,0 115.018416999999999,30.404679000000002,0 114.979186999999996,30.400998000000001,0 114.917428999999998,30.407933,0 114.892493000000002,30.413712,0 114.863749999999996,30.427537000000001,0 114.846115999999995,30.44641,0 114.839202999999998,30.459289999999999,0 114.835706999999999,30.474349,0 114.835474000000005,30.493383999999999,0 114.840135000000004,30.527253000000002,0 114.839590999999999,30.561495000000001,0 114.836017999999996,30.580513,0 114.828793000000005,30.596494,0 114.808672999999999,30.615290999999999,0 114.791737999999995,30.616828999999999,0 114.803235000000001,30.621485,0 114.851010000000002,30.628191000000001,0 114.859555999999998,30.636348999999999,0 114.855283,30.642669000000001,0 114.848135999999997,30.641045999999999,0 114.840213000000006,30.658383000000001,0 114.830813000000006,30.668374,0 114.815586999999994,30.659707000000001,0 114.805954,30.671576000000002,0 114.812790000000007,30.685578,0 114.795467000000002,30.708285,0 114.791427999999996,30.718782999999998,0 114.798730000000006,30.732009999999999,0 114.811003999999997,30.72625,0 114.829414999999997,30.735295000000001,0 114.848213999999999,30.741695,0 114.875557999999998,30.764516,0 114.877966000000001,30.776458000000002,0 114.875946999999996,30.793386999999999,0 114.883403999999999,30.797308999999998,0 114.900105999999994,30.793983999999998,0 114.900728000000001,30.788568000000001,0 114.917662000000007,30.783450999999999,0 114.924886999999998,30.791297,0 114.933897999999999,30.792918,0 114.952230999999998,30.774367999999999,0 114.958134999999999,30.788654000000001,0 114.946949000000004,30.801147,0 114.970099000000005,30.810866999999998,0 114.972195999999997,30.805665999999999,0 114.983847999999995,30.815769,0 114.989751999999996,30.808778,0 114.993247999999994,30.824380000000001,0 115.000861,30.834523999999998,0 114.992704000000003,30.843602000000001,0 114.999385000000004,30.857537000000001,0 115.010570999999999,30.852209999999999,0 115.011270999999994,30.858644000000002,0 115.029914000000005,30.857579000000001,0 115.034419999999997,30.846841000000001,0 115.056326999999996,30.855831999999999,0 115.051899000000006,30.860136000000001,0 115.062152999999995,30.869083,0 115.081650999999994,30.878029999999999,0 115.079398999999995,30.890979999999999,0 115.057025999999993,30.896218999999999,0 115.059821999999997,30.903245999999999,0 115.054540000000003,30.908783,0 115.036828,30.909548999999998,0 115.028283000000002,30.916575999999999,0 115.035895999999994,30.926922999999999,0 115.009562000000003,30.926113999999998,0 114.990528999999995,30.945146000000001,0 114.986800000000002,30.957021999999998,0 114.994102999999996,30.965067000000001,0 114.983072000000007,30.971748999999999,0 114.983847999999995,30.979665000000001,0 114.991228000000007,30.981963,0 114.988975999999994,30.99643,0 114.982916000000003,31.002386999999999,0 114.985479999999995,31.017658999999998,0 114.980663000000007,31.025231000000002,0 114.971575000000001,31.021148,0 114.977867000000003,31.006131,0 114.969088999999997,30.993919999999999,0 114.964661000000007,30.985878,0 114.954483999999994,30.990558,0 114.957358999999997,31.000004000000001,0 114.942753999999994,30.993621999999998,0 114.937860000000001,31.001833999999999,0 114.931877999999998,30.994855999999999,0 114.921469000000002,31.014341000000002,0 114.905698999999998,31.005748000000001,0 114.883482000000001,31.006471000000001,0 114.863906,30.991026000000002,0 114.855204999999998,30.991367,0 114.855515999999994,30.984175,0 114.870508999999998,30.980174999999999,0 114.876256999999995,30.968896999999998,0 114.862352000000001,30.945699000000001,0 114.843008999999995,30.944804999999999,0 114.841300000000004,30.949573000000001,0 114.825608000000003,30.948806999999999,0 114.825452999999996,30.956426,0 114.818151,30.956256,0 114.808829000000003,30.974174999999999,0 114.807119999999998,30.993621999999998,0 114.795311999999996,30.988899,0 114.798496999999998,31.000855000000001,0 114.778765000000007,30.986643000000001,0 114.777987999999993,30.978515999999999,0 114.767966999999999,30.960470000000001,0 114.762996000000001,30.966386,0 114.764471999999998,30.979196000000002,0 114.770219999999995,30.985621999999999,0 114.760743000000005,30.987154,0 114.757868999999999,30.995069000000001,0 114.750566000000006,30.994005000000001,0 114.730524000000003,30.980048,0 114.713588999999999,30.980557999999998,0 114.702481000000006,30.973792,0 114.704111999999995,30.957830999999999,0 114.701160000000002,30.953105999999998,0 114.708617000000004,30.939909,0 114.693624999999997,30.947614999999999,0 114.682593999999995,30.948678999999998,0 114.655405000000002,30.932245999999999,0 114.650744000000003,30.941867999999999,0 114.642975000000007,30.933395000000001,0 114.628603999999996,30.927945000000001,0 114.615942000000004,30.927264000000001,0 114.614232999999999,30.940079000000001,0 114.608562000000006,30.944165999999999,0 114.604366999999996,30.960554999999999,0 114.576245999999998,30.969875999999999,0 114.559932000000003,30.984175,0 114.551775000000006,30.998004000000002,0 114.544006999999993,30.990814,0 114.540977999999996,31.000132000000001,0 114.525285999999994,31.012640000000001,0 114.512157000000002,31.013490000000001,0 114.500427000000002,31.033439999999999,0 114.504855000000006,31.045007999999999,0 114.515574999999998,31.050833999999998,0 114.515653,31.063675,0 114.534064000000001,31.094369,0 114.528548000000001,31.108224,0 114.534530000000004,31.117021000000001,0 114.527615999999995,31.122375000000002,0 114.525673999999995,31.135462,0 114.518139000000005,31.144977999999998,0 114.493590999999995,31.149184000000002,0 114.486521999999994,31.159761,0 114.471217999999993,31.170166999999999,0 114.461584999999999,31.168552999999999,0 114.459176999999997,31.183077000000001,0 114.472228000000001,31.183883999999999,0 114.472306000000003,31.190932,0 114.452730000000003,31.195943,0 114.454982000000001,31.204052000000001,0 114.434785000000005,31.206047000000002,0 114.424453,31.211779,0 114.405887000000007,31.229564,0 114.402236000000002,31.249341000000001,0 114.411867999999998,31.258718999999999,0 114.440066999999999,31.307967999999999,0 114.441232999999997,31.327432000000002,0 114.437580999999994,31.336334999999998,0 114.440999000000005,31.342143,0 114.429113999999998,31.352402000000001,0 114.428182000000007,31.361090999999998,0 114.436959999999999,31.381307,0 114.450321000000002,31.387492999999999,0 114.454361000000006,31.398593999999999,0 114.450942999999995,31.414480999999999,0 114.465469999999996,31.406347,0 114.477821000000006,31.405287999999999,0 114.481705000000005,31.409271,0 114.481705000000005,31.440487000000001,0 114.489706999999996,31.463861000000001,0 114.512001999999995,31.461531999999998,0 114.512311999999994,31.479185999999999,0 114.503690000000006,31.499333,0 114.503067999999999,31.514018,0 114.510992000000002,31.524258,0 114.513788000000005,31.536147,0 114.521246000000005,31.541815,0 114.519769999999994,31.557466000000002,0 114.527849000000003,31.550276,0 114.542064999999994,31.549049,0 114.551698000000002,31.553279,0 114.558689000000001,31.568928,0 114.561097000000004,31.560934,0 114.572517000000005,31.554040000000001,0 114.574924999999993,31.559539000000001,0 114.587354000000005,31.560596,0 114.595665999999994,31.576286,0 114.612056999999993,31.578485000000001,0 114.616795999999994,31.585335000000001,0 114.641732000000005,31.582163999999999,0 114.644451000000004,31.574679,0 114.652996000000002,31.572692,0 114.656958000000003,31.56288,0 114.670086999999995,31.547060999999999,0 114.678476000000003,31.544015000000002,0 114.699838999999997,31.546130000000002,0 114.696577000000005,31.525822999999999,0 114.717240000000004,31.527939,0 114.723299999999995,31.520619,0 114.739535000000004,31.527176999999998,0 114.747225999999998,31.524045999999998,0 114.757013999999998,31.52722,0 114.770996999999994,31.520534999999999,0 114.778842999999995,31.520745999999999,0 114.774027000000004,31.512452,0 114.774647999999999,31.500899,0 114.783114999999995,31.494804999999999,0 114.783038000000005,31.484604000000001,0 114.789407999999995,31.480540000000001,0 114.813023000000001,31.478846999999998,0 114.824209999999994,31.469957000000001,0 114.829802999999998,31.458907,0 114.841532999999998,31.461955,0 114.848834999999994,31.474529,0 114.869964999999993,31.479355000000002,0 114.876801,31.470549999999999,0 114.886745000000005,31.469449000000001,0 114.896377000000001,31.474360000000001,0 114.925274999999999,31.480456,0 114.936462000000006,31.469788000000001,0 114.939958000000004,31.477153999999999,0 114.968001000000001,31.496625000000002,0 114.976157999999998,31.495905,0 114.985401999999993,31.477703999999999,0 114.998296999999994,31.471608,0 115.001405000000005,31.484435000000001,0 115.010803999999993,31.488244000000002,0 115.001716000000002,31.499967999999999,0 115.010028000000005,31.504878000000001,0 115.023077999999998,31.5276,0 115.030303000000004,31.527685000000002,0 115.038460000000001,31.517022999999998,0 115.048946999999998,31.517530000000001,0 115.066270000000003,31.510505999999999,0 115.096255999999997,31.508475000000001,0 115.092838,31.519096000000001,0 115.102081999999996,31.520576999999999,0 115.113346000000007,31.528953999999999,0 115.106121999999999,31.545538000000001,0 115.111092999999997,31.552347999999999,0 115.103092000000004,31.555774,0 115.106742999999994,31.567489999999999,0 115.127251000000001,31.579077000000002,0 115.125387000000003,31.599119000000002,0 115.134863999999993,31.602416000000002,0 115.164383999999998,31.604572000000001,0 115.176890999999998,31.598865,0 115.180385999999999,31.577766,0 115.192815999999993,31.569562000000001,0 115.192971,31.564063999999998,0 115.207265000000007,31.564233000000002,0 115.212625000000003,31.555520999999999,0 115.235929999999996,31.555478000000001,0 115.23057,31.538219999999999,0 115.218217999999993,31.515288000000002,0 115.219538999999997,31.506909,0 115.212314000000006,31.490106999999998,0 115.218063000000001,31.477069,0 115.218373,31.466867000000001,0 115.212237000000002,31.456747,0 115.210526999999999,31.445442,0 115.220471000000003,31.426722000000002,0 115.232978000000003,31.427104,0 115.252554000000003,31.421682000000001,0 115.260322000000002,31.412151000000001,0 115.250456999999997,31.391773000000001,0 115.260400000000004,31.387409000000002,0 115.281374,31.399864999999998,0 115.294037000000003,31.395035,0 115.301106000000004,31.384060999999999,0 115.313535000000002,31.383424999999999,0 115.327207000000001,31.391137000000001,0 115.335986000000005,31.403382000000001,0 115.355328999999998,31.39995,0 115.373661999999996,31.405754000000002,0 115.392771999999994,31.389866000000001,0 115.383217000000002,31.375627999999999,0 115.375759000000002,31.371051000000001,0 115.382440000000003,31.356598000000002,0 115.372029999999995,31.349308000000001,0 115.399063999999996,31.342991000000001,0 115.404579999999996,31.337819,0 115.420505000000006,31.349943,0 115.442023000000006,31.346128,0 115.449635999999998,31.315856,0 115.462609,31.317509999999999,0 115.457792999999995,31.281586000000001,0 115.466414999999998,31.276326000000001,0 115.473095999999998,31.265253000000001,0 115.493993000000003,31.265931999999999,0 115.501062000000005,31.262367999999999,0 115.507587000000001,31.267925999999999,0 115.515977000000007,31.263513,0 115.530038000000005,31.249341000000001,0 115.540058999999999,31.229140000000001,0 115.539282,31.203669999999999,0 115.542467000000002,31.187025999999999,0 115.559556999999998,31.160312999999999,0 115.585735999999997,31.144171,0 115.596767,31.150161000000001,0 115.603680999999995,31.173734,0 115.629084000000006,31.184647999999999,0 115.636308,31.199975999999999,0 115.645940999999993,31.209613999999998,0 115.655263000000005,31.210972000000002,0 115.678101999999996,31.207661000000002,0 115.700862999999998,31.201122999999999,0 115.730382000000006,31.171568000000001,0 115.740559000000005,31.152964000000001,0 115.755861999999993,31.142557,0 115.764019000000005,31.118210999999999,0 115.770077999999998,31.113026000000001,0 115.781497999999999,31.113536,0 115.797888999999998,31.127856000000001,0 115.813270000000003,31.130915999999999,0 115.834943999999993,31.126327,0 115.857161000000005,31.143279,0 115.869280000000003,31.147653999999999,0 115.880077,31.141919000000001,0 115.886369999999999,31.127345999999999,0 115.887456999999998,31.109244,0 115.902760999999998,31.089224999999999,0 115.909597000000005,31.090713000000001,0 115.925754999999995,31.076813000000001,0 115.939815999999993,31.071667999999999,0 115.942223999999996,31.060699,0 115.938573000000005,31.047304,0 115.946185999999997,31.042414000000001,0 115.961100999999999,31.046879000000001,0 115.983706999999995,31.041903000000001,0 115.994038000000003,31.034587999999999,0 116.006623000000005,31.034673000000002,0 116.010041000000001,31.017319000000001,0 116.015012999999996,31.011915999999999,0 116.039405000000002,31.014894000000002,0 116.058903999999998,31.012725,0 116.060301999999993,30.994941000000001,0 116.069702000000007,30.969152999999999,0 116.071720999999997,30.956682000000001,0 116.039561000000006,30.957830999999999,0 116.034510999999995,30.951148,0 116.024722999999994,30.953617000000001,0 116.009885999999995,30.949701000000001,0 115.993416999999994,30.936758999999999,0 115.976326999999998,30.931479,0 115.970578000000003,30.920024999999999,0 115.936087000000001,30.902863,0 115.932357999999994,30.889403999999999,0 115.912782000000007,30.887571999999999,0 115.885671000000002,30.877859000000001,0 115.876891999999998,30.868998000000001,0 115.865628000000001,30.864225999999999,0 115.863918999999996,30.855277999999998,0 115.851645000000005,30.844199,0 115.848770999999999,30.828557,0 115.863764000000003,30.815769,0 115.865860999999995,30.798247,0 115.858715000000004,30.784815999999999,0 115.869512999999998,30.782471000000001,0 115.868347,30.774283,0 115.854364000000004,30.767458999999999,0 115.851568,30.756710000000002,0 115.834632999999997,30.756368999999999,0 115.822436999999994,30.750354999999999,0 115.810473000000002,30.759440000000001,0 115.792761999999996,30.759270000000001,0 115.782895999999994,30.751719999999999,0 115.776370999999997,30.728853000000001,0 115.765573000000003,30.707516999999999,0 115.767358999999999,30.694329,0 115.762542999999994,30.685621000000001,0 115.772408999999996,30.677852000000001,0 115.775361000000004,30.668844,0 115.797033999999996,30.658597,0 115.798743000000002,30.650099999999998,0 115.809929999999994,30.642583999999999,0 115.814978999999994,30.624773999999999,0 115.807832000000005,30.615546999999999,0 115.819174000000004,30.597904,0 115.824145999999999,30.596108999999998,0 115.828108,30.606148999999998,0 115.848460000000003,30.60192,0 115.857315999999997,30.589486000000001,0 115.866249999999994,30.587904999999999,0 115.879068000000004,30.578291,0 115.875572000000005,30.569358999999999,0 115.883106999999995,30.559443000000002,0 115.887767999999994,30.542515999999999,0 115.899497999999994,30.537856000000001,0 115.905169000000001,30.524602000000002,0 115.919928999999996,30.514980999999999,0 115.909751999999997,30.506771000000001,0 115.898099999999999,30.482263,0 115.900818999999998,30.469729000000001,0 115.894059999999996,30.459547000000001,0 115.894836999999995,30.452743000000002,0 115.917986999999997,30.441103999999999,0 115.920783,30.429849000000001,0 115.946185999999997,30.425183000000001,0 115.938184000000007,30.417777999999998,0 115.930959999999999,30.420475,0 115.921481999999997,30.416366,0 115.909285999999994,30.398857,0 115.900896000000003,30.397829999999999,0 115.884894000000003,30.379546999999999,0 115.896468999999996,30.356677999999999,0 115.916666000000006,30.334402999999998,0 115.914336000000006,30.324292,0 115.903771000000006,30.315808000000001,0 115.904392000000001,30.310065999999999,0 115.921870999999996,30.301280999999999,0 115.938727999999998,30.306937999999999,0 115.953799000000004,30.306380999999998,0 115.980987999999996,30.295753000000001,0 115.985337999999999,30.291038,0 115.988911000000002,30.267033999999999,0 115.994815000000003,30.255029,0 116.013381999999993,30.248940999999999,0 116.026588000000004,30.239764999999998,0 116.031715000000005,30.227028000000001,0 116.046086000000003,30.223897000000001,0 116.064341999999996,30.206911000000002,0 116.063874999999996,30.193570000000001,0 116.056028999999995,30.181041,0 116.056729000000004,30.169927999999999,0 116.063175999999999,30.151602,0 116.075062000000003,30.133531000000001,0 116.085004999999995,30.126190000000001,0 116.087723999999994,30.103304999999999,0 116.083761999999993,30.095661,0 116.084772000000001,30.075946999999999,0 116.079256999999998,30.066196000000001,0 116.079955999999996,30.057261,0 116.091685999999996,30.036207000000001,0 116.088966999999997,30.026968,0 116.078325000000007,30.010249000000002,0 116.081509999999994,29.981748,0 116.073819,29.970009999999998,0 116.077935999999994,29.956119999999999,0 116.085704000000007,29.950786999999998,0 116.104038000000003,29.926829000000001,0 116.125788999999997,29.901358999999999,0 116.134567000000004,29.877431999999999,0 116.132002999999997,29.844242999999999,0 116.135187999999999,29.819441000000001,0 116.107145000000003,29.808287,0 116.077236999999997,29.787008,0 116.049582000000001,29.761890999999999,0 115.988212000000004,29.733879000000002,0 115.96584,29.724741000000002,0 115.932669000000004,29.721119999999999,0 115.909829999999999,29.72418,0 115.837196000000006,29.748532000000001,0 115.762542999999994,29.792995999999999,0 115.706222999999994,29.837871,0 115.683072999999993,29.847774000000001,0 115.667846999999995,29.850185,0 115.611682999999999,29.841574000000001,0 115.578823,29.840669999999999,0 115.550002000000006,29.837914000000001,0 115.511627000000004,29.840281999999998,0 115.488011,29.845018,0 115.460356000000004,29.859397000000001,0 115.448780999999997,29.869384,0 115.436896000000004,29.893571000000001,0 115.431070000000005,29.900542000000002,0 115.415532999999996,29.909189999999999,0 115.406677000000002,29.923559999999998,0 115.411027000000004,29.941797999999999,0 115.409008,29.950357,0 115.385159000000002,29.965409000000001,0 115.361776000000006,30.002942000000001,0 115.329383000000007,30.028945,0 115.322624000000005,30.046520000000001,0 115.321924999999993,30.074743999999999,0 115.317419000000001,30.089690999999998,0 115.301494000000005,30.116616,0 115.269255999999999,30.155163999999999,0 115.223112,30.196144,0 115.209518000000003,30.213517,0 115.175182000000007,30.219265,0 115.156459999999996,30.209828000000002,0 115.147448999999995,30.208112,0 115.126164000000003,30.210000000000001,0 115.112492000000003,30.213732,0 115.095168000000001,30.222010000000001,0 115.080174999999997,30.240065000000001,0</coordinates></LinearRing></outerBoundaryIs><innerBoundaryIs><LinearRing><coordinates>115.140068999999997,30.237020000000001,0 115.147294000000002,30.233460999999998,0 115.162908000000002,30.229944,0 115.164227999999994,30.234490000000001,0 115.150090000000006,30.243538000000001,0 115.135253000000006,30.247782999999998,0 115.140068999999997,30.237020000000001,0</coordinates></LinearRing></innerBoundaryIs><innerBoundaryIs><LinearRing><coordinates>114.929004000000006,31.025188,0 114.939257999999995,31.019914,0 114.947726000000003,31.023316999999999,0 114.946327999999994,31.034034999999999,0 114.933509999999998,31.037140000000001,0 114.929004000000006,31.025188,0</coordinates></LinearRing></innerBoundaryIs></Polygon></MultiGeometry></Placemark>
</Document>
</kml>