<?xml version="1.0" encoding="UTF-8"?>
<kml xmlns="http://www.opengis.net/kml/2.2">
<Document>
<name>无锡市</name>
<Placemark><name>无锡市</name><MultiGeometry><Polygon><outerBoundaryIs><LinearRing><coordinates>119.532617000000002,31.159106000000001,0 119.545862999999997,31.147835000000001,0 119.560231000000002,31.140706999999999,0 119.571342999999999,31.128988,0 119.574094000000002,31.113969999999998,0 119.582007000000004,31.108667000000001,0 119.599799000000004,31.109157,0 119.613718000000006,31.129166999999999,0 119.630780000000001,31.131260999999999,0 119.638131999999999,31.135538,0 119.641836999999995,31.148413999999999,0 119.662491000000003,31.159863000000001,0 119.663725999999997,31.165966000000001,0 119.678037000000003,31.168192999999999,0 119.682751999999994,31.160487,0 119.703855000000004,31.151889000000001,0 119.713115999999999,31.167614,0 119.740504999999999,31.173404000000001,0 119.755377999999993,31.170776,0 119.779342999999997,31.178792999999999,0 119.793374999999997,31.168059,0 119.791297999999998,31.156611000000002,0 119.801007999999996,31.156344000000001,0 119.809875000000005,31.148503999999999,0 119.823289000000003,31.154116999999999,0 119.829744000000005,31.161377999999999,0 119.823458000000002,31.165832000000002,0 119.826488999999995,31.173181,0 119.837545000000006,31.173670999999999,0 119.842146999999997,31.168772000000001,0 119.866618000000003,31.168327000000001,0 119.878348000000003,31.160799000000001,0 119.900237000000004,31.169173000000001,0 119.919993000000005,31.170909999999999,0 120.110201000000004,31.263998000000001,0 120.173734999999994,31.308795,0 120.209598999999997,31.345658,0 120.253095999999999,31.366105999999998,0 120.335543999999999,31.407344999999999,0 120.355805000000004,31.416452,0 120.418834000000004,31.448388000000001,0 120.438197000000002,31.448788,0 120.460198000000005,31.445501,0 120.480570999999998,31.449142999999999,0 120.495780999999994,31.447944,0 120.501394000000005,31.457536000000001,0 120.517390000000006,31.457847000000001,0 120.515985999999998,31.464417999999998,0 120.523843999999997,31.46837,0 120.536135000000002,31.467082999999999,0 120.555217999999996,31.480312999999999,0 120.548483000000004,31.497402999999998,0 120.555217999999996,31.507567000000002,0 120.568575999999993,31.512360000000001,0 120.592765999999997,31.527536000000001,0 120.595628000000005,31.517153,0 120.605787000000007,31.525229,0 120.599276000000003,31.548476999999998,0 120.594561999999996,31.576021999999998,0 120.584235000000007,31.585156999999999,0 120.567397,31.584004,0 120.563637,31.579613999999999,0 120.547978000000001,31.576598000000001,0 120.543094999999994,31.601741000000001,0 120.553084999999996,31.605598000000001,0 120.557069999999996,31.600321999999998,0 120.566443000000007,31.601918000000001,0 120.577106999999998,31.614153999999999,0 120.591475000000003,31.611494,0 120.600622999999999,31.617124,0 120.592091999999994,31.625059,0 120.595572000000004,31.631397,0 120.589566000000005,31.636538000000002,0 120.595853000000005,31.643761999999999,0 120.592147999999995,31.650276000000002,0 120.571719000000002,31.655771000000001,0 120.561054999999996,31.655681999999999,0 120.568743999999995,31.668576000000002,0 120.562850999999995,31.680492999999998,0 120.570035000000004,31.688908999999999,0 120.584907999999999,31.692806999999998,0 120.600791999999998,31.708839999999999,0 120.585076000000001,31.71442,0 120.581709000000004,31.727615,0 120.600005999999993,31.744616000000001,0 120.594842,31.760418000000001,0 120.588555999999997,31.762542,0 120.584235000000007,31.782146999999998,0 120.570707999999996,31.793783999999999,0 120.558361000000005,31.785731999999999,0 120.555498999999998,31.794049999999999,0 120.544386000000003,31.787147999999998,0 120.531532999999996,31.787811000000001,0 120.522553000000002,31.806304999999998,0 120.529961999999998,31.814665999999999,0 120.531308999999993,31.827846999999998,0 120.514415,31.841512000000002,0 120.503302000000005,31.841733000000001,0 120.502066999999997,31.852125000000001,0 120.490898000000001,31.871313000000001,0 120.468840999999998,31.879622999999999,0 120.466483999999994,31.889966999999999,0 120.449534,31.891954999999999,0 120.425006999999994,31.898408,0 120.402388999999999,31.907378999999999,0 120.392061999999996,31.905301999999999,0 120.379322000000002,31.91414,0 120.39049,31.925848999999999,0 120.390321999999998,31.932210999999999,0 120.375337000000002,31.941708999999999,0 120.368881999999999,31.961099000000001,0 120.370677999999998,31.990817,0 120.353054999999998,31.980616999999999,0 120.262974,31.941841,0 120.236594999999994,31.932918000000001,0 120.205894999999998,31.931504,0 120.175250000000005,31.933845000000002,0 120.134783999999996,31.939367000000001,0 120.064908000000003,31.955490000000001,0 120.022422000000006,31.967766999999998,0 120.007660999999999,31.947980999999999,0 120.007379999999998,31.935922000000001,0 120.022422000000006,31.919706999999999,0 120.005471999999997,31.911885999999999,0 119.997838999999999,31.894342000000002,0 120.014788999999993,31.881789000000001,0 120.013216999999997,31.871666000000001,0 120.003282999999996,31.859155000000001,0 119.990206000000001,31.854866000000001,0 120.000477000000004,31.845624999999998,0 120.003338999999997,31.828244999999999,0 120.019278999999997,31.822804000000001,0 120.025283999999999,31.831693999999999,0 120.044983999999999,31.821743000000001,0 120.056376999999998,31.833331000000001,0 120.080286999999998,31.847481999999999,0 120.085449999999994,31.853052999999999,0 120.098696000000004,31.855574000000001,0 120.117384999999999,31.854998999999999,0 120.122828999999996,31.859331999999998,0 120.144212999999993,31.858934000000001,0 120.158131999999995,31.867819999999998,0 120.175867999999994,31.870208000000002,0 120.185185000000004,31.860437000000001,0 120.173174000000003,31.83877,0 120.164080999999996,31.832712000000001,0 120.170479999999998,31.817274999999999,0 120.179235000000006,31.812851999999999,0 120.174239999999998,31.80104,0 120.185576999999995,31.786528000000001,0 120.192537000000002,31.767367,0 120.201628999999997,31.764002999999999,0 120.205725999999999,31.75338,0 120.183949999999996,31.749928000000001,0 120.178674000000001,31.758382000000001,0 120.169021000000001,31.760949,0 120.155607000000003,31.756833,0 120.154764999999998,31.741427999999999,0 120.161387000000005,31.718050999999999,0 120.155719000000005,31.713224,0 120.156841,31.703835999999999,0 120.14528,31.697058999999999,0 120.142977999999999,31.688334000000001,0 120.151060000000001,31.682397999999999,0 120.143259,31.676062999999999,0 120.128553999999994,31.684612999999999,0 120.124457000000007,31.648237999999999,0 120.119461999999999,31.630908999999999,0 120.104477000000003,31.628782000000001,0 120.093980999999999,31.618099000000001,0 120.075571999999994,31.607105000000001,0 120.074899000000002,31.595355999999999,0 120.057051000000001,31.580411999999999,0 120.056152999999995,31.563382000000001,0 120.069174000000004,31.55247,0 120.097348999999994,31.548743999999999,0 120.094149999999999,31.541912,0 120.101725999999999,31.542000000000002,0 120.103409999999997,31.518573,0 120.107450999999998,31.512004999999998,0 120.113456999999997,31.518128999999998,0 120.129733000000002,31.504726000000002,0 120.108742000000007,31.480979000000001,0 120.105710999999999,31.470500999999999,0 120.110089000000002,31.461531999999998,0 120.089995999999999,31.454737999999999,0 120.060980000000001,31.440439000000001,0 120.054805999999999,31.434308999999999,0 120.044590999999997,31.406234000000001,0 120.039708000000005,31.378105999999999,0 120.040156999999994,31.364505999999999,0 120.044871999999998,31.358816000000001,0 120.057275000000004,31.356104999999999,0 120.096170000000001,31.352504,0 120.100155000000001,31.335343000000002,0 120.089602999999997,31.332453000000001,0 120.060642999999999,31.339122,0 120.041785000000004,31.345880000000001,0 120.023712000000003,31.364951000000001,0 120.021074999999996,31.382995000000001,0 120.027866000000003,31.409033000000001,0 120.037631000000005,31.42587,0 120.046218999999994,31.479780000000002,0 120.045489000000003,31.490257,0 120.036227999999994,31.497890999999999,0 120.015799000000001,31.505437000000001,0 120.005527999999998,31.503305999999998,0 119.997164999999995,31.508099000000001,0 119.996099000000001,31.497492000000001,0 119.973592999999994,31.515865999999999,0 119.971740999999994,31.535966999999999,0 119.948335999999998,31.543375999999999,0 119.935652000000005,31.552735999999999,0 119.897599,31.546747,0 119.861903999999996,31.546258999999999,0 119.847815999999995,31.529799000000001,0 119.832325999999995,31.529178000000002,0 119.807406,31.548521999999998,0 119.792196000000004,31.553401000000001,0 119.768567000000004,31.553801,0 119.733265000000003,31.56316,0 119.721198000000001,31.556861000000001,0 119.712890999999999,31.558281000000001,0 119.709973000000005,31.576021999999998,0 119.699814000000003,31.576554000000002,0 119.684940999999995,31.604046,0 119.673041999999995,31.609321999999999,0 119.657944999999998,31.609321999999999,0 119.639366999999993,31.600276999999998,0 119.642679000000001,31.582363999999998,0 119.646776000000003,31.577663000000001,0 119.640939000000003,31.569281,0 119.627917999999994,31.559922,0 119.613325000000003,31.557881999999999,0 119.600921,31.538716999999998,0 119.593625000000003,31.532195000000002,0 119.583635000000001,31.504549000000001,0 119.567021999999994,31.504726000000002,0 119.567976000000002,31.490434,0 119.575159999999997,31.480801,0 119.572970999999995,31.471744000000001,0 119.565169999999995,31.471388999999999,0 119.565169999999995,31.46433,0 119.588348999999994,31.466683,0 119.591717000000003,31.463042000000002,0 119.587900000000005,31.445812,0 119.576674999999994,31.430712,0 119.554562000000004,31.433910000000001,0 119.553326999999996,31.411698999999999,0 119.536490000000001,31.408234,0 119.540699000000004,31.390149999999998,0 119.530428000000001,31.370818,0 119.527565999999993,31.360327999999999,0 119.530540000000002,31.330897,0 119.520044999999996,31.318223,0 119.523692999999994,31.301145000000002,0 119.535199000000006,31.291226000000002,0 119.530933000000005,31.277657000000001,0 119.532223999999999,31.259014000000001,0 119.522570999999999,31.242191999999999,0 119.534469000000001,31.236761999999999,0 119.553832,31.221049000000001,0 119.552542000000003,31.212412,0 119.553551999999996,31.17915,0 119.543000000000006,31.175498000000001,0 119.532617000000002,31.159106000000001,0</coordinates></LinearRing></outerBoundaryIs></Polygon></MultiGeometry></Placemark>
</Document>
</kml>