<?xml version="1.0" encoding="UTF-8"?>
<kml xmlns="http://www.opengis.net/kml/2.2">
  <Document>
    <name>泰州市</name>
    <Placemark>
      <name>泰州市</name>
      <Polygon><outerBoundaryIs><LinearRing><coordinates>120.553141000000,32.021143000000,0 120.558529000000,32.033720000000,0 120.547922000000,32.041046000000,0 120.550503000000,32.050929000000,0 120.529400000000,32.056444000000,0 120.518456000000,32.065885000000,0 120.512843000000,32.091732000000,0 120.486745000000,32.099141000000,0 120.482255000000,32.102933000000,0 120.440779000000,32.119865000000,0 120.435166000000,32.123921000000,0 120.417038000000,32.124847000000,0 120.387909000000,32.129696000000,0 120.374383000000,32.128065000000,0 120.356198000000,32.130754000000,0 120.351034000000,32.149487000000,0 120.347442000000,32.150545000000,0 120.343233000000,32.170067000000,0 120.371632000000,32.217555000000,0 120.364617000000,32.237812000000,0 120.357040000000,32.238736000000,0 120.345927000000,32.249919000000,0 120.350866000000,32.255995000000,0 120.347218000000,32.266515000000,0 120.352381000000,32.278663000000,0 120.352325000000,32.304450000000,0 120.365234000000,32.308806000000,0 120.354234000000,32.324951000000,0 120.353111000000,32.335947000000,0 120.346208000000,32.343996000000,0 120.359734000000,32.357980000000,0 120.352381000000,32.368929000000,0 120.351652000000,32.377898000000,0 120.323028000000,32.368445000000,0 120.310119000000,32.361542000000,0 120.302542000000,32.372490000000,0 120.292608000000,32.369544000000,0 120.284526000000,32.379876000000,0 120.289185000000,32.384975000000,0 120.279924000000,32.421454000000,0 120.280654000000,32.430989000000,0 120.275153000000,32.438897000000,0 120.271393000000,32.472280000000,0 120.258316000000,32.498934000000,0 120.270102000000,32.501788000000,0 120.263704000000,32.514562000000,0 120.270102000000,32.548707000000,0 120.262301000000,32.562001000000,0 120.262862000000,32.574855000000,0 120.255734000000,32.597619000000,0 120.230590000000,32.586830000000,0 120.224584000000,32.581830000000,0 120.207635000000,32.591567000000,0 120.202303000000,32.600908000000,0 120.196017000000,32.603013000000,0 120.197251000000,32.619281000000,0 120.175980000000,32.629102000000,0 120.176317000000,32.621210000000,0 120.154372000000,32.616037000000,0 120.140846000000,32.616300000000,0 120.122661000000,32.610293000000,0 120.113176000000,32.613801000000,0 120.109079000000,32.630505000000,0 120.120977000000,32.633267000000,0 120.121651000000,32.679197000000,0 120.129508000000,32.689055000000,0 120.138096000000,32.687171000000,0 120.145055000000,32.705877000000,0 120.157571000000,32.703249000000,0 120.155382000000,32.714199000000,0 120.164811000000,32.720331000000,0 120.173230000000,32.715688000000,0 120.181705000000,32.723177000000,0 120.180863000000,32.741832000000,0 120.196129000000,32.739336000000,0 120.202583000000,32.742970000000,0 120.206624000000,32.756586000000,0 120.214650000000,32.767442000000,0 120.228176000000,32.778560000000,0 120.222396000000,32.792301000000,0 120.199328000000,32.786962000000,0 120.197027000000,32.781492000000,0 120.182940000000,32.772913000000,0 120.174184000000,32.779654000000,0 120.162454000000,32.780967000000,0 120.159255000000,32.787881000000,0 120.168179000000,32.793045000000,0 120.161107000000,32.809935000000,0 120.167225000000,32.815010000000,0 120.187037000000,32.812166000000,0 120.193379000000,32.826078000000,0 120.181031000000,32.825290000000,0 120.184848000000,32.834126000000,0 120.194894000000,32.842786000000,0 120.195231000000,32.851358000000,0 120.205895000000,32.852189000000,0 120.208420000000,32.864345000000,0 120.198767000000,32.866925000000,0 120.200226000000,32.874488000000,0 120.177046000000,32.877767000000,0 120.181873000000,32.903907000000,0 120.177495000000,32.909064000000,0 120.176373000000,32.932529000000,0 120.201068000000,32.930519000000,0 120.204997000000,32.920600000000,0 120.220431000000,32.917017000000,0 120.238447000000,32.921168000000,0 120.238840000000,32.927985000000,0 120.280766000000,32.924926000000,0 120.291991000000,32.933621000000,0 120.295078000000,32.945460000000,0 120.286378000000,32.949392000000,0 120.287389000000,32.955202000000,0 120.300353000000,32.954153000000,0 120.299063000000,32.966601000000,0 120.312364000000,32.992583000000,0 120.308884000000,33.024407000000,0 120.313038000000,33.048059000000,0 120.309390000000,33.062283000000,0 120.291991000000,33.081128000000,0 120.293675000000,33.096698000000,0 120.289690000000,33.104242000000,0 120.296761000000,33.129573000000,0 120.214145000000,33.137420000000,0 120.168852000000,33.153110000000,0 120.153418000000,33.157207000000,0 120.094093000000,33.178645000000,0 120.080848000000,33.181782000000,0 120.048183000000,33.164049000000,0 120.023993000000,33.158035000000,0 120.003451000000,33.156030000000,0 119.988073000000,33.151585000000,0 119.968373000000,33.149885000000,0 119.936438000000,33.155377000000,0 119.916569000000,33.149449000000,0 119.894400000000,33.151062000000,0 119.890247000000,33.144306000000,0 119.877282000000,33.146834000000,0 119.867572000000,33.143391000000,0 119.868470000000,33.154461000000,0 119.843494000000,33.153459000000,0 119.787313000000,33.139120000000,0 119.772272000000,33.130924000000,0 119.749260000000,33.131012000000,0 119.739775000000,33.147401000000,0 119.753077000000,33.160650000000,0 119.751281000000,33.170803000000,0 119.730346000000,33.172851000000,0 119.728775000000,33.188709000000,0 119.733489000000,33.205349000000,0 119.731469000000,33.211664000000,0 119.712611000000,33.219068000000,0 119.708177000000,33.198336000000,0 119.701835000000,33.201821000000,0 119.692069000000,33.186923000000,0 119.657271000000,33.162349000000,0 119.653679000000,33.156553000000,0 119.646158000000,33.130096000000,0 119.649245000000,33.120244000000,0 119.640321000000,33.119241000000,0 119.647730000000,33.104111000000,0 119.669731000000,33.089807000000,0 119.683931000000,33.072535000000,0 119.696615000000,33.016899000000,0 119.708008000000,33.005681000000,0 119.706661000000,32.989614000000,0 119.696727000000,32.961316000000,0 119.703069000000,32.944893000000,0 119.714743000000,32.936374000000,0 119.712386000000,32.921955000000,0 119.719514000000,32.906179000000,0 119.725070000000,32.901721000000,0 119.746173000000,32.898706000000,0 119.761888000000,32.904082000000,0 119.775302000000,32.915968000000,0 119.782599000000,32.914832000000,0 119.789334000000,32.881177000000,0 119.802691000000,32.862727000000,0 119.797360000000,32.857086000000,0 119.805778000000,32.851926000000,0 119.795956000000,32.841474000000,0 119.801513000000,32.837669000000,0 119.800895000000,32.828265000000,0 119.790849000000,32.820041000000,0 119.788660000000,32.810197000000,0 119.794666000000,32.803853000000,0 119.806508000000,32.800572000000,0 119.823570000000,32.807966000000,0 119.830249000000,32.806872000000,0 119.824917000000,32.794927000000,0 119.833504000000,32.781973000000,0 119.863082000000,32.775715000000,0 119.866899000000,32.768493000000,0 119.845290000000,32.752952000000,0 119.843663000000,32.736709000000,0 119.858031000000,32.721163000000,0 119.858480000000,32.710608000000,0 119.877282000000,32.698430000000,0 119.870659000000,32.679066000000,0 119.883512000000,32.673895000000,0 119.894849000000,32.674334000000,0 119.899171000000,32.656980000000,0 119.897150000000,32.646242000000,0 119.911855000000,32.625156000000,0 119.900630000000,32.623973000000,0 119.898666000000,32.616519000000,0 119.890527000000,32.620334000000,0 119.869537000000,32.619369000000,0 119.866618000000,32.627611000000,0 119.855056000000,32.631908000000,0 119.844617000000,32.640368000000,0 119.832999000000,32.640894000000,0 119.828734000000,32.629365000000,0 119.814365000000,32.627085000000,0 119.816105000000,32.614897000000,0 119.821774000000,32.607267000000,0 119.815769000000,32.605644000000,0 119.820034000000,32.592751000000,0 119.815656000000,32.578759000000,0 119.827162000000,32.559150000000,0 119.835525000000,32.549760000000,0 119.823402000000,32.535367000000,0 119.824524000000,32.496300000000,0 119.818182000000,32.491645000000,0 119.814534000000,32.468855000000,0 119.829688000000,32.460334000000,0 119.840520000000,32.464463000000,0 119.853372000000,32.462750000000,0 119.859266000000,32.444477000000,0 119.868526000000,32.438722000000,0 119.863812000000,32.417104000000,0 119.851745000000,32.411171000000,0 119.853878000000,32.401854000000,0 119.844561000000,32.395964000000,0 119.856179000000,32.379744000000,0 119.853709000000,32.361498000000,0 119.842709000000,32.360662000000,0 119.847311000000,32.328426000000,0 119.843887000000,32.321872000000,0 119.819192000000,32.302514000000,0 119.834571000000,32.295694000000,0 119.852699000000,32.281920000000,0 119.869537000000,32.262686000000,0 119.878460000000,32.247542000000,0 119.891987000000,32.201083000000,0 119.894063000000,32.182889000000,0 119.930601000000,32.078942000000,0 119.948729000000,32.047488000000,0 119.975501000000,32.006886000000,0 119.980103000000,31.998057000000,0 120.016248000000,31.970461000000,0 120.022422000000,31.967767000000,0 120.064908000000,31.955490000000,0 120.134784000000,31.939367000000,0 120.175250000000,31.933845000000,0 120.205895000000,31.931504000000,0 120.236595000000,31.932918000000,0 120.262974000000,31.941841000000,0 120.353055000000,31.980617000000,0 120.370678000000,31.990817000000,0 120.387853000000,32.006665000000,0 120.403736000000,32.016199000000,0 120.465642000000,32.045811000000,0 120.503807000000,32.041002000000,0 120.524630000000,32.030455000000,0 120.553141000000,32.021143000000,0</coordinates></LinearRing></outerBoundaryIs></Polygon>
    </Placemark>
  </Document>
</kml>
