<?xml version="1.0" encoding="UTF-8"?>
<kml xmlns="http://www.opengis.net/kml/2.2">
  <Document>
    <name>苏州市</name>
    <Placemark>
      <name>苏州市</name>
      <Polygon><outerBoundaryIs><LinearRing><coordinates>119.919993000000,31.170910000000,0 119.921059000000,31.161200000000,0 119.936775000000,31.146543000000,0 119.946260000000,31.106215000000,0 119.969776000000,31.074298000000,0 119.988522000000,31.059226000000,0 120.001711000000,31.027114000000,0 120.017034000000,31.017791000000,0 120.052449000000,31.005745000000,0 120.103971000000,30.965223000000,0 120.111043000000,30.955894000000,0 120.135121000000,30.941875000000,0 120.149657000000,30.937455000000,0 120.221778000000,30.926873000000,0 120.250739000000,30.926248000000,0 120.308099000000,30.932276000000,0 120.343514000000,30.940000000000,0 120.371127000000,30.948751000000,0 120.359453000000,30.931919000000,0 120.362709000000,30.921648000000,0 120.356928000000,30.908875000000,0 120.360127000000,30.892795000000,0 120.357994000000,30.887077000000,0 120.364673000000,30.880465000000,0 120.372418000000,30.882163000000,0 120.379434000000,30.890785000000,0 120.394700000000,30.890785000000,0 120.423492000000,30.903069000000,0 120.417992000000,30.925578000000,0 120.423436000000,30.927453000000,0 120.434998000000,30.920799000000,0 120.442294000000,30.900612000000,0 120.436345000000,30.896949000000,0 120.439544000000,30.885201000000,0 120.452340000000,30.867911000000,0 120.441284000000,30.856292000000,0 120.454473000000,30.849634000000,0 120.460422000000,30.839846000000,0 120.460984000000,30.828269000000,0 120.455259000000,30.816825000000,0 120.477204000000,30.800014000000,0 120.476979000000,30.785571000000,0 120.489439000000,30.763432000000,0 120.504425000000,30.757974000000,0 120.518231000000,30.773227000000,0 120.563805000000,30.835511000000,0 120.580867000000,30.845656000000,0 120.588949000000,30.854416000000,0 120.602980000000,30.848919000000,0 120.615496000000,30.849589000000,0 120.626216000000,30.856069000000,0 120.644176000000,30.855354000000,0 120.655401000000,30.847489000000,0 120.658713000000,30.865274000000,0 120.663090000000,30.861342000000,0 120.673642000000,30.875730000000,0 120.682790000000,30.882565000000,0 120.699909000000,30.867821000000,0 120.704286000000,30.872959000000,0 120.702546000000,30.884039000000,0 120.713266000000,30.885067000000,0 120.709843000000,30.907535000000,0 120.712705000000,30.919683000000,0 120.709450000000,30.933169000000,0 120.697551000000,30.950358000000,0 120.684474000000,30.955180000000,0 120.698225000000,30.970803000000,0 120.705521000000,30.966473000000,0 120.710067000000,30.971919000000,0 120.725614000000,30.971517000000,0 120.736109000000,30.963706000000,0 120.745931000000,30.962500000000,0 120.760692000000,30.975445000000,0 120.770177000000,30.978078000000,0 120.769953000000,30.996642000000,0 120.802898000000,31.005388000000,0 120.820914000000,31.006369000000,0 120.840053000000,30.997803000000,0 120.847406000000,30.989592000000,0 120.853692000000,30.993206000000,0 120.865646000000,30.989815000000,0 120.868060000000,30.995348000000,0 120.891352000000,31.003737000000,0 120.895168000000,31.017345000000,0 120.901342000000,31.017479000000,0 120.901959000000,31.037641000000,0 120.894551000000,31.053875000000,0 120.902128000000,31.085666000000,0 120.892193000000,31.094181000000,0 120.869575000000,31.097212000000,0 120.856778000000,31.102828000000,0 120.857901000000,31.108533000000,0 120.870585000000,31.119719000000,0 120.872325000000,31.127161000000,0 120.881305000000,31.134736000000,0 120.905383000000,31.134202000000,0 120.930359000000,31.141420000000,0 120.983902000000,31.131706000000,0 121.018475000000,31.134113000000,0 121.025659000000,31.140751000000,0 121.041823000000,31.138880000000,0 121.041486000000,31.149840000000,0 121.062533000000,31.153137000000,0 121.065733000000,31.148593000000,0 121.077014000000,31.158438000000,0 121.075442000000,31.173449000000,0 121.062646000000,31.224655000000,0 121.064329000000,31.246153000000,0 121.060962000000,31.246509000000,0 121.063263000000,31.267913000000,0 121.080437000000,31.270138000000,0 121.084703000000,31.287622000000,0 121.090147000000,31.291893000000,0 121.098790000000,31.276233000000,0 121.105469000000,31.273653000000,0 121.115010000000,31.285265000000,0 121.120342000000,31.286154000000,0 121.143017000000,31.275477000000,0 121.154242000000,31.276723000000,0 121.161314000000,31.283975000000,0 121.151267000000,31.291937000000,0 121.143803000000,31.309685000000,0 121.139649000000,31.302969000000,0 121.129940000000,31.302613000000,0 121.127246000000,31.319291000000,0 121.133307000000,31.325561000000,0 121.130445000000,31.344191000000,0 121.117985000000,31.343435000000,0 121.117255000000,31.351704000000,0 121.108332000000,31.350637000000,0 121.109286000000,31.364684000000,0 121.120230000000,31.368684000000,0 121.113776000000,31.374462000000,0 121.148461000000,31.385395000000,0 121.143803000000,31.392327000000,0 121.158844000000,31.410100000000,0 121.146272000000,31.421072000000,0 121.164288000000,31.427203000000,0 121.162717000000,31.432222000000,0 121.146890000000,31.437241000000,0 121.147339000000,31.443947000000,0 121.160921000000,31.449676000000,0 121.174952000000,31.449276000000,0 121.186065000000,31.454339000000,0 121.186065000000,31.460822000000,0 121.214352000000,31.479114000000,0 121.219067000000,31.475207000000,0 121.230348000000,31.477427000000,0 121.234725000000,31.492698000000,0 121.240899000000,31.493675000000,0 121.247073000000,31.477072000000,0 121.261441000000,31.478848000000,0 121.268850000000,31.487460000000,0 121.298596000000,31.491500000000,0 121.299943000000,31.499756000000,0 121.310326000000,31.505925000000,0 121.319923000000,31.499711000000,0 121.343496000000,31.512049000000,0 121.372232000000,31.553224000000,0 121.345573000000,31.571676000000,0 121.289111000000,31.616282000000,0 121.145318000000,31.753911000000,0 121.118490000000,31.759090000000,0 121.101204000000,31.762542000000,0 121.076845000000,31.777014000000,0 121.060625000000,31.783077000000,0 120.959488000000,31.783032000000,0 120.932884000000,31.786705000000,0 120.916664000000,31.793652000000,0 120.883831000000,31.834702000000,0 120.860314000000,31.873037000000,0 120.853467000000,31.888641000000,0 120.803123000000,31.988432000000,0 120.790102000000,31.998101000000,0 120.782020000000,32.015979000000,0 120.761590000000,32.020437000000,0 120.702490000000,32.013375000000,0 120.652651000000,32.002383000000,0 120.628405000000,32.001147000000,0 120.588276000000,32.009711000000,0 120.553141000000,32.021143000000,0 120.524630000000,32.030455000000,0 120.503807000000,32.041002000000,0 120.465642000000,32.045811000000,0 120.403736000000,32.016199000000,0 120.387853000000,32.006665000000,0 120.370678000000,31.990817000000,0 120.368882000000,31.961099000000,0 120.375337000000,31.941709000000,0 120.390322000000,31.932211000000,0 120.390490000000,31.925849000000,0 120.379322000000,31.914140000000,0 120.392062000000,31.905302000000,0 120.402389000000,31.907379000000,0 120.425007000000,31.898408000000,0 120.449534000000,31.891955000000,0 120.466484000000,31.889967000000,0 120.468841000000,31.879623000000,0 120.490898000000,31.871313000000,0 120.502067000000,31.852125000000,0 120.503302000000,31.841733000000,0 120.514415000000,31.841512000000,0 120.531309000000,31.827847000000,0 120.529962000000,31.814666000000,0 120.522553000000,31.806305000000,0 120.531533000000,31.787811000000,0 120.544386000000,31.787148000000,0 120.555499000000,31.794050000000,0 120.558361000000,31.785732000000,0 120.570708000000,31.793784000000,0 120.584235000000,31.782147000000,0 120.588556000000,31.762542000000,0 120.594842000000,31.760418000000,0 120.600006000000,31.744616000000,0 120.581709000000,31.727615000000,0 120.585076000000,31.714420000000,0 120.600792000000,31.708840000000,0 120.584908000000,31.692807000000,0 120.570035000000,31.688909000000,0 120.562851000000,31.680493000000,0 120.568744000000,31.668576000000,0 120.561055000000,31.655682000000,0 120.571719000000,31.655771000000,0 120.592148000000,31.650276000000,0 120.595853000000,31.643762000000,0 120.589566000000,31.636538000000,0 120.595572000000,31.631397000000,0 120.592092000000,31.625059000000,0 120.600623000000,31.617124000000,0 120.591475000000,31.611494000000,0 120.577107000000,31.614154000000,0 120.566443000000,31.601918000000,0 120.557070000000,31.600322000000,0 120.553085000000,31.605598000000,0 120.543095000000,31.601741000000,0 120.547978000000,31.576598000000,0 120.563637000000,31.579614000000,0 120.567397000000,31.584004000000,0 120.584235000000,31.585157000000,0 120.594562000000,31.576022000000,0 120.599276000000,31.548477000000,0 120.605787000000,31.525229000000,0 120.595628000000,31.517153000000,0 120.592766000000,31.527536000000,0 120.568576000000,31.512360000000,0 120.555218000000,31.507567000000,0 120.548483000000,31.497403000000,0 120.555218000000,31.480313000000,0 120.536135000000,31.467083000000,0 120.523844000000,31.468370000000,0 120.515986000000,31.464418000000,0 120.517390000000,31.457847000000,0 120.501394000000,31.457536000000,0 120.495781000000,31.447944000000,0 120.480571000000,31.449143000000,0 120.460198000000,31.445501000000,0 120.438197000000,31.448788000000,0 120.418834000000,31.448388000000,0 120.355805000000,31.416452000000,0 120.335544000000,31.407345000000,0 120.253096000000,31.366106000000,0 120.209599000000,31.345658000000,0 120.173735000000,31.308795000000,0 120.110201000000,31.263998000000,0 119.919993000000,31.170910000000,0</coordinates></LinearRing></outerBoundaryIs></Polygon>
    </Placemark>
  </Document>
</kml>
