<?xml version="1.0" encoding="UTF-8"?>
<kml xmlns="http://www.opengis.net/kml/2.2">
  <Document>
    <name>内江市</name>
    <Placemark>
      <name>内江市</name>
      <Polygon><outerBoundaryIs><LinearRing><coordinates>105.383403000000,29.281991000000,0 105.368621000000,29.285918000000,0 105.366493000000,29.287839000000,0 105.365149000000,29.292684000000,0 105.364141000000,29.291932000000,0 105.339392000000,29.281741000000,0 105.318226000000,29.263612000000,0 105.287542000000,29.218233000000,0 105.281495000000,29.188471000000,0 105.266936000000,29.188638000000,0 105.235580000000,29.215475000000,0 105.217998000000,29.205610000000,0 105.195488000000,29.222078000000,0 105.203999000000,29.239630000000,0 105.160548000000,29.262776000000,0 105.134903000000,29.257429000000,0 105.113961000000,29.284999000000,0 105.120121000000,29.302205000000,0 105.108922000000,29.315568000000,0 105.072526000000,29.336359000000,0 105.063679000000,29.364659000000,0 105.035346000000,29.382937000000,0 105.046881000000,29.408721000000,0 105.079469000000,29.406886000000,0 105.084285000000,29.422320000000,0 105.063119000000,29.442923000000,0 105.067823000000,29.454349000000,0 105.044305000000,29.480865000000,0 105.030643000000,29.472527000000,0 105.040610000000,29.461938000000,0 105.020564000000,29.454432000000,0 105.026947000000,29.439587000000,0 104.993127000000,29.438669000000,0 104.961882000000,29.416647000000,0 104.937133000000,29.445425000000,0 104.917647000000,29.434332000000,0 104.871957000000,29.459019000000,0 104.873972000000,29.470860000000,0 104.848775000000,29.467858000000,0 104.833657000000,29.430495000000,0 104.808796000000,29.457018000000,0 104.786398000000,29.457518000000,0 104.777327000000,29.448177000000,0 104.750786000000,29.453598000000,0 104.741155000000,29.432414000000,0 104.751458000000,29.402631000000,0 104.766128000000,29.406469000000,0 104.759969000000,29.374759000000,0 104.738132000000,29.381936000000,0 104.745411000000,29.363240000000,0 104.710919000000,29.361404000000,0 104.704423000000,29.372255000000,0 104.674299000000,29.382270000000,0 104.673403000000,29.398709000000,0 104.652461000000,29.411141000000,0 104.619761000000,29.444758000000,0 104.587956000000,29.422987000000,0 104.569814000000,29.441172000000,0 104.558728000000,29.431913000000,0 104.543945000000,29.441005000000,0 104.535658000000,29.418566000000,0 104.510013000000,29.456767000000,0 104.534650000000,29.456601000000,0 104.529611000000,29.518876000000,0 104.501726000000,29.549958000000,0 104.482912000000,29.562872000000,0 104.493551000000,29.582613000000,0 104.488847000000,29.601435000000,0 104.474065000000,29.609262000000,0 104.442933000000,29.600102000000,0 104.421767000000,29.616423000000,0 104.394890000000,29.621002000000,0 104.381787000000,29.607264000000,0 104.383579000000,29.584196000000,0 104.340688000000,29.565704000000,0 104.334193000000,29.583113000000,0 104.309332000000,29.607347000000,0 104.280551000000,29.613925000000,0 104.269576000000,29.632491000000,0 104.308100000000,29.695075000000,0 104.321314000000,29.709966000000,0 104.350319000000,29.701730000000,0 104.336769000000,29.722276000000,0 104.360286000000,29.737746000000,0 104.372157000000,29.734586000000,0 104.397690000000,29.748390000000,0 104.415720000000,29.732257000000,0 104.442373000000,29.733837000000,0 104.457155000000,29.748223000000,0 104.470146000000,29.785386000000,0 104.486608000000,29.786965000000,0 104.503070000000,29.807411000000,0 104.477425000000,29.811317000000,0 104.483248000000,29.852194000000,0 104.483584000000,29.854104000000,0 104.503294000000,29.897454000000,0 104.490079000000,29.904761000000,0 104.488512000000,29.921530000000,0 104.473281000000,29.934810000000,0 104.481792000000,29.942363000000,0 104.461859000000,29.950579000000,0 104.479217000000,29.988910000000,0 104.455363000000,30.000606000000,0 104.467234000000,30.034689000000,0 104.468578000000,30.026563000000,0 104.499486000000,30.022666000000,0 104.498142000000,30.035933000000,0 104.523900000000,30.027227000000,0 104.533195000000,29.999278000000,0 104.546297000000,30.008485000000,0 104.568471000000,29.995546000000,0 104.577989000000,29.951076000000,0 104.592548000000,29.950164000000,0 104.606770000000,29.932901000000,0 104.631184000000,29.940952000000,0 104.643950000000,29.957383000000,0 104.673739000000,29.905674000000,0 104.687289000000,29.902270000000,0 104.689865000000,29.920036000000,0 104.709127000000,29.933233000000,0 104.672955000000,29.944189000000,0 104.685049000000,29.964436000000,0 104.691769000000,29.954645000000,0 104.730628000000,29.948504000000,0 104.743619000000,29.933233000000,0 104.748322000000,29.909244000000,0 104.798493000000,29.880183000000,0 104.780575000000,29.861413000000,0 104.791997000000,29.849037000000,0 104.809132000000,29.853024000000,0 104.793341000000,29.866895000000,0 104.805436000000,29.875200000000,0 104.839144000000,29.866812000000,0 104.828057000000,29.885498000000,0 104.863333000000,29.890895000000,0 104.878900000000,29.912897000000,0 104.899505000000,29.902353000000,0 104.902417000000,29.907168000000,0 104.927166000000,29.936221000000,0 104.903649000000,29.941367000000,0 104.924367000000,29.946844000000,0 104.932766000000,29.977296000000,0 104.951580000000,29.992560000000,0 104.976441000000,29.993223000000,0 104.993687000000,29.977047000000,0 105.020900000000,29.976798000000,0 105.049345000000,29.947508000000,0 105.074654000000,29.944023000000,0 105.064015000000,29.922526000000,0 105.097051000000,29.904927000000,0 105.100747000000,29.885498000000,0 105.080589000000,29.882840000000,0 105.094700000000,29.848954000000,0 105.125608000000,29.830677000000,0 105.175554000000,29.846711000000,0 105.217326000000,29.844800000000,0 105.238491000000,29.817549000000,0 105.233564000000,29.804087000000,0 105.252714000000,29.796025000000,0 105.288662000000,29.798269000000,0 105.297733000000,29.820540000000,0 105.319122000000,29.821953000000,0 105.332225000000,29.811150000000,0 105.353950000000,29.811566000000,0 105.360446000000,29.834250000000,0 105.373548000000,29.824612000000,0 105.383179000000,29.796856000000,0 105.405017000000,29.788960000000,0 105.393482000000,29.747226000000,0 105.416775000000,29.721112000000,0 105.423943000000,29.687587000000,0 105.400537000000,29.671611000000,0 105.389674000000,29.676520000000,0 105.393146000000,29.650721000000,0 105.377580000000,29.643313000000,0 105.380827000000,29.628246000000,0 105.346783000000,29.620253000000,0 105.335473000000,29.595189000000,0 105.322258000000,29.610095000000,0 105.311283000000,29.593357000000,0 105.317667000000,29.578115000000,0 105.296725000000,29.571202000000,0 105.289782000000,29.552624000000,0 105.294373000000,29.533960000000,0 105.318898000000,29.512375000000,0 105.321250000000,29.476029000000,0 105.337824000000,29.458852000000,0 105.324498000000,29.448594000000,0 105.360446000000,29.444258000000,0 105.362014000000,29.454683000000,0 105.387995000000,29.455099000000,0 105.399193000000,29.439003000000,0 105.372988000000,29.420902000000,0 105.427302000000,29.418900000000,0 105.443092000000,29.399126000000,0 105.432006000000,29.378848000000,0 105.437045000000,29.364743000000,0 105.418567000000,29.352305000000,0 105.420135000000,29.314399000000,0 105.395274000000,29.308553000000,0 105.389002000000,29.286502000000,0 105.386203000000,29.284832000000,0 105.383403000000,29.281991000000,0</coordinates></LinearRing></outerBoundaryIs></Polygon>
    </Placemark>
  </Document>
</kml>
