<?xml version="1.0" encoding="UTF-8"?>
<kml xmlns="http://www.opengis.net/kml/2.2">
  <Document>
    <name>广元市</name>
    <Placemark>
      <name>广元市</name>
      <Polygon><outerBoundaryIs><LinearRing><coordinates>106.408984000000,31.902081000000,0 106.424662000000,31.889803000000,0 106.406408000000,31.874189000000,0 106.416039000000,31.831560000000,0 106.406296000000,31.808286000000,0 106.395770000000,31.805681000000,0 106.384235000000,31.801693000000,0 106.361277000000,31.846287000000,0 106.335520000000,31.848484000000,0 106.327345000000,31.829689000000,0 106.310435000000,31.825539000000,0 106.292293000000,31.807390000000,0 106.270456000000,31.810972000000,0 106.275271000000,31.796890000000,0 106.262057000000,31.773851000000,0 106.248170000000,31.782400000000,0 106.211326000000,31.770757000000,0 106.194528000000,31.785901000000,0 106.199232000000,31.818622000000,0 106.188481000000,31.821796000000,0 106.153765000000,31.806576000000,0 106.138646000000,31.811297000000,0 106.130359000000,31.829282000000,0 106.110538000000,31.790785000000,0 106.123640000000,31.792006000000,0 106.128568000000,31.767174000000,0 106.111993000000,31.758543000000,0 106.102250000000,31.732480000000,0 106.068318000000,31.708447000000,0 106.078061000000,31.697202000000,0 106.048385000000,31.698098000000,0 106.032482000000,31.687586000000,0 106.007173000000,31.684734000000,0 105.977496000000,31.662482000000,0 105.958235000000,31.672426000000,0 105.925086000000,31.664764000000,0 105.929902000000,31.649193000000,0 105.910528000000,31.625791000000,0 105.881635000000,31.648052000000,0 105.885779000000,31.630521000000,0 105.865285000000,31.614781000000,0 105.845799000000,31.632559000000,0 105.838072000000,31.651150000000,0 105.847143000000,31.667047000000,0 105.817914000000,31.667780000000,0 105.816011000000,31.677643000000,0 105.780735000000,31.712684000000,0 105.768640000000,31.735412000000,0 105.749378000000,31.718794000000,0 105.726085000000,31.726615000000,0 105.723845000000,31.663623000000,0 105.699320000000,31.649845000000,0 105.684649000000,31.608908000000,0 105.657884000000,31.601975000000,0 105.653517000000,31.613720000000,0 105.633247000000,31.600670000000,0 105.639518000000,31.587617000000,0 105.622496000000,31.584190000000,0 105.618353000000,31.553590000000,0 105.608050000000,31.551631000000,0 105.599203000000,31.581009000000,0 105.579493000000,31.565668000000,0 105.535370000000,31.564771000000,0 105.529771000000,31.574644000000,0 105.498414000000,31.574155000000,0 105.493711000000,31.551468000000,0 105.494719000000,31.550326000000,0 105.459219000000,31.526980000000,0 105.416215000000,31.558487000000,0 105.395834000000,31.561588000000,0 105.393258000000,31.618369000000,0 105.366269000000,31.615596000000,0 105.333009000000,31.630276000000,0 105.345103000000,31.677235000000,0 105.317555000000,31.702988000000,0 105.315315000000,31.718550000000,0 105.284518000000,31.700951000000,0 105.253610000000,31.707306000000,0 105.284406000000,31.729140000000,0 105.283062000000,31.740218000000,0 105.311395000000,31.744128000000,0 105.307700000000,31.771327000000,0 105.288774000000,31.793716000000,0 105.264137000000,31.790541000000,0 105.262233000000,31.778410000000,0 105.243755000000,31.795181000000,0 105.251482000000,31.816587000000,0 105.243195000000,31.830014000000,0 105.205231000000,31.837094000000,0 105.223261000000,31.882078000000,0 105.203327000000,31.905090000000,0 105.183170000000,31.911350000000,0 105.205343000000,31.945652000000,0 105.185185000000,31.965399000000,0 105.187761000000,31.983029000000,0 105.174211000000,31.999518000000,0 105.194144000000,31.996025000000,0 105.208591000000,32.011700000000,0 105.215198000000,32.004229000000,0 105.235692000000,32.016492000000,0 105.251930000000,31.982866000000,0 105.264360000000,32.031514000000,0 105.250026000000,32.033138000000,0 105.252602000000,32.082651000000,0 105.286198000000,32.108777000000,0 105.262569000000,32.126623000000,0 105.285750000000,32.139762000000,0 105.275111000000,32.155980000000,0 105.251706000000,32.167250000000,0 105.273096000000,32.193189000000,0 105.240395000000,32.204292000000,0 105.262233000000,32.225198000000,0 105.252826000000,32.236297000000,0 105.270520000000,32.263027000000,0 105.268504000000,32.278090000000,0 105.254394000000,32.271611000000,0 105.238043000000,32.287401000000,0 105.254954000000,32.300679000000,0 105.247562000000,32.320510000000,0 105.218894000000,32.316059000000,0 105.208815000000,32.306831000000,0 105.176674000000,32.302621000000,0 105.112729000000,32.310797000000,0 105.087420000000,32.303350000000,0 105.082605000000,32.283596000000,0 105.044865000000,32.287563000000,0 105.032994000000,32.265133000000,0 104.995255000000,32.247557000000,0 105.000070000000,32.266429000000,0 104.976553000000,32.293069000000,0 104.964458000000,32.297359000000,0 104.974649000000,32.334592000000,0 104.940381000000,32.333621000000,0 104.911712000000,32.326175000000,0 104.884611000000,32.355144000000,0 104.856278000000,32.357329000000,0 104.840712000000,32.351180000000,0 104.822458000000,32.370434000000,0 104.804316000000,32.374155000000,0 104.773856000000,32.400116000000,0 104.775423000000,32.414913000000,0 104.755938000000,32.436336000000,0 104.761649000000,32.445955000000,0 104.749218000000,32.464623000000,0 104.759745000000,32.493871000000,0 104.750002000000,32.505341000000,0 104.754818000000,32.526420000000,0 104.745971000000,32.536351000000,0 104.709687000000,32.553952000000,0 104.655933000000,32.560490000000,0 104.651117000000,32.579619000000,0 104.634207000000,32.597211000000,0 104.618977000000,32.600842000000,0 104.617745000000,32.627464000000,0 104.635775000000,32.668511000000,0 104.668027000000,32.662544000000,0 104.696808000000,32.673509000000,0 104.739587000000,32.635449000000,0 104.766016000000,32.645449000000,0 104.795917000000,32.643514000000,0 104.820666000000,32.662947000000,0 104.845751000000,32.653916000000,0 104.873636000000,32.623027000000,0 104.881811000000,32.601164000000,0 104.927726000000,32.608910000000,0 104.971961000000,32.632948000000,0 105.014852000000,32.640127000000,0 105.030195000000,32.650449000000,0 105.079357000000,32.637223000000,0 105.095931000000,32.607700000000,0 105.110826000000,32.594145000000,0 105.143862000000,32.601245000000,0 105.184737000000,32.617381000000,0 105.186865000000,32.625850000000,0 105.215086000000,32.636820000000,0 105.219677000000,32.666334000000,0 105.241179000000,32.668914000000,0 105.261785000000,32.653191000000,0 105.297733000000,32.657061000000,0 105.308708000000,32.671090000000,0 105.346895000000,32.682699000000,0 105.365597000000,32.710425000000,0 105.394266000000,32.714293000000,0 105.425398000000,32.733953000000,0 105.448916000000,32.732744000000,0 105.459443000000,32.752400000000,0 105.453283000000,32.767623000000,0 105.425174000000,32.774951000000,0 105.427526000000,32.784292000000,0 105.399753000000,32.829049000000,0 105.380827000000,32.878771000000,0 105.407816000000,32.885768000000,0 105.413080000000,32.918898000000,0 105.425510000000,32.931117000000,0 105.456307000000,32.932645000000,0 105.486768000000,32.921390000000,0 105.495503000000,32.873221000000,0 105.524507000000,32.847718000000,0 105.535818000000,32.789847000000,0 105.556312000000,32.792021000000,0 105.554744000000,32.773985000000,0 105.568070000000,32.758763000000,0 105.557880000000,32.752964000000,0 105.556312000000,32.732019000000,0 105.585204000000,32.729119000000,0 105.596403000000,32.699303000000,0 105.625408000000,32.702044000000,0 105.649261000000,32.718725000000,0 105.678042000000,32.726541000000,0 105.719253000000,32.759730000000,0 105.735940000000,32.753850000000,0 105.750722000000,32.767945000000,0 105.768752000000,32.767542000000,0 105.779615000000,32.750225000000,0 105.822730000000,32.771649000000,0 105.816906000000,32.790411000000,0 105.831129000000,32.826071000000,0 105.850727000000,32.818103000000,0 105.857782000000,32.827439000000,0 105.893170000000,32.838464000000,0 105.927214000000,32.825991000000,0 105.969321000000,32.849005000000,0 105.995190000000,32.828003000000,0 106.011541000000,32.829693000000,0 106.021732000000,32.857534000000,0 106.046705000000,32.852224000000,0 106.069998000000,32.824059000000,0 106.093627000000,32.823737000000,0 106.094747000000,32.795966000000,0 106.065519000000,32.783486000000,0 106.062047000000,32.767300000000,0 106.119944000000,32.719611000000,0 106.145366000000,32.720417000000,0 106.153653000000,32.705751000000,0 106.171795000000,32.709136000000,0 106.174370000000,32.697611000000,0 106.256457000000,32.693259000000,0 106.278855000000,32.670687000000,0 106.305508000000,32.679636000000,0 106.351199000000,32.671897000000,0 106.383227000000,32.646578000000,0 106.389050000000,32.626738000000,0 106.420519000000,32.616655000000,0 106.450979000000,32.640207000000,0 106.451651000000,32.660125000000,0 106.472929000000,32.650368000000,0 106.498126000000,32.649320000000,0 106.517276000000,32.668027000000,0 106.566774000000,32.675847000000,0 106.588612000000,32.688584000000,0 106.629375000000,32.681248000000,0 106.640350000000,32.687294000000,0 106.645278000000,32.636820000000,0 106.658044000000,32.622463000000,0 106.652109000000,32.590756000000,0 106.658380000000,32.566221000000,0 106.649421000000,32.504210000000,0 106.674842000000,32.486196000000,0 106.689849000000,32.453633000000,0 106.684697000000,32.418066000000,0 106.691528000000,32.404159000000,0 106.688953000000,32.348024000000,0 106.725909000000,32.336939000000,0 106.737779000000,32.315330000000,0 106.745058000000,32.322938000000,0 106.776191000000,32.296874000000,0 106.755361000000,32.285296000000,0 106.716950000000,32.294607000000,0 106.718405000000,32.269263000000,0 106.688393000000,32.266267000000,0 106.674842000000,32.272664000000,0 106.666219000000,32.249663000000,0 106.594547000000,32.237270000000,0 106.564647000000,32.227548000000,0 106.556919000000,32.175600000000,0 106.567558000000,32.128407000000,0 106.535194000000,32.098474000000,0 106.559159000000,32.082733000000,0 106.533514000000,32.081840000000,0 106.517836000000,32.068531000000,0 106.519628000000,32.050186000000,0 106.501038000000,32.048969000000,0 106.508765000000,32.024775000000,0 106.493087000000,32.006016000000,0 106.482112000000,31.977098000000,0 106.445492000000,31.977179000000,0 106.464754000000,31.954591000000,0 106.463522000000,31.941670000000,0 106.446052000000,31.943295000000,0 106.428694000000,31.922813000000,0 106.427462000000,31.915009000000,0 106.408984000000,31.902081000000,0</coordinates></LinearRing></outerBoundaryIs></Polygon>
    </Placemark>
  </Document>
</kml>
