<?xml version="1.0" encoding="UTF-8"?>
<kml xmlns="http://www.opengis.net/kml/2.2">
<Document>
<name>广安市</name>
<Placemark><name>广安市</name><MultiGeometry><Polygon><outerBoundaryIs><LinearRing><coordinates>106.948539999999994,30.040161000000001,0 106.914831000000007,30.033943000000001,0 106.913599000000005,30.025568,0 106.884259,30.034357,0 106.861412999999999,30.028138999999999,0 106.842039,30.049115,0 106.830168999999998,30.033943000000001,0 106.800044,30.030543000000002,0 106.785486000000006,30.017275999999999,0 106.732404000000002,30.026812,0 106.725797,30.057072999999999,0 106.700263000000007,30.073651000000002,0 106.703175000000002,30.118148000000001,0 106.673274000000006,30.122042,0 106.677642000000006,30.157409000000001,0 106.631838999999999,30.186554000000001,0 106.624448000000001,30.227111000000001,0 106.611457000000001,30.228020999999998,0 106.642142000000007,30.246556000000002,0 106.634862999999996,30.265666,0 106.611008999999996,30.292712000000002,0 106.560278999999994,30.31512,0 106.544825000000003,30.296764,0 106.449747000000002,30.297839,0 106.428582000000006,30.291554000000001,0 106.434741000000002,30.276997999999999,0 106.407976000000005,30.276171000000001,0 106.427797999999996,30.253754000000001,0 106.402713000000006,30.242087999999999,0 106.372587999999993,30.248211000000001,0 106.349294999999998,30.245232000000001,0 106.335071999999997,30.226365999999999,0 106.300579999999997,30.238530000000001,0 106.296436999999997,30.205840999999999,0 106.278407000000001,30.195743,0 106.264296000000002,30.209731999999999,0 106.260600999999994,30.196985000000002,0 106.245930000000001,30.196487999999999,0 106.232268000000005,30.212546,0 106.212558000000001,30.203109999999999,0 106.192288000000005,30.216270000000002,0 106.201023000000006,30.228020999999998,0 106.180418000000003,30.232821000000001,0 106.180418000000003,30.277825,0 106.171234999999996,30.305033000000002,0 106.149732999999998,30.309249999999999,0 106.131815000000003,30.324131999999999,0 106.131815000000003,30.301808000000001,0 106.114793000000006,30.317353000000001,0 106.088363999999999,30.323139999999999,0 106.089259999999996,30.345541000000001,0 106.07347,30.334135,0 106.033714000000003,30.361823000000001,0 106.032145999999997,30.371821000000001,0 106.000789999999995,30.376283000000001,0 105.987239000000002,30.394047,0 105.989814999999993,30.41255,0 105.979399999999998,30.427581,0 105.963834000000006,30.424690999999999,0 105.948267999999999,30.441618999999999,0 105.950171999999995,30.452931,0 105.971225000000004,30.456150999999998,0 105.970664999999997,30.477118999999998,0 105.980856000000003,30.488344000000001,0 106.024754999999999,30.482071000000001,0 106.028002999999998,30.505261000000001,0 106.039426000000006,30.518215999999999,0 106.066637999999998,30.491727000000001,0 106.093851000000001,30.504189,0 106.112776999999994,30.503198000000001,0 106.123192000000003,30.544449,0 106.157796000000005,30.598049,0 106.180194,30.595658,0 106.192176000000003,30.612969,0 106.178961999999999,30.620058,0 106.166642999999993,30.648323999999999,0 106.217821999999998,30.677651999999998,0 106.225773000000004,30.695195999999999,0 106.237531000000004,30.687453999999999,0 106.238090999999997,30.706807000000001,0 106.217485999999994,30.704666,0 106.207631000000006,30.722863,0 106.250746000000007,30.719322999999999,0 106.286805999999999,30.705159999999999,0 106.300467999999995,30.686218,0 106.354557999999997,30.722121999999999,0 106.366877000000002,30.712736,0 106.364300999999998,30.697337000000001,0 106.389049999999997,30.679876,0 106.403609000000003,30.695525,0 106.423094000000006,30.693218999999999,0 106.420855000000003,30.708207000000002,0 106.441124000000002,30.727143999999999,0 106.448068000000006,30.753321,0 106.466545999999994,30.760892999999999,0 106.487599000000003,30.787966000000001,0 106.507756999999998,30.784510999999998,0 106.506300999999993,30.762868999999998,0 106.528923000000006,30.732496000000001,0 106.542809000000005,30.743033,0 106.587603999999999,30.739740000000001,0 106.584243999999998,30.756861000000001,0 106.618401000000006,30.766572,0 106.626463999999999,30.789365,0 106.616496999999995,30.801704999999998,0 106.617281000000006,30.827780000000001,0 106.629598999999999,30.821035999999999,0 106.675178000000002,30.838882000000002,0 106.685256999999993,30.829342,0 106.730164000000002,30.832632,0 106.739123000000006,30.807874999999999,0 106.809899000000001,30.763197999999999,0 106.831176999999997,30.757107000000001,0 106.840472000000005,30.738340999999998,0 106.880450999999994,30.733978,0 106.883587000000006,30.715617999999999,0 106.949546999999995,30.707136999999999,0 106.924126000000001,30.684818,0 106.904527999999999,30.702359999999999,0 106.890305999999995,30.697666000000002,0 106.904304999999994,30.664224999999998,0 106.949323000000007,30.635715999999999,0 106.968585000000004,30.645522,0 106.998037999999994,30.635634,0 107.026819000000003,30.645192999999999,0 107.043280999999993,30.642803000000001,0 107.032082000000003,30.613216999999999,0 107.017747999999997,30.548656000000001,0 106.984599000000003,30.546510999999999,0 106.974632999999997,30.533726000000001,0 106.98348,30.499485,0 107.002070000000003,30.505921000000001,0 107.010917000000006,30.520690999999999,0 107.037570000000002,30.517143000000001,0 107.039361,30.515409999999999,0 107.076429000000005,30.514089999999999,0 107.082364999999996,30.486198000000002,0 107.118200999999999,30.485620000000001,0 107.122792000000004,30.471671000000001,0 107.142613999999995,30.470020000000002,0 107.131303000000003,30.486363000000001,0 107.095354999999998,30.506250999999999,0 107.111592999999999,30.525970999999998,0 107.140822,30.520938000000001,0 107.174418000000003,30.502867999999999,0 107.189200999999997,30.516483000000001,0 107.184944999999999,30.535705,0 107.204206999999997,30.524321,0 107.213949999999997,30.501218000000001,0 107.195695999999998,30.492058,0 107.164114999999995,30.458793,0 107.186177000000001,30.450454000000001,0 107.191776000000004,30.432123000000001,0 107.219661000000002,30.436995,0 107.225371999999993,30.424112999999998,0 107.206895000000003,30.410072,0 107.217533000000003,30.406438000000001,0 107.208798000000002,30.391155000000001,0 107.225932,30.380084,0 107.229179999999999,30.369838000000001,0 107.221340999999995,30.346119999999999,0 107.234779000000003,30.344550000000002,0 107.238810999999998,30.346616000000001,0 107.241611000000006,30.347856,0 107.251801999999998,30.344301999999999,0 107.260424999999998,30.328927,0 107.261431999999999,30.326281000000002,0 107.272295,30.322147999999999,0 107.278790000000001,30.346202999999999,0 107.276662999999999,30.352401,0 107.276326999999995,30.357195000000001,0 107.287749000000005,30.363061999999999,0 107.304772,30.354880999999999,0 107.286742000000004,30.334796000000001,0 107.272743000000006,30.305447000000001,0 107.256056999999998,30.263763999999998,0 107.220220999999995,30.212793999999999,0 107.173298000000003,30.164860999999998,0 107.136454000000001,30.134385000000002,0 107.131303000000003,30.121545000000001,0 107.106554000000003,30.11384,0 107.103082000000001,30.090143000000001,0 107.080124999999995,30.094204000000001,0 107.073853,30.080943999999999,0 107.084491999999997,30.063870999999999,0 107.059295000000006,30.043146,0 107.042496999999997,30.055084000000001,0 107.042721,30.035021,0 107.020658999999995,30.036845,0 106.981911999999994,30.085170999999999,0 106.976088000000004,30.083596,0 106.956715000000003,30.067518,0 106.948539999999994,30.040161000000001,0</coordinates></LinearRing></outerBoundaryIs><innerBoundaryIs><LinearRing><coordinates>107.254153000000002,30.325951,0 107.253592999999995,30.327356000000002,0 107.253257000000005,30.325951,0 107.254153000000002,30.325951,0</coordinates></LinearRing></innerBoundaryIs></Polygon></MultiGeometry></Placemark>
</Document>
</kml>