<?xml version="1.0" encoding="UTF-8"?>
<kml xmlns="http://www.opengis.net/kml/2.2">
  <Document>
    <name>德阳市</name>
    <Placemark>
      <name>德阳市</name>
      <Polygon><outerBoundaryIs><LinearRing><coordinates>104.903649000000,30.943015000000,0 104.904769000000,30.943425000000,0 104.931646000000,30.945808000000,0 104.947436000000,30.912124000000,0 104.945308000000,30.897496000000,0 104.967482000000,30.894949000000,0 104.960427000000,30.865029000000,0 104.992007000000,30.870125000000,0 104.987192000000,30.843076000000,0 104.998502000000,30.805901000000,0 105.025267000000,30.781878000000,0 105.070510000000,30.771756000000,0 105.081149000000,30.755873000000,0 105.115865000000,30.759247000000,0 105.118329000000,30.750276000000,0 105.156517000000,30.732496000000,0 105.157972000000,30.706313000000,0 105.168723000000,30.706395000000,0 105.174547000000,30.697666000000,0 105.161108000000,30.672545000000,0 105.146998000000,30.669168000000,0 105.142742000000,30.653185000000,0 105.153829000000,30.640249000000,0 105.130088000000,30.624756000000,0 105.117657000000,30.602913000000,0 105.094812000000,30.584198000000,0 105.079021000000,30.543129000000,0 105.066927000000,30.535870000000,0 105.048449000000,30.545192000000,0 105.022916000000,30.546099000000,0 105.025043000000,30.530178000000,0 104.983944000000,30.529271000000,0 104.963226000000,30.567460000000,0 104.970393000000,30.586425000000,0 104.953371000000,30.612475000000,0 104.930190000000,30.601429000000,0 104.932206000000,30.617091000000,0 104.910928000000,30.625662000000,0 104.886403000000,30.609343000000,0 104.878788000000,30.617997000000,0 104.859078000000,30.611321000000,0 104.858854000000,30.582385000000,0 104.819098000000,30.580076000000,0 104.819994000000,30.598296000000,0 104.847319000000,30.631101000000,0 104.842728000000,30.649395000000,0 104.821226000000,30.643874000000,0 104.818315000000,30.664307000000,0 104.800956000000,30.690995000000,0 104.788750000000,30.694043000000,0 104.788526000000,30.721299000000,0 104.768032000000,30.718170000000,0 104.750786000000,30.726898000000,0 104.732084000000,30.778257000000,0 104.718086000000,30.771756000000,0 104.698376000000,30.825559000000,0 104.640366000000,30.837895000000,0 104.629952000000,30.852449000000,0 104.613937000000,30.847763000000,0 104.596355000000,30.864535000000,0 104.585269000000,30.862891000000,0 104.520764000000,30.882456000000,0 104.533083000000,30.917875000000,0 104.511917000000,30.935868000000,0 104.495791000000,30.935457000000,0 104.465218000000,30.950900000000,0 104.445060000000,30.940468000000,0 104.396010000000,30.942358000000,0 104.389739000000,30.925681000000,0 104.367117000000,30.933650000000,0 104.351887000000,30.902345000000,0 104.322322000000,30.891743000000,0 104.288726000000,30.902920000000,0 104.244491000000,30.896921000000,0 104.215710000000,30.898400000000,0 104.202384000000,30.913110000000,0 104.168787000000,30.918533000000,0 104.149974000000,30.913110000000,0 104.142582000000,30.925845000000,0 104.166324000000,30.951311000000,0 104.166884000000,30.993438000000,0 104.143478000000,31.011580000000,0 104.117385000000,31.017572000000,0 104.106970000000,31.032263000000,0 104.106410000000,31.031771000000,0 104.094876000000,31.032756000000,0 104.060608000000,31.064100000000,0 104.057584000000,31.078210000000,0 104.019844000000,31.103963000000,0 104.022868000000,31.142661000000,0 104.009429000000,31.153235000000,0 104.014693000000,31.167577000000,0 103.983000000000,31.200925000000,0 103.949404000000,31.215997000000,0 103.929134000000,31.234425000000,0 103.928014000000,31.272497000000,0 103.914128000000,31.278964000000,0 103.891618000000,31.308017000000,0 103.894418000000,31.326018000000,0 103.928350000000,31.355139000000,0 103.894754000000,31.408858000000,0 103.897554000000,31.416377000000,0 103.868437000000,31.420954000000,0 103.828682000000,31.412454000000,0 103.816027000000,31.431906000000,0 103.802588000000,31.430108000000,0 103.795757000000,31.471777000000,0 103.842120000000,31.510896000000,0 103.857798000000,31.538490000000,0 103.898226000000,31.512856000000,0 103.915136000000,31.538409000000,0 103.907409000000,31.564444000000,0 103.923311000000,31.603280000000,0 103.917376000000,31.612089000000,0 103.928238000000,31.639572000000,0 103.962842000000,31.656612000000,0 103.989384000000,31.682370000000,0 104.016037000000,31.678539000000,0 104.040786000000,31.697691000000,0 104.085917000000,31.688075000000,0 104.093980000000,31.693535000000,0 104.116937000000,31.677724000000,0 104.098459000000,31.648622000000,0 104.102715000000,31.630602000000,0 104.132727000000,31.605319000000,0 104.146054000000,31.564934000000,0 104.161060000000,31.556120000000,0 104.152325000000,31.541755000000,0 104.155685000000,31.519061000000,0 104.170579000000,31.512366000000,0 104.185586000000,31.520286000000,0 104.202944000000,31.514570000000,0 104.236428000000,31.463608000000,0 104.270920000000,31.459360000000,0 104.285702000000,31.436318000000,0 104.311011000000,31.427738000000,0 104.326914000000,31.399294000000,0 104.347407000000,31.381798000000,0 104.358158000000,31.386376000000,0 104.375740000000,31.373784000000,0 104.387051000000,31.382861000000,0 104.418295000000,31.374847000000,0 104.478545000000,31.385068000000,0 104.477313000000,31.405588000000,0 104.496911000000,31.407795000000,0 104.523676000000,31.442610000000,0 104.585045000000,31.402482000000,0 104.590532000000,31.375665000000,0 104.586165000000,31.357674000000,0 104.656829000000,31.331090000000,0 104.658172000000,31.311127000000,0 104.670827000000,31.299998000000,0 104.677434000000,31.266849000000,0 104.697256000000,31.274298000000,0 104.724917000000,31.271351000000,0 104.731524000000,31.281174000000,0 104.748770000000,31.275117000000,0 104.741939000000,31.232623000000,0 104.713942000000,31.216079000000,0 104.719654000000,31.162660000000,0 104.743507000000,31.167168000000,0 104.756721000000,31.146104000000,0 104.757393000000,31.144219000000,0 104.762321000000,31.132004000000,0 104.788974000000,31.130283000000,0 104.791885000000,31.118394000000,0 104.774751000000,31.099616000000,0 104.806780000000,31.067135000000,0 104.819882000000,31.064182000000,0 104.825930000000,31.023564000000,0 104.838360000000,31.013878000000,0 104.825930000000,30.997625000000,0 104.846311000000,30.981368000000,0 104.854710000000,30.959442000000,0 104.841496000000,30.946465000000,0 104.870165000000,30.946465000000,0 104.875652000000,30.937757000000,0 104.876772000000,30.937347000000,0 104.891554000000,30.936607000000,0 104.894578000000,30.936936000000,0 104.903649000000,30.943015000000,0</coordinates></LinearRing></outerBoundaryIs></Polygon>
    </Placemark>
  </Document>
</kml>
