<?xml version="1.0" encoding="UTF-8"?>
<kml xmlns="http://www.opengis.net/kml/2.2">
<Document>
<name>攀枝花市</name>
<Placemark><name>攀枝花市</name><MultiGeometry><Polygon><outerBoundaryIs><LinearRing><coordinates>102.001383000000004,26.633631999999999,0 102.011125000000007,26.598524999999999,0 102.030610999999993,26.596897999999999,0 102.038561999999999,26.571717,0 102.034082999999995,26.541132999999999,0 102.050769000000003,26.49417,0 102.033411000000001,26.470768,0 102.029490999999993,26.434068,0 102.020195999999999,26.422832,0 101.994999000000007,26.431408999999999,0 101.982121000000006,26.454906000000001,0 101.942701,26.448989000000001,0 101.929039000000003,26.419487,0 101.939117999999993,26.410824000000002,0 101.927582999999998,26.362262999999999,0 101.935198,26.322953999999999,0 101.926015000000007,26.306213,0 101.921758999999994,26.270320000000002,0 101.902050000000003,26.243521000000001,0 101.906752999999995,26.191367,0 101.872260999999995,26.181483,0 101.840681000000004,26.160080000000001,0 101.844712000000001,26.141683,0 101.832282000000006,26.117176000000001,0 101.839896999999993,26.082429000000001,0 101.819514999999996,26.087074000000001,0 101.796558000000005,26.114768999999999,0 101.797229000000002,26.142198,0 101.807643999999996,26.156298,0 101.773151999999996,26.168247000000001,0 101.735748000000001,26.219982000000002,0 101.705063999999993,26.224449,0 101.690056999999996,26.241717000000001,0 101.671580000000006,26.231838,0 101.649966000000006,26.234244,0 101.630368000000004,26.224879000000001,0 101.616705999999994,26.249791999999999,0 101.59442,26.261558999999998,0 101.585796999999999,26.283888000000001,0 101.597443999999996,26.303466,0 101.621072999999996,26.312823999999999,0 101.646941999999996,26.305183,0 101.660381000000001,26.310849000000001,0 101.640334999999993,26.318833000000001,0 101.660605000000004,26.346816,0 101.631488000000004,26.359517,0 101.635632000000001,26.396069000000001,0 101.588149000000001,26.425833999999998,0 101.565639000000004,26.454563,0 101.530027000000004,26.467251999999998,0 101.506957999999997,26.499656000000002,0 101.458691000000002,26.495456000000001,0 101.439766000000006,26.512684,0 101.438422000000003,26.538477,0 101.422967,26.531707999999998,0 101.406616999999997,26.556383,0 101.396090000000001,26.592016999999998,0 101.400233999999998,26.605118999999998,0 101.452083999999999,26.601009000000001,0 101.461939000000001,26.606746000000001,0 101.461043000000004,26.640737000000001,0 101.481200999999999,26.673176999999999,0 101.454099999999997,26.691147999999998,0 101.454548000000003,26.703641000000001,0 101.472802000000001,26.721436000000001,0 101.498895000000005,26.732213999999999,0 101.492176000000001,26.746411999999999,0 101.510654000000002,26.754452000000001,0 101.513340999999997,26.768561999999999,0 101.465746999999993,26.786688000000002,0 101.445925000000003,26.774204999999998,0 101.459138999999993,26.747353,0 101.457123999999993,26.729733,0 101.436070000000001,26.740596,0 101.421623999999994,26.726312,0 101.389707000000001,26.723146,0 101.390266999999994,26.750004000000001,0 101.357791000000006,26.770613999999998,0 101.379852,26.786432000000001,0 101.372012999999995,26.800367000000001,0 101.399674000000005,26.840453,0 101.374701000000002,26.865317999999998,0 101.365405999999993,26.883686000000001,0 101.323299000000006,26.888299,0 101.311539999999994,26.902905000000001,0 101.293958000000003,26.896156999999999,0 101.267752999999999,26.902989999999999,0 101.255545999999995,26.923912999999999,0 101.264505,26.955504000000001,0 101.227101000000005,26.958919000000002,0 101.227213000000006,26.984441,0 101.137399000000002,27.022328999999999,0 101.157221000000007,27.094826000000001,0 101.145351000000005,27.103778999999999,0 101.168083999999993,27.165232,0 101.197424999999996,27.183209999999999,0 101.246026999999998,27.179205,0 101.283095000000003,27.197607000000001,0 101.293173999999993,27.189599000000001,0 101.315571000000006,27.197521999999999,0 101.334721000000002,27.179545999999998,0 101.355215000000001,27.184657999999999,0 101.394299000000004,27.145206000000002,0 101.414119999999997,27.162164000000001,0 101.426998999999995,27.190791999999998,0 101.419048000000004,27.215834999999998,0 101.470674000000002,27.238828999999999,0 101.495759000000007,27.228014000000002,0 101.514685,27.229801999999999,0 101.530474999999996,27.277823000000001,0 101.558359999999993,27.295356999999999,0 101.584228999999993,27.334671,0 101.598451999999995,27.340456,0 101.635407999999998,27.33952,0 101.633728000000005,27.327949,0 101.659261000000001,27.313569000000001,0 101.664748000000003,27.288888,0 101.643135000000001,27.24513,0 101.650750000000002,27.208169000000002,0 101.681994000000003,27.150404000000002,0 101.708759000000001,27.129011999999999,0 101.744483000000002,27.124835000000001,0 101.761729000000003,27.133444000000001,0 101.803725,27.114691000000001,0 101.817386999999997,27.101731999999998,0 101.833065000000005,27.122619,0 101.870356999999998,27.129694000000001,0 101.879204000000001,27.168129,0 101.862966,27.182784000000002,0 101.878196000000003,27.189855000000001,0 101.878084000000001,27.222733999999999,0 101.886258999999995,27.255603000000001,0 101.896786000000006,27.267095999999999,0 101.912240999999995,27.243683000000001,0 101.903617999999994,27.218561000000001,0 101.914367999999996,27.213194999999999,0 101.908433000000002,27.192665999999999,0 101.922094999999999,27.180654000000001,0 101.941021000000006,27.143841999999999,0 101.927246999999994,27.137108999999999,0 101.938782000000003,27.104033999999999,0 101.973050000000001,27.122619,0 101.993879000000007,27.115202,0 102.000263000000004,27.096872999999999,0 102.025908000000001,27.093461999999999,0 102.034082999999995,27.076152,0 102.049761000000004,27.082718,0 102.081565999999995,27.129268,0 102.086269000000001,27.146484000000001,0 102.114825999999994,27.159437,0 102.122664999999998,27.171878,0 102.161077000000006,27.182186999999999,0 102.176418999999996,27.137535,0 102.203295999999995,27.131398000000001,0 102.210351000000003,27.117760000000001,0 102.240700000000004,27.106591999999999,0 102.238684000000006,27.064298000000001,0 102.217517999999998,27.045960000000001,0 102.230172999999994,27.000485000000001,0 102.214494999999999,26.957297000000001,0 102.229164999999995,26.945174000000002,0 102.225916999999995,26.923998999999998,0 102.205312000000006,26.910419999999998,0 102.214158999999995,26.889153,0 102.204976000000002,26.852160000000001,0 102.202287999999996,26.840795,0 102.215615,26.813617000000001,0 102.192656999999997,26.820454999999999,0 102.182130000000001,26.812591000000001,0 102.174178999999995,26.802419,0 102.189857000000003,26.791903999999999,0 102.175075000000007,26.774975000000001,0 102.192993000000001,26.763601999999999,0 102.195680999999993,26.744616000000001,0 102.175859000000003,26.726568,0 102.178882999999999,26.708345999999999,0 102.157605000000004,26.692346000000001,0 102.157044999999997,26.680707999999999,0 102.135542999999998,26.674717999999999,0 102.132295999999997,26.637740999999998,0 102.114714000000006,26.634060000000002,0 102.084477000000007,26.654519000000001,0 102.068351000000007,26.656659000000001,0 102.073502000000005,26.670867000000001,0 102.054800999999998,26.692688,0 102.063087999999993,26.718613000000001,0 102.045730000000006,26.737517,0 102.033186999999998,26.712367,0 102.006534000000002,26.716387999999998,0 101.997462999999996,26.698848999999999,0 101.995559,26.653576999999999,0 101.984024000000005,26.638853999999998,0 102.001383000000004,26.633631999999999,0</coordinates></LinearRing></outerBoundaryIs><innerBoundaryIs><LinearRing><coordinates>101.916719999999998,26.703126999999999,0 101.913023999999993,26.680537000000001,0 101.920528000000004,26.635515000000002,0 101.938782000000003,26.639367,0 101.946509000000006,26.707661999999999,0 101.916719999999998,26.703126999999999,0</coordinates></LinearRing></innerBoundaryIs></Polygon></MultiGeometry></Placemark>
</Document>
</kml>