<?xml version="1.0" encoding="UTF-8"?>
<kml xmlns="http://www.opengis.net/kml/2.2">
<Document>
<name>甘孜藏族自治州</name>
<Placemark><name>甘孜藏族自治州</name><MultiGeometry><Polygon><outerBoundaryIs><LinearRing><coordinates>100.061536000000004,28.082775999999999,0 100.072063,28.08548,0 100.100284000000002,28.047957,0 100.201744000000005,27.984204999999999,0 100.225821999999994,27.987165000000001,0 100.234444999999994,27.971011000000001,0 100.256169999999997,27.961283000000002,0 100.270505,27.966358,0 100.302981000000003,28.009829,0 100.337024999999997,28.010166999999999,0 100.349007999999998,28.017354000000001,0 100.380812000000006,28.015494,0 100.396715,28.005516,0 100.418104,28.005600999999999,0 100.426839000000001,28.019468,0 100.404666000000006,28.073143000000002,0 100.401753999999997,28.096464000000001,0 100.387420000000006,28.133462999999999,0 100.380251999999999,28.187925,0 100.367822000000004,28.206242,0 100.372861,28.250458999999999,0 100.413848999999999,28.290779000000001,0 100.416424000000006,28.306463999999998,0 100.390331000000003,28.324929000000001,0 100.398617999999999,28.359404999999999,0 100.420792000000006,28.38654,0 100.423928000000004,28.420152999999999,0 100.416200000000003,28.433209000000002,0 100.439605999999998,28.448198999999999,0 100.449909000000005,28.474722,0 100.491119999999995,28.500312000000001,0 100.506013999999993,28.524213,0 100.514972999999998,28.559633000000002,0 100.530428000000001,28.574100999999999,0 100.520124999999993,28.616568000000001,0 100.526284000000004,28.643048,0 100.523707999999999,28.671118,0 100.491119999999995,28.694811999999999,0 100.472418000000005,28.696493,0 100.472082,28.708590000000001,0 100.508814000000001,28.708673999999998,0 100.539946,28.736726000000001,0 100.562792000000002,28.749573999999999,0 100.594707999999997,28.743948,0 100.579926,28.797929,0 100.586533000000003,28.821425999999999,0 100.563800000000001,28.833424999999998,0 100.558536000000004,28.861360000000001,0 100.541737999999995,28.889790999999999,0 100.543081999999998,28.91704,0 100.530315999999999,28.924416999999998,0 100.521356999999995,28.949646000000001,0 100.544762000000006,28.955261,0 100.577014000000005,28.945456,0 100.609155000000001,28.954591000000001,0 100.634240000000005,28.990117000000001,0 100.658092999999994,29.005447,0 100.650030000000001,29.019349999999999,0 100.680154999999999,29.014157999999998,0 100.704791999999998,28.997322,0 100.714198999999994,29.005195000000001,0 100.779263999999998,29.010389,0 100.797517999999997,28.989279,0 100.820475000000002,28.993048999999999,0 100.845783999999995,29.020689999999998,0 100.832458000000003,29.055357000000001,0 100.786430999999993,29.057867999999999,0 100.772880000000001,29.063811999999999,0 100.772431999999995,29.087668000000001,0 100.802556999999993,29.107837,0 100.837496999999999,29.112940999999999,0 100.883412000000007,29.146405000000001,0 100.916336000000001,29.139880999999999,0 100.924734999999998,29.119802,0 100.922383999999994,29.099468000000002,0 100.936381999999995,29.087918999999999,0 100.929102999999998,29.061216999999999,0 100.959563000000003,29.074109,0 101.010182,29.126830000000002,0 101.050273000000004,29.145651999999998,0 101.056881000000004,29.166395000000001,0 101.09742,29.146573,0 101.118362000000005,29.111937000000001,0 101.116345999999993,29.070592999999999,0 101.138855000000007,29.053515000000001,0 101.142326999999995,29.031326,0 101.155877000000004,29.017759000000002,0 101.145351000000005,28.999751,0 101.160357000000005,28.946964999999999,0 101.183986000000004,28.941265000000001,0 101.180851000000004,28.905470999999999,0 101.192609000000004,28.891133,0 101.171667999999997,28.836445000000001,0 101.173123000000004,28.788696000000002,0 101.189921999999996,28.762084999999999,0 101.205039999999997,28.754947999999999,0 101.200224000000006,28.717409,0 101.209182999999996,28.700609,0 101.202575999999993,28.652714,0 101.229676999999995,28.66658,0 101.277047999999994,28.66574,0 101.297542000000007,28.673134999999998,0 101.356223,28.666160000000001,0 101.369213000000002,28.647755,0 101.367645999999993,28.629262000000001,0 101.427222999999998,28.646325999999998,0 101.445813000000001,28.625478999999999,0 101.472914000000003,28.631532,0 101.489823999999999,28.626823999999999,0 101.516925000000001,28.58924,0 101.550745000000006,28.599415,0 101.575382000000005,28.582260000000002,0 101.591843999999995,28.555427000000002,0 101.620176999999998,28.537676000000001,0 101.617714000000007,28.509402000000001,0 101.629919999999998,28.491558000000001,0 101.594532000000001,28.475227,0 101.569895000000002,28.474215999999998,0 101.515356999999995,28.494083,0 101.473697999999999,28.499048999999999,0 101.469217999999998,28.50553,0 101.427559000000002,28.505025,0 101.413000999999994,28.521099,0 101.383995999999996,28.482887999999999,0 101.367869999999996,28.472449000000001,0 101.373020999999994,28.461756000000001,0 101.425543000000005,28.489538,0 101.439654000000004,28.471691,0 101.454436000000001,28.411055999999999,0 101.468209999999999,28.404316999999999,0 101.482096999999996,28.318521,0 101.509758000000005,28.314727000000001,0 101.562280000000001,28.333106000000001,0 101.591621000000004,28.358056000000001,0 101.620176999999998,28.374911000000001,0 101.631711999999993,28.354854,0 101.667547999999996,28.351818999999999,0 101.715479000000002,28.380894000000001,0 101.730709000000004,28.410634999999999,0 101.731829000000005,28.434556000000001,0 101.745827000000006,28.453672000000001,0 101.757137999999998,28.493410000000001,0 101.753553999999994,28.533888999999999,0 101.832392999999996,28.594033,0 101.874165000000005,28.613121,0 101.904289000000006,28.606562,0 101.918735999999996,28.612615999999999,0 101.928031000000004,28.640947000000001,0 101.946620999999993,28.67137,0 101.985032000000004,28.702877000000001,0 102.018068999999997,28.713965000000002,0 102.022772000000003,28.723372999999999,0 101.997799000000001,28.750162,0 101.989288000000002,28.803719999999998,0 101.962746999999993,28.824027000000001,0 101.985479999999995,28.857585,0 101.988392000000005,28.888030000000001,0 102.006309999999999,28.907567,0 102.050993000000005,28.920477000000002,0 102.058384000000004,28.954087999999999,0 102.099708000000007,28.980650000000001,0 102.149990000000003,29.031158000000001,0 102.165220000000005,29.036518000000001,0 102.156485000000004,29.045393000000001,0 102.168468000000004,29.07302,0 102.151669999999996,29.102647999999999,0 102.160741000000002,29.130344000000001,0 102.131736000000004,29.159872,0 102.129608000000005,29.176096000000001,0 102.109561999999997,29.185043,0 102.088509000000002,29.173335999999999,0 102.056032000000002,29.177852000000001,0 102.093996000000004,29.208452999999999,0 102.119529,29.221910999999999,0 102.123337000000006,29.238627000000001,0 102.096348000000006,29.271799999999999,0 102.046065999999996,29.297778999999998,0 101.983801,29.299032,0 101.960171000000003,29.314816,0 101.949532000000005,29.344124000000001,0 101.956699999999998,29.367414,0 101.972154000000003,29.382770000000001,0 101.984136000000007,29.422402999999999,0 101.952219999999997,29.437584999999999,0 101.950764000000007,29.462688,0 101.935981999999996,29.50104,0 101.949420000000003,29.503874,0 101.974170000000001,29.489702000000001,0 102.012021000000004,29.491119999999999,0 102.033747000000005,29.500039000000001,0 102.090637000000001,29.496120999999999,0 102.133080000000007,29.510458,0 102.145622000000003,29.504207000000001,0 102.145173999999997,29.532209999999999,0 102.165779999999998,29.532876999999999,0 102.178546999999995,29.512709000000001,0 102.175859000000003,29.466524,0 102.203295999999995,29.456851,0 102.314051000000006,29.533460000000002,0 102.318754999999996,29.551957999999999,0 102.310019999999994,29.575282999999999,0 102.284374999999997,29.590191999999998,0 102.277208000000002,29.603767000000001,0 102.296132999999998,29.683592999999998,0 102.305763999999996,29.699566999999998,0 102.336000999999996,29.720113999999999,0 102.328609999999998,29.736747999999999,0 102.353246999999996,29.763190000000002,0 102.344064000000003,29.789209,0 102.326257999999996,29.799599000000001,0 102.323346000000001,29.824777999999998,0 102.291094000000001,29.838236999999999,0 102.291094000000001,29.854519,0 102.270824000000005,29.881595000000001,0 102.282583000000002,29.896955999999999,0 102.284486999999999,29.917877000000001,0 102.299380999999997,29.934062999999998,0 102.303189000000003,29.954561999999999,0 102.292214000000001,29.993721000000001,0 102.274968000000001,30.017192999999999,0 102.276871999999997,30.039995000000001,0 102.268136999999996,30.077380999999999,0 102.295125999999996,30.101164000000001,0 102.293670000000006,30.128834999999999,0 102.328946000000002,30.187961000000001,0 102.341824000000003,30.200296000000002,0 102.402298000000002,30.234228000000002,0 102.414168000000004,30.303958000000002,0 102.432758000000007,30.355129000000002,0 102.425255000000007,30.384546,0 102.434438,30.421386999999999,0 102.419656000000003,30.452766,0 102.417975999999996,30.524156000000001,0 102.431190000000001,30.596895,0 102.443397000000004,30.618245000000002,0 102.471729999999994,30.640001000000002,0 102.473298,30.670898000000001,0 102.486512000000005,30.685807,0 102.494462999999996,30.713642,0 102.486400000000003,30.744761,0 102.469042000000002,30.768712000000001,0 102.475984999999994,30.738999,0 102.477328999999997,30.692972000000001,0 102.447316999999998,30.681853,0 102.391771000000006,30.711995000000002,0 102.348095999999998,30.705901000000001,0 102.316738999999998,30.677899,0 102.296469000000002,30.676086999999999,0 102.273736,30.654091000000001,0 102.273399999999995,30.635634,0 102.246859000000001,30.621459000000002,0 102.227932999999993,30.636869999999998,0 102.184818000000007,30.627887000000001,0 102.177314999999993,30.594504000000001,0 102.148086000000006,30.610579000000001,0 102.114714000000006,30.638106000000001,0 102.104747000000003,30.658128000000001,0 102.066111000000006,30.668590999999999,0 102.047968999999995,30.661670999999998,0 102.054576999999995,30.698983999999999,0 102.039457999999996,30.706641999999999,0 102.057152000000002,30.736118000000001,0 102.070367000000005,30.740728000000001,0 102.039569999999998,30.763280000000002,0 102.066111000000006,30.792490999999998,0 102.069135000000003,30.827532999999999,0 102.065438999999998,30.871030000000001,0 102.087277,30.890509999999999,0 102.112585999999993,30.898399999999999,0 102.163427999999996,30.902016,0 102.170596000000003,30.895769999999999,0 102.200944000000007,30.909904999999998,0 102.188625999999999,30.933731999999999,0 102.194225000000003,30.950161000000001,0 102.178211000000005,30.986951999999999,0 102.163876000000002,30.995982999999999,0 102.168356000000003,31.032920000000001,0 102.163092000000006,31.090102999999999,0 102.172835000000006,31.107161000000001,0 102.154469000000006,31.140612000000001,0 102.131399999999999,31.130693000000001,0 102.078317999999996,31.084033000000002,0 102.034306999999998,31.073288000000002,0 102.026020000000003,31.089037000000001,0 102.013700999999998,31.144628000000001,0 101.985256000000007,31.156348999999999,0 101.974170000000001,31.177083,0 101.929935,31.168887999999999,0 101.910673000000003,31.146104000000001,0 101.884692000000001,31.160938999999999,0 101.878979999999999,31.190193000000001,0 101.863525999999993,31.201170999999999,0 101.858262999999994,31.266030000000001,0 101.836760999999996,31.281746999999999,0 101.814811000000006,31.284939000000001,0 101.789950000000005,31.276999,0 101.763745,31.282319999999999,0 101.765089000000003,31.309571999999999,0 101.715479000000002,31.289194999999999,0 101.708983000000003,31.315708999999998,0 101.691849000000005,31.326917999999999,0 101.685466000000005,31.353012,0 101.628016000000002,31.385313,0 101.610097999999994,31.382206,0 101.573031,31.341397000000001,0 101.563512000000003,31.366997000000001,0 101.545929999999998,31.378691,0 101.481984999999995,31.368469000000001,0 101.475601999999995,31.354239,0 101.447380999999993,31.347778000000002,0 101.469329999999999,31.330680999999998,0 101.452755999999994,31.294350999999999,0 101.438310000000001,31.307034999999999,0 101.426998999999995,31.345651,0 101.429799000000003,31.372149,0 101.456451999999999,31.389728000000002,0 101.464403000000004,31.410492000000001,0 101.449843999999999,31.435010999999999,0 101.415688000000003,31.436889999999998,0 101.405721,31.397494999999999,0 101.390154999999993,31.398803000000001,0 101.354990999999998,31.371003999999999,0 101.336736999999999,31.368877999999999,0 101.328450000000004,31.384823000000001,0 101.301012999999998,31.358654999999999,0 101.285223000000002,31.375665000000001,0 101.257114000000001,31.378609000000001,0 101.245243000000002,31.398966999999999,0 101.263385,31.443508999999999,0 101.264168999999995,31.464179999999999,0 101.241547999999995,31.518243999999999,0 101.221614000000002,31.535143000000001,0 101.202575999999993,31.506405000000001,0 101.185777999999999,31.509508,0 101.144231000000005,31.494973000000002,0 101.107499000000004,31.468999,0 101.099100000000007,31.487131999999999,0 101.078829999999996,31.493503,0 101.05968,31.548693,0 101.061136000000005,31.567544999999999,0 101.074798000000001,31.575704999999999,0 101.053968999999995,31.593246000000001,0 101.050496999999993,31.606380000000001,0 101.063488000000007,31.628319000000001,0 101.024516000000006,31.640877,0 101.016340999999997,31.653351000000001,0 100.968857999999997,31.682044000000001,0 100.964378999999994,31.718223999999999,0 100.952956,31.721807999999999,0 100.933245999999997,31.751131999999998,0 100.898306000000005,31.738181999999998,0 100.869078000000002,31.73753,0 100.852839000000003,31.758704999999999,0 100.862021999999996,31.785819,0 100.916895999999994,31.804949000000001,0 100.938958,31.825295000000001,0 100.952843999999999,31.860524000000002,0 100.992711999999997,31.864834999999999,0 100.998759000000007,31.900373999999999,0 100.987560000000002,31.911269000000001,0 100.991816,31.930616000000001,0 101.011750000000006,31.948983999999999,0 100.990471999999997,31.978884999999998,0 100.962027000000006,31.979697999999999,0 100.950044000000005,31.987496,0 100.880163999999994,31.967023999999999,0 100.869302000000005,31.958167,0 100.834809000000007,31.976528999999999,0 100.828986,31.989608,0 100.803788999999995,31.991883000000001,0 100.785199000000006,32.009751000000001,0 100.799757,32.050105000000002,0 100.785422999999994,32.049131000000003,0 100.766385,32.069017000000002,0 100.762912999999998,32.086627999999997,0 100.730548999999996,32.099772000000002,0 100.717335000000006,32.120376999999998,0 100.698633000000001,32.133436000000003,0 100.692473000000007,32.15598,0 100.726966000000004,32.162547000000004,0 100.720470000000006,32.183219999999999,0 100.682282999999998,32.187516000000002,0 100.666492000000005,32.218553999999997,0 100.638718999999995,32.233057000000002,0 100.629536000000002,32.226818999999999,0 100.599075999999997,32.231518000000001,0 100.580150000000003,32.260759999999998,0 100.588773000000003,32.269100999999999,0 100.573543000000001,32.280437999999997,0 100.552377000000007,32.282218999999998,0 100.553832999999997,32.303998,0 100.531659000000005,32.327066000000002,0 100.527180000000001,32.34592,0 100.537706999999997,32.364528999999997,0 100.530428000000001,32.378199000000002,0 100.537147000000004,32.393970000000003,0 100.562343999999996,32.419440999999999,0 100.594595999999996,32.427768,0 100.612961999999996,32.443207000000001,0 100.634128000000004,32.479329,0 100.622480999999993,32.503644999999999,0 100.659885000000003,32.514870999999999,0 100.667947999999996,32.523674,0 100.645438999999996,32.526420000000002,0 100.602883000000006,32.553629000000001,0 100.572310999999999,32.556776999999997,0 100.564920000000001,32.569611000000002,0 100.544762000000006,32.570095999999999,0 100.544650000000004,32.581474999999998,0 100.524379999999994,32.594951999999999,0 100.525052000000002,32.611249000000001,0 100.508702,32.610120000000002,0 100.516541000000004,32.630045000000003,0 100.488879999999995,32.667220999999998,0 100.476337999999998,32.672460999999998,0 100.470178000000004,32.694547999999998,0 100.449909000000005,32.694065000000002,0 100.434901999999994,32.720095000000001,0 100.420344,32.731777999999998,0 100.390107,32.695596000000002,0 100.378685000000004,32.698416999999999,0 100.398842000000002,32.739108999999999,0 100.400633999999997,32.756186,0 100.334450000000004,32.718240999999999,0 100.264345000000006,32.742733999999999,0 100.262106000000003,32.729118999999997,0 100.240268,32.722673,0 100.230861000000004,32.696241000000001,0 100.229741000000004,32.650530000000003,0 100.209919999999997,32.605843999999998,0 100.188081999999994,32.630771000000003,0 100.131863999999993,32.632465000000003,0 100.110139000000004,32.639239000000003,0 100.105435,32.656739000000002,0 100.087852999999996,32.669074999999999,0 100.125257000000005,32.714857000000002,0 100.138695999999996,32.720981000000002,0 100.136343999999994,32.740881000000002,0 100.121785000000003,32.776400000000002,0 100.117081999999996,32.802486999999999,0 100.123129000000006,32.837257000000001,0 100.109690999999998,32.846590999999997,0 100.109243000000006,32.862279999999998,0 100.088637000000006,32.864210999999997,0 100.082365999999993,32.885125000000002,0 100.066016000000005,32.895981999999997,0 100.029619999999994,32.895820999999998,0 100.038354999999996,32.929107999999999,0 100.002519000000007,32.941647000000003,0 99.970826000000002,32.939075000000003,0 99.956603999999999,32.948076999999998,0 99.947421000000006,32.986887000000003,0 99.908896999999996,33.020622000000003,0 99.903074000000004,33.047038000000001,0 99.877317000000005,33.045513,0 99.882692000000006,33.025199000000001,0 99.877764999999997,32.993715999999999,0 99.863653999999997,32.980218999999998,0 99.850887999999998,32.941887999999999,0 99.828714000000005,32.950969999999998,0 99.802845000000005,32.941969,0 99.788286999999997,32.956595999999998,0 99.775295999999997,32.952337,0 99.763986000000003,32.924444999999999,0 99.7744,32.922516000000002,0 99.791982000000004,32.883113999999999,0 99.786495000000002,32.861798,0 99.766897,32.826231999999997,0 99.769808999999995,32.802326000000001,0 99.760289999999998,32.769877000000001,0 99.737109000000004,32.745311999999998,0 99.739459999999994,32.732503000000001,0 99.717735000000005,32.732180999999997,0 99.706199999999995,32.764079000000002,0 99.651325999999997,32.772131999999999,0 99.640127000000007,32.790733000000003,0 99.607427000000001,32.780828999999997,0 99.586484999999996,32.792665,0 99.581782000000004,32.813515000000002,0 99.557145000000006,32.840074000000001,0 99.532396000000006,32.848039999999997,0 99.490176000000005,32.850935999999997,0 99.452771999999996,32.862440999999997,0 99.435301999999993,32.877242000000003,0 99.376172999999994,32.899842,0 99.354112000000001,32.885446000000002,0 99.343473000000003,32.895257999999998,0 99.327235000000002,32.881504999999997,0 99.282888,32.885044000000001,0 99.269113000000004,32.878529,0 99.259482000000006,32.907963000000002,0 99.245596000000006,32.928384000000001,0 99.248954999999995,32.951532999999998,0 99.233277000000001,32.954425999999998,0 99.234733000000006,32.983353000000001,0 99.215135000000004,32.990181,0 99.208640000000003,33.018694000000004,0 99.179411000000002,33.044870000000003,0 99.147606999999994,33.050409999999999,0 99.124649000000005,33.045994,0 99.092732999999996,33.078100999999997,0 99.075039000000004,33.075933999999997,0 99.025763999999995,33.095033000000001,0 99.014566000000002,33.081310999999999,0 98.969882999999996,33.099525999999997,0 98.957003999999998,33.118298000000003,0 98.935502,33.115651,0 98.902801999999994,33.125838000000002,0 98.895634999999999,33.135061,0 98.860695000000007,33.150058000000001,0 98.829673999999997,33.181325000000001,0 98.830905999999999,33.196874000000001,0 98.804700999999994,33.219310999999998,0 98.813547999999997,33.248311000000001,0 98.807501000000002,33.26529,0 98.785663,33.276820999999998,0 98.758786000000001,33.278101999999997,0 98.774017000000001,33.301799000000003,0 98.764274,33.321088000000003,0 98.783423999999997,33.344054,0 98.779167999999999,33.371651999999997,0 98.762817999999996,33.379010000000001,0 98.746579999999994,33.405158999999998,0 98.734037000000001,33.410274999999999,0 98.744228000000007,33.454315000000001,0 98.742211999999995,33.477725,0 98.722837999999996,33.486113000000003,0 98.724630000000005,33.505600999999999,0 98.680059,33.521571000000002,0 98.668747999999994,33.544324000000003,0 98.648031000000003,33.548794000000001,0 98.657774000000003,33.576805999999998,0 98.652510000000007,33.594996999999999,0 98.622721999999996,33.610233000000001,0 98.617570000000001,33.637269000000003,0 98.656654000000003,33.647314999999999,0 98.594500999999994,33.702390000000001,0 98.596181000000001,33.717129,0 98.581733999999997,33.732185000000001,0 98.538059000000004,33.747556000000003,0 98.516892999999996,33.774149999999999,0 98.497968,33.768497000000004,0 98.486768999999995,33.782111,0 98.492928000000006,33.793253999999997,0 98.463475000000003,33.848394999999996,0 98.435142999999997,33.843145,0 98.406921999999994,33.867243999999999,0 98.427080000000004,33.908189,0 98.411849000000004,33.924720999999998,0 98.415432999999993,33.956980000000001,0 98.431111000000001,33.961826000000002,0 98.440629999999999,33.981364999999997,0 98.428199000000006,34.029001999999998,0 98.391914999999997,34.058841999999999,0 98.401882000000001,34.087718000000002,0 98.338721000000007,34.094777000000001,0 98.308820999999995,34.087718000000002,0 98.209935999999999,34.078516999999998,0 98.157302000000001,34.107387000000003,0 98.141959999999997,34.104374,0 98.098172000000005,34.122928000000002,0 98.050353999999999,34.114682000000002,0 98.027844000000002,34.123325000000001,0 98.012613999999999,34.145760000000003,0 97.995592000000002,34.153765,0 97.944525999999996,34.198611999999997,0 97.888980000000004,34.204473999999998,0 97.810700999999995,34.207484000000001,0 97.796477999999993,34.199167000000003,0 97.790879000000004,34.178092999999997,0 97.773409000000001,34.162007000000003,0 97.667021000000005,34.127685,0 97.662988999999996,34.117457999999999,0 97.683370999999994,34.080737999999997,0 97.703192999999999,34.058126999999999,0 97.702297000000002,34.036780999999998,0 97.687403000000003,34.016618999999999,0 97.658510000000007,34.012174000000002,0 97.652798000000004,33.998359000000001,0 97.659853999999996,33.956344999999999,0 97.644399000000007,33.943314999999998,0 97.633984999999996,33.919077999999999,0 97.601844,33.930045,0 97.546745999999999,33.914150999999997,0 97.522109,33.903261000000001,0 97.503630999999999,33.912005000000001,0 97.482800999999995,33.896980999999997,0 97.468467000000004,33.902068999999997,0 97.460628,33.887360999999999,0 97.395339000000007,33.889270000000003,0 97.389628000000002,33.879967000000001,0 97.398026999999999,33.848314999999999,0 97.371821999999995,33.841951999999999,0 97.368797999999998,33.824131000000001,0 97.406425999999996,33.795164999999997,0 97.409897999999998,33.767620999999998,0 97.423224000000005,33.754961000000002,0 97.417849000000004,33.728521000000001,0 97.435319000000007,33.682468,0 97.405529999999999,33.626663000000001,0 97.415721000000005,33.605527000000002,0 97.437111000000002,33.600183000000001,0 97.448644999999999,33.583668000000003,0 97.472835000000003,33.587418,0 97.525244999999998,33.575769000000001,0 97.512029999999996,33.519415000000002,0 97.542154999999994,33.492662000000003,0 97.552570000000003,33.465662000000002,0 97.582357999999999,33.468777000000003,0 97.604643999999993,33.451838000000002,0 97.625585000000001,33.461506999999997,0 97.645183000000003,33.449041000000001,0 97.665004999999994,33.447682999999998,0 97.674859999999995,33.433058000000003,0 97.703641000000005,33.428981,0 97.741268000000005,33.411634999999997,0 97.750003000000007,33.397402999999997,0 97.719990999999993,33.386288,0 97.702297000000002,33.359734000000003,0 97.676316,33.357574,0 97.676091999999997,33.341012999999997,0 97.636784000000006,33.344614,0 97.622001999999995,33.335971999999998,0 97.615395000000007,33.301799000000003,0 97.606548000000004,33.287469000000002,0 97.606660000000005,33.262566999999997,0 97.577654999999993,33.234453000000002,0 97.575191000000004,33.220834000000004,0 97.546745999999999,33.203685999999998,0 97.532972000000001,33.206249999999997,0 97.518078000000003,33.182606999999997,0 97.487953000000005,33.168177999999997,0 97.486272999999997,33.145246,0 97.498031999999995,33.137948999999999,0 97.487729000000002,33.106746000000001,0 97.516958000000002,33.097520000000003,0 97.537339000000003,33.058196000000002,0 97.542378999999997,33.036199000000003,0 97.517966000000001,33.022148000000001,0 97.497696000000005,33.021825999999997,0 97.523788999999994,32.988574999999997,0 97.464995000000002,32.972023999999998,0 97.447412999999997,32.976283000000002,0 97.410122000000001,32.9619,0 97.375741000000005,32.956676000000002,0 97.361967000000007,32.941969,0 97.369581999999994,32.926535000000001,0 97.361743000000004,32.906998000000002,0 97.350095999999994,32.903942999999998,0 97.355472000000006,32.886893999999998,0 97.379101000000006,32.882390000000001,0 97.393100000000004,32.828727000000001,0 97.380221000000006,32.826312999999999,0 97.385819999999995,32.780265999999997,0 97.424791999999997,32.727749000000003,0 97.423783999999998,32.704945000000002,0 97.480785999999995,32.664076000000001,0 97.484705000000005,32.652788000000001,0 97.513261999999997,32.648836000000003,0 97.543723,32.621737000000003,0 97.606324000000001,32.615282999999998,0 97.610579000000001,32.595999999999997,0 97.629728999999998,32.575907000000001,0 97.662988999999996,32.560006000000001,0 97.698600999999996,32.536836000000001,0 97.736228999999994,32.526420000000002,0 97.757507000000004,32.530942000000003,0 97.768816999999999,32.518343999999999,0 97.797262000000003,32.520201999999998,0 97.804541,32.501705999999999,0 97.836905999999999,32.504128999999999,0 97.862774999999999,32.499364,0 97.880245000000002,32.486358000000003,0 97.906450000000007,32.489347000000002,0 97.940157999999997,32.482399000000001,0 97.947101000000004,32.470765,0 97.970282999999995,32.470765,0 98.008582000000004,32.451127999999997,0 98.023589000000001,32.452502000000003,0 98.036803000000006,32.428980000000003,0 98.051361999999997,32.428576,0 98.086526000000006,32.398499000000001,0 98.112171000000004,32.391787000000001,0 98.124154000000004,32.400682000000003,0 98.139384000000007,32.379089,0 98.163124999999994,32.375610999999999,0 98.197505000000007,32.36016,0 98.218895000000003,32.342359999999999,0 98.208928,32.319457999999997,0 98.230542,32.262864999999998,0 98.219791000000001,32.256709999999998,0 98.219119000000006,32.234191000000003,0 98.258201999999997,32.210613000000002,0 98.295494000000005,32.149898,0 98.301653999999999,32.124189999999999,0 98.328867000000002,32.108291000000001,0 98.345664999999997,32.087277,0 98.362686999999994,32.078918000000002,0 98.405578000000006,32.043529999999997,0 98.402665999999996,32.026642000000002,0 98.434807000000006,32.007801999999998,0 98.427863000000002,31.996431999999999,0 98.434022999999996,31.959873000000002,0 98.421592000000004,31.942319999999999,0 98.432567000000006,31.922568999999999,0 98.403450000000007,31.910456,0 98.399306999999993,31.895902,0 98.426295999999994,31.856781999999999,0 98.415656999999996,31.830259000000002,0 98.441190000000006,31.829445,0 98.445221000000004,31.807472000000001,0 98.461123999999998,31.800228000000001,0 98.460115999999999,31.781829999999999,0 98.476802000000006,31.782318,0 98.493487999999999,31.768232999999999,0 98.520477,31.730118000000001,0 98.518573000000004,31.716267999999999,0 98.548137999999994,31.713498000000001,0 98.556984999999997,31.690031000000001,0 98.553961000000001,31.656611999999999,0 98.587892999999994,31.631989000000001,0 98.620930000000001,31.590309000000001,0 98.650942000000001,31.578806,0 98.696633000000006,31.538571999999998,0 98.695848999999995,31.530899000000002,0 98.74042,31.493175999999998,0 98.771216999999993,31.476023999999999,0 98.787231000000006,31.474226999999999,0 98.795069999999996,31.458950999999999,0 98.837625000000003,31.436564000000001,0 98.843225000000004,31.41695,0 98.887011999999999,31.374601999999999,0 98.810636000000002,31.306789999999999,0 98.805932999999996,31.279291000000001,0 98.780063999999996,31.251128999999999,0 98.747811999999996,31.262837000000001,0 98.733812999999998,31.289276999999998,0 98.714438999999999,31.304252999999999,0 98.692713999999995,31.332643999999998,0 98.646127000000007,31.339024999999999,0 98.632912000000005,31.332235000000001,0 98.616113999999996,31.303761999999999,0 98.603459999999998,31.256615,0 98.607714999999999,31.228037,0 98.623282000000003,31.221321,0 98.621042000000003,31.203547,0 98.604804000000001,31.18413,0 98.638735999999994,31.179213000000001,0 98.643663000000004,31.169543999999998,0 98.675020000000004,31.154055,0 98.709847999999994,31.118639999999999,0 98.712423999999999,31.083213000000001,0 98.734261000000004,31.066807000000001,0 98.736948999999996,31.049250000000001,0 98.774800999999997,31.031113999999999,0 98.806044999999997,30.995653999999998,0 98.796862000000004,30.948353999999998,0 98.774465000000006,30.908425999999999,0 98.782191999999995,30.891497000000001,0 98.848712000000006,30.850311999999999,0 98.856999000000002,30.829917999999999,0 98.878725000000003,30.822351999999999,0 98.883204000000006,30.799731000000001,0 98.901793999999995,30.785086,0 98.952301000000006,30.769698999999999,0 98.963947000000005,30.732165999999999,0 98.936958000000004,30.716277000000002,0 98.930798999999993,30.703265999999999,0 98.907505999999998,30.698325000000001,0 98.905938000000006,30.683005999999999,0 98.923631999999998,30.639589000000001,0 98.922064000000006,30.609095,0 98.942558000000005,30.590629,0 98.926766999999998,30.569438999999999,0 98.937966000000003,30.549562999999999,0 98.931583000000003,30.527702999999999,0 98.945916999999994,30.499154999999998,0 98.944349000000003,30.482731000000001,0 98.965402999999995,30.450040999999999,0 98.962715000000003,30.426838,0 98.974025999999995,30.397929000000001,0 98.967307000000005,30.375374999999998,0 98.973241999999999,30.353558,0 98.967419000000007,30.334961,0 98.981528999999995,30.321321000000001,0 98.985000999999997,30.274847999999999,0 98.970331000000002,30.260041000000001,0 98.974361999999999,30.231331000000001,0 98.991832000000002,30.216435000000001,0 98.981528999999995,30.182911000000001,0 98.989143999999996,30.151859999999999,0 99.014678000000004,30.135460999999999,0 99.009861999999998,30.121296000000001,0 99.044802000000004,30.080033,0 99.034386999999995,30.022832000000001,0 99.043233999999998,30.015037,0 99.054992999999996,29.958379000000001,0 99.051297000000005,29.942529,0 99.06832,29.931407,0 99.058017000000007,29.921364000000001,0 99.052976999999998,29.892887999999999,0 99.041667000000004,29.881927000000001,0 99.034051000000005,29.855433000000001,0 99.013670000000005,29.817881,0 99.018933000000004,29.791951999999998,0 99.000679000000005,29.737164,0 98.997767999999994,29.687670000000001,0 98.992056000000005,29.663205000000001,0 99.011318000000003,29.628495000000001,0 99.014678000000004,29.607347000000001,0 99.052081000000001,29.563955,0 99.044802000000004,29.519960000000001,0 99.049394000000007,29.491119999999999,0 99.061375999999996,29.478947999999999,0 99.056897000000006,29.456851,0 99.066863999999995,29.420818000000001,0 99.058689000000001,29.417397999999999,0 99.069775000000007,29.327090999999999,0 99.068544000000003,29.297445,0 99.084782000000004,29.291264000000002,0 99.094189,29.267538999999999,0 99.115241999999995,29.242052999999999,0 99.111210999999997,29.216645,0 99.119162000000003,29.198922,0 99.104939000000002,29.162631999999999,0 99.117930000000001,29.102397,0 99.113786000000005,29.074527,0 99.118601999999996,29.033753999999998,0 99.127561,29.016586,0 99.122968999999998,28.998411000000001,0 99.131816000000001,28.949479,0 99.123529000000005,28.890125999999999,0 99.104044000000002,28.841982000000002,0 99.104268000000005,28.814209999999999,0 99.117369999999994,28.780553999999999,0 99.114345999999998,28.765863,0 99.133831999999998,28.734794999999998,0 99.126889000000006,28.699517,0 99.140887000000006,28.682210000000001,0 99.147383000000005,28.641031000000002,0 99.162277000000003,28.635735,0 99.159253000000007,28.621108,0 99.172803999999999,28.613793000000001,0 99.167092999999994,28.595210000000002,0 99.183779000000001,28.588902999999998,0 99.170115999999993,28.565185,0 99.172132000000005,28.545164,0 99.191618000000005,28.493072999999999,0 99.183442999999997,28.472701000000001,0 99.187250000000006,28.439862000000002,0 99.165525000000002,28.424448999999999,0 99.175827999999996,28.400863000000001,0 99.201137000000003,28.377438999999999,0 99.200913,28.364377000000001,0 99.230365000000006,28.349965000000001,0 99.238428999999996,28.317004000000001,0 99.280647999999999,28.298031000000002,0 99.289495000000002,28.286055999999999,0 99.281543999999997,28.259907999999999,0 99.299574000000007,28.259063999999999,0 99.306741000000002,28.227592999999999,0 99.345600000000005,28.204470000000001,0 99.361054999999993,28.181087000000002,0 99.375949000000006,28.180834000000001,0 99.402377999999999,28.150690999999998,0 99.389163999999994,28.181425000000001,0 99.386923999999993,28.210293,0 99.405962000000002,28.262523000000002,0 99.417608000000001,28.266741,0 99.413801000000007,28.292802999999999,0 99.393083000000004,28.317761999999998,0 99.408985000000001,28.331672999999999,0 99.406970000000001,28.357804000000002,0 99.420856000000001,28.368760000000002,0 99.437318000000005,28.398503999999999,0 99.430935000000005,28.416194999999998,0 99.417832000000004,28.416699999999999,0 99.404505999999998,28.444241000000002,0 99.426455000000004,28.452577999999999,0 99.414024999999995,28.476825999999999,0 99.395658999999995,28.493157,0 99.402826000000005,28.514199000000001,0 99.394538999999995,28.524213,0 99.402938000000006,28.545753000000001,0 99.426790999999994,28.555259,0 99.463410999999994,28.549202000000001,0 99.466099,28.579736,0 99.497006999999996,28.602862999999999,0 99.496672000000004,28.616230999999999,0 99.518173000000004,28.613793000000001,0 99.540795000000003,28.623546000000001,0 99.542586,28.670614,0 99.531723999999997,28.680025000000001,0 99.553785000000005,28.710438,0 99.601044000000002,28.726396000000001,0 99.615825999999998,28.742184999999999,0 99.605858999999995,28.771571999999999,0 99.622545000000002,28.795242999999999,0 99.625568999999999,28.814713000000001,0 99.678426999999999,28.810265999999999,0 99.700601000000006,28.835018999999999,0 99.719526999999999,28.844750999999999,0 99.723669999999998,28.810769000000001,0 99.722774000000001,28.755956000000001,0 99.736436999999995,28.734711000000001,0 99.733188999999996,28.719508999999999,0 99.756482000000005,28.700357,0 99.794445999999994,28.699096999999998,0 99.841705000000005,28.653217999999999,0 99.834537999999995,28.628084999999999,0 99.873284999999996,28.631784,0 99.875973000000002,28.611439000000001,0 99.918639999999996,28.599079,0 99.961530999999994,28.561568000000001,0 99.964443000000003,28.539611000000001,0 99.987065000000001,28.524464999999999,0 99.990312000000003,28.476658,0 100.000838999999999,28.464955,0 100.045186000000001,28.446178,0 100.060863999999995,28.447693999999998,0 100.074639000000005,28.424365000000002,0 100.060975999999997,28.405833000000001,0 100.054257000000007,28.376597,0 100.099947999999998,28.359404999999999,0 100.134551999999999,28.351651,0 100.172628000000003,28.321135000000002,0 100.168707999999995,28.296344999999999,0 100.147542999999999,28.288754999999998,0 100.188417999999999,28.252737,0 100.163444999999996,28.233499999999999,0 100.168148000000002,28.220758,0 100.153366000000005,28.208268,0 100.102860000000007,28.201768999999999,0 100.091997000000006,28.182354,0 100.061983999999995,28.193833999999999,0 100.050336999999999,28.181763,0 100.033315000000002,28.184633000000002,0 100.021108999999996,28.147397999999999,0 100.039698999999999,28.130592,0 100.061536000000004,28.082775999999999,0</coordinates></LinearRing></outerBoundaryIs></Polygon></MultiGeometry></Placemark>
</Document>
</kml>