<?xml version="1.0" encoding="UTF-8"?>
<kml xmlns="http://www.opengis.net/kml/2.2">
<Document>
<name>眉山市</name>
<Placemark><name>眉山市</name><MultiGeometry><Polygon><outerBoundaryIs><LinearRing><coordinates>103.518028000000001,29.843388000000001,0 103.485776000000001,29.814806999999998,0 103.464386000000005,29.821619999999999,0 103.432918000000001,29.820623000000001,0 103.430565999999999,29.787879,0 103.439413000000002,29.770921999999999,0 103.416904000000002,29.774829,0 103.394058000000001,29.805416000000001,0 103.380619999999993,29.792617,0 103.359117999999995,29.799516000000001,0 103.333472999999998,29.794195999999999,0 103.315667000000005,29.771753,0 103.315779000000006,29.741488,0 103.299429000000003,29.727516000000001,0 103.304355999999999,29.706389000000001,0 103.295957000000001,29.694409,0 103.303684000000004,29.677935000000002,0 103.321826000000001,29.683094000000001,0 103.337057000000001,29.672775999999999,0 103.352958999999998,29.698734999999999,0 103.361694,29.661791000000001,0 103.337281000000004,29.651803000000001,0 103.338736999999995,29.634239999999998,0 103.298868999999996,29.599853,0 103.267848000000001,29.596105000000001,0 103.270200000000003,29.573701,0 103.256426000000005,29.556789999999999,0 103.271320000000003,29.532209999999999,0 103.259673000000006,29.511375000000001,0 103.294166000000004,29.506874,0 103.277703000000002,29.485617000000001,0 103.258888999999996,29.478446999999999,0 103.204464000000002,29.483867,0 103.186434000000006,29.474278000000002,0 103.180049999999994,29.430160999999998,0 103.157540999999995,29.425573,0 103.126968000000005,29.440421000000001,0 103.090012000000002,29.425573,0 103.054736000000005,29.446009,0 103.014869000000004,29.448011000000001,0 102.983512000000005,29.418482999999998,0 102.975448999999998,29.397791000000002,0 102.932109999999994,29.400545000000001,0 102.879363999999995,29.415896,0 102.823145999999994,29.465689999999999,0 102.869956999999999,29.530044,0 102.914416000000003,29.553208000000001,0 102.931997999999993,29.616340000000001,0 102.929646000000005,29.668115,0 102.938492999999994,29.676770000000001,0 102.928751000000005,29.711047000000001,0 102.962011000000004,29.721944000000001,0 102.996054999999998,29.708302,0 103.007701999999995,29.725519999999999,0 103.044545999999997,29.700066,0 103.052497000000002,29.675522000000001,0 103.092027999999999,29.683177000000001,0 103.099082999999993,29.693826999999999,0 103.128200000000007,29.671527000000001,0 103.150037999999995,29.672443000000001,0 103.141302999999994,29.703144999999999,0 103.153845000000004,29.713293,0 103.143653999999998,29.730926,0 103.162915999999996,29.737829000000001,0 103.143206000000006,29.760861999999999,0 103.165155999999996,29.770340000000001,0 103.125063999999995,29.864153999999999,0 103.093708000000007,29.886991999999999,0 103.109945999999994,29.915635999999999,0 103.159780999999995,29.930161999999999,0 103.176914999999994,29.945931000000002,0 103.196399999999997,29.944355000000002,0 103.191248999999999,29.966343999999999,0 103.225965000000002,29.970659000000001,0 103.252505999999997,30.040078000000001,0 103.302340999999998,30.087574,0 103.312531000000007,30.071745,0 103.339855999999997,30.074729000000001,0 103.349598999999998,30.097684000000001,0 103.372220999999996,30.082104999999999,0 103.378380000000007,30.095943999999999,0 103.395178000000001,30.094866,0 103.439637000000005,30.119474,0 103.443893000000003,30.117486,0 103.450500000000005,30.096523999999999,0 103.462483000000006,30.096026999999999,0 103.468081999999995,30.114255,0 103.450947999999997,30.132231000000001,0 103.474576999999996,30.131236999999999,0 103.486224000000007,30.104147000000001,0 103.504142000000002,30.128502999999998,0 103.533818999999994,30.146643000000001,0 103.544233000000006,30.161218000000002,0 103.533818999999994,30.178108999999999,0 103.597204000000005,30.203524000000002,0 103.617473000000004,30.195412000000001,0 103.628,30.214863000000001,0 103.649501999999998,30.199798999999999,0 103.648045999999994,30.229263,0 103.693065000000004,30.245894,0 103.681753999999998,30.269884999999999,0 103.705270999999996,30.268975000000001,0 103.718373999999997,30.283200999999998,0 103.736515999999995,30.285848000000001,0 103.727892999999995,30.30462,0 103.751410000000007,30.307926999999999,0 103.769775999999993,30.332068,0 103.794748999999996,30.345872,0 103.845367999999993,30.343309999999999,0 103.874260000000007,30.348103999999999,0 103.887698999999998,30.328761,0 103.910432,30.330663000000001,0 103.913904000000002,30.353971999999999,0 103.942237000000006,30.357773000000002,0 103.935630000000003,30.346202999999999,0 103.959259000000003,30.320741999999999,0 103.965866000000005,30.316773999999999,0 103.974712999999994,30.290727,0 103.998343000000006,30.264507999999999,0 104.030034999999998,30.266245000000001,0 104.047393,30.270381,0 104.091628,30.24879,0 104.116601000000003,30.227194000000001,0 104.150532999999996,30.245646000000001,0 104.152213000000003,30.265335,0 104.174051000000006,30.298666000000001,0 104.178529999999995,30.318262000000001,0 104.192976999999999,30.329836,0 104.201599999999999,30.316526,0 104.232284000000007,30.313797999999998,0 104.231499999999997,30.282209000000002,0 104.231836000000001,30.280472,0 104.243370999999996,30.267403000000002,0 104.230940000000004,30.256153000000001,0 104.243258999999995,30.244239,0 104.264537000000004,30.241592000000001,0 104.272599999999997,30.217842000000001,0 104.282230999999996,30.220904000000001,0 104.315378999999993,30.200792,0 104.327138000000005,30.204269,0 104.364541000000003,30.185974000000002,0 104.358158000000003,30.173638,0 104.386379000000005,30.161798000000001,0 104.398809999999997,30.124776000000001,0 104.410120000000006,30.125520999999999,0 104.428374000000005,30.089728999999998,0 104.450211999999993,30.101081000000001,0 104.461410999999998,30.086663000000001,0 104.481904,30.086663000000001,0 104.467234000000005,30.066936999999999,0 104.479888000000003,30.047374000000001,0 104.464321999999996,30.049944,0 104.467234000000005,30.034689,0 104.455363000000006,30.000606000000001,0 104.479217000000006,29.988910000000001,0 104.461859000000004,29.950579000000001,0 104.481791999999999,29.942363,0 104.473281,29.934809999999999,0 104.488512,29.921530000000001,0 104.490078999999994,29.904761000000001,0 104.503293999999997,29.897454,0 104.483583999999993,29.854104,0 104.483248000000003,29.852194000000001,0 104.477424999999997,29.811316999999999,0 104.503069999999994,29.807410999999998,0 104.486608000000004,29.786964999999999,0 104.470146,29.785385999999999,0 104.457155,29.748222999999999,0 104.442373000000003,29.733837000000001,0 104.415719999999993,29.732257000000001,0 104.397689999999997,29.748390000000001,0 104.372157000000001,29.734586,0 104.360286000000002,29.737746000000001,0 104.336769000000004,29.722276000000001,0 104.350318999999999,29.701730000000001,0 104.321314000000001,29.709966000000001,0 104.308099999999996,29.695074999999999,0 104.269576000000001,29.632491000000002,0 104.249753999999996,29.636154000000001,0 104.240347,29.643229999999999,0 104.228476999999998,29.676186999999999,0 104.203727000000001,29.665702,0 104.187488999999999,29.686339,0 104.191297000000006,29.705058000000001,0 104.157477,29.716370999999999,0 104.152884999999998,29.707304000000001,0 104.12612,29.717452000000002,0 104.116936999999993,29.733421,0 104.089388,29.743732999999999,0 104.062623000000002,29.777820999999999,0 104.088716000000005,29.813642999999999,0 104.069231000000002,29.828517000000002,0 104.043808999999996,29.830677000000001,0 104.056240000000003,29.846959999999999,0 104.050081000000006,29.868473000000002,0 104.003606000000005,29.869968,0 103.982888000000003,29.850200000000001,0 103.967658,29.85643,0 103.951083999999994,29.841726999999999,0 103.962395000000001,29.827603,0 103.927678,29.825526,0 103.934622000000005,29.804667999999999,0 103.903265000000005,29.783391000000002,0 103.912784000000002,29.775825999999999,0 103.893522000000004,29.742486,0 103.856229999999996,29.746976,0 103.842343999999997,29.731093000000001,0 103.822522000000006,29.73076,0 103.799228999999997,29.714041999999999,0 103.765073000000001,29.706555000000002,0 103.755442000000002,29.720196999999999,0 103.731700000000004,29.721944000000001,0 103.704711000000003,29.714375,0 103.705607000000001,29.737247,0 103.688024999999996,29.759364999999999,0 103.703367999999998,29.771587,0 103.747266999999994,29.789957000000001,0 103.741107,29.811067000000001,0 103.728789000000006,29.816053,0 103.729124999999996,29.849285999999999,0 103.692729,29.898866000000002,0 103.676715000000002,29.903929999999999,0 103.677834000000004,29.919620999999999,0 103.648157999999995,29.928170000000001,0 103.642110000000002,29.917960000000001,0 103.607954000000007,29.909244000000001,0 103.590484000000004,29.919039999999999,0 103.590484000000004,29.902021000000001,0 103.571781999999999,29.895461999999998,0 103.584660999999997,29.880846999999999,0 103.558008000000001,29.868058000000001,0 103.513885000000002,29.879020000000001,0 103.533595000000005,29.860665999999998,0 103.533371000000002,29.841560000000001,0 103.518028000000001,29.843388000000001,0</coordinates></LinearRing></outerBoundaryIs></Polygon></MultiGeometry></Placemark>
</Document>
</kml>