<?xml version="1.0" encoding="UTF-8"?>
<kml xmlns="http://www.opengis.net/kml/2.2">
<Document>
<name>遂宁市</name>
<Placemark><name>遂宁市</name><MultiGeometry><MultiGeometry><Polygon><outerBoundaryIs><LinearRing><coordinates>105.151364999999998,30.341987,0 105.126056000000005,30.341491000000001,0 105.101419000000007,30.385455,0 105.100634999999997,30.385619999999999,0 105.097274999999996,30.396194000000001,0 105.094162313116797,30.395979421808498,0 105.094363999999999,30.396277000000001,0 105.093939695298928,30.395964075282958,0 105.093692000000004,30.395947,0 105.073869999999999,30.403133,0 105.079916999999995,30.411724,0 105.080140999999998,30.412385,0 105.090444000000005,30.425681999999998,0 105.068942000000007,30.432949000000001,0 105.073645999999997,30.442115000000001,0 105.075214000000003,30.44228,0 105.090108000000001,30.442363,0 105.090444000000005,30.459536,0 105.076558000000006,30.481741,0 105.084173000000007,30.494616000000001,0 105.059983000000003,30.522753000000002,0 105.066927000000007,30.535869999999999,0 105.079020999999997,30.543129,0 105.094812000000005,30.584198000000001,0 105.117656999999994,30.602913000000001,0 105.130088000000001,30.624756000000001,0 105.153829000000002,30.640249000000001,0 105.142741999999998,30.653185000000001,0 105.146997999999996,30.669167999999999,0 105.161107999999999,30.672545,0 105.174547000000004,30.697666000000002,0 105.168723,30.706395000000001,0 105.215198000000001,30.734718000000001,0 105.243978999999996,30.726074000000001,0 105.248682000000002,30.739163999999999,0 105.271975999999995,30.751428000000001,0 105.260441,30.822845000000001,0 105.232332,30.846283,0 105.228635999999995,30.877358999999998,0 105.200192000000001,30.886154000000001,0 105.194255999999996,30.897003000000002,0 105.208815000000001,30.906206999999998,0 105.177346,30.960180999999999,0 105.193808000000004,30.964697999999999,0 105.194704000000002,30.992042000000001,0 105.174771000000007,31.045967000000001,0 105.189888999999994,31.054993,0 105.199967999999998,31.075994999999999,0 105.193247999999997,31.085920000000002,0 105.223933000000002,31.107652999999999,0 105.241179000000002,31.101831000000001,0 105.296836999999996,31.106341,0 105.344431,31.125938000000001,0 105.353949999999998,31.160610999999999,0 105.381275000000002,31.152906999999999,0 105.389337999999995,31.112081,0 105.410728000000006,31.07255,0 105.428309999999996,31.075748999999998,0 105.453954999999993,31.060161999999998,0 105.474225000000004,31.063690000000001,0 105.489902999999998,31.035874,0 105.504462000000004,31.026517999999999,0 105.534362000000002,31.027011000000002,0 105.546008999999998,31.013632000000001,0 105.565831000000003,31.011251999999999,0 105.573334000000003,30.98884,0 105.595843000000002,30.972581999999999,0 105.618689000000003,30.977591,0 105.643438000000003,30.948025000000001,0 105.659899999999993,30.942274999999999,0 105.65934,30.918697000000002,0 105.691704999999999,30.933896000000001,0 105.705927000000003,30.910152,0 105.732020000000006,30.905714,0 105.744899000000004,30.879086000000001,0 105.730564000000001,30.876784000000001,0 105.755761000000007,30.841266999999998,0 105.784317999999999,30.823831999999999,0 105.796749000000005,30.800882999999999,0 105.782302000000001,30.785086,0 105.792940999999999,30.759906000000001,0 105.792716999999996,30.711417999999998,0 105.813771000000003,30.651371999999999,0 105.809066999999999,30.625333000000001,0 105.82329,30.621953000000001,0 105.823849999999993,30.602995,0 105.854309999999998,30.565728,0 105.871331999999995,30.562182,0 105.877492000000004,30.547419000000001,0 105.862820999999997,30.512440000000002,0 105.846806999999998,30.491644999999998,0 105.860246000000004,30.484960000000001,0 105.867412999999999,30.497091999999999,0 105.884099000000006,30.496265999999999,0 105.885330999999994,30.458874999999999,0 105.917806999999996,30.466965999999999,0 105.948828000000006,30.494368000000001,0 105.927102000000005,30.494038,0 105.915790999999999,30.508973999999998,0 105.934044999999998,30.516731,0 105.945691999999994,30.501383000000001,0 105.954203000000007,30.514254999999999,0 105.970664999999997,30.477118999999998,0 105.971225000000004,30.456150999999998,0 105.950171999999995,30.452931,0 105.948267999999999,30.441618999999999,0 105.963834000000006,30.424690999999999,0 105.979399999999998,30.427581,0 105.989814999999993,30.41255,0 105.987239000000002,30.394047,0 106.000789999999995,30.376283000000001,0 105.992054999999993,30.369177000000001,0 105.967978000000002,30.379258,0 105.940877,30.372316999999999,0 105.917023,30.395947,0 105.901568999999995,30.386362999999999,0 105.899440999999996,30.405612000000001,0 105.873795999999999,30.408667999999999,0 105.846247000000005,30.392393999999999,0 105.846694999999997,30.410733,0 105.818026000000003,30.437242999999999,0 105.791708999999997,30.425433999999999,0 105.782749999999993,30.403133,0 105.770319999999998,30.403959,0 105.760240999999994,30.384546,0 105.769536000000002,30.375292000000002,0 105.751841999999996,30.357112000000001,0 105.756208999999998,30.347111999999999,0 105.735044000000002,30.336697000000001,0 105.741874999999993,30.319832999999999,0 105.714774000000006,30.322808999999999,0 105.711749999999995,30.282209000000002,0 105.734932000000001,30.276997999999999,0 105.723844999999997,30.254746999999998,0 105.670651000000007,30.254085,0 105.667179000000004,30.265666,0 105.625072000000003,30.275839999999999,0 105.619472999999999,30.234641,0 105.636270999999994,30.219746000000001,0 105.655421000000004,30.220821999999998,0 105.642430000000004,30.186388000000001,0 105.595170999999993,30.183655999999999,0 105.579941000000005,30.173473000000001,0 105.561463000000003,30.183655999999999,0 105.558886999999999,30.185561,0 105.557543999999993,30.195826,0 105.547128999999998,30.212710999999999,0 105.529323000000005,30.219580000000001,0 105.521035999999995,30.202612999999999,0 105.482399999999998,30.223222,0 105.480943999999994,30.238696000000001,0 105.444996000000003,30.265996999999999,0 105.425957999999994,30.259875999999998,0 105.411063999999996,30.295605999999999,0 105.380379000000005,30.276916,0 105.368844999999993,30.278403999999998,0 105.358429999999998,30.308093,0 105.343087999999995,30.298086999999999,0 105.328305,30.303297000000001,0 105.263913000000002,30.287915000000002,0 105.258313000000001,30.280307000000001,0 105.221805000000003,30.287171000000001,0 105.218894000000006,30.305859999999999,0 105.197839999999999,30.309994,0 105.197056000000003,30.310738000000001,0 105.157411999999994,30.323388000000001,0 105.151364999999998,30.341987,0</coordinates></LinearRing></outerBoundaryIs></Polygon><Polygon><outerBoundaryIs><LinearRing><coordinates>105.093915999999993,30.395616,0 105.093804000000006,30.395864,0 105.093939695298928,30.395964075282958,0 105.094162313116797,30.395979421808498,0 105.093915999999993,30.395616,0</coordinates></LinearRing></outerBoundaryIs></Polygon></MultiGeometry></MultiGeometry></Placemark>
</Document>
</kml>