<?xml version="1.0" encoding="UTF-8"?>
<kml xmlns="http://www.opengis.net/kml/2.2">
<Document>
<name>东莞市</name>
<Placemark><name>东莞市</name><MultiGeometry><Polygon><outerBoundaryIs><LinearRing><coordinates>114.229204999999993,22.812529999999999,0 114.233879999999999,22.816936999999999,0 114.235642999999996,22.839872,0 114.233114,22.842313999999998,0 114.234800000000007,22.862962,0 114.231198000000006,22.880317999999999,0 114.236946000000003,22.88589,0 114.244839999999996,22.88053,0 114.251737000000006,22.884350999999999,0 114.260319999999993,22.899633999999999,0 114.259170999999995,22.906054000000001,0 114.249207999999996,22.905152000000001,0 114.245299000000003,22.911732000000001,0 114.229742000000002,22.914702999999999,0 114.213035000000005,22.928443999999999,0 114.211348999999998,22.953959000000001,0 114.223840999999993,22.963719000000001,0 114.222385000000003,22.980743,0 114.212497999999997,22.987795999999999,0 114.200389999999999,22.986681999999998,0 114.182303000000005,22.995432000000001,0 114.178701000000004,22.989173999999998,0 114.158546000000001,22.978303,0 114.155709999999999,22.983129000000002,0 114.138159999999999,22.986416999999999,0 114.132182,22.994423999999999,0 114.124442000000002,22.994,0 114.139233000000004,23.023478999999998,0 114.151034999999993,23.019079000000001,0 114.150268999999994,23.024698000000001,0 114.120992999999999,23.048022,0 114.102216999999996,23.058623000000001,0 114.091564000000005,23.077331000000001,0 114.088959000000003,23.094182,0 114.065890999999993,23.101441000000001,0 114.049796999999998,23.097467000000002,0 114.029871,23.084378999999998,0 114.010251999999994,23.083424999999998,0 113.993314999999996,23.092645000000001,0 113.986418,23.101970000000001,0 113.970554000000007,23.113308,0 113.962737000000004,23.114208999999999,0 113.938366000000002,23.107534000000001,0 113.905564999999996,23.115110000000001,0 113.894835999999998,23.111294999999998,0 113.876596000000006,23.124275000000001,0 113.863260999999994,23.114633000000001,0 113.848163,23.116911000000002,0 113.844714999999994,23.125599000000001,0 113.841113000000007,23.116168999999999,0 113.814672999999999,23.127770999999999,0 113.791297999999998,23.127665,0 113.777427000000003,23.131108000000001,0 113.754052000000001,23.129572,0 113.738572000000005,23.141331000000001,0 113.71696,23.138895000000002,0 113.687837000000002,23.119772000000001,0 113.670670999999999,23.116434000000002,0 113.662011000000007,23.111453999999998,0 113.661243999999996,23.117971000000001,0 113.651280999999997,23.119295000000001,0 113.642697999999996,23.113467,0 113.640244999999993,23.103878000000002,0 113.610433,23.103771999999999,0 113.601389999999995,23.095400000000001,0 113.586445999999995,23.087769999999999,0 113.556326999999996,23.081251999999999,0 113.548969999999997,23.076006,0 113.543758999999994,23.062280000000001,0 113.531957000000006,23.050937999999999,0 113.522913000000003,23.037261999999998,0 113.522989999999993,23.011337999999999,0 113.529197999999994,22.982599,0 113.541765999999996,22.959368999999999,0 113.550503000000006,22.936188999999999,0 113.564297999999994,22.906903,0 113.575103999999996,22.888331000000001,0 113.571195000000003,22.853142999999999,0 113.584069999999997,22.831325,0 113.612119000000007,22.802281000000001,0 113.648139,22.761759000000001,0 113.678180999999995,22.726113000000002,0 113.697723999999994,22.73743,0 113.723934,22.73828,0 113.733743000000004,22.736367000000001,0 113.746004999999997,22.72606,0 113.751446999999999,22.715381000000001,0 113.762405999999999,22.736899000000001,0 113.790837999999994,22.753419999999998,0 113.791835000000006,22.767655000000001,0 113.801873999999998,22.777108999999999,0 113.802256999999997,22.784863000000001,0 113.811070999999998,22.782473,0 113.813445999999999,22.790438999999999,0 113.824941999999993,22.792935,0 113.837204,22.800901,0 113.838736999999995,22.819590999999999,0 113.834675000000004,22.822192999999999,0 113.841496000000006,22.833978999999999,0 113.851304999999996,22.837482999999999,0 113.857052999999993,22.832598999999998,0 113.872611000000006,22.837271000000001,0 113.877668999999997,22.854469999999999,0 113.883262999999999,22.850542000000001,0 113.887325000000004,22.858504,0 113.899510000000006,22.855478000000002,0 113.893916000000004,22.846188999999999,0 113.904875000000004,22.840136999999999,0 113.910928999999996,22.829996999999999,0 113.937828999999994,22.832705000000001,0 113.954612999999995,22.821024999999999,0 113.954995999999994,22.815078,0 113.972392999999997,22.812476,0 113.978370999999996,22.806529000000001,0 113.974998999999997,22.798458,0 113.984577999999999,22.803661999999999,0 113.990863000000004,22.800211000000001,0 113.995307999999994,22.771267000000002,0 114.002971000000002,22.763459000000001,0 114.017916,22.760218999999999,0 114.035235999999998,22.766752,0 114.039911000000004,22.764309000000001,0 114.049796999999998,22.771160999999999,0 114.049413999999999,22.756447999999999,0 114.064588000000001,22.755915999999999,0 114.074781000000002,22.740883,0 114.084360000000004,22.750551000000002,0 114.098461999999998,22.747205000000001,0 114.107197999999997,22.722978999999999,0 114.117621,22.723244000000001,0 114.121988999999999,22.716231000000001,0 114.144673999999995,22.714158999999999,0 114.145056999999994,22.701193,0 114.151801000000006,22.690138999999999,0 114.167435999999995,22.680679000000001,0 114.163910000000001,22.665372000000001,0 114.155479999999997,22.668932999999999,0 114.172494,22.654368000000002,0 114.187515000000005,22.666381999999999,0 114.187515000000005,22.673556999999999,0 114.195331999999993,22.680095000000001,0 114.199470000000005,22.702043,0 114.196710999999993,22.710227,0 114.208053000000007,22.714690000000001,0 114.208512999999996,22.729247999999998,0 114.215641000000005,22.735569999999999,0 114.203148999999996,22.755120000000002,0 114.201078999999993,22.764786999999998,0 114.182073000000003,22.765264999999999,0 114.187973999999997,22.770364000000001,0 114.180847,22.775728000000001,0 114.189966999999996,22.785713000000001,0 114.207210000000003,22.789802000000002,0 114.215641000000005,22.807751,0 114.229204999999993,22.812529999999999,0</coordinates></LinearRing></outerBoundaryIs></Polygon></MultiGeometry></Placemark>
</Document>
</kml>