<?xml version="1.0" encoding="UTF-8"?>
<kml xmlns="http://www.opengis.net/kml/2.2">
<Document>
<name>中山市</name>
<Placemark><name>中山市</name><MultiGeometry><Polygon><outerBoundaryIs><LinearRing><coordinates>113.568742999999998,22.411912000000001,0 113.573723999999999,22.411698999999999,0 113.610127000000006,22.445723000000001,0 113.631508999999994,22.475960000000001,0 113.668447999999998,22.480430999999999,0 113.692052000000004,22.515129000000002,0 113.651588000000004,22.515715,0 113.639325999999997,22.548276000000001,0 113.620779999999996,22.579554000000002,0 113.599627999999996,22.594393,0 113.589971000000006,22.595189999999999,0 113.578552000000002,22.604603000000001,0 113.561615000000003,22.607527999999999,0 113.536861000000002,22.647511000000002,0 113.533106000000004,22.656388,0 113.540693000000005,22.666222000000001,0 113.523373000000007,22.679296999999998,0 113.491874999999993,22.699811,0 113.464821999999998,22.720960000000002,0 113.467963999999995,22.728504000000001,0 113.447807999999995,22.735835999999999,0 113.426119999999997,22.738014,0 113.412171999999998,22.742849,0 113.365116,22.772594999999999,0 113.358756,22.764893000000001,0 113.342432000000002,22.758254000000001,0 113.329327000000006,22.749010999999999,0 113.329097000000004,22.741254999999999,0 113.301430999999994,22.736260999999999,0 113.284876999999994,22.738864,0 113.270545999999996,22.726485,0 113.260889000000006,22.730311,0 113.254069000000001,22.740829999999999,0 113.243032999999997,22.745345,0 113.236288999999999,22.740777000000001,0 113.222263999999996,22.712246,0 113.204254000000006,22.697313999999999,0 113.199273000000005,22.682538999999998,0 113.201035000000005,22.675948999999999,0 113.189385999999999,22.673876,0 113.171989999999994,22.680679000000001,0 113.161413999999994,22.673717,0 113.160801000000006,22.665424999999999,0 113.170609999999996,22.651392000000001,0 113.163176000000007,22.651392000000001,0 113.157199000000006,22.63204,0 113.157044999999997,22.614228000000001,0 113.176357999999993,22.590032000000001,0 113.185095000000004,22.574289,0 113.188697000000005,22.552797999999999,0 113.187087000000005,22.539923999999999,0 113.215367000000001,22.513107000000002,0 113.225099999999998,22.497142,0 113.225099999999998,22.497142,0 113.240121000000002,22.476171999999998,0 113.245178999999993,22.457276,0 113.256444000000002,22.43779,0 113.256367999999995,22.410793999999999,0 113.262652000000003,22.392047999999999,0 113.273841000000004,22.384751000000001,0 113.307177999999993,22.346503999999999,0 113.320359999999994,22.329561000000002,0 113.321280000000002,22.312189,0 113.336607000000001,22.280104999999999,0 113.345113999999995,22.258569000000001,0 113.352395000000001,22.249133,0 113.385272000000001,22.230364999999999,0 113.390942999999993,22.231857999999999,0 113.415773999999999,22.202902000000002,0 113.430565000000001,22.201301999999998,0 113.458383999999995,22.213781000000001,0 113.462676000000002,22.218847,0 113.486356999999998,22.227112999999999,0 113.478847000000002,22.238309999999998,0 113.512797000000006,22.249986,0 113.514407000000006,22.261555000000001,0 113.504750000000001,22.266991999999998,0 113.496397000000002,22.282236999999999,0 113.480456000000004,22.303875999999999,0 113.470493000000005,22.310376999999999,0 113.482984999999999,22.318797,0 113.493330999999998,22.317997999999999,0 113.504137,22.324286000000001,0 113.494787000000002,22.339683999999998,0 113.490341999999998,22.34075,0 113.493255000000005,22.354068999999999,0 113.489193,22.365842000000001,0 113.491338999999996,22.376922,0 113.486969999999999,22.390184000000001,0 113.495247000000006,22.395403000000002,0 113.495859999999993,22.407546,0 113.508888999999996,22.413402999999999,0 113.514330000000001,22.408716999999999,0 113.537167999999994,22.416332000000001,0 113.568742999999998,22.411912000000001,0</coordinates></LinearRing></outerBoundaryIs></Polygon></MultiGeometry></Placemark>
</Document>
</kml>