<?xml version="1.0" encoding="UTF-8"?>
<kml xmlns="http://www.opengis.net/kml/2.2">
  <Document>
    <name>佛山市</name>
    <Placemark>
      <name>佛山市</name>
      <Polygon><outerBoundaryIs><LinearRing><coordinates>112.788189000000,22.991879000000,0 112.794856000000,22.990394000000,0 112.820453000000,23.010225000000,0 112.834094000000,23.014784000000,0 112.819227000000,23.052051000000,0 112.818767000000,23.072614000000,0 112.805355000000,23.091426000000,0 112.799684000000,23.109971000000,0 112.798458000000,23.138630000000,0 112.793936000000,23.150071000000,0 112.775773000000,23.166754000000,0 112.771941000000,23.191694000000,0 112.772938000000,23.199742000000,0 112.764431000000,23.202919000000,0 112.766347000000,23.213560000000,0 112.772861000000,23.215678000000,0 112.769412000000,23.223354000000,0 112.781521000000,23.225842000000,0 112.786349000000,23.205937000000,0 112.793400000000,23.208213000000,0 112.795316000000,23.226318000000,0 112.799837000000,23.228224000000,0 112.806582000000,23.212395000000,0 112.800910000000,23.200431000000,0 112.810873000000,23.200378000000,0 112.815012000000,23.217107000000,0 112.831949000000,23.215678000000,0 112.842984000000,23.224465000000,0 112.847200000000,23.238651000000,0 112.823595000000,23.245690000000,0 112.844977000000,23.263314000000,0 112.847966000000,23.275061000000,0 112.857546000000,23.287231000000,0 112.866895000000,23.293263000000,0 112.871340000000,23.315588000000,0 112.883296000000,23.347324000000,0 112.863907000000,23.349122000000,0 112.859691000000,23.364563000000,0 112.838386000000,23.387352000000,0 112.814092000000,23.391793000000,0 112.805892000000,23.387511000000,0 112.810107000000,23.371332000000,0 112.806582000000,23.367419000000,0 112.787269000000,23.371173000000,0 112.785736000000,23.394173000000,0 112.794166000000,23.407547000000,0 112.796389000000,23.429113000000,0 112.803669000000,23.435773000000,0 112.802673000000,23.444229000000,0 112.811793000000,23.462513000000,0 112.831029000000,23.468114000000,0 112.838156000000,23.484704000000,0 112.845743000000,23.487134000000,0 112.845284000000,23.502929000000,0 112.850418000000,23.527596000000,0 112.840762000000,23.536046000000,0 112.831642000000,23.537577000000,0 112.830493000000,23.545762000000,0 112.827197000000,23.567042000000,0 112.848502000000,23.566936000000,0 112.862910000000,23.573430000000,0 112.871647000000,23.570896000000,0 112.893412000000,23.552680000000,0 112.900309000000,23.566725000000,0 112.915330000000,23.552310000000,0 112.911192000000,23.541643000000,0 112.893259000000,23.526434000000,0 112.887741000000,23.517402000000,0 112.903298000000,23.488613000000,0 112.928435000000,23.483488000000,0 112.925753000000,23.472393000000,0 112.933493000000,23.470650000000,0 112.930198000000,23.463094000000,0 112.942230000000,23.460188000000,0 112.957634000000,23.447558000000,0 112.965835000000,23.452155000000,0 112.966294000000,23.460663000000,0 112.975184000000,23.463622000000,0 112.972962000000,23.450042000000,0 112.961926000000,23.444440000000,0 112.960240000000,23.425995000000,0 112.974188000000,23.434081000000,0 112.978633000000,23.441586000000,0 112.989132000000,23.443277000000,0 112.982771000000,23.434451000000,0 112.988673000000,23.419811000000,0 113.001088000000,23.406332000000,0 112.990588000000,23.402631000000,0 112.988366000000,23.390102000000,0 112.980626000000,23.380268000000,0 112.989822000000,23.354728000000,0 113.012583000000,23.352612000000,0 113.018331000000,23.341347000000,0 113.034808000000,23.357372000000,0 113.043392000000,23.351131000000,0 113.027604000000,23.333520000000,0 113.023466000000,23.324898000000,0 113.037567000000,23.320084000000,0 113.032509000000,23.300881000000,0 113.042549000000,23.283422000000,0 113.051439000000,23.278395000000,0 113.052742000000,23.263420000000,0 113.044925000000,23.252200000000,0 113.053508000000,23.253418000000,0 113.070215000000,23.248813000000,0 113.079795000000,23.250083000000,0 113.081941000000,23.261726000000,0 113.072284000000,23.284268000000,0 113.086156000000,23.285274000000,0 113.090524000000,23.289930000000,0 113.105545000000,23.289718000000,0 113.110220000000,23.295961000000,0 113.105775000000,23.302733000000,0 113.124704000000,23.307653000000,0 113.128000000000,23.314530000000,0 113.150838000000,23.297972000000,0 113.150608000000,23.289983000000,0 113.160877000000,23.286649000000,0 113.177738000000,23.271304000000,0 113.182029000000,23.251459000000,0 113.176511000000,23.236587000000,0 113.177508000000,23.220866000000,0 113.191072000000,23.214937000000,0 113.204867000000,23.201172000000,0 113.209006000000,23.192171000000,0 113.209465000000,23.177080000000,0 113.187700000000,23.159127000000,0 113.186857000000,23.148270000000,0 113.191992000000,23.143450000000,0 113.211535000000,23.142603000000,0 113.209695000000,23.121838000000,0 113.203718000000,23.121891000000,0 113.208163000000,23.099692000000,0 113.215826000000,23.100646000000,0 113.208776000000,23.083531000000,0 113.193678000000,23.083902000000,0 113.177201000000,23.076695000000,0 113.184865000000,23.059630000000,0 113.195747000000,23.056185000000,0 113.211688000000,23.043305000000,0 113.225713000000,23.041874000000,0 113.254912000000,23.044842000000,0 113.258360000000,23.013989000000,0 113.250007000000,23.009058000000,0 113.251923000000,22.970348000000,0 113.267557000000,22.958786000000,0 113.285183000000,22.951095000000,0 113.298212000000,22.934014000000,0 113.282424000000,22.927383000000,0 113.285950000000,22.901438000000,0 113.277060000000,22.894699000000,0 113.300434000000,22.877080000000,0 113.301354000000,22.866094000000,0 113.296296000000,22.862485000000,0 113.309631000000,22.851179000000,0 113.312083000000,22.830369000000,0 113.335994000000,22.817945000000,0 113.364273000000,22.823467000000,0 113.374390000000,22.822618000000,0 113.393396000000,22.809822000000,0 113.383050000000,22.799308000000,0 113.356533000000,22.792989000000,0 113.365116000000,22.772595000000,0 113.358756000000,22.764893000000,0 113.342432000000,22.758254000000,0 113.329327000000,22.749011000000,0 113.329097000000,22.741255000000,0 113.301431000000,22.736261000000,0 113.284877000000,22.738864000000,0 113.270546000000,22.726485000000,0 113.260889000000,22.730311000000,0 113.254069000000,22.740830000000,0 113.243033000000,22.745345000000,0 113.236289000000,22.740777000000,0 113.222264000000,22.712246000000,0 113.204254000000,22.697314000000,0 113.199273000000,22.682539000000,0 113.201035000000,22.675949000000,0 113.189386000000,22.673876000000,0 113.171990000000,22.680679000000,0 113.161414000000,22.673717000000,0 113.113362000000,22.701618000000,0 113.102096000000,22.698536000000,0 113.087228000000,22.717878000000,0 113.075273000000,22.777959000000,0 113.059562000000,22.801219000000,0 113.049523000000,22.807751000000,0 113.025229000000,22.802335000000,0 112.988596000000,22.800423000000,0 112.980396000000,22.802759000000,0 112.963995000000,22.826971000000,0 112.923454000000,22.856274000000,0 112.905904000000,22.851444000000,0 112.900463000000,22.845286000000,0 112.888967000000,22.845764000000,0 112.883679000000,22.852187000000,0 112.873639000000,22.848206000000,0 112.867892000000,22.835412000000,0 112.860305000000,22.833767000000,0 112.851491000000,22.839978000000,0 112.844594000000,22.835306000000,0 112.850648000000,22.830157000000,0 112.852947000000,22.809609000000,0 112.843061000000,22.810671000000,0 112.835857000000,22.803821000000,0 112.819303000000,22.803025000000,0 112.812099000000,22.791714000000,0 112.822369000000,22.784545000000,0 112.818001000000,22.765424000000,0 112.811486000000,22.765318000000,0 112.803899000000,22.752145000000,0 112.810413000000,22.750498000000,0 112.807961000000,22.728770000000,0 112.778302000000,22.715221000000,0 112.769489000000,22.701246000000,0 112.755771000000,22.692425000000,0 112.744505000000,22.696729000000,0 112.741286000000,22.691362000000,0 112.734082000000,22.698217000000,0 112.717989000000,22.691681000000,0 112.708256000000,22.710280000000,0 112.695380000000,22.695613000000,0 112.692392000000,22.705232000000,0 112.706646000000,22.718303000000,0 112.709022000000,22.729567000000,0 112.698599000000,22.733764000000,0 112.707796000000,22.744070000000,0 112.702891000000,22.756395000000,0 112.696530000000,22.759050000000,0 112.680436000000,22.747045000000,0 112.687563000000,22.737164000000,0 112.701128000000,22.728398000000,0 112.690322000000,22.726379000000,0 112.683885000000,22.733923000000,0 112.675914000000,22.727495000000,0 112.682659000000,22.721650000000,0 112.680053000000,22.713999000000,0 112.665109000000,22.724041000000,0 112.672083000000,22.713521000000,0 112.664649000000,22.713043000000,0 112.660127000000,22.727335000000,0 112.646256000000,22.726698000000,0 112.641044000000,22.712883000000,0 112.625104000000,22.711077000000,0 112.620965000000,22.701140000000,0 112.616674000000,22.707995000000,0 112.604182000000,22.706241000000,0 112.587321000000,22.696357000000,0 112.600273000000,22.688439000000,0 112.595981000000,22.680786000000,0 112.584716000000,22.677809000000,0 112.583566000000,22.664362000000,0 112.577359000000,22.656388000000,0 112.546474000000,22.642248000000,0 112.536281000000,22.648627000000,0 112.540189000000,22.661864000000,0 112.535591000000,22.677650000000,0 112.554214000000,22.682061000000,0 112.560038000000,22.695826000000,0 112.549462000000,22.700980000000,0 112.538350000000,22.718250000000,0 112.523176000000,22.728079000000,0 112.507542000000,22.723457000000,0 112.500108000000,22.728664000000,0 112.477040000000,22.715912000000,0 112.476580000000,22.704009000000,0 112.463168000000,22.711661000000,0 112.448607000000,22.708420000000,0 112.435809000000,22.680998000000,0 112.426306000000,22.670847000000,0 112.411898000000,22.671219000000,0 112.401475000000,22.690565000000,0 112.403085000000,22.700183000000,0 112.410748000000,22.704488000000,0 112.399023000000,22.726485000000,0 112.392739000000,22.744442000000,0 112.392509000000,22.769780000000,0 112.413507000000,22.774454000000,0 112.441403000000,22.787731000000,0 112.443779000000,22.791661000000,0 112.463398000000,22.789271000000,0 112.482788000000,22.795006000000,0 112.489992000000,22.809131000000,0 112.500414000000,22.812476000000,0 112.499035000000,22.826918000000,0 112.510531000000,22.823042000000,0 112.520340000000,22.827290000000,0 112.527544000000,22.815131000000,0 112.532449000000,22.822883000000,0 112.557433000000,22.826122000000,0 112.571841000000,22.833077000000,0 112.574140000000,22.847410000000,0 112.563104000000,22.854151000000,0 112.557816000000,22.863387000000,0 112.561648000000,22.873312000000,0 112.587168000000,22.862962000000,0 112.591613000000,22.869809000000,0 112.604258000000,22.870552000000,0 112.632384000000,22.877664000000,0 112.635526000000,22.883714000000,0 112.659284000000,22.887163000000,0 112.676374000000,22.895442000000,0 112.677524000000,22.902764000000,0 112.685418000000,22.898360000000,0 112.692468000000,22.901969000000,0 112.686490000000,22.907593000000,0 112.696683000000,22.917196000000,0 112.690092000000,22.927277000000,0 112.672696000000,22.940486000000,0 112.686874000000,22.948443000000,0 112.699749000000,22.948390000000,0 112.708869000000,22.927754000000,0 112.734082000000,22.940751000000,0 112.741440000000,22.962923000000,0 112.736228000000,22.963878000000,0 112.734772000000,22.981220000000,0 112.751556000000,22.991030000000,0 112.759679000000,22.979735000000,0 112.777076000000,22.996545000000,0 112.787882000000,23.000999000000,0 112.790564000000,23.002060000000,0 112.788189000000,22.991879000000,0</coordinates></LinearRing></outerBoundaryIs></Polygon>
    </Placemark>
  </Document>
</kml>
