<?xml version="1.0" encoding="UTF-8"?>
<kml xmlns="http://www.opengis.net/kml/2.2">
  <Document>
    <name>汕头市</name>
    <Placemark>
      <name>汕头市</name>
      <MultiGeometry><Polygon><outerBoundaryIs><LinearRing><coordinates>116.552551000000,23.105891000000,0 116.552245000000,23.114527000000,0 116.566423000000,23.134339000000,0 116.577765000000,23.141755000000,0 116.597691000000,23.146522000000,0 116.651874000000,23.152931000000,0 116.665285000000,23.158174000000,0 116.676014000000,23.168078000000,0 116.701458000000,23.198207000000,0 116.714870000000,23.209960000000,0 116.724756000000,23.214407000000,0 116.744682000000,23.215042000000,0 116.788518000000,23.199266000000,0 116.806758000000,23.200960000000,0 116.814728000000,23.207631000000,0 116.823542000000,23.230447000000,0 116.816644000000,23.243044000000,0 116.799861000000,23.244209000000,0 116.791277000000,23.265801000000,0 116.791814000000,23.278236000000,0 116.786986000000,23.288554000000,0 116.782771000000,23.313842000000,0 116.806452000000,23.347958000000,0 116.833045000000,23.365780000000,0 116.858488000000,23.408023000000,0 116.871900000000,23.414631000000,0 116.873433000000,23.445074000000,0 116.885235000000,23.454481000000,0 116.896194000000,23.476197000000,0 116.885158000000,23.478734000000,0 116.888530000000,23.501609000000,0 116.899183000000,23.518881000000,0 116.917040000000,23.531662000000,0 116.918342000000,23.561603000000,0 116.909146000000,23.581930000000,0 116.911062000000,23.602201000000,0 116.900563000000,23.611965000000,0 116.900639000000,23.619460000000,0 116.891289000000,23.622785000000,0 116.874812000000,23.616082000000,0 116.862780000000,23.623471000000,0 116.863087000000,23.632601000000,0 116.838180000000,23.644632000000,0 116.830976000000,23.645793000000,0 116.821319000000,23.635609000000,0 116.822545000000,23.627429000000,0 116.831895000000,23.622152000000,0 116.827527000000,23.611807000000,0 116.815035000000,23.612493000000,0 116.805379000000,23.606793000000,0 116.795799000000,23.610488000000,0 116.791737000000,23.599350000000,0 116.794496000000,23.589532000000,0 116.785223000000,23.579554000000,0 116.772578000000,23.584147000000,0 116.761389000000,23.573958000000,0 116.755794000000,23.575648000000,0 116.747211000000,23.592330000000,0 116.738934000000,23.601620000000,0 116.713030000000,23.597925000000,0 116.714946000000,23.584728000000,0 116.702991000000,23.574433000000,0 116.718701000000,23.563135000000,0 116.719391000000,23.552522000000,0 116.706210000000,23.542541000000,0 116.704830000000,23.517561000000,0 116.713260000000,23.493103000000,0 116.717935000000,23.471072000000,0 116.712800000000,23.459236000000,0 116.702378000000,23.456172000000,0 116.698469000000,23.446977000000,0 116.702608000000,23.438204000000,0 116.686590000000,23.429483000000,0 116.681915000000,23.438627000000,0 116.668504000000,23.428638000000,0 116.654403000000,23.431069000000,0 116.650264000000,23.426312000000,0 116.630108000000,23.429378000000,0 116.614015000000,23.433289000000,0 116.605431000000,23.443013000000,0 116.589950000000,23.453265000000,0 116.588111000000,23.461984000000,0 116.580294000000,23.461139000000,0 116.579834000000,23.447981000000,0 116.589490000000,23.443383000000,0 116.591177000000,23.426524000000,0 116.581980000000,23.423194000000,0 116.575313000000,23.407970000000,0 116.577535000000,23.402420000000,0 116.569105000000,23.388093000000,0 116.568339000000,23.378258000000,0 116.561978000000,23.386930000000,0 116.553088000000,23.412305000000,0 116.544887000000,23.424356000000,0 116.523429000000,23.437517000000,0 116.512316000000,23.439472000000,0 116.469553000000,23.437622000000,0 116.465721000000,23.442485000000,0 116.472005000000,23.455802000000,0 116.482658000000,23.465472000000,0 116.491164000000,23.478734000000,0 116.492314000000,23.492839000000,0 116.482581000000,23.500552000000,0 116.465797000000,23.497647000000,0 116.448707000000,23.488349000000,0 116.435832000000,23.473344000000,0 116.426482000000,23.468642000000,0 116.415676000000,23.479737000000,0 116.414910000000,23.510271000000,0 116.408856000000,23.512596000000,0 116.401115000000,23.500394000000,0 116.377051000000,23.500658000000,0 116.355363000000,23.472288000000,0 116.350764000000,23.449619000000,0 116.332371000000,23.443647000000,0 116.319649000000,23.449196000000,0 116.316891000000,23.442273000000,0 116.322868000000,23.421767000000,0 116.331758000000,23.424409000000,0 116.345630000000,23.408182000000,0 116.345170000000,23.399565000000,0 116.350994000000,23.386559000000,0 116.349768000000,23.358112000000,0 116.354903000000,23.347324000000,0 116.348848000000,23.335794000000,0 116.329689000000,23.336376000000,0 116.319573000000,23.332303000000,0 116.319343000000,23.325903000000,0 116.330839000000,23.316487000000,0 116.328846000000,23.299559000000,0 116.323558000000,23.302839000000,0 116.308997000000,23.296067000000,0 116.312752000000,23.286649000000,0 116.302406000000,23.279348000000,0 116.305548000000,23.272839000000,0 116.298727000000,23.263526000000,0 116.294129000000,23.239815000000,0 116.279415000000,23.226000000000,0 116.266770000000,23.227906000000,0 116.259719000000,23.216842000000,0 116.261328000000,23.205301000000,0 116.269222000000,23.204984000000,0 116.264470000000,23.196724000000,0 116.252745000000,23.191536000000,0 116.262325000000,23.175174000000,0 116.252362000000,23.176286000000,0 116.254891000000,23.152507000000,0 116.244545000000,23.140431000000,0 116.261558000000,23.122950000000,0 116.291830000000,23.110501000000,0 116.291370000000,23.099162000000,0 116.302866000000,23.096036000000,0 116.312829000000,23.102712000000,0 116.327543000000,23.096460000000,0 116.340648000000,23.086498000000,0 116.346703000000,23.058570000000,0 116.368314000000,23.057510000000,0 116.374982000000,23.050408000000,0 116.370077000000,23.046856000000,0 116.380500000000,23.039807000000,0 116.395904000000,23.044524000000,0 116.405484000000,23.053959000000,0 116.426865000000,23.063393000000,0 116.437212000000,23.080246000000,0 116.446561000000,23.085863000000,0 116.445488000000,23.093281000000,0 116.453919000000,23.091161000000,0 116.478826000000,23.104249000000,0 116.509787000000,23.100646000000,0 116.520287000000,23.094553000000,0 116.552551000000,23.105891000000,0</coordinates></LinearRing></outerBoundaryIs></Polygon><Polygon><outerBoundaryIs><LinearRing><coordinates>117.145420000000,23.456119000000,0 117.141281000000,23.460029000000,0 117.127640000000,23.458814000000,0 117.132928000000,23.472710000000,0 117.129479000000,23.483330000000,0 117.109247000000,23.476831000000,0 117.103882000000,23.464573000000,0 117.093383000000,23.459395000000,0 117.084569000000,23.461878000000,0 117.079435000000,23.472922000000,0 117.064490000000,23.475669000000,0 117.051232000000,23.467849000000,0 117.022800000000,23.436830000000,0 117.016669000000,23.438785000000,0 117.001341000000,23.457334000000,0 116.985630000000,23.460822000000,0 116.974441000000,23.457123000000,0 116.961413000000,23.447241000000,0 116.951067000000,23.446290000000,0 116.944706000000,23.440001000000,0 116.945089000000,23.422824000000,0 116.964708000000,23.416375000000,0 116.981722000000,23.414525000000,0 116.999502000000,23.416216000000,0 117.028854000000,23.414789000000,0 117.029927000000,23.406332000000,0 117.051155000000,23.400781000000,0 117.079128000000,23.409027000000,0 117.098747000000,23.405063000000,0 117.102196000000,23.393644000000,0 117.114075000000,23.399459000000,0 117.124268000000,23.389732000000,0 117.142967000000,23.400411000000,0 117.145496000000,23.411829000000,0 117.135993000000,23.422665000000,0 117.136836000000,23.439895000000,0 117.148562000000,23.437992000000,0 117.154769000000,23.445074000000,0 117.145113000000,23.450095000000,0 117.145420000000,23.456119000000,0</coordinates></LinearRing></outerBoundaryIs></Polygon></MultiGeometry>
    </Placemark>
  </Document>
</kml>
