<?xml version="1.0" encoding="UTF-8"?>
<kml xmlns="http://www.opengis.net/kml/2.2">
<Document>
<name>清远市</name>
<Placemark><name>清远市</name><MultiGeometry><Polygon><outerBoundaryIs><LinearRing><coordinates>112.994804000000002,24.927347000000001,0 112.984457000000006,24.921182999999999,0 112.966830999999999,24.919301999999998,0 112.959243999999998,24.923480999999999,0 112.941770000000005,24.915907000000001,0 112.937402000000006,24.920452000000001,0 112.924526999999998,24.918883999999998,0 112.904370999999998,24.921810000000001,0 112.879311000000001,24.907809,0 112.873486,24.89668,0 112.842065000000005,24.897151000000001,0 112.804435999999995,24.890723999999999,0 112.788342,24.892396000000002,0 112.780754999999999,24.897307000000001,0 112.786732000000001,24.912406000000001,0 112.782211000000004,24.922698,0 112.784433000000007,24.938576999999999,0 112.773473999999993,24.949963,0 112.746343999999993,24.956492000000001,0 112.742205999999996,24.977484,0 112.745348000000007,24.981348000000001,0 112.741822999999997,24.998577000000001,0 112.725881999999999,25.010062000000001,0 112.715153000000001,25.026035,0 112.719215000000005,25.048268,0 112.715613000000005,25.078375000000001,0 112.697295999999994,25.089956999999998,0 112.695227000000003,25.095538000000001,0 112.679745999999994,25.109935,0 112.668863999999999,25.113951,0 112.667867999999999,25.122140000000002,0 112.659820999999994,25.132778999999999,0 112.648017999999993,25.133613,0 112.628169,25.140601,0 112.624797000000001,25.134081999999999,0 112.612764999999996,25.133196000000002,0 112.596518000000003,25.126259999999998,0 112.562644000000006,25.124486999999998,0 112.537047000000001,25.134239000000001,0 112.507694999999998,25.136742000000002,0 112.502636999999993,25.144615999999999,0 112.491065000000006,25.144459000000001,0 112.477500000000006,25.151394,0 112.458264,25.152072,0 112.452669,25.159841,0 112.454814999999996,25.173500000000001,0 112.443012999999993,25.185593999999998,0 112.430673999999996,25.175273000000001,0 112.426152999999999,25.156244000000001,0 112.413353999999998,25.141331000000001,0 112.399483000000004,25.140653,0 112.387373999999994,25.152176999999998,0 112.393122000000005,25.160153999999999,0 112.373732000000004,25.177567,0 112.364841999999996,25.191693000000001,0 112.350893999999997,25.187054,0 112.329896000000005,25.173812999999999,0 112.313648000000001,25.173916999999999,0 112.302536000000003,25.157181999999999,0 112.288435000000007,25.15859,0 112.281997000000004,25.164742,0 112.256094000000004,25.159372000000001,0 112.255556999999996,25.171571,0 112.246590999999995,25.184968999999999,0 112.201757999999998,25.185803,0 112.187349999999995,25.183091999999998,0 112.193173999999999,25.172197000000001,0 112.183288000000005,25.14884,0 112.183901000000006,25.141069999999999,0 112.174167999999995,25.129493,0 112.177080000000004,25.107379000000002,0 112.165814999999995,25.085000999999998,0 112.162749000000005,25.068462,0 112.152173000000005,25.055938999999999,0 112.153553000000002,25.045501999999999,0 112.148877999999996,25.035429000000001,0 112.155698000000001,25.026973999999999,0 112.134623000000005,24.995809999999999,0 112.122743999999997,24.990485,0 112.120062000000004,24.963698000000001,0 112.142133999999999,24.937951000000002,0 112.152479999999997,24.932414000000001,0 112.175163999999995,24.927503999999999,0 112.168189999999996,24.890827999999999,0 112.165661,24.867208000000002,0 112.171103000000002,24.862712999999999,0 112.161062999999999,24.844211000000001,0 112.149490999999998,24.836945,0 112.141444000000007,24.844524,0 112.124047000000004,24.841073999999999,0 112.112628000000001,24.831507999999999,0 112.097223999999997,24.826384999999998,0 112.096457999999998,24.817235,0 112.083811999999995,24.804843999999999,0 112.059212000000002,24.799510000000001,0 112.054230000000004,24.788895,0 112.033844999999999,24.771165,0 112.030473000000001,24.745063999999999,0 112.013919000000001,24.731514000000001,0 111.999127999999999,24.733135000000001,0 111.985026000000005,24.727485000000001,0 111.972688000000005,24.72738,0 111.961344999999994,24.721205999999999,0 111.952838999999997,24.696349999999999,0 111.939656999999997,24.686616000000001,0 111.944179000000005,24.676409,0 111.939196999999993,24.669499999999999,0 111.947551000000004,24.665364,0 111.953528000000006,24.647199000000001,0 111.934291999999999,24.641911,0 111.927471999999995,24.629397000000001,0 111.938430999999994,24.609497999999999,0 111.937128000000001,24.595828000000001,0 111.948547000000005,24.592686,0 111.963337999999993,24.5809,0 111.971997999999999,24.578648000000001,0 111.978281999999993,24.561360000000001,0 111.989855000000006,24.550775999999999,0 111.997825000000006,24.551196000000001,0 112.007405000000006,24.534533,0 112.005258999999995,24.512051,0 112.009703999999999,24.502877999999999,0 111.996369000000001,24.494910999999998,0 111.987095999999994,24.480861999999998,0 111.986636000000004,24.464504999999999,0 111.996521999999999,24.459261000000001,0 111.999741,24.450451999999999,0 112.023191999999995,24.441538000000001,0 112.042120999999995,24.410278999999999,0 112.043577999999997,24.392706,0 112.057678999999993,24.387093,0 112.061817000000005,24.368151999999998,0 112.059442000000004,24.339708999999999,0 112.050551999999996,24.332571999999999,0 112.045186999999999,24.320761999999998,0 112.033231000000001,24.313359999999999,0 112.026104000000004,24.295090999999999,0 112.015911000000003,24.293989,0 112.003112999999999,24.281649999999999,0 111.990391000000002,24.279812,0 111.988015000000004,24.259018000000001,0 111.975982999999999,24.255078999999999,0 111.969009,24.263691000000001,0 111.956057000000001,24.26033,0 111.952685000000002,24.251560000000001,0 111.940730000000002,24.245152999999998,0 111.942645999999996,24.234857999999999,0 111.961574999999996,24.234753000000001,0 111.978052000000005,24.222670999999998,0 111.986866000000006,24.205124000000001,0 111.994223000000005,24.198609999999999,0 111.997671999999994,24.186945000000001,0 112.006867999999997,24.190149999999999,0 112.024955000000006,24.188364,0 112.041815,24.191516,0 112.046030000000002,24.197610999999998,0 112.041354999999996,24.216681999999999,0 112.050398000000001,24.224246999999998,0 112.053156999999999,24.245940000000001,0 112.058368999999999,24.247043000000001,0 112.067871999999994,24.260698000000001,0 112.086877999999999,24.256917000000001,0 112.106114000000005,24.228555,0 112.115080000000006,24.229026999999999,0 112.122591,24.222985999999999,0 112.129257999999993,24.207488999999999,0 112.144433000000006,24.201394000000001,0 112.148341000000002,24.190097999999999,0 112.157538000000002,24.185841,0 112.166657999999998,24.187943000000001,0 112.169876000000002,24.197454,0 112.196928999999997,24.204073999999999,0 112.215092999999996,24.223458999999998,0 112.218311,24.244364999999998,0 112.235708000000002,24.246203000000001,0 112.249503000000004,24.243366999999999,0 112.256324000000006,24.259699999999999,0 112.255556999999996,24.279181999999999,0 112.261994999999999,24.290576000000001,0 112.256936999999994,24.320761999999998,0 112.258315999999994,24.324279000000001,0 112.274410000000003,24.320603999999999,0 112.293723,24.327584999999999,0 112.293645999999995,24.344538,0 112.284678999999997,24.377334000000001,0 112.288971000000004,24.388666000000001,0 112.307210999999995,24.378592999999999,0 112.319703000000004,24.380167,0 112.342004000000003,24.353511999999998,0 112.373732000000004,24.347949,0 112.384844999999999,24.328372999999999,0 112.393888000000004,24.326640999999999,0 112.401858000000004,24.310210999999999,0 112.411285000000007,24.307061000000001,0 112.423777000000001,24.284958,0 112.444238999999996,24.287741,0 112.449986999999993,24.281020000000002,0 112.458723000000006,24.238377,0 112.453052,24.209379999999999,0 112.439564000000004,24.190570000000001,0 112.439027999999993,24.180323999999999,0 112.431439999999995,24.173387000000002,0 112.434813000000005,24.164453000000002,0 112.429524999999998,24.160564000000001,0 112.434658999999996,24.147528999999999,0 112.428451999999993,24.139802,0 112.429830999999993,24.127081,0 112.446921000000003,24.121929000000002,0 112.455350999999993,24.12482,0 112.452516000000003,24.115725000000001,0 112.463781999999995,24.120771999999999,0 112.486695999999995,24.114148,0 112.493669999999995,24.095376999999999,0 112.489531999999997,24.086122,0 112.500798000000003,24.08081,0 112.497884999999997,24.064401,0 112.507542000000001,24.051777999999999,0 112.507617999999994,24.043309000000001,0 112.518501000000001,24.016635000000001,0 112.506468999999996,24.007269000000001,0 112.511296999999999,24.001376,0 112.516125000000002,23.977008999999999,0 112.535668000000001,23.970745999999998,0 112.564252999999994,23.977325,0 112.567012000000005,23.964903,0 112.575136000000001,23.967324999999999,0 112.588318000000001,23.956692,0 112.608166999999995,23.952586,0 112.622651000000005,23.943636000000001,0 112.645105999999998,23.941004,0 112.662886,23.949584999999999,0 112.675837999999999,23.939845999999999,0 112.682581999999996,23.939056000000001,0 112.683272000000002,23.924050000000001,0 112.693464000000006,23.912728999999999,0 112.693235000000001,23.904250999999999,0 112.685494000000006,23.895351000000002,0 112.692161999999996,23.889610000000001,0 112.672158999999994,23.864801,0 112.679516000000007,23.857216000000001,0 112.672158999999994,23.851472999999999,0 112.675224999999998,23.831240999999999,0 112.661353000000005,23.821650999999999,0 112.655376000000004,23.812587000000001,0 112.675454999999999,23.815169000000001,0 112.689479000000006,23.806369,0 112.705879999999993,23.806369,0 112.700667999999993,23.793192000000001,0 112.704194000000001,23.790557,0 112.697680000000005,23.765677,0 112.706033000000005,23.752813,0 112.730020999999994,23.758507000000002,0 112.743126000000004,23.752444000000001,0 112.725881999999999,23.725815999999998,0 112.711320999999998,23.712104,0 112.713466999999994,23.706883000000001,0 112.724579000000006,23.710258,0 112.721590000000006,23.698549,0 112.715075999999996,23.691638999999999,0 112.728718000000001,23.678504,0 112.744964999999993,23.686523000000001,0 112.739907000000002,23.672595999999999,0 112.744964999999993,23.668481,0 112.751249000000001,23.675286,0 112.759219999999999,23.672332000000001,0 112.768646000000004,23.677396999999999,0 112.780907999999997,23.671223999999999,0 112.784662999999995,23.655290999999998,0 112.778301999999996,23.641255000000001,0 112.752092000000005,23.628643,0 112.750483000000003,23.610064999999999,0 112.756844000000001,23.603308999999999,0 112.772171,23.603308999999999,0 112.781828000000004,23.588529000000001,0 112.799761000000004,23.588951000000002,0 112.800144000000003,23.571846000000001,0 112.793400000000005,23.571688000000002,0 112.796772000000004,23.551835000000001,0 112.802137000000002,23.545551,0 112.830493000000004,23.545762,0 112.827196999999998,23.567042000000001,0 112.848501999999996,23.566935999999998,0 112.862909999999999,23.573429999999998,0 112.871646999999996,23.570896000000001,0 112.893411999999998,23.552679999999999,0 112.900308999999993,23.566725000000002,0 112.915329999999997,23.552309999999999,0 112.911192,23.541643000000001,0 112.893259,23.526433999999998,0 112.887741000000005,23.517402000000001,0 112.903298000000007,23.488613000000001,0 112.928434999999993,23.483488000000001,0 112.925753,23.472393,0 112.933492999999999,23.470649999999999,0 112.930198000000004,23.463094000000002,0 112.942229999999995,23.460187999999999,0 112.957633999999999,23.447558000000001,0 112.965834999999998,23.452155000000001,0 112.966294000000005,23.460663,0 112.975183999999999,23.463622000000001,0 112.993347,23.466844999999999,0 113.004689999999997,23.462036999999999,0 113.018024999999994,23.469065000000001,0 113.042931999999993,23.474136999999999,0 113.055884000000006,23.471971,0 113.063854000000006,23.482537000000001,0 113.075502999999998,23.484228000000002,0 113.083933000000002,23.494266,0 113.108993999999996,23.497964,0 113.128688999999994,23.512595999999998,0 113.15352,23.502822999999999,0 113.172066000000001,23.512384000000001,0 113.192069000000004,23.514761,0 113.191148999999996,23.523212000000001,0 113.211917999999997,23.543914000000001,0 113.210155,23.552997000000001,0 113.200805000000003,23.561814999999999,0 113.202262000000005,23.576491999999998,0 113.214523999999997,23.584253,0 113.227014999999994,23.585730999999999,0 113.227858999999995,23.594441,0 113.245868000000002,23.588265,0 113.240350000000007,23.606211999999999,0 113.248474000000002,23.601566999999999,0 113.276600000000002,23.615977000000001,0 113.280049000000005,23.608957,0 113.290548000000001,23.617084999999999,0 113.299437999999995,23.637456,0 113.289244999999994,23.644368,0 113.311009999999996,23.643312999999999,0 113.328329999999994,23.645371000000001,0 113.327946999999995,23.655501999999998,0 113.334845000000001,23.656399,0 113.338447000000002,23.665737,0 113.347413000000003,23.667214999999999,0 113.366343000000001,23.710311000000001,0 113.372397000000007,23.709731000000001,0 113.378375000000005,23.731511000000001,0 113.397841,23.730561999999999,0 113.404278000000005,23.723495,0 113.438458999999995,23.727134,0 113.443822999999995,23.715900999999999,0 113.464286000000001,23.707989999999999,0 113.468731000000005,23.691006000000002,0 113.481069000000005,23.684042999999999,0 113.510267999999996,23.682461,0 113.527051999999998,23.686153000000001,0 113.545445000000001,23.696387000000001,0 113.546901000000005,23.702558,0 113.558779999999999,23.700711999999999,0 113.568053000000006,23.690214999999998,0 113.568053000000006,23.679454,0 113.587288999999998,23.675234,0 113.587211999999994,23.669008000000002,0 113.597251999999997,23.664946,0 113.615720999999994,23.680192000000002,0 113.611660000000001,23.686205999999999,0 113.623845000000003,23.694699,0 113.622619,23.699445999999998,0 113.638176000000001,23.704561999999999,0 113.628136999999995,23.711682,0 113.631662000000006,23.727872000000001,0 113.636489999999995,23.731985000000002,0 113.630741999999998,23.738945999999999,0 113.636414000000002,23.750229000000001,0 113.626143999999996,23.767416000000001,0 113.615184999999997,23.779803999999999,0 113.633730999999997,23.797198000000002,0 113.640244999999993,23.814274000000001,0 113.651663999999997,23.820122999999999,0 113.666379000000006,23.813694000000002,0 113.684312000000006,23.812956,0 113.687377999999995,23.825709,0 113.706384,23.815275,0 113.720178000000004,23.825129,0 113.714814000000004,23.834982,0 113.718033000000005,23.843886999999999,0 113.709755999999999,23.856266999999999,0 113.713510999999997,23.862483999999998,0 113.733666999999997,23.855003,0 113.742327000000003,23.859165000000001,0 113.749071000000001,23.854371,0 113.758190999999997,23.857479000000001,0 113.767081000000005,23.871438999999999,0 113.775357999999997,23.877918000000001,0 113.781104999999997,23.896298999999999,0 113.791605000000004,23.903881999999999,0 113.800264999999996,23.902566,0 113.799345000000002,23.923524,0 113.792293999999998,23.931526999999999,0 113.775357999999997,23.938424000000001,0 113.774285000000006,23.952691000000002,0 113.766468000000003,23.960850000000001,0 113.744703000000001,23.959060000000001,0 113.739414999999994,23.969588000000002,0 113.730447999999996,23.974640999999998,0 113.732364000000004,23.981114000000002,0 113.718646000000007,23.993008,0 113.728149000000002,23.997166,0 113.747078000000002,24.023212000000001,0 113.753591999999998,24.026841999999998,0 113.763554999999997,24.021370000000001,0 113.772981999999999,24.026947,0 113.784171000000001,24.022317000000001,0 113.790608000000006,24.025106000000001,0 113.790379000000001,24.034471,0 113.803636999999995,24.053566,0 113.813063,24.052567,0 113.831149999999994,24.063507000000001,0 113.828467000000003,24.069607999999999,0 113.837434000000002,24.072763999999999,0 113.845710999999994,24.086805999999999,0 113.836821,24.088331,0 113.836668000000003,24.098637,0 113.842415000000003,24.104053,0 113.836973999999998,24.111729,0 113.839273000000006,24.119931000000001,0 113.850999000000002,24.124977999999999,0 113.853910999999997,24.132811,0 113.864639999999994,24.133020999999999,0 113.870464999999996,24.141169000000001,0 113.862264999999994,24.147319,0 113.857052999999993,24.16151,0 113.880044999999996,24.174123000000002,0 113.901043000000001,24.188521000000001,0 113.909166999999997,24.184318000000001,0 113.930242000000007,24.188416,0 113.930318999999997,24.195930000000001,0 113.922118999999995,24.19304,0 113.921199000000001,24.200973999999999,0 113.896522000000004,24.210325999999998,0 113.890390999999994,24.229762999999998,0 113.890773999999993,24.241475999999999,0 113.883110000000002,24.245415000000001,0 113.870541000000003,24.242263999999999,0 113.872073999999998,24.253976000000002,0 113.862877999999995,24.259018000000001,0 113.855827000000005,24.252925999999999,0 113.840040000000002,24.265108999999999,0 113.850003000000001,24.274560999999999,0 113.844714999999994,24.279706999999998,0 113.844791000000001,24.304541,0 113.850461999999993,24.318871999999999,0 113.840500000000006,24.336245999999999,0 113.831303000000005,24.336559999999999,0 113.817048,24.34459,0 113.818580999999995,24.3522,0 113.800955000000002,24.377334000000001,0 113.805553000000003,24.384364000000001,0 113.803866999999997,24.401781,0 113.778270000000006,24.410909,0 113.765317999999994,24.417726999999999,0 113.762866000000002,24.43299,0 113.753439,24.437184999999999,0 113.726999000000006,24.437028000000002,0 113.723934,24.434930000000001,0 113.722247999999993,24.414632999999998,0 113.709908999999996,24.412376999999999,0 113.686380999999997,24.437709000000002,0 113.683162999999993,24.454174999999999,0 113.666072,24.467493000000001,0 113.656799000000007,24.468226999999999,0 113.643234000000007,24.477716999999998,0 113.637180000000001,24.486471000000002,0 113.625760999999997,24.491923,0 113.609667000000002,24.489982999999999,0 113.596791999999994,24.500886000000001,0 113.599627999999996,24.512993999999999,0 113.589664999999997,24.515248,0 113.579548000000003,24.500520000000002,0 113.575640000000007,24.509115000000001,0 113.552571999999998,24.511054999999999,0 113.540463000000003,24.506233000000002,0 113.531343000000007,24.489826000000001,0 113.530270999999999,24.479551000000001,0 113.518851999999995,24.469851999999999,0 113.507816000000005,24.484006999999998,0 113.499308999999997,24.473784999999999,0 113.489268999999993,24.471005999999999,0 113.478847000000002,24.477768999999999,0 113.467427999999998,24.461725999999999,0 113.440988000000004,24.453703000000001,0 113.419223000000002,24.459942999999999,0 113.412171999999998,24.472525999999998,0 113.415543999999997,24.485265999999999,0 113.379754000000005,24.485213000000002,0 113.374160000000003,24.494019999999999,0 113.362050999999994,24.47908,0 113.350632000000004,24.472159000000001,0 113.331243000000001,24.472579,0 113.31944,24.465291000000001,0 113.294993000000005,24.457163999999999,0 113.272154999999998,24.466968999999999,0 113.270392000000001,24.47672,0 113.261809,24.482225,0 113.252765999999994,24.497793999999999,0 113.251080000000002,24.510216,0 113.244641999999999,24.502144000000001,0 113.235828999999995,24.505866000000001,0 113.230158000000003,24.498474999999999,0 113.216515999999999,24.495697,0 113.20617,24.476458000000001,0 113.197050000000004,24.474675999999999,0 113.186780999999996,24.480705,0 113.174978999999993,24.475881999999999,0 113.161950000000004,24.479026999999999,0 113.153367000000003,24.467703,0 113.151450999999994,24.478712999999999,0 113.137119999999996,24.482907000000001,0 113.114127999999994,24.502983,0 113.096807999999996,24.496431000000001,0 113.087305000000001,24.471582999999999,0 113.063700999999995,24.468803999999999,0 113.047376999999997,24.475515000000001,0 113.025611999999995,24.493863000000001,0 113.020629999999997,24.513674999999999,0 112.999707999999998,24.528715999999999,0 112.991048000000006,24.544751000000002,0 112.981927999999996,24.542916999999999,0 112.969359999999995,24.568117999999998,0 112.961389999999994,24.570266,0 112.964377999999996,24.586137999999998,0 112.950507000000002,24.594989999999999,0 112.926366000000002,24.596457000000001,0 112.917169999999999,24.600490000000001,0 112.902072000000004,24.595670999999999,0 112.898700000000005,24.600542000000001,0 112.887970999999993,24.595303999999999,0 112.884598999999994,24.616358000000002,0 112.897779999999997,24.632276999999998,0 112.896400999999997,24.650601999999999,0 112.914486999999994,24.662694999999999,0 112.900615999999999,24.713775999999999,0 112.930351000000002,24.718695,0 112.938781000000006,24.738209999999999,0 112.933646999999993,24.755369000000002,0 112.940161000000003,24.757514,0 112.954109000000003,24.782201000000001,0 112.951120000000003,24.788475999999999,0 112.960087000000001,24.800974,0 112.951580000000007,24.815771000000002,0 112.959779999999995,24.824241000000001,0 112.979246000000003,24.832553000000001,0 112.998942,24.850483000000001,0 113.014729000000003,24.851527999999998,0 113.019557000000006,24.855971,0 113.022163000000006,24.870865999999999,0 113.010974000000004,24.882781000000001,0 113.009900999999999,24.896889000000002,0 113.004766000000004,24.900129,0 113.00515,24.914078,0 112.994804000000002,24.927347000000001,0</coordinates></LinearRing></outerBoundaryIs></Polygon></MultiGeometry></Placemark>
</Document>
</kml>