<?xml version="1.0" encoding="UTF-8"?>
<kml xmlns="http://www.opengis.net/kml/2.2">
  <Document>
    <name>茂名市</name>
    <Placemark>
      <name>茂名市</name>
      <MultiGeometry><Polygon><outerBoundaryIs><LinearRing><coordinates>111.184700000000,21.371010000000,0 111.184700000000,21.381953000000,0 111.195659000000,21.391017000000,0 111.194816000000,21.380075000000,0 111.184700000000,21.371010000000,0</coordinates></LinearRing></outerBoundaryIs></Polygon><Polygon><outerBoundaryIs><LinearRing><coordinates>110.490440000000,21.456866000000,0 110.484002000000,21.447108000000,0 110.484539000000,21.456705000000,0 110.490440000000,21.456866000000,0</coordinates></LinearRing></outerBoundaryIs></Polygon><Polygon><outerBoundaryIs><LinearRing><coordinates>110.509063000000,21.479273000000,0 110.508066000000,21.490583000000,0 110.514044000000,21.480774000000,0 110.506687000000,21.472251000000,0 110.494118000000,21.474234000000,0 110.490823000000,21.482811000000,0 110.509063000000,21.479273000000,0</coordinates></LinearRing></outerBoundaryIs></Polygon><Polygon><outerBoundaryIs><LinearRing><coordinates>110.708014000000,21.519362000000,0 110.717364000000,21.519684000000,0 110.730775000000,21.501088000000,0 110.723342000000,21.503553000000,0 110.708474000000,21.500927000000,0 110.713532000000,21.511752000000,0 110.708014000000,21.519362000000,0</coordinates></LinearRing></outerBoundaryIs></Polygon><Polygon><outerBoundaryIs><LinearRing><coordinates>110.388359000000,21.789084000000,0 110.386749000000,21.795556000000,0 110.375560000000,21.798765000000,0 110.377246000000,21.806627000000,0 110.362225000000,21.797642000000,0 110.348354000000,21.802509000000,0 110.350193000000,21.809675000000,0 110.365137000000,21.807055000000,0 110.357857000000,21.815451000000,0 110.348124000000,21.809354000000,0 110.345901000000,21.800851000000,0 110.339387000000,21.806359000000,0 110.342606000000,21.837322000000,0 110.351572000000,21.845663000000,0 110.354255000000,21.856462000000,0 110.350729000000,21.863947000000,0 110.362532000000,21.868224000000,0 110.372571000000,21.856355000000,0 110.387362000000,21.852239000000,0 110.398398000000,21.861755000000,0 110.387592000000,21.890407000000,0 110.396329000000,21.906120000000,0 110.413726000000,21.911304000000,0 110.400391000000,21.913976000000,0 110.413419000000,21.915686000000,0 110.414799000000,21.932732000000,0 110.440702000000,21.936580000000,0 110.442388000000,21.940854000000,0 110.418477000000,21.944381000000,0 110.412959000000,21.953837000000,0 110.400007000000,21.955387000000,0 110.391117000000,21.950258000000,0 110.376786000000,21.967781000000,0 110.352952000000,21.976595000000,0 110.359926000000,21.993901000000,0 110.356324000000,22.007360000000,0 110.363528000000,22.005811000000,0 110.347741000000,22.038972000000,0 110.353105000000,22.043564000000,0 110.355481000000,22.061556000000,0 110.351726000000,22.074421000000,0 110.358853000000,22.075916000000,0 110.359236000000,22.084083000000,0 110.351266000000,22.088993000000,0 110.350806000000,22.096999000000,0 110.365674000000,22.098707000000,0 110.362915000000,22.110288000000,0 110.364601000000,22.125230000000,0 110.360922000000,22.132113000000,0 110.352186000000,22.132487000000,0 110.334329000000,22.149027000000,0 110.326589000000,22.152655000000,0 110.326052000000,22.164445000000,0 110.334789000000,22.170366000000,0 110.337471000000,22.184022000000,0 110.342529000000,22.183435000000,0 110.348507000000,22.195862000000,0 110.375407000000,22.166312000000,0 110.381078000000,22.164232000000,0 110.393493000000,22.170473000000,0 110.390964000000,22.179008000000,0 110.399318000000,22.187382000000,0 110.410660000000,22.190209000000,0 110.409817000000,22.203276000000,0 110.414569000000,22.208555000000,0 110.430816000000,22.206209000000,0 110.453501000000,22.192182000000,0 110.460245000000,22.178581000000,0 110.490133000000,22.155162000000,0 110.483389000000,22.150521000000,0 110.489444000000,22.144599000000,0 110.510672000000,22.145026000000,0 110.529448000000,22.154469000000,0 110.529295000000,22.164392000000,0 110.560333000000,22.196396000000,0 110.585317000000,22.185088000000,0 110.602484000000,22.183382000000,0 110.598422000000,22.163431000000,0 110.606009000000,22.155909000000,0 110.620800000000,22.157830000000,0 110.629077000000,22.149080000000,0 110.653141000000,22.159377000000,0 110.658123000000,22.167539000000,0 110.665480000000,22.165192000000,0 110.670462000000,22.172820000000,0 110.678892000000,22.172660000000,0 110.675290000000,22.188449000000,0 110.664714000000,22.203382000000,0 110.652835000000,22.207702000000,0 110.646857000000,22.223007000000,0 110.653525000000,22.238203000000,0 110.664637000000,22.245348000000,0 110.686019000000,22.248547000000,0 110.694526000000,22.258249000000,0 110.695445000000,22.272323000000,0 110.711999000000,22.277760000000,0 110.720966000000,22.294123000000,0 110.725334000000,22.295615000000,0 110.738899000000,22.281917000000,0 110.758748000000,22.274668000000,0 110.784498000000,22.280798000000,0 110.789710000000,22.286661000000,0 110.785571000000,22.294603000000,0 110.772619000000,22.295562000000,0 110.773233000000,22.307393000000,0 110.760511000000,22.324818000000,0 110.749398000000,22.329774000000,0 110.750165000000,22.344799000000,0 110.741275000000,22.362007000000,0 110.729396000000,22.366375000000,0 110.723801000000,22.359876000000,0 110.711539000000,22.369624000000,0 110.712382000000,22.395457000000,0 110.706864000000,22.405362000000,0 110.713992000000,22.417078000000,0 110.713302000000,22.437471000000,0 110.706711000000,22.446415000000,0 110.693529000000,22.448279000000,0 110.692686000000,22.457755000000,0 110.683490000000,22.473405000000,0 110.688241000000,22.477769000000,0 110.698358000000,22.474469000000,0 110.705102000000,22.466432000000,0 110.725947000000,22.461215000000,0 110.741351000000,22.464302000000,0 110.747789000000,22.476119000000,0 110.739972000000,22.488734000000,0 110.740432000000,22.498845000000,0 110.750471000000,22.517045000000,0 110.760817000000,22.516779000000,0 110.754303000000,22.536838000000,0 110.756909000000,22.548436000000,0 110.748095000000,22.554767000000,0 110.761507000000,22.559607000000,0 110.764496000000,22.565938000000,0 110.760204000000,22.580777000000,0 110.778674000000,22.585405000000,0 110.793542000000,22.571363000000,0 110.799213000000,22.556841000000,0 110.805804000000,22.558916000000,0 110.807566000000,22.570672000000,0 110.815460000000,22.578065000000,0 110.833240000000,22.584926000000,0 110.853779000000,22.582267000000,0 110.861213000000,22.587745000000,0 110.877690000000,22.582692000000,0 110.887269000000,22.583543000000,0 110.897922000000,22.591999000000,0 110.895853000000,22.613537000000,0 110.941299000000,22.608113000000,0 110.957699000000,22.616727000000,0 110.961761000000,22.625766000000,0 110.959002000000,22.636506000000,0 110.977319000000,22.641557000000,0 110.987358000000,22.640228000000,0 110.997091000000,22.631349000000,0 111.010043000000,22.644906000000,0 111.027976000000,22.651551000000,0 111.030735000000,22.646767000000,0 111.055642000000,22.648521000000,0 111.062080000000,22.666169000000,0 111.074035000000,22.667232000000,0 111.089669000000,22.694285000000,0 111.104767000000,22.694869000000,0 111.108369000000,22.704328000000,0 111.123543000000,22.701459000000,0 111.124539000000,22.695826000000,0 111.136878000000,22.685941000000,0 111.137108000000,22.674514000000,0 111.127911000000,22.666169000000,0 111.136418000000,22.643789000000,0 111.143162000000,22.638686000000,0 111.144235000000,22.625713000000,0 111.161862000000,22.620236000000,0 111.174737000000,22.605773000000,0 111.185849000000,22.604390000000,0 111.196732000000,22.610240000000,0 111.215662000000,22.594659000000,0 111.219187000000,22.585830000000,0 111.249076000000,22.583650000000,0 111.253520000000,22.589234000000,0 111.279271000000,22.592053000000,0 111.303105000000,22.580724000000,0 111.303641000000,22.569448000000,0 111.326633000000,22.557267000000,0 111.322724000000,22.549660000000,0 111.293909000000,22.547638000000,0 111.285172000000,22.523856000000,0 111.277278000000,22.517843000000,0 111.272067000000,22.506136000000,0 111.276972000000,22.491927000000,0 111.293295000000,22.506030000000,0 111.329852000000,22.516087000000,0 111.338588000000,22.522951000000,0 111.350084000000,22.506988000000,0 111.373688000000,22.516034000000,0 111.384647000000,22.509808000000,0 111.403117000000,22.516087000000,0 111.413387000000,22.512628000000,0 111.410628000000,22.492033000000,0 111.403347000000,22.479526000000,0 111.408788000000,22.475268000000,0 111.409631000000,22.457116000000,0 111.421127000000,22.446948000000,0 111.417065000000,22.431135000000,0 111.421817000000,22.426662000000,0 111.439520000000,22.427834000000,0 111.446034000000,22.442209000000,0 111.471325000000,22.441996000000,0 111.480444000000,22.460150000000,0 111.473470000000,22.474629000000,0 111.476919000000,22.480164000000,0 111.469409000000,22.490277000000,0 111.486882000000,22.505551000000,0 111.507804000000,22.493949000000,0 111.525201000000,22.480164000000,0 111.545433000000,22.499324000000,0 111.544590000000,22.517364000000,0 111.561144000000,22.523377000000,0 111.559381000000,22.528804000000,0 111.569344000000,22.540722000000,0 111.596320000000,22.551362000000,0 111.606820000000,22.549660000000,0 111.612031000000,22.542584000000,0 111.610269000000,22.534125000000,0 111.618315000000,22.533912000000,0 111.616093000000,22.521408000000,0 111.621304000000,22.521195000000,0 111.616016000000,22.508158000000,0 111.619618000000,22.497302000000,0 111.625673000000,22.510925000000,0 111.633873000000,22.503262000000,0 111.648128000000,22.498207000000,0 111.671425000000,22.503262000000,0 111.678553000000,22.496397000000,0 111.680315000000,22.482400000000,0 111.683381000000,22.468774000000,0 111.679089000000,22.456850000000,0 111.660083000000,22.434915000000,0 111.649584000000,22.426716000000,0 111.630884000000,22.402859000000,0 111.616783000000,22.390504000000,0 111.607280000000,22.393220000000,0 111.600689000000,22.375537000000,0 111.590266000000,22.369784000000,0 111.571490000000,22.375217000000,0 111.552560000000,22.364723000000,0 111.542751000000,22.368079000000,0 111.531102000000,22.358384000000,0 111.517001000000,22.365309000000,0 111.511176000000,22.349594000000,0 111.494163000000,22.339418000000,0 111.492247000000,22.333557000000,0 111.479601000000,22.334143000000,0 111.465807000000,22.330040000000,0 111.468182000000,22.326683000000,0 111.459369000000,22.309738000000,0 111.464810000000,22.302170000000,0 111.459446000000,22.296415000000,0 111.453468000000,22.270297000000,0 111.433389000000,22.275255000000,0 111.422660000000,22.272643000000,0 111.416835000000,22.263367000000,0 111.401278000000,22.253025000000,0 111.388556000000,22.251319000000,0 111.381275000000,22.240869000000,0 111.376830000000,22.243162000000,0 111.360507000000,22.233938000000,0 111.346099000000,22.211488000000,0 111.354069000000,22.193356000000,0 111.348091000000,22.181035000000,0 111.327169000000,22.171326000000,0 111.334450000000,22.160017000000,0 111.331384000000,22.142198000000,0 111.340657000000,22.129445000000,0 111.337515000000,22.118453000000,0 111.324410000000,22.113383000000,0 111.327169000000,22.103030000000,0 111.312685000000,22.088353000000,0 111.316976000000,22.082641000000,0 111.304561000000,22.084403000000,0 111.298583000000,22.069991000000,0 111.300653000000,22.064012000000,0 111.288467000000,22.058299000000,0 111.285325000000,22.048369000000,0 111.295901000000,22.031390000000,0 111.304638000000,22.029948000000,0 111.305941000000,22.011846000000,0 111.287624000000,22.000043000000,0 111.283333000000,21.986797000000,0 111.287624000000,21.977984000000,0 111.283716000000,21.971841000000,0 111.283409000000,21.952181000000,0 111.294675000000,21.935885000000,0 111.287241000000,21.924129000000,0 111.290077000000,21.907991000000,0 111.310922000000,21.893988000000,0 111.320119000000,21.897836000000,0 111.325177000000,21.886986000000,0 111.340044000000,21.874424000000,0 111.362499000000,21.877044000000,0 111.367864000000,21.862557000000,0 111.374608000000,21.860525000000,0 111.403270000000,21.862183000000,0 111.402887000000,21.854858000000,0 111.417218000000,21.850154000000,0 111.423503000000,21.813740000000,0 111.401508000000,21.798337000000,0 111.386947000000,21.780258000000,0 111.374301000000,21.774374000000,0 111.388786000000,21.756239000000,0 111.383651000000,21.750247000000,0 111.381275000000,21.734463000000,0 111.389859000000,21.727132000000,0 111.403040000000,21.728095000000,0 111.431243000000,21.718570000000,0 111.440670000000,21.693470000000,0 111.428944000000,21.676984000000,0 111.431550000000,21.670293000000,0 111.422890000000,21.661353000000,0 111.421587000000,21.648772000000,0 111.416299000000,21.646898000000,0 111.415456000000,21.632762000000,0 111.420590000000,21.617394000000,0 111.427718000000,21.614234000000,0 111.416452000000,21.598061000000,0 111.423809000000,21.591794000000,0 111.418291000000,21.578671000000,0 111.421510000000,21.573743000000,0 111.430783000000,21.579850000000,0 111.428944000000,21.570315000000,0 111.439367000000,21.575725000000,0 111.447030000000,21.570904000000,0 111.458909000000,21.534151000000,0 111.459139000000,21.524935000000,0 111.452395000000,21.515182000000,0 111.395837000000,21.501731000000,0 111.382502000000,21.495514000000,0 111.353149000000,21.464317000000,0 111.329852000000,21.446787000000,0 111.307627000000,21.433811000000,0 111.301189000000,21.433704000000,0 111.285862000000,21.419012000000,0 111.263483000000,21.412684000000,0 111.257352000000,21.415151000000,0 111.257736000000,21.436546000000,0 111.250532000000,21.449574000000,0 111.253597000000,21.452577000000,0 111.273829000000,21.443891000000,0 111.281800000000,21.446518000000,0 111.281493000000,21.458152000000,0 111.295595000000,21.476271000000,0 111.290536000000,21.484204000000,0 111.276895000000,21.484955000000,0 111.251605000000,21.480560000000,0 111.239113000000,21.471769000000,0 111.211983000000,21.469035000000,0 111.171442000000,21.458474000000,0 111.146611000000,21.459225000000,0 111.116646000000,21.453167000000,0 111.108599000000,21.455472000000,0 111.076564000000,21.452470000000,0 111.061313000000,21.449199000000,0 111.034797000000,21.438744000000,0 111.000770000000,21.417993000000,0 110.977012000000,21.406785000000,0 110.965363000000,21.433329000000,0 110.950112000000,21.443731000000,0 110.938233000000,21.441854000000,0 110.929037000000,21.447912000000,0 110.927121000000,21.441586000000,0 110.910337000000,21.439817000000,0 110.901907000000,21.425768000000,0 110.893554000000,21.436653000000,0 110.880449000000,21.444856000000,0 110.895853000000,21.451236000000,0 110.895316000000,21.460833000000,0 110.883897000000,21.469678000000,0 110.870409000000,21.471125000000,0 110.877843000000,21.476754000000,0 110.874471000000,21.484848000000,0 110.876004000000,21.498140000000,0 110.867344000000,21.506125000000,0 110.857841000000,21.496103000000,0 110.840674000000,21.493638000000,0 110.856231000000,21.503714000000,0 110.848721000000,21.517058000000,0 110.848031000000,21.527668000000,0 110.828872000000,21.542671000000,0 110.822127000000,21.541974000000,0 110.818679000000,21.551672000000,0 110.826342000000,21.559815000000,0 110.817759000000,21.569083000000,0 110.813697000000,21.583064000000,0 110.795611000000,21.579582000000,0 110.793618000000,21.596025000000,0 110.798830000000,21.619857000000,0 110.798216000000,21.631852000000,0 110.786874000000,21.633298000000,0 110.771853000000,21.647808000000,0 110.761507000000,21.647969000000,0 110.754610000000,21.634797000000,0 110.749858000000,21.635922000000,0 110.736217000000,21.623874000000,0 110.736830000000,21.609522000000,0 110.743344000000,21.606201000000,0 110.747176000000,21.588741000000,0 110.736523000000,21.585420000000,0 110.734301000000,21.575564000000,0 110.727403000000,21.573636000000,0 110.725257000000,21.547761000000,0 110.735987000000,21.533348000000,0 110.728170000000,21.531097000000,0 110.729396000000,21.523863000000,0 110.714758000000,21.526811000000,0 110.706788000000,21.521023000000,0 110.693453000000,21.513896000000,0 110.677742000000,21.521398000000,0 110.672148000000,21.512610000000,0 110.681881000000,21.507519000000,0 110.687935000000,21.491440000000,0 110.683337000000,21.488332000000,0 110.665863000000,21.497497000000,0 110.656973000000,21.490904000000,0 110.657893000000,21.503607000000,0 110.645095000000,21.501248000000,0 110.645478000000,21.482918000000,0 110.621184000000,21.481042000000,0 110.609381000000,21.498997000000,0 110.599035000000,21.507304000000,0 110.590069000000,21.500605000000,0 110.577194000000,21.499158000000,0 110.575201000000,21.515772000000,0 110.557038000000,21.512663000000,0 110.541710000000,21.493102000000,0 110.545466000000,21.479220000000,0 110.538875000000,21.473859000000,0 110.532437000000,21.480345000000,0 110.518183000000,21.480184000000,0 110.517646000000,21.489725000000,0 110.508373000000,21.490958000000,0 110.510442000000,21.499587000000,0 110.497567000000,21.517111000000,0 110.485152000000,21.513735000000,0 110.477718000000,21.526221000000,0 110.483849000000,21.543849000000,0 110.475572000000,21.554136000000,0 110.470361000000,21.547546000000,0 110.455340000000,21.554511000000,0 110.450358000000,21.550439000000,0 110.443768000000,21.556386000000,0 110.434494000000,21.553868000000,0 110.422692000000,21.562226000000,0 110.429666000000,21.575725000000,0 110.427904000000,21.580653000000,0 110.439399000000,21.581082000000,0 110.443154000000,21.586920000000,0 110.427214000000,21.600096000000,0 110.417481000000,21.598168000000,0 110.420240000000,21.591312000000,0 110.413342000000,21.586063000000,0 110.406522000000,21.601810000000,0 110.412653000000,21.604380000000,0 110.412653000000,21.616966000000,0 110.405525000000,21.618090000000,0 110.405295000000,21.634636000000,0 110.396865000000,21.633137000000,0 110.407058000000,21.648611000000,0 110.385753000000,21.657552000000,0 110.382457000000,21.667456000000,0 110.412346000000,21.675753000000,0 110.409740000000,21.686619000000,0 110.402843000000,21.689188000000,0 110.396712000000,21.673612000000,0 110.392420000000,21.681588000000,0 110.385753000000,21.674736000000,0 110.367666000000,21.683354000000,0 110.369889000000,21.689349000000,0 110.351419000000,21.713647000000,0 110.368739000000,21.721835000000,0 110.365367000000,21.748000000000,0 110.375177000000,21.760305000000,0 110.370042000000,21.770148000000,0 110.373184000000,21.784163000000,0 110.380312000000,21.784484000000,0 110.388359000000,21.789084000000,0</coordinates></LinearRing></outerBoundaryIs><innerBoundaryIs><LinearRing><coordinates>110.379162000000,21.763675000000,0 110.389048000000,21.762124000000,0 110.391041000000,21.776674000000,0 110.381078000000,21.783361000000,0 110.379162000000,21.763675000000,0</coordinates></LinearRing></innerBoundaryIs></Polygon></MultiGeometry>
    </Placemark>
  </Document>
</kml>
