<?xml version="1.0" encoding="UTF-8"?>
<kml xmlns="http://www.opengis.net/kml/2.2">
  <Document>
    <name>韶关市</name>
    <Placemark>
      <name>韶关市</name>
      <Polygon><outerBoundaryIs><LinearRing><coordinates>113.800265000000,23.902566000000,0 113.807315000000,23.900407000000,0 113.841496000000,23.918732000000,0 113.851152000000,23.920312000000,0 113.865177000000,23.928947000000,0 113.879815000000,23.930369000000,0 113.887478000000,23.923998000000,0 113.892536000000,23.931685000000,0 113.907787000000,23.924577000000,0 113.936450000000,23.928737000000,0 113.941201000000,23.923577000000,0 113.952697000000,23.929632000000,0 113.982126000000,23.929684000000,0 113.984502000000,23.926157000000,0 114.008413000000,23.933001000000,0 114.017992000000,23.925261000000,0 114.033856000000,23.918890000000,0 114.031327000000,23.906305000000,0 114.036232000000,23.901776000000,0 114.041290000000,23.906937000000,0 114.056771000000,23.935844000000,0 114.074398000000,23.930895000000,0 114.075624000000,23.924366000000,0 114.117008000000,23.929737000000,0 114.119844000000,23.936002000000,0 114.142835000000,23.940425000000,0 114.158162000000,23.939846000000,0 114.163680000000,23.953586000000,0 114.174333000000,23.959429000000,0 114.186518000000,23.956270000000,0 114.191960000000,23.944900000000,0 114.201999000000,23.941267000000,0 114.213341000000,23.946163000000,0 114.217020000000,23.942636000000,0 114.238479000000,23.941899000000,0 114.244303000000,23.948269000000,0 114.258711000000,23.952744000000,0 114.263309000000,23.960218000000,0 114.271816000000,23.959482000000,0 114.271739000000,23.948479000000,0 114.251047000000,23.940477000000,0 114.254649000000,23.934686000000,0 114.247905000000,23.929737000000,0 114.236716000000,23.910676000000,0 114.248671000000,23.906516000000,0 114.263156000000,23.911044000000,0 114.268367000000,23.902829000000,0 114.279633000000,23.901091000000,0 114.288140000000,23.905410000000,0 114.303161000000,23.891454000000,0 114.321630000000,23.894403000000,0 114.331517000000,23.900512000000,0 114.349910000000,23.887925000000,0 114.362632000000,23.901091000000,0 114.360486000000,23.910412000000,0 114.367690000000,23.912519000000,0 114.370449000000,23.927420000000,0 114.382481000000,23.932159000000,0 114.378036000000,23.942794000000,0 114.386696000000,23.956270000000,0 114.384856000000,23.967798000000,0 114.389685000000,23.970430000000,0 114.382941000000,23.981851000000,0 114.385393000000,23.994482000000,0 114.391984000000,23.991693000000,0 114.385546000000,24.003901000000,0 114.389685000000,24.012741000000,0 114.399494000000,24.018003000000,0 114.398038000000,24.026000000000,0 114.412523000000,24.027421000000,0 114.420416000000,24.019582000000,0 114.425628000000,24.032998000000,0 114.440725000000,24.033208000000,0 114.436587000000,24.048569000000,0 114.437813000000,24.062192000000,0 114.445860000000,24.070660000000,0 114.463640000000,24.075920000000,0 114.481267000000,24.086595000000,0 114.493222000000,24.106787000000,0 114.489697000000,24.114043000000,0 114.495828000000,24.118617000000,0 114.509469000000,24.106682000000,0 114.522957000000,24.124190000000,0 114.527939000000,24.135807000000,0 114.533993000000,24.138856000000,0 114.535833000000,24.124347000000,0 114.546715000000,24.130393000000,0 114.554226000000,24.124295000000,0 114.565568000000,24.136175000000,0 114.558134000000,24.150630000000,0 114.568327000000,24.159303000000,0 114.594077000000,24.164138000000,0 114.600055000000,24.174911000000,0 114.590782000000,24.187838000000,0 114.590935000000,24.203653000000,0 114.597602000000,24.212480000000,0 114.591318000000,24.225981000000,0 114.577293000000,24.227241000000,0 114.566028000000,24.233019000000,0 114.556065000000,24.245888000000,0 114.548324000000,24.230603000000,0 114.512458000000,24.210904000000,0 114.511155000000,24.205335000000,0 114.491613000000,24.192357000000,0 114.481190000000,24.172284000000,0 114.474216000000,24.166240000000,0 114.470537000000,24.171811000000,0 114.460574000000,24.169604000000,0 114.462720000000,24.161931000000,0 114.469848000000,24.162141000000,0 114.469311000000,24.144376000000,0 114.463946000000,24.140170000000,0 114.474063000000,24.135229000000,0 114.482953000000,24.118827000000,0 114.479044000000,24.112939000000,0 114.463870000000,24.110836000000,0 114.446856000000,24.121245000000,0 114.439499000000,24.121982000000,0 114.433215000000,24.133337000000,0 114.422179000000,24.131181000000,0 114.419956000000,24.139329000000,0 114.393517000000,24.140959000000,0 114.378879000000,24.139172000000,0 114.365161000000,24.132233000000,0 114.352209000000,24.143219000000,0 114.340713000000,24.135807000000,0 114.337418000000,24.125294000000,0 114.329831000000,24.126871000000,0 114.330290000000,24.137279000000,0 114.316419000000,24.147319000000,0 114.306533000000,24.165399000000,0 114.292891000000,24.175069000000,0 114.289289000000,24.181900000000,0 114.298026000000,24.195142000000,0 114.290899000000,24.207594000000,0 114.274192000000,24.212742000000,0 114.274958000000,24.224195000000,0 114.263156000000,24.246676000000,0 114.254802000000,24.256707000000,0 114.272889000000,24.257495000000,0 114.254649000000,24.266055000000,0 114.266451000000,24.272776000000,0 114.263692000000,24.278290000000,0 114.279326000000,24.303176000000,0 114.280553000000,24.313098000000,0 114.272966000000,24.324856000000,0 114.280859000000,24.337348000000,0 114.292508000000,24.346952000000,0 114.293581000000,24.352672000000,0 114.278637000000,24.364951000000,0 114.249208000000,24.362695000000,0 114.249898000000,24.386935000000,0 114.254879000000,24.400155000000,0 114.245683000000,24.411328000000,0 114.242004000000,24.426014000000,0 114.257868000000,24.435245000000,0 114.283465000000,24.453965000000,0 114.292968000000,24.468856000000,0 114.306839000000,24.472998000000,0 114.310595000000,24.480757000000,0 114.286607000000,24.500572000000,0 114.280399000000,24.511526000000,0 114.280169000000,24.523109000000,0 114.273732000000,24.533695000000,0 114.288906000000,24.537991000000,0 114.293275000000,24.551982000000,0 114.310518000000,24.558583000000,0 114.308142000000,24.574143000000,0 114.301015000000,24.579067000000,0 114.299942000000,24.588390000000,0 114.291052000000,24.600175000000,0 114.289749000000,24.618767000000,0 114.281932000000,24.621019000000,0 114.279020000000,24.631596000000,0 114.265992000000,24.630915000000,0 114.258481000000,24.641544000000,0 114.242847000000,24.645419000000,0 114.231581000000,24.640445000000,0 114.208743000000,24.648665000000,0 114.207134000000,24.653952000000,0 114.193799000000,24.652643000000,0 114.174563000000,24.645576000000,0 114.175866000000,24.658978000000,0 114.181537000000,24.653324000000,0 114.189814000000,24.657983000000,0 114.169811000000,24.682585000000,0 114.169045000000,24.689651000000,0 114.191576000000,24.694204000000,0 114.210353000000,24.688500000000,0 114.230815000000,24.697763000000,0 114.257485000000,24.697292000000,0 114.272506000000,24.700432000000,0 114.279556000000,24.708020000000,0 114.284385000000,24.727380000000,0 114.293198000000,24.732037000000,0 114.311744000000,24.734077000000,0 114.319638000000,24.742291000000,0 114.335808000000,24.749092000000,0 114.341863000000,24.763686000000,0 114.333892000000,24.779900000000,0 114.344085000000,24.789574000000,0 114.342399000000,24.807353000000,0 114.349297000000,24.816922000000,0 114.357497000000,24.818699000000,0 114.356577000000,24.828999000000,0 114.377882000000,24.860832000000,0 114.387385000000,24.863341000000,0 114.403020000000,24.877555000000,0 114.404859000000,24.892605000000,0 114.401027000000,24.902637000000,0 114.390758000000,24.913138000000,0 114.400031000000,24.919511000000,0 114.402177000000,24.928444000000,0 114.396199000000,24.937324000000,0 114.395892000000,24.951112000000,0 114.425551000000,24.959259000000,0 114.423635000000,24.972576000000,0 114.442181000000,24.972315000000,0 114.456666000000,24.978528000000,0 114.456666000000,24.997220000000,0 114.479887000000,25.005781000000,0 114.484639000000,25.001762000000,0 114.506174000000,25.000091000000,0 114.511385000000,25.006617000000,0 114.516903000000,25.024573000000,0 114.532690000000,25.022851000000,0 114.539664000000,25.031619000000,0 114.541121000000,25.049729000000,0 114.546332000000,25.053382000000,0 114.561583000000,25.077592000000,0 114.584957000000,25.078688000000,0 114.598369000000,25.071123000000,0 114.604653000000,25.083696000000,0 114.608715000000,25.075871000000,0 114.640136000000,25.073888000000,0 114.654238000000,25.080618000000,0 114.665733000000,25.091104000000,0 114.665120000000,25.101224000000,0 114.679681000000,25.106806000000,0 114.693936000000,25.104406000000,0 114.712022000000,25.110039000000,0 114.716084000000,25.114577000000,0 114.735627000000,25.122035000000,0 114.737696000000,25.130432000000,0 114.732101000000,25.142478000000,0 114.735014000000,25.155826000000,0 114.724821000000,25.162813000000,0 114.702596000000,25.163178000000,0 114.685736000000,25.173188000000,0 114.690334000000,25.179756000000,0 114.680141000000,25.193100000000,0 114.695162000000,25.195185000000,0 114.693936000000,25.213635000000,0 114.702213000000,25.221192000000,0 114.712712000000,25.221817000000,0 114.726277000000,25.233073000000,0 114.740685000000,25.226246000000,0 114.748425000000,25.235157000000,0 114.738309000000,25.231978000000,0 114.738386000000,25.240107000000,0 114.749345000000,25.242555000000,0 114.743597000000,25.248130000000,0 114.742907000000,25.274542000000,0 114.734630000000,25.283293000000,0 114.723978000000,25.283970000000,0 114.722828000000,25.302146000000,0 114.713019000000,25.306208000000,0 114.714398000000,25.315373000000,0 114.702903000000,25.314123000000,0 114.692250000000,25.322142000000,0 114.685736000000,25.313706000000,0 114.674393000000,25.317195000000,0 114.664814000000,25.326776000000,0 114.657073000000,25.328181000000,0 114.636458000000,25.324537000000,0 114.627568000000,25.330628000000,0 114.611550000000,25.358272000000,0 114.599518000000,25.359417000000,0 114.599748000000,25.385856000000,0 114.586183000000,25.395900000000,0 114.580359000000,25.393506000000,0 114.580972000000,25.384035000000,0 114.573002000000,25.384503000000,0 114.573385000000,25.395015000000,0 114.579056000000,25.397617000000,0 114.556755000000,25.406359000000,0 114.540431000000,25.417025000000,0 114.531311000000,25.414215000000,0 114.520275000000,25.403289000000,0 114.505944000000,25.398710000000,0 114.508856000000,25.384659000000,0 114.496977000000,25.377634000000,0 114.477741000000,25.371544000000,0 114.462644000000,25.381485000000,0 114.458658000000,25.387834000000,0 114.448006000000,25.386533000000,0 114.438809000000,25.376072000000,0 114.429919000000,25.349943000000,0 114.430149000000,25.343852000000,0 114.417581000000,25.335054000000,0 114.403096000000,25.334273000000,0 114.400874000000,25.327817000000,0 114.387692000000,25.323548000000,0 114.382941000000,25.317143000000,0 114.372824000000,25.325422000000,0 114.357344000000,25.326776000000,0 114.338184000000,25.334065000000,0 114.314810000000,25.338594000000,0 114.306226000000,25.334117000000,0 114.304770000000,25.314696000000,0 114.312357000000,25.311832000000,0 114.295727000000,25.299802000000,0 114.302854000000,25.290845000000,0 114.292891000000,25.289178000000,0 114.287297000000,25.299698000000,0 114.270973000000,25.302146000000,0 114.265915000000,25.293813000000,0 114.257025000000,25.292720000000,0 114.236026000000,25.300115000000,0 114.227749000000,25.295376000000,0 114.215871000000,25.300740000000,0 114.204681000000,25.299646000000,0 114.204988000000,25.310270000000,0 114.194105000000,25.317351000000,0 114.173643000000,25.305062000000,0 114.168508000000,25.312509000000,0 114.158546000000,25.313602000000,0 114.147203000000,25.305323000000,0 114.144751000000,25.310634000000,0 114.131339000000,25.308447000000,0 114.126511000000,25.300531000000,0 114.115629000000,25.301885000000,0 114.103750000000,25.294438000000,0 114.083517000000,25.275532000000,0 114.076313000000,25.278501000000,0 114.068650000000,25.273709000000,0 114.064588000000,25.281105000000,0 114.055928000000,25.277667000000,0 114.039911000000,25.250735000000,0 114.029105000000,25.254226000000,0 114.031404000000,25.263655000000,0 114.022131000000,25.269594000000,0 114.014620000000,25.280532000000,0 114.025503000000,25.288970000000,0 114.027649000000,25.301833000000,0 114.037228000000,25.308291000000,0 114.056158000000,25.311884000000,0 114.035466000000,25.320007000000,0 114.029335000000,25.328338000000,0 114.036768000000,25.342707000000,0 114.049107000000,25.341874000000,0 114.051406000000,25.348850000000,0 114.041367000000,25.360666000000,0 114.047881000000,25.367276000000,0 114.024353000000,25.373990000000,0 114.045122000000,25.384035000000,0 114.040600000000,25.391216000000,0 114.023050000000,25.384659000000,0 114.010788000000,25.386429000000,0 114.005730000000,25.396732000000,0 113.987720000000,25.403497000000,0 113.983275000000,25.415308000000,0 114.002971000000,25.432840000000,0 113.997913000000,25.444232000000,0 113.961894000000,25.452554000000,0 113.952544000000,25.443816000000,0 113.935070000000,25.437522000000,0 113.926564000000,25.442151000000,0 113.913382000000,25.442775000000,0 113.886865000000,25.436637000000,0 113.884490000000,25.420302000000,0 113.892077000000,25.411874000000,0 113.881807000000,25.406931000000,0 113.883263000000,25.395327000000,0 113.876902000000,25.380340000000,0 113.860962000000,25.369306000000,0 113.839733000000,25.363477000000,0 113.833449000000,25.353951000000,0 113.832836000000,25.343904000000,0 113.823179000000,25.331930000000,0 113.814979000000,25.328702000000,0 113.780186000000,25.334065000000,0 113.758114000000,25.330004000000,0 113.764168000000,25.333596000000,0 113.758421000000,25.343800000000,0 113.754129000000,25.361186000000,0 113.744013000000,25.363945000000,0 113.734510000000,25.348902000000,0 113.725237000000,25.358636000000,0 113.706537000000,25.360874000000,0 113.707916000000,25.352598000000,0 113.687148000000,25.352077000000,0 113.685385000000,25.341249000000,0 113.679101000000,25.334481000000,0 113.663697000000,25.337709000000,0 113.657489000000,25.329119000000,0 113.631202000000,25.330576000000,0 113.620473000000,25.325682000000,0 113.610740000000,25.327036000000,0 113.585986000000,25.307353000000,0 113.579778000000,25.316622000000,0 113.583304000000,25.331878000000,0 113.581464000000,25.342707000000,0 113.554565000000,25.351869000000,0 113.544295000000,25.366600000000,0 113.536095000000,25.368525000000,0 113.524293000000,25.353587000000,0 113.515096000000,25.360666000000,0 113.518392000000,25.370555000000,0 113.504137000000,25.374979000000,0 113.480073000000,25.375187000000,0 113.470187000000,25.365663000000,0 113.462446000000,25.369827000000,0 113.449878000000,25.359573000000,0 113.442291000000,25.361291000000,0 113.427729000000,25.373262000000,0 113.424127000000,25.392673000000,0 113.407037000000,25.401415000000,0 113.393626000000,25.397565000000,0 113.389334000000,25.403653000000,0 113.373317000000,25.402612000000,0 113.366956000000,25.431175000000,0 113.359752000000,25.438406000000,0 113.351705000000,25.437574000000,0 113.340056000000,25.449901000000,0 113.329710000000,25.450838000000,0 113.313923000000,25.442931000000,0 113.315992000000,25.467532000000,0 113.309171000000,25.481001000000,0 113.311393000000,25.490413000000,0 113.296832000000,25.508402000000,0 113.303347000000,25.515836000000,0 113.293460000000,25.516771000000,0 113.288785000000,25.509390000000,0 113.291774000000,25.500915000000,0 113.282654000000,25.494208000000,0 113.269396000000,25.505282000000,0 113.260813000000,25.499460000000,0 113.249087000000,25.514120000000,0 113.243263000000,25.515628000000,0 113.226172000000,25.509701000000,0 113.210692000000,25.496704000000,0 113.200805000000,25.479389000000,0 113.177048000000,25.471589000000,0 113.169307000000,25.488021000000,0 113.151987000000,25.492232000000,0 113.149995000000,25.468000000000,0 113.134591000000,25.467688000000,0 113.122329000000,25.455727000000,0 113.127923000000,25.449693000000,0 113.118497000000,25.445480000000,0 113.126237000000,25.438406000000,0 113.131525000000,25.414735000000,0 113.114435000000,25.420562000000,0 113.092363000000,25.417493000000,0 113.096885000000,25.410729000000,0 113.090447000000,25.406775000000,0 113.088761000000,25.396524000000,0 113.080638000000,25.390956000000,0 113.080178000000,25.383358000000,0 113.064620000000,25.381797000000,0 113.041629000000,25.366027000000,0 113.029750000000,25.361239000000,0 113.023696000000,25.345934000000,0 113.009211000000,25.352858000000,0 112.995417000000,25.348954000000,0 112.987983000000,25.353795000000,0 112.968134000000,25.349839000000,0 112.964685000000,25.342134000000,0 112.951120000000,25.337449000000,0 112.945066000000,25.326359000000,0 112.931807000000,25.322819000000,0 112.927822000000,25.299907000000,0 112.913184000000,25.299907000000,0 112.900616000000,25.311363000000,0 112.894868000000,25.337605000000,0 112.877701000000,25.333752000000,0 112.868735000000,25.327817000000,0 112.857392000000,25.336824000000,0 112.851798000000,25.333440000000,0 112.858772000000,25.320215000000,0 112.855476000000,25.313654000000,0 112.856396000000,25.291574000000,0 112.866436000000,25.276574000000,0 112.873946000000,25.274282000000,0 112.865899000000,25.259800000000,0 112.868351000000,25.248808000000,0 112.880920000000,25.249641000000,0 112.904524000000,25.238439000000,0 112.910732000000,25.245161000000,0 112.923990000000,25.248651000000,0 112.944223000000,25.249485000000,0 112.951886000000,25.245734000000,0 112.958401000000,25.254382000000,0 112.972885000000,25.251152000000,0 112.979936000000,25.245056000000,0 112.992581000000,25.247193000000,0 113.006682000000,25.231509000000,0 113.017718000000,25.211186000000,0 113.029750000000,25.210508000000,0 113.034502000000,25.201388000000,0 113.030517000000,25.194508000000,0 113.008598000000,25.190129000000,0 112.991585000000,25.176785000000,0 112.974341000000,25.168235000000,0 112.967980000000,25.141644000000,0 112.972809000000,25.132101000000,0 112.986833000000,25.119219000000,0 112.991125000000,25.109466000000,0 112.999632000000,25.103050000000,0 113.004537000000,25.089174000000,0 113.018408000000,25.083122000000,0 113.002007000000,25.071123000000,0 113.002391000000,25.058235000000,0 112.979706000000,25.034125000000,0 112.978480000000,25.026504000000,0 112.992045000000,25.017944000000,0 112.990512000000,24.995393000000,0 113.002084000000,24.991059000000,0 113.009978000000,24.977380000000,0 113.008522000000,24.961975000000,0 113.002774000000,24.957118000000,0 113.011894000000,24.946099000000,0 112.991661000000,24.937533000000,0 112.994804000000,24.927347000000,0 113.005150000000,24.914078000000,0 113.004766000000,24.900129000000,0 113.009901000000,24.896889000000,0 113.010974000000,24.882781000000,0 113.022163000000,24.870866000000,0 113.019557000000,24.855971000000,0 113.014729000000,24.851528000000,0 112.998942000000,24.850483000000,0 112.979246000000,24.832553000000,0 112.959780000000,24.824241000000,0 112.951580000000,24.815771000000,0 112.960087000000,24.800974000000,0 112.951120000000,24.788476000000,0 112.954109000000,24.782201000000,0 112.940161000000,24.757514000000,0 112.933647000000,24.755369000000,0 112.938781000000,24.738210000000,0 112.930351000000,24.718695000000,0 112.900616000000,24.713776000000,0 112.914487000000,24.662695000000,0 112.896401000000,24.650602000000,0 112.897780000000,24.632277000000,0 112.884599000000,24.616358000000,0 112.887971000000,24.595304000000,0 112.898700000000,24.600542000000,0 112.902072000000,24.595671000000,0 112.917170000000,24.600490000000,0 112.926366000000,24.596457000000,0 112.950507000000,24.594990000000,0 112.964378000000,24.586138000000,0 112.961390000000,24.570266000000,0 112.969360000000,24.568118000000,0 112.981928000000,24.542917000000,0 112.991048000000,24.544751000000,0 112.999708000000,24.528716000000,0 113.020630000000,24.513675000000,0 113.025612000000,24.493863000000,0 113.047377000000,24.475515000000,0 113.063701000000,24.468804000000,0 113.087305000000,24.471583000000,0 113.096808000000,24.496431000000,0 113.114128000000,24.502983000000,0 113.137120000000,24.482907000000,0 113.151451000000,24.478713000000,0 113.153367000000,24.467703000000,0 113.161950000000,24.479027000000,0 113.174979000000,24.475882000000,0 113.186781000000,24.480705000000,0 113.197050000000,24.474676000000,0 113.206170000000,24.476458000000,0 113.216516000000,24.495697000000,0 113.230158000000,24.498475000000,0 113.235829000000,24.505866000000,0 113.244642000000,24.502144000000,0 113.251080000000,24.510216000000,0 113.252766000000,24.497794000000,0 113.261809000000,24.482225000000,0 113.270392000000,24.476720000000,0 113.272155000000,24.466969000000,0 113.294993000000,24.457164000000,0 113.319440000000,24.465291000000,0 113.331243000000,24.472579000000,0 113.350632000000,24.472159000000,0 113.362051000000,24.479080000000,0 113.374160000000,24.494020000000,0 113.379754000000,24.485213000000,0 113.415544000000,24.485266000000,0 113.412172000000,24.472526000000,0 113.419223000000,24.459943000000,0 113.440988000000,24.453703000000,0 113.467428000000,24.461726000000,0 113.478847000000,24.477769000000,0 113.489269000000,24.471006000000,0 113.499309000000,24.473785000000,0 113.507816000000,24.484007000000,0 113.518852000000,24.469852000000,0 113.530271000000,24.479551000000,0 113.531343000000,24.489826000000,0 113.540463000000,24.506233000000,0 113.552572000000,24.511055000000,0 113.575640000000,24.509115000000,0 113.579548000000,24.500520000000,0 113.589665000000,24.515248000000,0 113.599628000000,24.512994000000,0 113.596792000000,24.500886000000,0 113.609667000000,24.489983000000,0 113.625761000000,24.491923000000,0 113.637180000000,24.486471000000,0 113.643234000000,24.477717000000,0 113.656799000000,24.468227000000,0 113.666072000000,24.467493000000,0 113.683163000000,24.454175000000,0 113.686381000000,24.437709000000,0 113.709909000000,24.412377000000,0 113.722248000000,24.414633000000,0 113.723934000000,24.434930000000,0 113.726999000000,24.437028000000,0 113.753439000000,24.437185000000,0 113.762866000000,24.432990000000,0 113.765318000000,24.417727000000,0 113.778270000000,24.410909000000,0 113.803867000000,24.401781000000,0 113.805553000000,24.384364000000,0 113.800955000000,24.377334000000,0 113.818581000000,24.352200000000,0 113.817048000000,24.344590000000,0 113.831303000000,24.336560000000,0 113.840500000000,24.336246000000,0 113.850462000000,24.318872000000,0 113.844791000000,24.304541000000,0 113.844715000000,24.279707000000,0 113.850003000000,24.274561000000,0 113.840040000000,24.265109000000,0 113.855827000000,24.252926000000,0 113.862878000000,24.259018000000,0 113.872074000000,24.253976000000,0 113.870541000000,24.242264000000,0 113.883110000000,24.245415000000,0 113.890774000000,24.241476000000,0 113.890391000000,24.229763000000,0 113.896522000000,24.210326000000,0 113.921199000000,24.200974000000,0 113.922119000000,24.193040000000,0 113.930319000000,24.195930000000,0 113.930242000000,24.188416000000,0 113.909167000000,24.184318000000,0 113.901043000000,24.188521000000,0 113.880045000000,24.174123000000,0 113.857053000000,24.161510000000,0 113.862265000000,24.147319000000,0 113.870465000000,24.141169000000,0 113.864640000000,24.133021000000,0 113.853911000000,24.132811000000,0 113.850999000000,24.124978000000,0 113.839273000000,24.119931000000,0 113.836974000000,24.111729000000,0 113.842415000000,24.104053000000,0 113.836668000000,24.098637000000,0 113.836821000000,24.088331000000,0 113.845711000000,24.086806000000,0 113.837434000000,24.072764000000,0 113.828467000000,24.069608000000,0 113.831150000000,24.063507000000,0 113.813063000000,24.052567000000,0 113.803637000000,24.053566000000,0 113.790379000000,24.034471000000,0 113.790608000000,24.025106000000,0 113.784171000000,24.022317000000,0 113.772982000000,24.026947000000,0 113.763555000000,24.021370000000,0 113.753592000000,24.026842000000,0 113.747078000000,24.023212000000,0 113.728149000000,23.997166000000,0 113.718646000000,23.993008000000,0 113.732364000000,23.981114000000,0 113.730448000000,23.974641000000,0 113.739415000000,23.969588000000,0 113.744703000000,23.959060000000,0 113.766468000000,23.960850000000,0 113.774285000000,23.952691000000,0 113.775358000000,23.938424000000,0 113.792294000000,23.931527000000,0 113.799345000000,23.923524000000,0 113.800265000000,23.902566000000,0</coordinates></LinearRing></outerBoundaryIs></Polygon>
    </Placemark>
  </Document>
</kml>
