<?xml version="1.0" encoding="UTF-8"?>
<kml xmlns="http://www.opengis.net/kml/2.2">
  <Document>
    <name>林芝市</name>
    <Placemark>
      <name>林芝市</name>
      <Polygon><outerBoundaryIs><LinearRing><coordinates>94.154206000000,30.486894000000,0 94.151305000000,30.480250000000,0 94.099917000000,30.455920000000,0 94.110692000000,30.423274000000,0 94.106548000000,30.389542000000,0 94.088521000000,30.379176000000,0 94.063034000000,30.378882000000,0 94.049358000000,30.366558000000,0 94.024493000000,30.368026000000,0 94.010817000000,30.326838000000,0 94.014547000000,30.306384000000,0 94.000250000000,30.297281000000,0 93.957150000000,30.299533000000,0 93.878411000000,30.333002000000,0 93.858519000000,30.330360000000,0 93.846915000000,30.299043000000,0 93.807960000000,30.305797000000,0 93.783923000000,30.296498000000,0 93.767139000000,30.279171000000,0 93.732328000000,30.294443000000,0 93.669337000000,30.284360000000,0 93.650066000000,30.304818000000,0 93.631210000000,30.301001000000,0 93.611525000000,30.285241000000,0 93.554957000000,30.290038000000,0 93.535273000000,30.304329000000,0 93.515380000000,30.301980000000,0 93.437884000000,30.326935000000,0 93.408253000000,30.348363000000,0 93.407010000000,30.381132000000,0 93.424001000000,30.387977000000,0 93.429596000000,30.407925000000,0 93.359352000000,30.469796000000,0 93.310658000000,30.469503000000,0 93.274189000000,30.496370000000,0 93.246838000000,30.494807000000,0 93.242901000000,30.474584000000,0 93.216171000000,30.453086000000,0 93.183846000000,30.436666000000,0 93.148828000000,30.404601000000,0 93.130800000000,30.412911000000,0 93.111737000000,30.448493000000,0 93.093917000000,30.460220000000,0 93.094539000000,30.480837000000,0 93.083350000000,30.490704000000,0 93.036728000000,30.502719000000,0 93.024709000000,30.510924000000,0 93.021394000000,30.530651000000,0 93.024295000000,30.584148000000,0 92.987412000000,30.593615000000,0 92.974772000000,30.578390000000,0 92.918618000000,30.608349000000,0 92.897276000000,30.606690000000,0 92.887123000000,30.596152000000,0 92.888159000000,30.568629000000,0 92.875726000000,30.532799000000,0 92.841122000000,30.541294000000,0 92.793050000000,30.527917000000,0 92.783933000000,30.519030000000,0 92.764040000000,30.472629000000,0 92.786212000000,30.456604000000,0 92.794293000000,30.439892000000,0 92.779581000000,30.402254000000,0 92.769428000000,30.400885000000,0 92.744148000000,30.358439000000,0 92.750157000000,30.327229000000,0 92.743734000000,30.323315000000,0 92.709130000000,30.335840000000,0 92.695869000000,30.327914000000,0 92.710166000000,30.314703000000,0 92.708301000000,30.294540000000,0 92.662094000000,30.293562000000,0 92.640958000000,30.306090000000,0 92.619201000000,30.301196000000,0 92.626246000000,30.282206000000,0 92.621066000000,30.256259000000,0 92.623967000000,30.226192000000,0 92.616715000000,30.219335000000,0 92.625418000000,30.201504000000,0 92.611120000000,30.178966000000,0 92.583976000000,30.163481000000,0 92.578588000000,30.134562000000,0 92.563669000000,30.134268000000,0 92.554552000000,30.096905000000,0 92.508966000000,30.086017000000,0 92.486588000000,30.098671000000,0 92.438515000000,30.073068000000,0 92.438308000000,30.062276000000,0 92.417794000000,30.049323000000,0 92.423389000000,30.036566000000,0 92.442866000000,30.031069000000,0 92.434371000000,30.014775000000,0 92.410956000000,30.013597000000,0 92.375316000000,29.995730000000,0 92.364749000000,29.975895000000,0 92.324757000000,29.987973000000,0 92.292018000000,29.963226000000,0 92.247675000000,29.936704000000,0 92.223018000000,29.936114000000,0 92.191936000000,29.950850000000,0 92.177224000000,29.948099000000,0 92.167071000000,29.914794000000,0 92.173287000000,29.904475000000,0 92.166864000000,29.881084000000,0 92.177224000000,29.874399000000,0 92.244153000000,29.859653000000,0 92.269847000000,29.836939000000,0 92.292433000000,29.790315000000,0 92.306108000000,29.786281000000,0 92.329937000000,29.803891000000,0 92.334911000000,29.824350000000,0 92.356046000000,29.827891000000,0 92.393965000000,29.823072000000,0 92.408677000000,29.803694000000,0 92.445767000000,29.802809000000,0 92.460065000000,29.787560000000,0 92.489074000000,29.797792000000,0 92.503993000000,29.792971000000,0 92.501921000000,29.742094000000,0 92.524714000000,29.714332000000,0 92.506065000000,29.683805000000,0 92.478714000000,29.656223000000,0 92.475605000000,29.605080000000,0 92.464416000000,29.591772000000,0 92.474569000000,29.558052000000,0 92.509795000000,29.545922000000,0 92.515390000000,29.567815000000,0 92.531966000000,29.577181000000,0 92.532588000000,29.603996000000,0 92.563462000000,29.651100000000,0 92.587913000000,29.664499000000,0 92.619823000000,29.657110000000,0 92.658571000000,29.689320000000,0 92.696490000000,29.684494000000,0 92.715968000000,29.649524000000,0 92.749743000000,29.648933000000,0 92.775230000000,29.670113000000,0 92.793050000000,29.674940000000,0 92.825789000000,29.670803000000,0 92.840708000000,29.695623000000,0 92.864951000000,29.694933000000,0 92.883807000000,29.717581000000,0 92.902249000000,29.706652000000,0 92.930015000000,29.702811000000,0 92.940583000000,29.690699000000,0 92.975394000000,29.671492000000,0 92.998808000000,29.643415000000,0 92.987619000000,29.609811000000,0 93.024295000000,29.567519000000,0 93.056412000000,29.557559000000,0 93.062214000000,29.542865000000,0 93.083971000000,29.525011000000,0 93.095989000000,29.486730000000,0 93.077548000000,29.469261000000,0 93.073611000000,29.435500000000,0 93.094746000000,29.410715000000,0 93.094124000000,29.373378000000,0 93.115881000000,29.358657000000,0 93.101584000000,29.334051000000,0 93.083557000000,29.327133000000,0 93.046052000000,29.327429000000,0 93.025124000000,29.305386000000,0 93.028439000000,29.274142000000,0 93.014971000000,29.235667000000,0 92.951565000000,29.184608000000,0 92.943276000000,29.155901000000,0 92.917375000000,29.124314000000,0 92.880492000000,29.122036000000,0 92.856248000000,29.112132000000,0 92.825789000000,29.081819000000,0 92.793464000000,29.063192000000,0 92.778338000000,28.997373000000,0 92.765905000000,28.969209000000,0 92.776059000000,28.951255000000,0 92.749950000000,28.915835000000,0 92.724256000000,28.916232000000,0 92.697734000000,28.898567000000,0 92.682400000000,28.875439000000,0 92.675355000000,28.838403000000,0 92.654427000000,28.819235000000,0 92.620030000000,28.833636000000,0 92.596408000000,28.825195000000,0 92.560768000000,28.835821000000,0 92.548336000000,28.854192000000,0 92.536732000000,28.840489000000,0 92.519741000000,28.846050000000,0 92.497777000000,28.867794000000,0 92.452812000000,28.839396000000,0 92.428362000000,28.802249000000,0 92.439137000000,28.763697000000,0 92.493633000000,28.714890000000,0 92.509795000000,28.720856000000,0 92.526164000000,28.744813000000,0 92.533002000000,28.780391000000,0 92.552273000000,28.803143000000,0 92.566985000000,28.803044000000,0 92.587498000000,28.787545000000,0 92.638679000000,28.767672000000,0 92.654427000000,28.756044000000,0 92.661886000000,28.765287000000,0 92.736896000000,28.748292000000,0 92.777302000000,28.745211000000,0 92.800716000000,28.719762000000,0 92.804446000000,28.701467000000,0 92.851068000000,28.697290000000,0 92.868474000000,28.701368000000,0 92.874897000000,28.732090000000,0 92.889195000000,28.755846000000,0 92.920690000000,28.769659000000,0 92.943069000000,28.760914000000,0 92.949493000000,28.768268000000,0 92.974358000000,28.731294000000,0 92.997772000000,28.740539000000,0 93.009169000000,28.735271000000,0 93.087701000000,28.723938000000,0 93.123134000000,28.728710000000,0 93.197315000000,28.724534000000,0 93.251811000000,28.747596000000,0 93.346298000000,28.749087000000,0 93.364325000000,28.715487000000,0 93.378001000000,28.708229000000,0 93.410740000000,28.714095000000,0 93.469380000000,28.701865000000,0 93.467722000000,28.668647000000,0 93.514137000000,28.664768000000,0 93.558687000000,28.673123000000,0 93.578786000000,28.670139000000,0 93.608417000000,28.680384000000,0 93.632039000000,28.673322000000,0 93.636598000000,28.654919000000,0 93.702076000000,28.666658000000,0 93.717409000000,28.664270000000,0 93.755743000000,28.688838000000,0 93.782680000000,28.650144000000,0 93.802572000000,28.655417000000,0 93.811689000000,28.625369000000,0 93.831374000000,28.624772000000,0 93.837383000000,28.598199000000,0 93.854996000000,28.577593000000,0 93.881933000000,28.566143000000,0 93.889807000000,28.531887000000,0 93.878825000000,28.504792000000,0 93.890014000000,28.480381000000,0 93.874474000000,28.465234000000,0 93.886285000000,28.435730000000,0 93.888771000000,28.396046000000,0 93.907834000000,28.374802000000,0 93.942438000000,28.363430000000,0 93.994655000000,28.359938000000,0 94.031745000000,28.362233000000,0 94.039205000000,28.339186000000,0 94.076917000000,28.288485000000,0 94.123332000000,28.243653000000,0 94.156900000000,28.231768000000,0 94.161665000000,28.198302000000,0 94.151719000000,28.182515000000,0 94.162494000000,28.158130000000,0 94.154828000000,28.145435000000,0 94.161044000000,28.110143000000,0 94.146332000000,28.085541000000,0 94.162909000000,28.075839000000,0 94.195441000000,28.034220000000,0 94.205594000000,27.996488000000,0 94.235639000000,27.981873000000,0 94.262576000000,27.983575000000,0 94.292207000000,27.962949000000,0 94.323910000000,27.893235000000,0 94.323081000000,27.845431000000,0 94.350640000000,27.829592000000,0 94.320802000000,27.780756000000,0 94.312514000000,27.737619000000,0 94.333027000000,27.723068000000,0 94.346910000000,27.729591000000,0 94.362451000000,27.714237000000,0 94.341109000000,27.708917000000,0 94.265063000000,27.651292000000,0 94.233981000000,27.632110000000,0 94.216576000000,27.602678000000,0 94.229216000000,27.591425000000,0 94.235017000000,27.568716000000,0 94.253459000000,27.555450000000,0 94.277495000000,27.581177000000,0 94.324946000000,27.585698000000,0 94.353127000000,27.578564000000,0 94.399956000000,27.589215000000,0 94.443470000000,27.585196000000,0 94.478281000000,27.602176000000,0 94.525110000000,27.596148000000,0 94.660210000000,27.650187000000,0 94.709733000000,27.678502000000,0 94.781013000000,27.699382000000,0 94.816860000000,27.721061000000,0 94.885861000000,27.743137000000,0 94.947609000000,27.792190000000,0 95.015367000000,27.828990000000,0 95.067169000000,27.840619000000,0 95.172638000000,27.891331000000,0 95.243090000000,27.916378000000,0 95.286603000000,27.940017000000,0 95.310432000000,27.975265000000,0 95.328460000000,28.017408000000,0 95.352910000000,28.040624000000,0 95.371559000000,28.110243000000,0 95.396839000000,28.142337000000,0 95.437659000000,28.161928000000,0 95.520335000000,28.180716000000,0 95.587471000000,28.208093000000,0 95.674292000000,28.254139000000,0 95.740184000000,28.275307000000,0 95.787842000000,28.270415000000,0 95.832185000000,28.294874000000,0 95.853527000000,28.290083000000,0 95.874248000000,28.297569000000,0 95.899942000000,28.278103000000,0 95.907816000000,28.241556000000,0 95.936204000000,28.240557000000,0 95.989042000000,28.198402000000,0 96.024682000000,28.191908000000,0 96.072340000000,28.192407000000,0 96.098034000000,28.212289000000,0 96.166620000000,28.208093000000,0 96.195629000000,28.213388000000,0 96.224846000000,28.227073000000,0 96.274162000000,28.228671000000,0 96.285144000000,28.215885000000,0 96.282243000000,28.189709000000,0 96.295711000000,28.142536000000,0 96.368856000000,28.118442000000,0 96.400145000000,28.120242000000,0 96.396415000000,28.148934000000,0 96.424388000000,28.160928000000,0 96.451740000000,28.152432000000,0 96.487380000000,28.107443000000,0 96.499812000000,28.067337000000,0 96.510794000000,28.077740000000,0 96.537732000000,28.075239000000,0 96.540425000000,28.064035000000,0 96.568399000000,28.061234000000,0 96.591192000000,28.039423000000,0 96.623309000000,28.024513000000,0 96.638642000000,27.989381000000,0 96.682778000000,27.949731000000,0 96.708057000000,27.956841000000,0 96.746184000000,27.944524000000,0 96.768563000000,27.931403000000,0 96.788869000000,27.929400000000,0 96.810004000000,27.890430000000,0 96.836734000000,27.887323000000,0 96.849788000000,27.874597000000,0 96.883978000000,27.873294000000,0 96.907393000000,27.884017000000,0 96.937231000000,27.877403000000,0 96.973699000000,27.860566000000,0 96.998357000000,27.830594000000,0 97.008511000000,27.807834000000,0 97.030889000000,27.815455000000,0 97.055133000000,27.802720000000,0 97.048916000000,27.784066000000,0 97.062799000000,27.742635000000,0 97.093466000000,27.737819000000,0 97.101547000000,27.779553000000,0 97.134908000000,27.791588000000,0 97.139052000000,27.801617000000,0 97.168062000000,27.811845000000,0 97.206188000000,27.852047000000,0 97.251152000000,27.890430000000,0 97.309171000000,27.913072000000,0 97.323261000000,27.897343000000,0 97.324090000000,27.880509000000,0 97.357036000000,27.873194000000,0 97.386253000000,27.886021000000,0 97.372370000000,27.907562000000,0 97.390811000000,27.916478000000,0 97.375478000000,27.926495000000,0 97.377757000000,27.966855000000,0 97.391226000000,27.993385000000,0 97.412983000000,28.013604000000,0 97.395992000000,28.029817000000,0 97.378793000000,28.031118000000,0 97.378379000000,28.062635000000,0 97.320567000000,28.054331000000,0 97.306270000000,28.073138000000,0 97.312072000000,28.089442000000,0 97.341081000000,28.105843000000,0 97.329685000000,28.140637000000,0 97.351649000000,28.149034000000,0 97.362424000000,28.198102000000,0 97.346261000000,28.212988000000,0 97.350820000000,28.236862000000,0 97.399307000000,28.239458000000,0 97.414640000000,28.255038000000,0 97.403244000000,28.281497000000,0 97.422929000000,28.297470000000,0 97.460641000000,28.268118000000,0 97.481569000000,28.279101000000,0 97.470172000000,28.304057000000,0 97.482190000000,28.313140000000,0 97.512029000000,28.315535000000,0 97.518452000000,28.327611000000,0 97.489236000000,28.345372000000,0 97.484677000000,28.385973000000,0 97.501254000000,28.393752000000,0 97.507263000000,28.412101000000,0 97.500010000000,28.428951000000,0 97.521353000000,28.444801000000,0 97.506227000000,28.471413000000,0 97.508092000000,28.494929000000,0 97.521560000000,28.495626000000,0 97.569633000000,28.541547000000,0 97.587245000000,28.542145000000,0 97.599056000000,28.517045000000,0 97.618120000000,28.515551000000,0 97.635111000000,28.531887000000,0 97.663913000000,28.530891000000,0 97.685877000000,28.519934000000,0 97.695201000000,28.501405000000,0 97.716751000000,28.496224000000,0 97.736850000000,28.465832000000,0 97.738094000000,28.396445000000,0 97.751769000000,28.377395000000,0 97.770004000000,28.374104000000,0 97.800878000000,28.326713000000,0 97.816419000000,28.332900000000,0 97.842734000000,28.326813000000,0 97.849365000000,28.348465000000,0 97.871329000000,28.361535000000,0 97.907798000000,28.363330000000,0 97.928104000000,28.340383000000,0 97.963744000000,28.312541000000,0 97.960015000000,28.295773000000,0 97.991718000000,28.287387000000,0 98.020520000000,28.253440000000,0 98.008294000000,28.213788000000,0 98.033367000000,28.187311000000,0 98.056574000000,28.202299000000,0 98.089935000000,28.195405000000,0 98.097394000000,28.166625000000,0 98.118737000000,28.160928000000,0 98.139458000000,28.142436000000,0 98.150025000000,28.155431000000,0 98.175305000000,28.165626000000,0 98.169088000000,28.204297000000,0 98.204107000000,28.219482000000,0 98.216954000000,28.212889000000,0 98.228350000000,28.225675000000,0 98.265026000000,28.239858000000,0 98.244513000000,28.278402000000,0 98.236846000000,28.309347000000,0 98.207422000000,28.330405000000,0 98.209701000000,28.358542000000,0 98.230215000000,28.348166000000,0 98.234981000000,28.370014000000,0 98.267098000000,28.377894000000,0 98.281189000000,28.394051000000,0 98.301288000000,28.384377000000,0 98.303982000000,28.359140000000,0 98.322009000000,28.346769000000,0 98.318279000000,28.324517000000,0 98.338793000000,28.295972000000,0 98.355369000000,28.291780000000,0 98.377334000000,28.245950000000,0 98.377748000000,28.207794000000,0 98.370288000000,28.183814000000,0 98.390181000000,28.164327000000,0 98.389352000000,28.114643000000,0 98.400127000000,28.104743000000,0 98.428721000000,28.104543000000,0 98.458145000000,28.130640000000,0 98.464569000000,28.151333000000,0 98.507461000000,28.144236000000,0 98.536677000000,28.176419000000,0 98.585371000000,28.181316000000,0 98.626606000000,28.165526000000,0 98.631993000000,28.179517000000,0 98.664318000000,28.208892000000,0 98.680895000000,28.207394000000,0 98.712391000000,28.229470000000,0 98.710111000000,28.288785000000,0 98.719021000000,28.310346000000,0 98.746580000000,28.321224000000,0 98.753625000000,28.336891000000,0 98.740364000000,28.348565000000,0 98.719021000000,28.388765000000,0 98.705138000000,28.393253000000,0 98.706796000000,28.412898000000,0 98.684832000000,28.435231000000,0 98.635102000000,28.461347000000,0 98.607128000000,28.458257000000,0 98.589516000000,28.468822000000,0 98.541029000000,28.510969000000,0 98.540200000000,28.528799000000,0 98.553876000000,28.548220000000,0 98.530668000000,28.578588000000,0 98.509326000000,28.589838000000,0 98.477208000000,28.649846000000,0 98.475343000000,28.684760000000,0 98.464776000000,28.699876000000,0 98.480316000000,28.732885000000,0 98.453794000000,28.775721000000,0 98.437839000000,28.788737000000,0 98.414010000000,28.774628000000,0 98.370910000000,28.767076000000,0 98.356820000000,28.787247000000,0 98.329675000000,28.789830000000,0 98.318072000000,28.806322000000,0 98.306468000000,28.842276000000,0 98.305225000000,28.870574000000,0 98.263369000000,28.895093000000,0 98.240576000000,28.920102000000,0 98.217161000000,28.895291000000,0 98.203485000000,28.863625000000,0 98.167224000000,28.869482000000,0 98.147124000000,28.862135000000,0 98.147746000000,28.892314000000,0 98.130755000000,28.903926000000,0 98.111692000000,28.937862000000,0 98.092214000000,28.960877000000,0 98.097809000000,28.986069000000,0 98.116665000000,29.000348000000,0 98.079989000000,29.033063000000,0 98.060718000000,29.025827000000,0 98.039583000000,29.033360000000,0 98.037718000000,29.083603000000,0 98.006015000000,29.101731000000,0 97.985087000000,29.135108000000,0 97.953384000000,29.141940000000,0 97.932663000000,29.104901000000,0 97.857239000000,29.101533000000,0 97.840248000000,29.105496000000,0 97.818905000000,29.133424000000,0 97.821184000000,29.145505000000,0 97.790932000000,29.167483000000,0 97.786166000000,29.184707000000,0 97.750941000000,29.213307000000,0 97.744724000000,29.231610000000,0 97.693129000000,29.253768000000,0 97.671372000000,29.272856000000,0 97.645471000000,29.269395000000,0 97.611903000000,29.290062000000,0 97.588903000000,29.277603000000,0 97.547669000000,29.281064000000,0 97.560308000000,29.249713000000,0 97.576263000000,29.243877000000,0 97.615219000000,29.206677000000,0 97.580408000000,29.180154000000,0 97.559687000000,29.193713000000,0 97.541038000000,29.187379000000,0 97.519695000000,29.136494000000,0 97.549741000000,29.106090000000,0 97.545804000000,29.096481000000,0 97.518866000000,29.098958000000,0 97.489236000000,29.082612000000,0 97.410289000000,29.068642000000,0 97.401172000000,29.111934000000,0 97.402208000000,29.131741000000,0 97.418163000000,29.184707000000,0 97.397028000000,29.233985000000,0 97.396613000000,29.286205000000,0 97.367189000000,29.284030000000,0 97.358487000000,29.302519000000,0 97.335486000000,29.320906000000,0 97.345225000000,29.338202000000,0 97.337351000000,29.354309000000,0 97.359523000000,29.362016000000,0 97.317045000000,29.411703000000,0 97.285756000000,29.429181000000,0 97.298810000000,29.450507000000,0 97.252188000000,29.454653000000,0 97.235612000000,29.447545000000,0 97.209296000000,29.461464000000,0 97.192512000000,29.444485000000,0 97.153557000000,29.446163000000,0 97.086421000000,29.507352000000,0 97.088493000000,29.540695000000,0 97.065908000000,29.540103000000,0 97.053889000000,29.517415000000,0 97.064457000000,29.495709000000,0 97.057826000000,29.482684000000,0 97.017835000000,29.496005000000,0 96.982609000000,29.482486000000,0 96.977222000000,29.462056000000,0 96.994006000000,29.394222000000,0 96.984889000000,29.379503000000,0 96.953393000000,29.362510000000,0 96.955465000000,29.338400000000,0 96.991727000000,29.317644000000,0 96.989862000000,29.289468000000,0 96.979501000000,29.269692000000,0 96.986546000000,29.256835000000,0 96.982609000000,29.202224000000,0 96.960231000000,29.197276000000,0 96.938060000000,29.211625000000,0 96.918996000000,29.196880000000,0 96.914230000000,29.178966000000,0 96.916303000000,29.122333000000,0 96.889987000000,29.120847000000,0 96.878176000000,29.129661000000,0 96.883149000000,29.155604000000,0 96.860356000000,29.156099000000,0 96.840671000000,29.172631000000,0 96.793220000000,29.183024000000,0 96.777473000000,29.173126000000,0 96.757788000000,29.176590000000,0 96.728571000000,29.168671000000,0 96.714067000000,29.177580000000,0 96.681949000000,29.226664000000,0 96.668895000000,29.271373000000,0 96.607976000000,29.307759000000,0 96.607976000000,29.326540000000,0 96.586840000000,29.327034000000,0 96.541254000000,29.356681000000,0 96.581453000000,29.390172000000,0 96.608804000000,29.389283000000,0 96.623516000000,29.403605000000,0 96.681535000000,29.389777000000,0 96.701841000000,29.399851000000,0 96.705985000000,29.418912000000,0 96.686093000000,29.441819000000,0 96.667030000000,29.452185000000,0 96.641336000000,29.478736000000,0 96.616057000000,29.487026000000,0 96.601345000000,29.503800000000,0 96.626003000000,29.506366000000,0 96.645895000000,29.537243000000,0 96.654183000000,29.565645000000,0 96.641751000000,29.586646000000,0 96.624345000000,29.639573000000,0 96.603624000000,29.653760000000,0 96.579795000000,29.657603000000,0 96.568606000000,29.696411000000,0 96.550164000000,29.713544000000,0 96.520740000000,29.714332000000,0 96.494218000000,29.732545000000,0 96.476191000000,29.780771000000,0 96.482200000000,29.806842000000,0 96.511002000000,29.822580000000,0 96.534209000000,29.868108000000,0 96.533380000000,29.881870000000,0 96.549543000000,29.904770000000,0 96.576480000000,29.920100000000,0 96.580002000000,29.941125000000,0 96.569020000000,29.959592000000,0 96.573164000000,29.978939000000,0 96.619579000000,30.006235000000,0 96.637399000000,30.030579000000,0 96.636778000000,30.070910000000,0 96.665787000000,30.114166000000,0 96.667652000000,30.128875000000,0 96.641336000000,30.143876000000,0 96.599687000000,30.143974000000,0 96.629940000000,30.157208000000,0 96.636156000000,30.176712000000,0 96.627453000000,30.205227000000,0 96.631183000000,30.233636000000,0 96.584146000000,30.257434000000,0 96.589948000000,30.266639000000,0 96.566741000000,30.280737000000,0 96.559696000000,30.295226000000,0 96.532344000000,30.303741000000,0 96.517425000000,30.275744000000,0 96.500227000000,30.281325000000,0 96.479091000000,30.266737000000,0 96.457542000000,30.279563000000,0 96.439515000000,30.306384000000,0 96.451533000000,30.315290000000,0 96.426253000000,30.325566000000,0 96.381082000000,30.312061000000,0 96.335703000000,30.321749000000,0 96.284522000000,30.308048000000,0 96.224432000000,30.282402000000,0 96.214071000000,30.224918000000,0 96.191693000000,30.211106000000,0 96.149215000000,30.212085000000,0 96.139890000000,30.196801000000,0 96.116268000000,30.200133000000,0 96.103836000000,30.218747000000,0 96.103214000000,30.239611000000,0 96.091403000000,30.247250000000,0 96.067989000000,30.238827000000,0 96.056592000000,30.256064000000,0 96.036700000000,30.256749000000,0 95.994222000000,30.234616000000,0 95.968321000000,30.247250000000,0 95.936411000000,30.245781000000,0 95.918591000000,30.260274000000,0 95.918591000000,30.274863000000,0 95.870104000000,30.298945000000,0 95.860158000000,30.323217000000,0 95.884609000000,30.344058000000,0 95.865960000000,30.354624000000,0 95.825347000000,30.360885000000,0 95.783076000000,30.397561000000,0 95.763599000000,30.424838000000,0 95.754481000000,30.456018000000,0 95.697499000000,30.481130000000,0 95.718220000000,30.531041000000,0 95.698949000000,30.554963000000,0 95.661237000000,30.557696000000,0 95.618967000000,30.569703000000,0 95.599489000000,30.569605000000,0 95.569651000000,30.582782000000,0 95.549137000000,30.600445000000,0 95.512668000000,30.586490000000,0 95.480758000000,30.606690000000,0 95.429578000000,30.609520000000,0 95.431443000000,30.583563000000,0 95.419217000000,30.575071000000,0 95.381712000000,30.582684000000,0 95.380055000000,30.561113000000,0 95.366379000000,30.550569000000,0 95.350009000000,30.568239000000,0 95.323694000000,30.583270000000,0 95.321415000000,30.597811000000,0 95.343586000000,30.619764000000,0 95.315613000000,30.625910000000,0 95.267126000000,30.652734000000,0 95.227963000000,30.643761000000,0 95.223612000000,30.620447000000,0 95.208071000000,30.614984000000,0 95.141557000000,30.660828000000,0 95.105917000000,30.660536000000,0 95.087683000000,30.636738000000,0 95.081259000000,30.607861000000,0 95.100530000000,30.582879000000,0 95.087683000000,30.570874000000,0 95.047484000000,30.577121000000,0 95.011430000000,30.558965000000,0 94.987601000000,30.580830000000,0 94.967709000000,30.587271000000,0 94.949889000000,30.576438000000,0 94.916735000000,30.575755000000,0 94.899122000000,30.594981000000,0 94.830743000000,30.610691000000,0 94.784329000000,30.590297000000,0 94.728175000000,30.605910000000,0 94.714499000000,30.619374000000,0 94.687976000000,30.620545000000,0 94.653580000000,30.601616000000,0 94.612345000000,30.600250000000,0 94.595768000000,30.583563000000,0 94.607165000000,30.549593000000,0 94.576912000000,30.542563000000,0 94.510191000000,30.545981000000,0 94.486569000000,30.552034000000,0 94.471029000000,30.573119000000,0 94.449893000000,30.568824000000,0 94.449686000000,30.549105000000,0 94.437254000000,30.539341000000,0 94.382136000000,30.541294000000,0 94.372397000000,30.554670000000,0 94.373019000000,30.585417000000,0 94.322667000000,30.595664000000,0 94.280603000000,30.562968000000,0 94.268378000000,30.562577000000,0 94.252423000000,30.540025000000,0 94.214918000000,30.524108000000,0 94.197305000000,30.499007000000,0 94.169539000000,30.500668000000,0 94.154206000000,30.486894000000,0</coordinates></LinearRing></outerBoundaryIs></Polygon>
    </Placemark>
  </Document>
</kml>
