<?xml version="1.0" encoding="UTF-8"?>
<kml xmlns="http://www.opengis.net/kml/2.2">
<Document>
<name>那曲市</name>
<Placemark><name>那曲市</name><MultiGeometry><Polygon><outerBoundaryIs><LinearRing><coordinates>94.759463999999994,32.529373999999997,0 94.757806000000002,32.546290999999997,0 94.772724999999994,32.555081999999999,0 94.745373000000001,32.560527999999998,0 94.737499,32.587373999999997,0 94.717192999999995,32.604087999999997,0 94.687562,32.604278999999998,0 94.690256000000005,32.614497,0 94.638452999999998,32.645527000000001,0 94.614624000000006,32.673586999999998,0 94.601156000000003,32.663375000000002,0 94.591830999999999,32.640658000000002,0 94.596804000000006,32.630060999999998,0 94.569038000000006,32.628914999999999,0 94.535471000000001,32.598166999999997,0 94.508948000000004,32.603802000000002,0 94.485740000000007,32.594824000000003,0 94.473101,32.60915,0 94.462119000000001,32.605234000000003,0 94.463569000000007,32.572471,0 94.434145000000001,32.563108,0 94.404928999999996,32.598739999999999,0 94.395189999999999,32.594251,0 94.376956000000007,32.562153000000002,0 94.383379000000005,32.550494999999998,0 94.367216999999997,32.521726999999998,0 94.353541000000007,32.532910999999999,0 94.294279000000003,32.519815000000001,0 94.292207000000005,32.502797999999999,0 94.244755999999995,32.516947999999999,0 94.234189000000001,32.510446999999999,0 94.196890999999994,32.516182999999998,0 94.177621000000002,32.483100999999998,0 94.187980999999994,32.470094000000003,0 94.180107000000007,32.455458999999998,0 94.154206000000002,32.455362999999998,0 94.137629000000004,32.433836999999997,0 94.102404000000007,32.447710000000001,0 94.091836000000001,32.463397999999998,0 94.052673999999996,32.470668000000003,0 94.031953000000001,32.449145000000001,0 94.011232000000007,32.446179000000001,0 93.996313000000001,32.463303000000003,0 93.978700000000003,32.459859000000002,0 93.959844000000004,32.484918,0 93.928970000000007,32.476596999999998,0 93.913222000000005,32.462059000000004,0 93.898095999999995,32.472676,0 93.869501,32.474015000000001,0 93.858726000000004,32.464737999999997,0 93.859555,32.485491000000003,0 93.850436999999999,32.510925,0 93.827644000000006,32.520963000000002,0 93.822671,32.547533000000001,0 93.762995000000004,32.568649999999998,0 93.721968000000004,32.578108,0 93.678661000000005,32.568075999999998,0 93.650065999999995,32.570273999999998,0 93.620435000000001,32.523926000000003,0 93.572569999999999,32.501173000000001,0 93.554957000000002,32.485968999999997,0 93.534443999999993,32.486351999999997,0 93.516417000000004,32.475928000000003,0 93.501705000000001,32.503371999999999,0 93.477254000000002,32.503945999999999,0 93.475389000000007,32.528227000000001,0 93.462957000000003,32.556038000000001,0 93.445965000000001,32.562344000000003,0 93.412189999999995,32.557853000000001,0 93.385667999999995,32.525168000000001,0 93.338424000000003,32.571229000000002,0 93.308379000000002,32.580399999999997,0 93.313351999999995,32.602941999999999,0 93.302991000000006,32.617935000000003,0 93.262793000000002,32.625191999999998,0 93.239791999999994,32.662326,0 93.210369,32.655358,0 93.175349999999995,32.670437999999997,0 93.159603000000004,32.644762999999998,0 93.117125000000001,32.647435999999999,0 93.107386000000005,32.637220999999997,0 93.077133000000003,32.627291999999997,0 93.060349000000002,32.632542999999998,0 93.041701000000003,32.674349999999997,0 93.047501999999994,32.693911,0 93.023673000000002,32.703068999999999,0 93.020979999999994,32.734448999999998,0 93.001087999999996,32.741123999999999,0 92.983474999999999,32.721955999999999,0 92.964411999999996,32.714610999999998,0 92.938303000000005,32.720047999999998,0 92.913853000000003,32.704596000000002,0 92.879041000000001,32.710796000000002,0 92.876969000000003,32.696964000000001,0 92.822681000000003,32.729776000000001,0 92.789527000000007,32.720047999999998,0 92.756373999999994,32.743127000000001,0 92.711823999999993,32.753805999999997,0 92.687995000000001,32.766008999999997,0 92.667895000000001,32.731873999999998,0 92.636191999999994,32.72043,0 92.624381999999997,32.732542000000002,0 92.609461999999994,32.728059999999999,0 92.600138000000001,32.743603999999998,0 92.571128999999999,32.733400000000003,0 92.524507,32.734163000000002,0 92.506271999999996,32.744748000000001,0 92.488038000000003,32.743794000000001,0 92.453849000000005,32.764673999999999,0 92.410955999999999,32.747799000000001,0 92.355839000000003,32.764578999999998,0 92.358324999999994,32.749611000000002,0 92.336360999999997,32.73874,0 92.322685000000007,32.750754999999998,0 92.301135000000002,32.749324999999999,0 92.291810999999996,32.730252999999998,0 92.255341999999999,32.720716000000003,0 92.234206999999998,32.738453999999997,0 92.222603000000007,32.734068000000001,0 92.198566999999997,32.754759,0 92.209548999999996,32.792411000000001,0 92.193800999999993,32.802131000000003,0 92.227575999999999,32.820901999999997,0 92.230683999999997,32.840238999999997,0 92.205819000000005,32.856430000000003,0 92.205197999999996,32.866143999999998,0 92.153603000000004,32.873570999999998,0 92.148837,32.884042999999998,0 92.118791000000002,32.876807999999997,0 92.104907999999995,32.861573,0 92.039845,32.861477999999998,0 92.025962000000007,32.849572999999999,0 92.027619000000001,32.834333999999998,0 91.998817000000003,32.835382000000003,0 91.990528999999995,32.824331000000001,0 91.956131999999997,32.820520000000002,0 91.939970000000002,32.837857999999997,0 91.922565000000006,32.869475999999999,0 91.893969999999996,32.885947000000002,0 91.897077999999993,32.907269999999997,0 91.860195000000004,32.902225000000001,0 91.839680999999999,32.947997000000001,0 91.811707999999996,32.954656,0 91.798238999999995,32.941431999999999,0 91.780833999999999,32.946094000000002,0 91.753482000000005,32.968448000000002,0 91.735039999999998,32.97016,0 91.725509000000002,32.98395,0 91.683238000000003,32.990036000000003,0 91.664795999999996,32.999733999999997,0 91.664589000000007,33.013044000000001,0 91.583363000000006,33.037661999999997,0 91.553731999999997,33.067309000000002,0 91.560156000000006,33.076143999999999,0 91.535704999999993,33.099984999999997,0 91.483695999999995,33.105018000000001,0 91.462146000000004,33.092007000000002,0 91.458831000000004,33.073864,0 91.435829999999996,33.066169000000002,0 91.424847999999997,33.080229000000003,0 91.404748999999995,33.080609000000003,0 91.373874999999998,33.099699999999999,0 91.311712,33.107962000000001,0 91.261359999999996,33.141382,0 91.230485999999999,33.142521000000002,0 91.215566999999993,33.126952000000003,0 91.195881999999997,33.125813000000001,0 91.187179999999998,33.106253000000002,0 91.172882000000001,33.113658999999998,0 91.148223999999999,33.088777999999998,0 91.148431000000002,33.072628999999999,0 91.133304999999993,33.074244,0 91.071971000000005,33.112994999999998,0 91.037575000000004,33.098655000000001,0 91.011881000000002,33.121540000000003,0 90.943501999999995,33.116698,0 90.927547000000004,33.120305999999999,0 90.911383999999998,33.110146,0 90.902266999999995,33.083078999999998,0 90.884240000000005,33.119166999999997,0 90.841555,33.111474999999999,0 90.803635999999997,33.114418999999998,0 90.744167000000004,33.142330999999999,0 90.705625999999995,33.135781000000001,0 90.624193000000005,33.183613999999999,0 90.587723999999994,33.211030000000001,0 90.543795000000003,33.238436999999998,0 90.518929999999997,33.243273000000002,0 90.489714000000006,33.265362000000003,0 90.406001000000003,33.260432000000002,0 90.387974,33.27702,0 90.366838999999999,33.281284999999997,0 90.333063999999993,33.310755,0 90.246450999999993,33.424087,0 90.220963999999995,33.437804999999997,0 90.188018,33.441021999999997,0 90.107619999999997,33.461168999999998,0 90.091873000000007,33.469774999999998,0 90.083376999999999,33.525174999999997,0 90.073430999999999,33.533679999999997,0 90.021629000000004,33.54757,0 89.988061000000002,33.583655,0 89.983917000000005,33.612077999999997,0 90.000907999999995,33.659177999999997,0 89.992827000000005,33.669840000000001,0 90.008367000000007,33.687953,0 89.981845000000007,33.702762,0 89.983709000000005,33.725771000000002,0 89.939573999999993,33.741233000000001,0 89.907248999999993,33.741044000000002,0 89.902276000000001,33.758482999999998,0 89.919060000000002,33.772618999999999,0 89.933565000000002,33.797023000000003,0 89.925691,33.809175000000003,0 89.900204000000002,33.807197000000002,0 89.893573000000004,33.822079000000002,0 89.871195,33.830554999999997,0 89.862492000000003,33.853059999999999,0 89.837213000000006,33.868969,0 89.794942000000006,33.865485999999997,0 89.764067999999995,33.898521000000002,0 89.765726000000001,33.906896000000003,0 89.731949999999998,33.921759999999999,0 89.715581,33.950164999999998,0 89.688022000000004,33.959757000000003,0 89.678697999999997,33.996327000000001,0 89.651346000000004,34.036639000000001,0 89.634977000000006,34.049415000000003,0 89.656318999999996,34.057867999999999,0 89.656111999999993,34.096930999999998,0 89.680976999999999,34.105755000000002,0 89.693201999999999,34.126027999999998,0 89.712057999999999,34.131846000000003,0 89.756193999999994,34.123775999999999,0 89.760338000000004,34.152487999999998,0 89.785617999999999,34.149954999999999,0 89.815247999999997,34.167779000000003,0 89.805301999999998,34.189819,0 89.826437999999996,34.200603000000001,0 89.822293999999999,34.225445999999998,0 89.838041000000004,34.264243999999998,0 89.825609,34.293658000000001,0 89.869951999999998,34.330083999999999,0 89.85669,34.359569,0 89.841149999999999,34.356293000000001,0 89.820635999999993,34.369768999999998,0 89.823950999999994,34.384459,0 89.799501000000006,34.396247000000002,0 89.818770999999998,34.419722999999998,0 89.823329999999999,34.455440000000003,0 89.808203000000006,34.474787999999997,0 89.818357000000006,34.485908000000002,0 89.811725999999993,34.504221999999999,0 89.814211999999998,34.549987000000002,0 89.777951000000002,34.574446999999999,0 89.777743999999998,34.593953999999997,0 89.794942000000006,34.604779000000001,0 89.799707999999995,34.628382999999999,0 89.785825000000003,34.641069000000002,0 89.774428,34.636405000000003,0 89.743347,34.644799999999996,0 89.726149000000007,34.663170999999998,0 89.737752,34.679766999999998,0 89.723455000000001,34.704003,0 89.736508999999998,34.713974999999998,0 89.733608000000004,34.732703999999998,0 89.763031999999995,34.73997,0 89.769454999999994,34.749471999999997,0 89.799707999999995,34.743882999999997,0 89.807581999999996,34.768844999999999,0 89.82996,34.787654000000003,0 89.825816000000003,34.796871000000003,0 89.867671999999999,34.810555000000001,0 89.851510000000005,34.821351,0 89.846329999999995,34.857360999999997,0 89.811519000000004,34.871034000000002,0 89.823537000000002,34.879683999999997,0 89.82105,34.902000999999998,0 89.787481999999997,34.921709999999997,0 89.747077000000004,34.903582,0 89.711644000000007,34.920594999999999,0 89.700868999999997,34.908231000000001,0 89.654454000000001,34.883217999999999,0 89.621093999999999,34.881543999999998,0 89.625031000000007,34.891215000000003,0 89.579651999999996,34.894098,0 89.584417999999999,34.907859000000002,0 89.561210000000003,34.931097999999999,0 89.576751000000002,34.999567999999996,0 89.568048000000005,35.009689999999999,0 89.581517000000005,35.019531999999998,0 89.590633999999994,35.057960000000001,0 89.593119999999999,35.104253999999997,0 89.582966999999996,35.116681,0 89.540903999999998,35.120947000000001,0 89.519560999999996,35.13402,0 89.504435000000001,35.165722000000002,0 89.484956999999994,35.186107999999997,0 89.475425999999999,35.208157,0 89.450560999999993,35.223995000000002,0 89.458641999999998,35.238532999999997,0 89.485786000000004,35.256678999999998,0 89.515002999999993,35.265751000000002,0 89.532201000000001,35.285094000000001,0 89.509201000000004,35.284539000000002,0 89.494696000000005,35.298512000000002,0 89.516245999999995,35.333294000000002,0 89.499255000000005,35.354469999999999,0 89.505263999999997,35.371481000000003,0 89.535931000000005,35.369076999999997,0 89.568048000000005,35.383496999999998,0 89.587525999999997,35.383775,0 89.61985,35.412329999999997,0 89.660049000000001,35.425356000000001,0 89.686363999999998,35.414732000000001,0 89.725112999999993,35.452418999999999,0 89.744175999999996,35.479750000000003,0 89.765310999999997,35.482519000000003,0 89.741067999999999,35.507348,0 89.720140000000001,35.501717999999997,0 89.700040000000001,35.537520000000001,0 89.714545000000001,35.583171,0 89.749562999999995,35.580497000000001,0 89.765933000000004,35.599764999999998,0 89.742311000000001,35.621792999999997,0 89.729877999999999,35.655698000000001,0 89.748942,35.662790999999999,0 89.740652999999995,35.715550999999998,0 89.752671000000007,35.737454999999997,0 89.749356000000006,35.757973,0 89.780023,35.763399999999997,0 89.781681000000006,35.777841000000002,0 89.767797999999999,35.798993000000003,0 89.781473000000005,35.807727,0 89.786653999999999,35.833649999999999,0 89.801986999999997,35.847802999999999,0 89.778779999999998,35.861586000000003,0 89.742103999999998,35.858553999999998,0 89.710193000000004,35.849549000000003,0 89.660256000000004,35.848170000000003,0 89.623994999999994,35.859105,0 89.598922000000002,35.855981,0 89.577787000000001,35.861494,0 89.550021000000001,35.857450999999998,0 89.531785999999997,35.874447000000004,0 89.541732999999994,35.882071000000003,0 89.489930000000001,35.903562000000001,0 89.472731999999993,35.900531999999998,0 89.427975000000004,35.917427000000004,0 89.421550999999994,35.932482999999998,0 89.435019999999994,35.952491000000002,0 89.426732000000001,35.967632000000002,0 89.434813000000005,35.993226999999997,0 89.404560000000004,36.016979999999997,0 89.417614,36.044759999999997,0 89.440406999999993,36.031742000000001,0 89.476253999999997,36.022024000000002,0 89.518732,36.025874000000002,0 89.562453000000005,36.035500999999996,0 89.605138999999994,36.038251000000002,0 89.637878000000001,36.050075999999997,0 89.641606999999993,36.065930999999999,0 89.658805999999998,36.069504999999999,0 89.688022000000004,36.090944999999998,0 89.664400000000001,36.103036000000003,0 89.649895999999998,36.097997999999997,0 89.636013000000005,36.109265000000001,0 89.614877000000007,36.109631,0 89.594363999999999,36.126480999999998,0 89.511686999999995,36.142688,0 89.490137000000004,36.151110000000003,0 89.424867000000006,36.197963999999999,0 89.375551000000002,36.228149000000002,0 89.334937999999994,36.237202000000003,0 89.292666999999994,36.231440999999997,0 89.271531999999993,36.262618000000003,0 89.232162000000002,36.295701000000001,0 89.199009000000004,36.260241000000001,0 89.163162,36.263165999999998,0 89.127936000000005,36.249636000000002,0 89.108457999999999,36.263348999999998,0 89.102656999999994,36.280166000000001,0 89.053548000000006,36.293143000000001,0 89.044015999999999,36.305294000000004,0 89.013557000000006,36.315435000000001,0 88.964241000000001,36.318997000000003,0 88.948907000000005,36.329227000000003,0 88.925906999999995,36.364381999999999,0 88.903942999999998,36.362282,0 88.87079,36.348312999999997,0 88.838879000000006,36.353608999999999,0 88.801374999999993,36.336897999999998,0 88.794950999999998,36.308948999999998,0 88.782518999999994,36.291772000000002,0 88.767184999999998,36.292136999999997,0 88.747915000000006,36.310957999999999,0 88.725329000000002,36.319271000000001,0 88.730301999999995,36.329318000000001,0 88.711445999999995,36.353883000000003,0 88.690102999999993,36.368124999999999,0 88.623588999999996,36.389391000000003,0 88.617994999999993,36.427985,0 88.597065999999998,36.448689000000002,0 88.573030000000003,36.461181000000003,0 88.512524999999997,36.445405999999998,0 88.498642000000004,36.446226000000003,0 88.478127999999998,36.464827999999997,0 88.470669000000001,36.482239999999997,0 88.410786000000002,36.473215000000003,0 88.378874999999994,36.483333999999999,0 88.356703999999993,36.476497000000002,0 88.365613999999994,36.457807000000003,0 88.326659000000006,36.458354,0 88.282315999999994,36.470024000000002,0 88.241495999999998,36.468657,0 88.222639999999998,36.447594000000002,0 88.182440999999997,36.45261,0 88.160062999999994,36.435282000000001,0 88.134575999999996,36.427163999999998,0 88.092304999999996,36.435372999999998,0 88.006727999999995,36.430813000000001,0 87.982899000000003,36.437835999999997,0 87.967979999999997,36.429353999999996,0 87.958448000000004,36.408462999999998,0 87.919493000000003,36.393681000000001,0 87.838267000000002,36.384006999999997,0 87.806150000000002,36.39076,0 87.801591000000002,36.379990999999997,0 87.768437000000006,36.374696999999998,0 87.731969000000007,36.384918999999996,0 87.696122000000003,36.371775999999997,0 87.620075999999997,36.360365000000002,0 87.570553000000004,36.342377999999997,0 87.518542999999994,36.351782999999998,0 87.470471000000003,36.354247999999998,0 87.457002000000003,36.388114000000002,0 87.460318000000001,36.409922000000002,0 87.432344000000001,36.416856000000003,0 87.428407000000007,36.425066000000001,0 87.386966000000001,36.412751,0 87.361892999999995,36.419136999999999,0 87.348218000000003,36.393132999999999,0 87.313406000000001,36.367668000000002,0 87.292271,36.358995,0 87.193432000000001,36.349409000000001,0 87.161315000000002,36.325574000000003,0 87.149503999999993,36.297437000000002,0 87.115314999999995,36.299264000000001,0 87.086304999999996,36.310775999999997,0 87.056466999999998,36.297162999999998,0 86.996168999999995,36.308675000000001,0 86.971097,36.290126999999998,0 86.955348999999998,36.289396000000004,0 86.931520000000006,36.265450999999999,0 86.891735999999995,36.261977999999999,0 86.874745000000004,36.274591000000001,0 86.861897999999997,36.299903999999998,0 86.836203999999995,36.291406000000002,0 86.775699000000003,36.296706,0 86.746067999999994,36.292045999999999,0 86.730113000000003,36.267462000000002,0 86.708355999999995,36.264353999999997,0 86.700068000000002,36.244790999999999,0 86.655932000000007,36.245522000000001,0 86.653446000000002,36.231988999999999,0 86.606201999999996,36.223210000000002,0 86.532228000000003,36.227325999999998,0 86.515652000000003,36.205283000000001,0 86.483534000000006,36.207661000000002,0 86.455146999999997,36.221198000000001,0 86.426759000000004,36.208576000000001,0 86.392776999999995,36.207020999999997,0 86.358172999999994,36.168774999999997,0 86.315488000000002,36.165937999999997,0 86.280055000000004,36.170788000000002,0 86.279848000000001,36.161544999999997,0 86.247523000000001,36.140765000000002,0 86.190540999999996,36.132615999999999,0 86.190126000000006,36.098272999999999,0 86.179766000000001,36.075186000000002,0 86.200072000000006,36.047967999999997,0 86.199036000000007,36.032017000000003,0 86.181216000000006,36.029541999999999,0 86.173135000000002,36.008085000000001,0 86.150756000000001,36.004049999999999,0 86.132936000000001,35.979467999999997,0 86.129000000000005,35.942487999999997,0 86.093980999999999,35.907693999999999,0 86.090250999999995,35.876744000000002,0 86.070566999999997,35.860666999999999,0 86.070774,35.840175000000002,0 86.111386999999993,35.814439,0 86.104962999999998,35.794486999999997,0 86.138116999999994,35.771586999999997,0 86.177278999999999,35.764228000000003,0 86.203595000000007,35.742240000000002,0 86.208152999999996,35.722546000000001,0 86.237162999999995,35.721257000000001,0 86.28192,35.676144999999998,0 86.291244000000006,35.644368,0 86.318388999999996,35.636443999999997,0 86.309270999999995,35.611471000000002,0 86.285235,35.592851000000003,0 86.290622999999997,35.558919000000003,0 86.281712999999996,35.540748999999998,0 86.305749000000006,35.529217000000003,0 86.273009999999999,35.520727999999998,0 86.252289000000005,35.484642000000001,0 86.250630999999998,35.455928,0 86.257884000000004,35.425818,0 86.279225999999994,35.385254000000003,0 86.294973999999996,35.375456,0 86.245658000000006,35.372774999999997,0 86.242964000000001,35.342725999999999,0 86.200072000000006,35.333201000000003,0 86.178107999999995,35.321547000000002,0 86.201314999999994,35.299714000000002,0 86.209188999999995,35.276395000000001,0 86.199450999999996,35.239458999999997,0 86.202765999999997,35.211306,0 86.234882999999996,35.160532000000003,0 86.214370000000002,35.135224999999998,0 86.215819999999994,35.104624999999999,0 86.174584999999993,35.050350000000002,0 86.150964000000002,35.009968999999998,0 86.144540000000006,34.974119000000002,0 86.112216000000004,34.929239000000003,0 86.144954999999996,34.924033999999999,0 86.137495000000001,34.875870999999997,0 86.109936000000005,34.819025000000003,0 86.083206000000004,34.782998999999997,0 86.055233000000001,34.760370000000002,0 86.034926999999996,34.715093000000003,0 86.035962999999995,34.691513,0 86.054197000000002,34.657110000000003,0 86.034098,34.637711000000003,0 86.027674000000005,34.615416000000003,0 85.989755000000002,34.594327,0 85.948520000000002,34.559883999999997,0 85.943754999999996,34.524304999999998,0 85.951007000000004,34.509172999999997,0 85.982294999999993,34.502446999999997,0 86.033269000000004,34.483291999999999,0 86.067043999999996,34.478431999999998,0 86.114080000000001,34.446933000000001,0 86.136251999999999,34.415233999999998,0 86.162566999999996,34.404946000000002,0 86.170440999999997,34.386330000000001,0 86.170856000000001,34.359475000000003,0 86.144126,34.328118000000003,0 86.131692999999999,34.304240999999998,0 86.128170999999995,34.276516999999998,0 86.131900000000002,34.209978999999997,0 86.155728999999994,34.175657999999999,0 86.182458999999994,34.156334999999999,0 86.200072000000006,34.122273999999997,0 86.193027000000001,34.082940999999998,0 86.192819999999998,34.027996000000002,0 86.236333999999999,33.998300999999998,0 86.227838000000006,33.962201999999998,0 86.244622000000007,33.948473,0 86.273630999999995,33.894286999999998,0 86.271351999999993,33.84807,0 86.255189999999999,33.827353000000002,0 86.211054000000004,33.784115,0 86.210224999999994,33.749623,0 86.179766000000001,33.711343999999997,0 86.188260999999997,33.653516000000003,0 86.213747999999995,33.632469,0 86.250010000000003,33.632185999999997,0 86.269279999999995,33.593477,0 86.276740000000004,33.521583,0 86.268037000000007,33.490577999999999,0 86.295180999999999,33.458899000000002,0 86.311342999999994,33.429479999999998,0 86.328541999999999,33.421627000000001,0 86.298496999999998,33.415002999999999,0 86.253738999999996,33.387461999999999,0 86.245451000000003,33.360196000000002,0 86.245451000000003,33.323639,0 86.230324999999993,33.322881000000002,0 86.205252000000002,33.302038000000003,0 86.177901000000006,33.297773999999997,0 86.128377999999998,33.270100999999997,0 86.075953999999996,33.250667999999997,0 86.034305000000003,33.243273000000002,0 86.035962999999995,33.220419,0 86.020629,33.213115999999999,0 86.019385999999997,33.167197999999999,0 86.030161000000007,33.156948,0 86.056476000000004,33.151443999999998,0 86.110765000000001,33.167008000000003,0 86.172927999999999,33.158940999999999,0 86.172306000000006,33.140148000000003,0 86.145161999999999,33.123438999999998,0 86.130036000000004,33.091152000000001,0 86.111386999999993,33.067404000000003,0 86.135836999999995,33.046025,0 86.131072000000003,33.025592000000003,0 86.090458999999996,33.011999000000003,0 86.069530999999998,32.983094000000001,0 86.083827999999997,32.961123999999998,0 86.066422000000003,32.939909999999998,0 86.055233000000001,32.911932999999998,0 86.062278000000006,32.898513000000001,0 86.107034999999996,32.866428999999997,0 86.109106999999995,32.858334999999997,0 86.074089000000001,32.803561000000002,0 86.062071000000003,32.79365,0 86.032854999999998,32.795650999999999,0 85.973178000000004,32.774016000000003,0 85.966132999999999,32.753615000000003,0 85.936502000000004,32.733781999999998,0 85.923654999999997,32.717377999999997,0 85.880348999999995,32.696199999999997,0 85.749392999999998,32.689521999999997,0 85.712508999999997,32.672536999999998,0 85.622995000000003,32.642662999999999,0 85.584868999999998,32.635216,0 85.552751000000001,32.612014000000002,0 85.501778000000002,32.590429999999998,0 85.459299999999999,32.581642000000002,0 85.410606000000001,32.595014999999997,0 85.382632999999998,32.572949000000001,0 85.348650000000006,32.523352000000003,0 85.338497000000004,32.515227000000003,0 85.271776000000003,32.498112999999996,0 85.258514000000005,32.487977999999998,0 85.241938000000005,32.455745999999998,0 85.244630999999998,32.434697999999997,0 85.219352000000001,32.413454000000002,0 85.225361000000007,32.372100000000003,0 85.186406000000005,32.290677000000002,0 85.176460000000006,32.245336000000002,0 85.137297000000004,32.205919000000002,0 85.108080999999999,32.159191999999997,0 85.082801000000003,32.139899,0 85.056071000000003,32.100917000000003,0 85.058764999999994,32.07508,0 85.071819000000005,32.047986999999999,0 85.115746999999999,32.025114000000002,0 85.141233999999997,31.998101999999999,0 85.150972999999993,31.932027999999999,0 85.142684000000003,31.906143,0 85.165270000000007,31.886700999999999,0 85.170450000000002,31.871202,0 85.154081000000005,31.862439999999999,0 85.125485999999995,31.823436000000001,0 85.135846999999998,31.815826000000001,0 85.133774000000003,31.78856,0 85.146207000000004,31.755116000000001,0 85.125279000000006,31.712788,0 85.118854999999996,31.687035000000002,0 85.143305999999995,31.658958999999999,0 85.154702999999998,31.657222000000001,0 85.191586000000001,31.673721,0 85.218729999999994,31.672853,0 85.241523000000001,31.655002,0 85.283586999999997,31.64207,0 85.284208000000007,31.619579000000002,0 85.306586999999993,31.600946,0 85.310524000000001,31.579218000000001,0 85.352172999999993,31.557292,0 85.371650000000002,31.565020000000001,0 85.398380000000003,31.592738000000001,0 85.445830999999998,31.576803000000002,0 85.444174000000004,31.540192000000001,0 85.477740999999995,31.520285999999999,0 85.479399000000001,31.506077999999999,0 85.497426000000004,31.510235000000002,0 85.561453999999998,31.488679000000001,0 85.549020999999996,31.455127000000001,0 85.579481000000001,31.422046999999999,0 85.583832000000001,31.395052,0 85.604346000000007,31.361854000000001,0 85.644544999999994,31.355174999999999,0 85.655320000000003,31.345493000000001,0 85.692409999999995,31.335325999999998,0 85.716239000000002,31.320509999999999,0 85.758510000000001,31.317992,0 85.788347999999999,31.290773000000002,0 85.863358000000005,31.285250999999999,0 85.871230999999995,31.278663000000002,0 85.870402999999996,31.252499,0 85.908321999999998,31.24145,0 85.947277,31.241061999999999,0 85.963438999999994,31.224777,0 86.040936000000002,31.216245000000001,0 86.070981000000003,31.203737,0 86.131900000000002,31.213432999999998,0 86.142882999999998,31.192682000000001,0 86.168368999999998,31.181432000000001,0 86.172720999999996,31.162904999999999,0 86.167955000000006,31.113029999999998,0 86.171684999999997,31.099440999999999,0 86.196342000000001,31.067789000000001,0 86.188676000000001,31.025248000000001,0 86.194685000000007,31.003872000000001,0 86.230118000000004,30.98152,0 86.277776000000003,30.959066,0 86.315695000000005,30.953037999999999,0 86.31756,30.925422999999999,0 86.331442999999993,30.894687000000001,0 86.331236000000004,30.846423000000001,0 86.343667999999994,30.816343,0 86.339938000000004,30.794433999999999,0 86.357343999999998,30.785668999999999,0 86.377028999999993,30.748750000000001,0 86.396091999999996,30.744171000000001,0 86.400236000000007,30.722538,0 86.424272000000002,30.700803000000001,0 86.407903000000005,30.670190000000002,0 86.410596999999996,30.634007,0 86.428623999999999,30.608642,0 86.414947999999995,30.594882999999999,0 86.440849,30.560428999999999,0 86.427588,30.526060999999999,0 86.439813000000001,30.500668000000001,0 86.429452999999995,30.481227000000001,0 86.468407999999997,30.469991,0 86.532642999999993,30.482399999999998,0 86.530362999999994,30.460121999999998,0 86.548597999999998,30.439207,0 86.571597999999994,30.396974,0 86.581750999999997,30.391009,0 86.607860000000002,30.408805000000001,0 86.576363999999998,30.417311000000002,0 86.556264999999996,30.444779,0 86.640390999999994,30.426988999999999,0 86.641634999999994,30.444680999999999,0 86.659869,30.463249000000001,0 86.686391999999998,30.451913000000001,0 86.718924000000001,30.451815,0 86.695301999999998,30.472434,0 86.677274999999995,30.52694,0 86.706283999999997,30.547152000000001,0 86.727005000000005,30.550179,0 86.740472999999994,30.520788,0 86.780878999999999,30.521470999999998,0 86.786266999999995,30.548324000000001,0 86.809060000000002,30.533190000000001,0 86.858168000000006,30.568335999999999,0 86.876609999999999,30.544516000000002,0 86.904996999999995,30.541978,0 86.925096999999994,30.51483,0 86.941466000000005,30.509263000000001,0 86.943745000000007,30.533190000000001,0 86.931520000000006,30.603470000000002,0 86.923646000000005,30.609617,0 86.896294999999995,30.581903000000001,0 86.854023999999995,30.582294000000001,0 86.853402000000003,30.595566000000002,0 86.872879999999995,30.602298999999999,0 86.883448000000001,30.627569000000001,0 86.880340000000004,30.649222999999999,0 86.901681999999994,30.658975999999999,0 86.905411999999998,30.697976000000001,0 86.897952000000004,30.729067000000001,0 86.861069000000001,30.726534000000001,0 86.862312000000003,30.663558999999999,0 86.871430000000004,30.64893,0 86.820042000000001,30.648443,0 86.784194999999997,30.664144,0 86.765338,30.684619999999999,0 86.804293999999999,30.689397,0 86.808437999999995,30.702947000000002,0 86.794555000000003,30.722636000000001,0 86.797870000000003,30.740371,0 86.781707999999995,30.773786999999999,0 86.766166999999996,30.775053,0 86.736536000000001,30.818874000000001,0 86.735708000000002,30.831334999999999,0 86.819419999999994,30.895562999999999,0 86.864176999999998,30.897119,0 86.918465999999995,30.929119,0 86.976692,30.919976999999999,0 86.960528999999994,30.916962000000002,0 86.941672999999994,30.894297999999999,0 86.950169000000002,30.837565000000001,0 86.932349000000002,30.819652999999999,0 86.910385000000005,30.785571999999998,0 86.869771999999998,30.767163,0 86.864592000000002,30.756056999999998,0 86.886970000000005,30.739007000000001,0 86.893394000000001,30.753036999999999,0 86.922196,30.752939999999999,0 86.952448000000004,30.765604,0 86.976899000000003,30.793071000000001,0 87.008187000000007,30.805243000000001,0 87.019170000000003,30.852067999999999,0 87.023313999999999,30.893812,0 87.050044,30.904026000000002,0 87.069728999999995,30.934078,0 87.101224000000002,30.935537,0 87.119252000000003,30.922699999999999,0 87.124431999999999,30.906165999999999,0 87.127746999999999,30.847688000000002,0 87.100809999999996,30.7957,0 87.114900000000006,30.766189000000001,0 87.137279000000007,30.737838,0 87.168360000000007,30.710744999999999,0 87.172297,30.632543999999999,0 87.160279000000003,30.615470999999999,0 87.159036,30.584928999999999,0 87.180584999999994,30.561406000000002,0 87.181207000000001,30.549690999999999,0 87.211667000000006,30.566286000000002,0 87.247100000000003,30.547737999999999,0 87.292893000000007,30.541195999999999,0 87.335577999999998,30.545003999999999,0 87.367487999999994,30.529088000000002,0 87.371838999999994,30.547249999999998,0 87.386137000000005,30.556426999999999,0 87.422190999999998,30.542856,0 87.442082999999997,30.552229000000001,0 87.453064999999995,30.54393,0 87.472956999999994,30.551545999999998,0 87.485596999999999,30.534165999999999,0 87.504868000000002,30.532018000000001,0 87.487668999999997,30.504770000000001,0 87.531598000000002,30.477906000000001,0 87.524552,30.450545000000002,0 87.509219000000002,30.430899,0 87.538228000000004,30.422101000000001,0 87.527660999999995,30.395996,0 87.540092999999999,30.380056,0 87.561020999999997,30.383673999999999,0 87.577597999999995,30.367145000000001,0 87.591481000000002,30.380056,0 87.626913999999999,30.376828,0 87.665040000000005,30.350418000000001,0 87.699021999999999,30.354624000000001,0 87.731347,30.334861,0 87.748338000000004,30.332121999999998,0 87.809258,30.385629999999999,0 87.821897000000007,30.370470999999998,0 87.860853000000006,30.393062,0 87.882401999999999,30.371351000000001,0 87.927367000000004,30.365970999999998,0 87.961764000000002,30.382207000000001,0 88.001132999999996,30.378589000000002,0 88.006106000000003,30.365482,0 88.036152000000001,30.356971999999999,0 88.058115999999998,30.374188,0 88.082151999999994,30.376144,0 88.111160999999996,30.314605,0 88.117791999999994,30.276038,0 88.146387000000004,30.273982,0 88.187207000000001,30.257042999999999,0 88.201296999999997,30.224526999999998,0 88.214973000000001,30.218747,0 88.250820000000004,30.232068999999999,0 88.273199000000005,30.220510000000001,0 88.304280000000006,30.259392999999999,0 88.341785000000002,30.260470000000002,0 88.391307999999995,30.252341999999999,0 88.412029000000004,30.243528000000001,0 88.419903000000005,30.215906,0 88.443110000000004,30.212477,0 88.469010999999995,30.198761000000001,0 88.482686999999999,30.174752000000002,0 88.481029000000007,30.147698999999999,0 88.469633000000002,30.134954,0 88.472327000000007,30.1175,0 88.464659999999995,30.085723000000002,0 88.475228000000001,30.069144000000001,0 88.518119999999996,30.050305000000002,0 88.538841000000005,30.066199999999998,0 88.541120000000006,30.098965,0 88.566813999999994,30.119167000000001,0 88.568679000000003,30.146129999999999,0 88.608463,30.15907,0 88.636229,30.193567999999999,0 88.646174999999999,30.220607999999999,0 88.694040000000001,30.229227999999999,0 88.792050000000003,30.219237,0 88.806139999999999,30.207089,0 88.860428999999996,30.202876,0 88.859808000000001,30.222078,0 88.873276000000004,30.230305999999999,0 88.889230999999995,30.219531,0 88.910781,30.223939000000001,0 88.949115000000006,30.196017000000001,0 88.966520000000003,30.227074000000002,0 88.993043,30.232852999999999,0 89.010448999999994,30.260764000000002,0 89.040287000000006,30.254203,0 89.104521000000005,30.252146,0 89.107837000000004,30.267226000000001,0 89.139539999999997,30.290723,0 89.157359999999997,30.28201,0 89.165233999999998,30.294540000000001,0 89.201701999999997,30.311278000000001,0 89.208332999999996,30.285143000000001,0 89.248324999999994,30.261448999999999,0 89.285415,30.266442999999999,0 89.302612999999994,30.277996000000002,0 89.318154000000007,30.274961000000001,0 89.346749000000003,30.240981999999999,0 89.368298999999993,30.229130999999999,0 89.399794,30.227563,0 89.417199999999994,30.253909,0 89.432326000000003,30.259197,0 89.483714000000006,30.251950999999998,0 89.496146999999993,30.254888000000001,0 89.534687000000005,30.236965999999999,0 89.552921999999995,30.21669,0 89.573849999999993,30.227170999999998,0 89.579858999999999,30.240197999999999,0 89.612391000000002,30.213456999999998,0 89.659220000000005,30.205423,0 89.684914000000006,30.222958999999999,0 89.700661999999994,30.220217000000002,0 89.70232,30.192882000000001,0 89.718688999999998,30.159853999999999,0 89.760959999999997,30.168088000000001,0 89.776915000000002,30.185140000000001,0 89.813383999999999,30.15662,0 89.830788999999996,30.131522,0 89.817321000000007,30.100435999999998,0 89.830788999999996,30.059135999999999,0 89.869743999999997,30.045397999999999,0 89.879276000000004,30.032149,0 89.883835000000005,29.994060999999999,0 89.899168000000003,29.975304999999999,0 89.918024000000003,29.972456999999999,0 89.945790000000002,29.954877,0 89.974592000000001,29.960868000000001,0 89.986818,29.948098999999999,0 90.033647000000002,29.938963000000001,0 90.069907999999998,29.953206999999999,0 90.083999000000006,29.985223000000001,0 90.082133999999996,30.014775,0 90.117773999999997,30.015561000000002,0 90.122124999999997,30.042748,0 90.158800999999997,30.094159000000001,0 90.163151999999997,30.122011000000001,0 90.196719999999999,30.144953999999998,0 90.194855000000004,30.168970000000002,0 90.218891999999997,30.186903999999998,0 90.228009,30.250482000000002,0 90.251424,30.283086999999998,0 90.291829000000007,30.289940000000001,0 90.320631000000006,30.300218000000001,0 90.349847999999994,30.299434999999999,0 90.370982999999995,30.280933000000001,0 90.394604999999999,30.283479,0 90.404758000000001,30.305699000000001,0 90.398748999999995,30.335155,0 90.410973999999996,30.349146000000001,0 90.447443000000007,30.362058999999999,0 90.450344000000001,30.384848000000002,0 90.481010999999995,30.374285,0 90.518101999999999,30.404502999999998,0 90.557057,30.40157,0 90.626265000000004,30.458362999999999,0 90.654651999999999,30.46921,0 90.636831999999998,30.489530999999999,0 90.596840999999998,30.572534000000001,0 90.656310000000005,30.740857999999999,0 90.688012999999998,30.814492999999999,0 90.707697999999993,30.881844999999998,0 90.718266,30.905484999999999,0 90.720337999999998,30.949732999999998,0 90.748311000000001,30.978895999999999,0 90.756185000000002,31.012422999999998,0 90.797419000000005,31.024179,0 90.832644999999999,31.015823999999999,0 90.878853000000007,30.988226999999998,0 90.909934000000007,31.022722000000002,0 90.940393999999998,31.013297999999999,0 90.983286000000007,30.967328999999999,0 90.982249999999993,30.937384000000002,0 90.997169,30.931550000000001,0 91.018304000000001,30.945357999999999,0 91.007114999999999,30.922408000000001,0 91.080881000000005,30.881844999999998,0 91.107611000000006,30.893519999999999,0 91.123981000000001,30.92163,0 91.105538999999993,30.933202999999999,0 91.144701999999995,30.946427,0 91.161277999999996,30.963052000000001,0 91.124601999999996,30.981715000000001,0 91.107819000000006,31.020876000000001,0 91.115278000000004,31.040402,0 91.135377000000005,31.050697,0 91.149052999999995,31.035544999999999,0 91.174125000000004,31.032242,0 91.191945000000004,31.019807,0 91.241054000000005,31.038944999999998,0 91.270062999999993,31.034865,0 91.280215999999996,31.055845000000001,0 91.347144999999998,31.041373,0 91.342172000000005,31.032727999999999,0 91.351082000000005,30.997653,0 91.369523999999998,30.986865999999999,0 91.370351999999997,30.916865000000001,0 91.384856999999997,30.899843000000001,0 91.380713,30.863551999999999,0 91.393974,30.825396999999999,0 91.426919999999996,30.796187,0 91.436037999999996,30.755472999999999,0 91.428578000000002,30.705189000000001,0 91.459659000000002,30.702752,0 91.488253999999998,30.691834,0 91.504417000000004,30.656635000000001,0 91.548137999999994,30.651076,0 91.573210000000003,30.655660000000001,0 91.622525999999993,30.674382999999999,0 91.661895999999999,30.699828,0 91.692769999999996,30.702265000000001,0 91.738562999999999,30.728287999999999,0 91.746644000000003,30.70402,0 91.741257000000004,30.684229999999999,0 91.755554000000004,30.653417000000001,0 91.823725999999994,30.621714999999998,0 91.878428999999997,30.558672000000001,0 91.903915999999995,30.51444,0 91.860816,30.503402999999999,0 91.818130999999994,30.486601,0 91.812535999999994,30.463542,0 91.791607999999997,30.463737999999999,0 91.793059,30.445463,0 91.810463999999996,30.430508,0 91.834293000000002,30.439696000000001,0 91.853770999999995,30.430313000000002,0 91.844447000000002,30.414182,0 91.854600000000005,30.380447,0 91.846933000000007,30.362058999999999,0 91.850662999999997,30.317345,0 91.859365999999994,30.284849000000001,0 91.893348000000003,30.290429,0 91.928158999999994,30.279464999999998,0 91.922978999999998,30.253516999999999,0 91.951988,30.235007,0 91.959862000000001,30.185531999999998,0 91.981618999999995,30.184650000000001,0 91.998195999999993,30.200915999999999,0 92.039845,30.194939000000002,0 92.077349999999996,30.218942999999999,0 92.139304999999993,30.200524000000001,0 92.150701999999995,30.214338999999999,0 92.172872999999996,30.213359000000001,0 92.196494999999999,30.283674000000001,0 92.211620999999994,30.293071999999999,0 92.222396000000003,30.315681999999999,0 92.237314999999995,30.315681999999999,0 92.273784000000006,30.298749000000001,0 92.295333999999997,30.267716,0 92.356046000000006,30.251460999999999,0 92.365577000000002,30.267128,0 92.403497000000002,30.265758000000002,0 92.470218000000003,30.243039,0 92.513938999999993,30.236477000000001,0 92.564498,30.24343,0 92.592056999999997,30.235693000000001,0 92.616714999999999,30.219335000000001,0 92.623966999999993,30.226192000000001,0 92.621065999999999,30.256259,0 92.626245999999995,30.282205999999999,0 92.619201000000004,30.301196000000001,0 92.640957999999998,30.306090000000001,0 92.662093999999996,30.293562000000001,0 92.708301000000006,30.294540000000001,0 92.710166000000001,30.314703000000002,0 92.695869000000002,30.327914,0 92.709130000000002,30.335840000000001,0 92.743734000000003,30.323315000000001,0 92.750157000000002,30.327228999999999,0 92.744147999999996,30.358439000000001,0 92.769428000000005,30.400884999999999,0 92.779580999999993,30.402253999999999,0 92.794292999999996,30.439892,0 92.786212000000006,30.456603999999999,0 92.764039999999994,30.472629000000001,0 92.783933000000005,30.519030000000001,0 92.793049999999994,30.527916999999999,0 92.841121999999999,30.541294000000001,0 92.875726,30.532799000000001,0 92.888159000000002,30.568629000000001,0 92.887123000000003,30.596152,0 92.897276000000005,30.60669,0 92.918617999999995,30.608349,0 92.974772000000002,30.578389999999999,0 92.987412000000006,30.593615,0 93.024294999999995,30.584147999999999,0 93.021394000000001,30.530650999999999,0 93.024709000000001,30.510923999999999,0 93.036727999999997,30.502718999999999,0 93.083349999999996,30.490704000000001,0 93.094538999999997,30.480837000000001,0 93.093917000000005,30.46022,0 93.111737000000005,30.448492999999999,0 93.130799999999994,30.412911000000001,0 93.148827999999995,30.404601,0 93.183846000000003,30.436665999999999,0 93.216171000000003,30.453085999999999,0 93.242901000000003,30.474584,0 93.246837999999997,30.494807000000002,0 93.274189000000007,30.496369999999999,0 93.310658000000004,30.469503,0 93.359352000000001,30.469795999999999,0 93.429596000000004,30.407924999999999,0 93.424001000000004,30.387976999999999,0 93.40701,30.381132000000001,0 93.408253000000002,30.348362999999999,0 93.437883999999997,30.326934999999999,0 93.515379999999993,30.30198,0 93.535273000000004,30.304328999999999,0 93.554957000000002,30.290037999999999,0 93.611525,30.285240999999999,0 93.631209999999996,30.301000999999999,0 93.650065999999995,30.304818000000001,0 93.669336999999999,30.28436,0 93.732327999999995,30.294443000000001,0 93.767139,30.279171000000002,0 93.783923000000001,30.296498,0 93.807959999999994,30.305796999999998,0 93.846914999999996,30.299043000000001,0 93.858519000000001,30.330359999999999,0 93.878411,30.333002,0 93.957149999999999,30.299533,0 94.000249999999994,30.297281000000002,0 94.014546999999993,30.306384000000001,0 94.010817000000003,30.326837999999999,0 94.024493000000007,30.368026,0 94.049357999999998,30.366558000000001,0 94.063034000000002,30.378882000000001,0 94.088521,30.379176000000001,0 94.106548000000004,30.389541999999999,0 94.110692,30.423273999999999,0 94.099917000000005,30.455919999999999,0 94.151304999999994,30.480250000000002,0 94.154206000000002,30.486893999999999,0 94.098466999999999,30.50731,0 94.103233000000003,30.519908999999998,0 94.064070000000001,30.530650999999999,0 94.022835000000001,30.564236999999999,0 94.017655000000005,30.576339999999998,0 93.999005999999994,30.572241000000002,0 93.977457000000001,30.601226,0 93.961916000000002,30.606788000000002,0 93.940573000000001,30.600249999999999,0 93.908041999999995,30.625423000000001,0 93.862247999999994,30.619568999999998,0 93.853960000000001,30.635178,0 93.821014000000005,30.666191999999999,0 93.790139999999994,30.664826999999999,0 93.785167000000001,30.691932000000001,0 93.736265000000003,30.723804999999999,0 93.713887,30.749627,0 93.679903999999993,30.756350000000001,0 93.674723999999998,30.771740999999999,0 93.702697000000001,30.805146000000001,0 93.681354999999996,30.852457000000001,0 93.655660999999995,30.857517999999999,0 93.614633999999995,30.853332999999999,0 93.598678000000007,30.870072,0 93.640535,30.898869999999999,0 93.650273999999996,30.921533,0 93.699797000000004,30.931258,0 93.711399999999998,30.921824999999998,0 93.738129999999998,30.918129,0 93.751391999999996,30.905874000000001,0 93.788895999999994,30.897604999999999,0 93.825365000000005,30.904512,0 93.855618000000007,30.904219999999999,0 93.864320000000006,30.887877,0 93.894366000000005,30.879899000000002,0 93.921096000000006,30.843990000000002,0 93.963988000000001,30.838442000000001,0 93.988231999999996,30.856252999999999,0 93.993825999999999,30.879607,0 94.015789999999996,30.872018000000001,0 94.065106,30.871725999999999,0 94.108412999999999,30.864135999999998,0 94.148819000000003,30.849537999999999,0 94.171403999999995,30.853235999999999,0 94.194197000000003,30.868611999999999,0 94.246414000000001,30.871337,0 94.263819999999996,30.856252999999999,0 94.298423,30.847007000000001,0 94.322252000000006,30.851192000000001,0 94.344631000000007,30.917058999999998,0 94.320802,30.932231000000002,0 94.305053999999998,30.977730000000001,0 94.266720000000007,31.019321000000001,0 94.256773999999993,31.074197999999999,0 94.214504000000005,31.098663999999999,0 94.248693000000003,31.191907,0 94.294694000000007,31.215178999999999,0 94.283711999999994,31.248331,0 94.285784000000007,31.268875999999999,0 94.301531999999995,31.294647999999999,0 94.298215999999996,31.313148999999999,0 94.346288999999999,31.296876000000001,0 94.365559000000005,31.300847999999998,0 94.374675999999994,31.320412999999999,0 94.398713000000001,31.328741000000001,0 94.392495999999994,31.349269,0 94.419019000000006,31.348977999999999,0 94.449271999999993,31.339877000000001,0 94.482425000000006,31.350721,0 94.501902999999999,31.392246,0 94.530497999999994,31.410824000000002,0 94.548524999999998,31.414985000000001,0 94.562614999999994,31.430367,0 94.592659999999995,31.435784000000002,0 94.6053,31.413824000000002,0 94.583749999999995,31.393407,0 94.580021000000002,31.377147999999998,0 94.597841000000003,31.361177000000001,0 94.602605999999994,31.332712000000001,0 94.618976000000004,31.314893000000001,0 94.657724000000002,31.313343,0 94.693364000000003,31.326900999999999,0 94.709112000000005,31.342395,0 94.741022000000001,31.357013999999999,0 94.761121000000003,31.359434,0 94.770238000000006,31.335229000000002,0 94.742886999999996,31.312180999999999,0 94.743508000000006,31.292711000000001,0 94.720301000000006,31.245521,0 94.717607000000001,31.168434999999999,0 94.733770000000007,31.114874,0 94.772931999999997,31.078956000000002,0 94.794689000000005,31.082840000000001,0 94.811266000000003,31.072158999999999,0 94.816653000000002,31.094004000000002,0 94.831571999999994,31.097207999999998,0 94.831571999999994,31.117979999999999,0 94.852500000000006,31.112545000000001,0 94.867418999999998,31.124093999999999,0 94.905959999999993,31.125064999999999,0 94.926266999999996,31.136320999999999,0 94.934348,31.155920999999999,0 94.965014999999994,31.154271000000001,0 94.977239999999995,31.140688000000001,0 95.015159999999995,31.157181999999999,0 95.036088000000007,31.159607000000001,0 95.047691,31.187639000000001,0 95.033186999999998,31.19821,0 95.011843999999996,31.228266999999999,0 95.003556000000003,31.260833000000002,0 94.986356999999998,31.274884,0 94.982834999999994,31.291936,0 94.992987999999997,31.314311,0 94.977239999999995,31.336100999999999,0 94.973095999999998,31.358369,0 94.947609,31.378599999999999,0 94.926060000000007,31.369695,0 94.886482999999998,31.394955,0 94.870941999999999,31.413049999999998,0 94.879644999999996,31.439748999999999,0 94.905131999999995,31.463733999999999,0 94.912384000000003,31.489742,0 94.892285000000001,31.536809999999999,0 94.847112999999993,31.555553,0 94.782464000000004,31.557677999999999,0 94.765680000000003,31.564053999999999,0 94.752832999999995,31.607607999999999,0 94.763401000000002,31.615525000000002,0 94.751382000000007,31.639849999999999,0 94.715120999999996,31.647378,0 94.684867999999994,31.638788999999999,0 94.686526000000001,31.678159000000001,0 94.723616000000007,31.685395,0 94.738534999999999,31.707194999999999,0 94.766508999999999,31.709990999999999,0 94.773554000000004,31.723009999999999,0 94.761536000000007,31.785284000000001,0 94.752832999999995,31.798003000000001,0 94.721543999999994,31.811876999999999,0 94.661454000000006,31.828253,0 94.651508000000007,31.846454999999999,0 94.647570999999999,31.883427999999999,0 94.673057,31.897576999999998,0 94.671813999999998,31.953288000000001,0 94.655859000000007,31.990891000000001,0 94.688184000000007,32.032803000000001,0 94.689220000000006,32.047122000000002,0 94.660624999999996,32.056538000000003,0 94.664562000000004,32.082861000000001,0 94.646119999999996,32.100053000000003,0 94.650471999999993,32.152856999999997,0 94.668498999999997,32.211962,0 94.707661000000002,32.242458999999997,0 94.742679999999993,32.260100000000001,0 94.748896000000002,32.308788,0 94.760914,32.341838000000003,0 94.745994999999994,32.345478,0 94.720301000000006,32.366163999999998,0 94.685490000000001,32.408095000000003,0 94.690877,32.423693999999998,0 94.683625000000006,32.447519,0 94.650264000000007,32.460911000000003,0 94.697094000000007,32.467416,0 94.714292,32.501747000000002,0 94.739571999999995,32.493619000000002,0 94.741643999999994,32.517999000000003,0 94.759463999999994,32.529373999999997,0</coordinates></LinearRing></outerBoundaryIs></Polygon><Polygon><outerBoundaryIs><LinearRing><coordinates>86.123611999999994,30.967328999999999,0 86.099990000000005,31.057884000000001,0 86.073260000000005,31.067012999999999,0 86.053782999999996,31.056426999999999,0 86.041764000000001,31.064779000000001,0 85.983332000000004,31.068760999999999,0 85.961574999999996,31.078081999999998,0 85.940854000000002,31.073616000000001,0 85.915367000000003,31.079733000000001,0 85.871024000000006,31.067207,0 85.855690999999993,31.070799999999998,0 85.842222000000007,31.039625000000001,0 85.827095999999997,31.04147,0 85.786276000000001,31.021166999999998,0 85.771771000000001,31.008634000000001,0 85.760166999999996,30.951775000000001,0 85.791248999999993,30.951483,0 85.847402000000002,30.941856999999999,0 85.896511000000004,30.921921999999999,0 85.931736000000001,30.926687000000001,0 85.937952999999993,30.899940000000001,0 85.950177999999994,30.894590000000001,0 85.944376000000005,30.864913999999999,0 85.922205000000005,30.866178999999999,0 85.908529000000001,30.884471999999999,0 85.862735999999998,30.868320000000001,0 85.874960999999999,30.862676,0 85.900862000000004,30.832698000000001,0 85.913708999999997,30.808748000000001,0 85.901070000000004,30.783137,0 85.826888999999994,30.797160999999999,0 85.820880000000002,30.781967999999999,0 85.860456999999997,30.751477999999999,0 85.872889000000001,30.759564000000001,0 85.948312999999999,30.767455000000002,0 85.941061000000005,30.747872999999998,0 85.959087999999994,30.741540000000001,0 85.980222999999995,30.753135,0 85.993278000000004,30.744561000000001,0 86.015242000000001,30.774467999999999,0 86.028088999999994,30.781383999999999,0 86.023323000000005,30.820139999999999,0 86.037413000000001,30.835132000000002,0 86.063107000000002,30.828317999999999,0 86.077404000000001,30.843308,0 86.077612000000002,30.862579,0 86.090250999999995,30.868514999999999,0 86.067458000000002,30.897119,0 86.101647999999997,30.905874000000001,0 86.123611999999994,30.967328999999999,0</coordinates></LinearRing></outerBoundaryIs></Polygon></MultiGeometry></Placemark>
</Document>
</kml>