<?xml version="1.0" encoding="UTF-8"?>
<kml xmlns="http://www.opengis.net/kml/2.2">
<Document>
<name>乐东黎族自治县</name>
<Placemark><name>乐东黎族自治县</name><MultiGeometry><Polygon><outerBoundaryIs><LinearRing><coordinates>109.405146000000002,18.623443000000002,0 109.408016000000003,18.627732999999999,0 109.398109000000005,18.671104,0 109.356628000000001,18.710653000000001,0 109.353386999999998,18.812895999999999,0 109.374590999999995,18.853998000000001,0 109.343108999999998,18.877162999999999,0 109.326350000000005,18.926338000000001,0 109.348479999999995,18.946321000000001,0 109.298203000000001,18.960910999999999,0 109.265518,18.905877,0 109.206721999999999,18.894772,0 109.141816000000006,18.904449,0 109.125242,18.878432,0 109.094965000000002,18.857012000000001,0 109.071076000000005,18.807499,0 109.015151000000003,18.808928000000002,0 108.987003000000001,18.786546999999999,0 108.928578000000002,18.790198,0 108.844412000000005,18.750827000000001,0 108.811449999999994,18.720022,0 108.761543000000003,18.732091,0 108.659784999999999,18.716846,0 108.664136999999997,18.673328000000001,0 108.641081999999997,18.565279,0 108.644970999999998,18.486740999999999,0 108.658304000000001,18.462727999999998,0 108.709969999999998,18.444119000000001,0 108.776728000000006,18.442050999999999,0 108.881264000000002,18.416599000000001,0 108.932373999999996,18.335287999999998,0 109.015242999999998,18.422644999999999,0 109.072557000000003,18.452231000000001,0 109.195148000000003,18.469407,0 109.185056000000003,18.507095,0 109.203574000000003,18.553516999999999,0 109.246537000000004,18.558921000000002,0 109.313294999999997,18.517429,0 109.332831999999996,18.575451000000001,0 109.405146000000002,18.623443000000002,0</coordinates></LinearRing></outerBoundaryIs></Polygon></MultiGeometry></Placemark>
</Document>
</kml>