<?xml version="1.0" encoding="UTF-8"?>
<kml xmlns="http://www.opengis.net/kml/2.2">
<Document>
<name>保亭黎族苗族自治县</name>
<Placemark><name>保亭黎族苗族自治县</name><MultiGeometry><Polygon><outerBoundaryIs><LinearRing><coordinates>109.715418999999997,18.833686,0 109.689216000000002,18.830036,0 109.681531000000007,18.786071,0 109.703012000000001,18.721768999999998,0 109.641808999999995,18.723040000000001,0 109.619865000000004,18.678252000000001,0 109.576717000000002,18.714782,0 109.533662000000007,18.694295,0 109.539866000000004,18.659507999999999,0 109.488569999999996,18.646640000000001,0 109.448293000000007,18.655377999999999,0 109.408016000000003,18.627732999999999,0 109.405146000000002,18.623443000000002,0 109.423385999999994,18.574656999999998,0 109.506163000000001,18.551290999999999,0 109.535236999999995,18.531420000000001,0 109.536996000000002,18.490717,0 109.515607000000003,18.429008,0 109.539866000000004,18.396712999999998,0 109.665882999999994,18.391462000000001,0 109.710881999999998,18.426462000000001,0 109.725234,18.493102,0 109.781159000000002,18.51107,0 109.828750999999997,18.511229,0 109.846620999999999,18.571159999999999,0 109.804676999999998,18.594363999999999,0 109.839676999999995,18.678570000000001,0 109.802177,18.725263000000002,0 109.771992999999995,18.723675,0 109.756158999999997,18.788927999999999,0 109.773473999999993,18.809404000000001,0 109.715418999999997,18.833686,0</coordinates></LinearRing></outerBoundaryIs></Polygon></MultiGeometry></Placemark>
</Document>
</kml>