<?xml version="1.0" encoding="UTF-8"?>
<kml xmlns="http://www.opengis.net/kml/2.2">
<Document>
<name>儋州市</name>
<Placemark><name>儋州市</name><MultiGeometry><Polygon><outerBoundaryIs><LinearRing><coordinates>108.928670999999994,19.524312999999999,0 108.939595999999995,19.497287,0 108.982743999999997,19.477212999999999,0 108.997372999999996,19.431522000000001,0 109.044780000000003,19.430415,0 109.051446999999996,19.487803,0 109.117557000000005,19.467569999999998,0 109.130520000000004,19.479583999999999,0 109.178388999999996,19.399262,0 109.267740000000003,19.376802999999999,0 109.318943000000004,19.398154999999999,0 109.384034999999997,19.355447999999999,0 109.424404999999993,19.354814999999999,0 109.457274999999996,19.399419999999999,0 109.483847999999995,19.406063,0 109.506348000000003,19.359560999999999,0 109.468385999999995,19.301178,0 109.541624999999996,19.311938999999999,0 109.587365000000005,19.243248999999999,0 109.611994999999993,19.252589,0 109.634030999999993,19.202559999999998,0 109.673105000000007,19.207626999999999,0 109.686993999999999,19.178965000000002,0 109.706807999999995,19.22156,0 109.697271000000001,19.271267000000002,0 109.713381999999996,19.309881000000001,0 109.700233999999995,19.349436000000001,0 109.647272000000001,19.357505,0 109.646439000000001,19.402425000000001,0 109.737734000000003,19.407485999999999,0 109.751992999999999,19.416974,0 109.728196999999994,19.496023000000001,0 109.760047999999998,19.528894999999999,0 109.769400000000005,19.578507999999999,0 109.709307999999993,19.577559999999998,0 109.659402,19.611048,0 109.664215999999996,19.629684999999998,0 109.582920999999999,19.637581000000001,0 109.557366000000002,19.697420999999999,0 109.599401999999998,19.730726000000001,0 109.569218000000006,19.797947000000001,0 109.564588000000001,19.854887999999999,0 109.498662999999993,19.873339000000001,0 109.410793999999996,19.895256,0 109.349591000000004,19.898724000000001,0 109.308109999999999,19.9178,0 109.264591999999993,19.90503,0 109.255611000000002,19.867189,0 109.218574000000004,19.855834000000002,0 109.159130000000005,19.790689,0 109.169500999999997,19.736723999999999,0 109.147649000000001,19.704998,0 109.093667999999994,19.689844000000001,0 109.048575999999997,19.620051,0 108.993392,19.586722999999999,0 108.928670999999994,19.524312999999999,0</coordinates></LinearRing></outerBoundaryIs></Polygon></MultiGeometry></Placemark>
</Document>
</kml>