<?xml version="1.0" encoding="UTF-8"?>
<kml xmlns="http://www.opengis.net/kml/2.2">
<Document>
<name>昌江黎族自治县</name>
<Placemark><name>昌江黎族自治县</name><MultiGeometry><Polygon><outerBoundaryIs><LinearRing><coordinates>109.044780000000003,19.430415,0 108.997372999999996,19.431522000000001,0 108.982743999999997,19.477212999999999,0 108.939595999999995,19.497287,0 108.928670999999994,19.524312999999999,0 108.887004000000005,19.489699999999999,0 108.806357000000006,19.450654,0 108.747653999999997,19.391670999999999,0 108.694136999999998,19.387084000000002,0 108.644784999999999,19.349278000000002,0 108.704136000000005,19.262719000000001,0 108.783765000000002,19.244674,0 108.833208999999997,19.259869999999999,0 108.916171000000006,19.218551999999999,0 108.954874000000004,19.218869000000002,0 108.991910000000004,19.13034,0 109.022929000000005,19.107051999999999,0 109.008762000000004,19.050004999999999,0 109.098853000000005,19.028290999999999,0 109.113668000000004,18.969949,0 109.089778999999993,18.909842000000001,0 109.125242,18.878432,0 109.141816000000006,18.904449,0 109.206721999999999,18.894772,0 109.265518,18.905877,0 109.298203000000001,18.960910999999999,0 109.271165999999994,19.067437999999999,0 109.177092999999999,19.083442999999999,0 109.163667000000004,19.142219999999998,0 109.120242000000005,19.203984999999999,0 109.142833999999993,19.265726999999998,0 109.082650000000001,19.328869000000001,0 109.043668999999994,19.342791999999999,0 109.044780000000003,19.430415,0</coordinates></LinearRing></outerBoundaryIs></Polygon></MultiGeometry></Placemark>
</Document>
</kml>