<?xml version="1.0" encoding="UTF-8"?>
<kml xmlns="http://www.opengis.net/kml/2.2">
  <Document>
    <name>白沙黎族自治县</name>
    <Placemark>
      <name>白沙黎族自治县</name>
      <Polygon><outerBoundaryIs><LinearRing><coordinates>109.298203000000,18.960911000000,0 109.348480000000,18.946321000000,0 109.367739000000,18.936171000000,0 109.424775000000,18.990403000000,0 109.456349000000,18.995635000000,0 109.468386000000,19.032254000000,0 109.524033000000,19.030986000000,0 109.561347000000,19.072668000000,0 109.601439000000,19.053492000000,0 109.613569000000,19.086454000000,0 109.687734000000,19.118775000000,0 109.686994000000,19.178965000000,0 109.673105000000,19.207627000000,0 109.634031000000,19.202560000000,0 109.611995000000,19.252589000000,0 109.587365000000,19.243249000000,0 109.541625000000,19.311939000000,0 109.468386000000,19.301178000000,0 109.506348000000,19.359561000000,0 109.483848000000,19.406063000000,0 109.457275000000,19.399420000000,0 109.424405000000,19.354815000000,0 109.384035000000,19.355448000000,0 109.318943000000,19.398155000000,0 109.267740000000,19.376803000000,0 109.178389000000,19.399262000000,0 109.130520000000,19.479584000000,0 109.117557000000,19.467570000000,0 109.051447000000,19.487803000000,0 109.044780000000,19.430415000000,0 109.043669000000,19.342792000000,0 109.082650000000,19.328869000000,0 109.142834000000,19.265727000000,0 109.120242000000,19.203985000000,0 109.163667000000,19.142220000000,0 109.177093000000,19.083443000000,0 109.271166000000,19.067438000000,0 109.298203000000,18.960911000000,0</coordinates></LinearRing></outerBoundaryIs></Polygon>
    </Placemark>
  </Document>
</kml>
