<?xml version="1.0" encoding="UTF-8"?>
<kml xmlns="http://www.opengis.net/kml/2.2">
  <Document>
    <name><![CDATA[乐山市]]></name>
    <Placemark>
      <name><![CDATA[乐山市]]></name>
      <description><![CDATA[省级目录：四川省]]></description>
      <ExtendedData>
        <Data name="adcode"><value>511100</value></Data>
      </ExtendedData>
      <MultiGeometry>
      <Polygon>
        <outerBoundaryIs><LinearRing><coordinates>104.17685,29.195745,0 104.150645,29.194157,0 104.150981,29.22726,0 104.14359,29.256844,0 104.118393,29.236454,0 104.109658,29.241886,0 104.116377,29.263946,0 104.14639,29.283829,0 104.139447,29.307467,0 104.09174,29.315317,0 104.07651,29.323584,0 104.083229,29.348298,0 104.105626,29.338864,0 104.135415,29.338781,0 104.142022,29.355644,0 104.163412,29.364158,0 104.160836,29.379933,0 104.141126,29.374508,0 104.134967,29.399043,0 104.133175,29.39946,0 104.132503,29.399627,0 104.131272,29.400378,0 104.100811,29.382186,0 104.090172,29.391616,0 104.0923,29.416397,0 104.105962,29.414895,0 104.098347,29.437168,0 104.058256,29.425907,0 104.052656,29.456684,0 104.064191,29.472361,0 104.08838,29.461687,0 104.128472,29.498289,0 104.14919,29.472277,0 104.150309,29.472027,0 104.166324,29.495955,0 104.165988,29.496538,0 104.151093,29.52221,0 104.135079,29.52096,0 104.160948,29.541876,0 104.166884,29.55729,0 104.139895,29.589693,0 104.16722,29.597854,0 104.182226,29.633407,0 104.212239,29.61251,0 104.251098,29.623084,0 104.249754,29.636154,0 104.240347,29.64323,0 104.228477,29.676187,0 104.203727,29.665702,0 104.187489,29.686339,0 104.191297,29.705058,0 104.157477,29.716371,0 104.152885,29.707304,0 104.12612,29.717452,0 104.116937,29.733421,0 104.089388,29.743733,0 104.062623,29.777821,0 104.088716,29.813643,0 104.069231,29.828517,0 104.043809,29.830677,0 104.05624,29.84696,0 104.050081,29.868473,0 104.003606,29.869968,0 103.982888,29.8502,0 103.967658,29.85643,0 103.951084,29.841727,0 103.962395,29.827603,0 103.927678,29.825526,0 103.934622,29.804668,0 103.903265,29.783391,0 103.912784,29.775826,0 103.893522,29.742486,0 103.85623,29.746976,0 103.842344,29.731093,0 103.822522,29.73076,0 103.799229,29.714042,0 103.765073,29.706555,0 103.755442,29.720197,0 103.7317,29.721944,0 103.704711,29.714375,0 103.705607,29.737247,0 103.688025,29.759365,0 103.703368,29.771587,0 103.747267,29.789957,0 103.741107,29.811067,0 103.728789,29.816053,0 103.729125,29.849286,0 103.692729,29.898866,0 103.676715,29.90393,0 103.677834,29.919621,0 103.648158,29.92817,0 103.64211,29.91796,0 103.607954,29.909244,0 103.590484,29.91904,0 103.590484,29.902021,0 103.571782,29.895462,0 103.584661,29.880847,0 103.558008,29.868058,0 103.513885,29.87902,0 103.533595,29.860666,0 103.533371,29.84156,0 103.518028,29.843388,0 103.485776,29.814807,0 103.464386,29.82162,0 103.432918,29.820623,0 103.430566,29.787879,0 103.439413,29.770922,0 103.416904,29.774829,0 103.394058,29.805416,0 103.38062,29.792617,0 103.359118,29.799516,0 103.333473,29.794196,0 103.315667,29.771753,0 103.315779,29.741488,0 103.299429,29.727516,0 103.304356,29.706389,0 103.295957,29.694409,0 103.303684,29.677935,0 103.321826,29.683094,0 103.337057,29.672776,0 103.352959,29.698735,0 103.361694,29.661791,0 103.337281,29.651803,0 103.338737,29.63424,0 103.298869,29.599853,0 103.267848,29.596105,0 103.2702,29.573701,0 103.256426,29.55679,0 103.27132,29.53221,0 103.259673,29.511375,0 103.294166,29.506874,0 103.277703,29.485617,0 103.258889,29.478447,0 103.204464,29.483867,0 103.186434,29.474278,0 103.18005,29.430161,0 103.157541,29.425573,0 103.126968,29.440421,0 103.090012,29.425573,0 103.054736,29.446009,0 103.014869,29.448011,0 102.983512,29.418483,0 102.975449,29.397791,0 102.998519,29.368332,0 102.980377,29.340367,0 102.979817,29.320578,0 103.003894,29.287171,0 103.031779,29.27982,0 103.02002,29.250744,0 102.962795,29.250828,0 102.974553,29.222162,0 102.944877,29.19006,0 102.928639,29.127332,0 102.931326,29.112941,0 102.970074,29.065068,0 102.957755,29.052008,0 102.922143,29.037941,0 102.909041,29.021612,0 102.913632,28.999918,0 102.942413,28.944115,0 102.946221,28.920058,0 102.928079,28.896415,0 102.941741,28.860521,0 102.926287,28.820168,0 102.925279,28.801873,0 102.944205,28.76645,0 102.938157,28.740001,0 102.962571,28.681118,0 102.990904,28.672379,0 102.996503,28.679941,0 103.032451,28.665824,0 103.051265,28.66969,0 103.066047,28.688511,0 103.070527,28.73681,0 103.107482,28.771907,0 103.112522,28.812364,0 103.153957,28.82923,0 103.189905,28.827887,0 103.225069,28.803971,0 103.23862,28.813538,0 103.270984,28.805986,0 103.3085,28.761749,0 103.334817,28.743108,0 103.333585,28.721861,0 103.31074,28.702037,0 103.30626,28.681958,0 103.287334,28.655319,0 103.272776,28.613121,0 103.242875,28.59336,0 103.246571,28.549791,0 103.253962,28.541209,0 103.287782,28.533048,0 103.299541,28.521604,0 103.313875,28.485581,0 103.339968,28.443483,0 103.35699,28.440872,0 103.370205,28.423354,0 103.388347,28.420659,0 103.43303,28.452915,0 103.441541,28.477331,0 103.438629,28.500059,0 103.421831,28.511506,0 103.42967,28.531786,0 103.479057,28.547099,0 103.504142,28.560306,0 103.531803,28.597649,0 103.530571,28.612196,0 103.560696,28.606899,0 103.585893,28.614886,0 103.61389,28.597313,0 103.614562,28.613373,0 103.636623,28.624134,0 103.685674,28.63481,0 103.722853,28.687923,0 103.724869,28.717577,0 103.71591,28.73849,0 103.7018,28.746719,0 103.712775,28.757299,0 103.746483,28.764016,0 103.76944,28.799355,0 103.761041,28.815888,0 103.788478,28.822433,0 103.803708,28.83611,0 103.830473,28.845338,0 103.851079,28.832166,0 103.914912,28.776273,0 103.938317,28.764268,0 103.956459,28.787521,0 103.979977,28.792137,0 104.003494,28.853475,0 104.024996,28.84408,0 104.034402,28.855908,0 104.030483,28.884843,0 104.084685,28.914441,0 104.076174,28.920897,0 104.061839,28.965401,0 104.072478,28.967496,0 104.107082,28.95082,0 104.122985,28.963976,0 104.121641,28.998243,0 104.139671,29.024543,0 104.142358,29.070593,0 104.161732,29.117041,0 104.175395,29.129591,0 104.167891,29.15042,0 104.194097,29.163719,0 104.174835,29.183789,0 104.17685,29.195745,0</coordinates></LinearRing></outerBoundaryIs>
      </Polygon>
      <Polygon>
        <outerBoundaryIs><LinearRing><coordinates>104.131272,29.400378,0 104.132503,29.399627,0 104.133175,29.39946,0 104.134967,29.399043,0 104.131272,29.400378,0</coordinates></LinearRing></outerBoundaryIs>
      </Polygon>
    </MultiGeometry>
    </Placemark>
  </Document>
</kml>
