<?xml version="1.0" encoding="UTF-8"?>
<kml xmlns="http://www.opengis.net/kml/2.2">
  <Document>
    <name><![CDATA[南充市]]></name>
    <Placemark>
      <name><![CDATA[南充市]]></name>
      <description><![CDATA[省级目录：四川省]]></description>
      <ExtendedData>
        <Data name="adcode"><value>511300</value></Data>
      </ExtendedData>
      <MultiGeometry>
      <Polygon>
        <outerBoundaryIs><LinearRing><coordinates>106.964778,31.250802,0 106.947532,31.263656,0 106.94574,31.264802,0 106.964442,31.291077,0 106.944172,31.288949,0 106.934317,31.309081,0 106.946748,31.328963,0 106.917855,31.377464,0 106.864549,31.400683,0 106.883251,31.420873,0 106.871268,31.426512,0 106.846071,31.456909,0 106.842151,31.503139,0 106.815498,31.515142,0 106.821098,31.547877,0 106.787166,31.531307,0 106.766224,31.537592,0 106.7688,31.5673,0 106.722101,31.563383,0 106.718965,31.571952,0 106.693656,31.56118,0 106.673386,31.569177,0 106.647517,31.591125,0 106.632175,31.567056,0 106.644942,31.544694,0 106.626464,31.510814,0 106.607874,31.50665,0 106.566886,31.518244,0 106.566438,31.545755,0 106.536986,31.572033,0 106.516604,31.575052,0 106.492079,31.567382,0 106.484016,31.584517,0 106.460722,31.586312,0 106.456803,31.633049,0 106.438661,31.655715,0 106.412568,31.65702,0 106.400025,31.681229,0 106.366429,31.696632,0 106.382667,31.720423,0 106.378747,31.732969,0 106.405288,31.725637,0 106.40764,31.755204,0 106.42455,31.755448,0 106.406632,31.777026,0 106.39577,31.805681,0 106.384235,31.801693,0 106.361277,31.846287,0 106.33552,31.848484,0 106.327345,31.829689,0 106.310435,31.825539,0 106.292293,31.80739,0 106.270456,31.810972,0 106.275271,31.79689,0 106.262057,31.773851,0 106.24817,31.7824,0 106.211326,31.770757,0 106.194528,31.785901,0 106.199232,31.818622,0 106.188481,31.821796,0 106.153765,31.806576,0 106.138646,31.811297,0 106.130359,31.829282,0 106.110538,31.790785,0 106.12364,31.792006,0 106.128568,31.767174,0 106.111993,31.758543,0 106.10225,31.73248,0 106.068318,31.708447,0 106.078061,31.697202,0 106.048385,31.698098,0 106.032482,31.687586,0 106.007173,31.684734,0 105.977496,31.662482,0 105.958235,31.672426,0 105.925086,31.664764,0 105.929902,31.649193,0 105.910528,31.625791,0 105.881635,31.648052,0 105.885779,31.630521,0 105.865285,31.614781,0 105.845799,31.632559,0 105.838072,31.65115,0 105.847143,31.667047,0 105.817914,31.66778,0 105.816011,31.677643,0 105.780735,31.712684,0 105.76864,31.735412,0 105.749378,31.718794,0 105.726085,31.726615,0 105.723845,31.663623,0 105.69932,31.649845,0 105.684649,31.608908,0 105.657884,31.601975,0 105.653517,31.61372,0 105.633247,31.60067,0 105.639518,31.587617,0 105.622496,31.58419,0 105.618353,31.55359,0 105.60805,31.551631,0 105.599203,31.581009,0 105.579493,31.565668,0 105.53537,31.564771,0 105.529771,31.574644,0 105.498414,31.574155,0 105.493711,31.551468,0 105.494047,31.551631,0 105.495055,31.550652,0 105.494719,31.550326,0 105.459219,31.52698,0 105.462802,31.498974,0 105.441973,31.480517,0 105.458211,31.474717,0 105.471313,31.485826,0 105.501662,31.454866,0 105.486992,31.443918,0 105.481168,31.424224,0 105.49875,31.402482,0 105.524059,31.391364,0 105.533018,31.401582,0 105.551048,31.392753,0 105.56863,31.403136,0 105.57255,31.382043,0 105.591252,31.39725,0 105.612193,31.39635,0 105.620928,31.406651,0 105.641646,31.394797,0 105.64243,31.371168,0 105.629775,31.345896,0 105.606482,31.339598,0 105.609058,31.325527,0 105.594163,31.299834,0 105.599091,31.288704,0 105.616673,31.295579,0 105.637615,31.283548,0 105.647805,31.257598,0 105.674682,31.249492,0 105.674346,31.171757,0 105.707047,31.169216,0 105.721381,31.150366,0 105.716678,31.130365,0 105.726197,31.110769,0 105.712198,31.09691,0 105.721717,31.084197,0 105.708727,31.071237,0 105.714102,31.039321,0 105.686665,31.016341,0 105.663372,31.01749,0 105.65822,30.999923,0 105.633807,31.003289,0 105.613873,30.991303,0 105.618689,30.977591,0 105.643438,30.948025,0 105.6599,30.942275,0 105.65934,30.918697,0 105.691705,30.933896,0 105.705927,30.910152,0 105.73202,30.905714,0 105.744899,30.879086,0 105.730564,30.876784,0 105.755761,30.841267,0 105.784318,30.823832,0 105.796749,30.800883,0 105.782302,30.785086,0 105.792941,30.759906,0 105.792717,30.711418,0 105.813771,30.651372,0 105.809067,30.625333,0 105.82329,30.621953,0 105.82385,30.602995,0 105.85431,30.565728,0 105.871332,30.562182,0 105.877492,30.547419,0 105.862821,30.51244,0 105.846807,30.491645,0 105.860246,30.48496,0 105.867413,30.497092,0 105.884099,30.496266,0 105.885331,30.458875,0 105.917807,30.466966,0 105.916351,30.469442,0 105.910528,30.480668,0 105.917023,30.490407,0 105.923966,30.49313,0 105.927102,30.494038,0 105.915791,30.508974,0 105.934045,30.516731,0 105.945692,30.501383,0 105.954203,30.514255,0 105.970665,30.477119,0 105.980856,30.488344,0 106.024755,30.482071,0 106.028003,30.505261,0 106.039426,30.518216,0 106.066638,30.491727,0 106.093851,30.504189,0 106.112777,30.503198,0 106.123192,30.544449,0 106.157796,30.598049,0 106.180194,30.595658,0 106.192176,30.612969,0 106.178962,30.620058,0 106.166643,30.648324,0 106.217822,30.677652,0 106.225773,30.695196,0 106.237531,30.687454,0 106.238091,30.706807,0 106.217486,30.704666,0 106.207631,30.722863,0 106.250746,30.719323,0 106.286806,30.70516,0 106.300468,30.686218,0 106.354558,30.722122,0 106.366877,30.712736,0 106.364301,30.697337,0 106.38905,30.679876,0 106.403609,30.695525,0 106.423094,30.693219,0 106.420855,30.708207,0 106.441124,30.727144,0 106.448068,30.753321,0 106.466546,30.760893,0 106.487599,30.787966,0 106.507757,30.784511,0 106.506301,30.762869,0 106.528923,30.732496,0 106.542809,30.743033,0 106.587604,30.73974,0 106.584244,30.756861,0 106.618401,30.766572,0 106.626464,30.789365,0 106.616497,30.801705,0 106.617281,30.82778,0 106.629599,30.821036,0 106.675178,30.838882,0 106.675514,30.867084,0 106.689177,30.883606,0 106.666443,30.909987,0 106.678986,30.922887,0 106.707207,30.915903,0 106.723221,30.946629,0 106.740467,30.951147,0 106.73162,30.973649,0 106.771487,30.96864,0 106.784814,30.972336,0 106.78739,30.995901,0 106.803292,30.993684,0 106.819754,31.011662,0 106.830505,31.05286,0 106.86914,31.081163,0 106.894786,31.08756,0 106.909008,31.107653,0 106.935325,31.116591,0 106.931965,31.133726,0 106.951003,31.161267,0 106.938349,31.1761,0 106.939917,31.207151,0 106.958282,31.228283,0 106.964778,31.250802,0</coordinates></LinearRing></outerBoundaryIs>
      </Polygon>
      <Polygon>
        <outerBoundaryIs><LinearRing><coordinates>105.927102,30.494038,0 105.923966,30.49313,0 105.917023,30.490407,0 105.910528,30.480668,0 105.916351,30.469442,0 105.917807,30.466966,0 105.948828,30.494368,0 105.927102,30.494038,0</coordinates></LinearRing></outerBoundaryIs>
      </Polygon>
      <Polygon>
        <outerBoundaryIs><LinearRing><coordinates>105.494047,31.551631,0 105.493711,31.551468,0 105.494719,31.550326,0 105.495055,31.550652,0 105.494047,31.551631,0</coordinates></LinearRing></outerBoundaryIs>
      </Polygon>
    </MultiGeometry>
    </Placemark>
  </Document>
</kml>
