<?xml version="1.0" encoding="UTF-8"?>
<kml xmlns="http://www.opengis.net/kml/2.2">
  <Document>
    <name><![CDATA[自贡市]]></name>
    <Placemark>
      <name><![CDATA[自贡市]]></name>
      <description><![CDATA[省级目录：四川省]]></description>
      <ExtendedData>
        <Data name="adcode"><value>510300</value></Data>
      </ExtendedData>
      <MultiGeometry>
      <Polygon>
        <outerBoundaryIs><LinearRing><coordinates>104.17685,29.195745,0 104.195888,29.220657,0 104.191409,29.235869,0 104.23262,29.205861,0 104.256026,29.212298,0 104.265433,29.231857,0 104.249082,29.261356,0 104.284582,29.259601,0 104.298805,29.245647,0 104.323218,29.2408,0 104.368685,29.247652,0 104.380332,29.238376,0 104.411688,29.245479,0 104.417735,29.236454,0 104.442597,29.238543,0 104.434646,29.220908,0 104.460963,29.221827,0 104.46589,29.207366,0 104.509453,29.155522,0 104.540922,29.143394,0 104.580117,29.164639,0 104.596355,29.190394,0 104.62424,29.207282,0 104.649325,29.198588,0 104.691993,29.19934,0 104.692329,29.177099,0 104.680346,29.15569,0 104.697816,29.118212,0 104.714614,29.122396,0 104.73018,29.106498,0 104.737236,29.078796,0 104.713718,29.06105,0 104.705207,29.045477,0 104.720214,28.996651,0 104.744067,28.990369,0 104.76512,28.998746,0 104.796701,29.000086,0 104.811931,28.990704,0 104.819546,29.001761,0 104.85751,29.003436,0 104.861542,29.019685,0 104.879684,29.024291,0 104.881475,29.050836,0 104.902529,29.047738,0 104.941837,29.058873,0 104.944636,29.021277,0 104.969722,29.015749,0 104.986296,28.991541,0 105.00511,28.989866,0 105.017316,28.972104,0 105.073758,28.936404,0 105.111162,28.933722,0 105.126952,28.945288,0 105.145094,28.942271,0 105.162116,28.947467,0 105.167715,28.92995,0 105.201871,28.929279,0 105.205007,28.951825,0 105.217214,28.95568,0 105.225837,28.934644,0 105.244763,28.937745,0 105.254282,28.9271,0 105.267608,28.939086,0 105.239723,28.956937,0 105.267384,28.979561,0 105.269288,29.009719,0 105.234348,29.026636,0 105.214974,29.016168,0 105.187873,29.027306,0 105.188769,29.056613,0 105.207359,29.070258,0 105.250138,29.119969,0 105.244987,29.135196,0 105.271752,29.160123,0 105.256521,29.17526,0 105.266936,29.188638,0 105.23558,29.215475,0 105.217998,29.20561,0 105.195488,29.222078,0 105.203999,29.23963,0 105.160548,29.262776,0 105.134903,29.257429,0 105.113961,29.284999,0 105.120121,29.302205,0 105.108922,29.315568,0 105.072526,29.336359,0 105.063679,29.364659,0 105.035346,29.382937,0 105.046881,29.408721,0 105.079469,29.406886,0 105.084285,29.42232,0 105.063119,29.442923,0 105.067823,29.454349,0 105.044305,29.480865,0 105.030643,29.472527,0 105.04061,29.461938,0 105.020564,29.454432,0 105.026947,29.439587,0 104.993127,29.438669,0 104.961882,29.416647,0 104.937133,29.445425,0 104.917647,29.434332,0 104.871957,29.459019,0 104.873972,29.47086,0 104.848775,29.467858,0 104.833657,29.430495,0 104.808796,29.457018,0 104.786398,29.457518,0 104.777327,29.448177,0 104.750786,29.453598,0 104.741155,29.432414,0 104.751458,29.402631,0 104.766128,29.406469,0 104.759969,29.374759,0 104.738132,29.381936,0 104.745411,29.36324,0 104.710919,29.361404,0 104.704423,29.372255,0 104.674299,29.38227,0 104.673403,29.398709,0 104.652461,29.411141,0 104.619761,29.444758,0 104.587956,29.422987,0 104.569814,29.441172,0 104.558728,29.431913,0 104.543945,29.441005,0 104.535658,29.418566,0 104.510013,29.456767,0 104.53465,29.456601,0 104.529611,29.518876,0 104.501726,29.549958,0 104.482912,29.562872,0 104.493551,29.582613,0 104.488847,29.601435,0 104.474065,29.609262,0 104.442933,29.600102,0 104.421767,29.616423,0 104.39489,29.621002,0 104.381787,29.607264,0 104.383579,29.584196,0 104.340688,29.565704,0 104.334193,29.583113,0 104.309332,29.607347,0 104.280551,29.613925,0 104.269576,29.632491,0 104.249754,29.636154,0 104.251098,29.623084,0 104.212239,29.61251,0 104.182226,29.633407,0 104.16722,29.597854,0 104.139895,29.589693,0 104.166884,29.55729,0 104.160948,29.541876,0 104.135079,29.52096,0 104.151093,29.52221,0 104.165988,29.496538,0 104.16666,29.496455,0 104.16666,29.496371,0 104.166324,29.495955,0 104.150309,29.472027,0 104.149526,29.47061,0 104.14919,29.470776,0 104.14919,29.472277,0 104.128472,29.498289,0 104.08838,29.461687,0 104.064191,29.472361,0 104.052656,29.456684,0 104.058256,29.425907,0 104.098347,29.437168,0 104.105962,29.414895,0 104.0923,29.416397,0 104.090172,29.391616,0 104.100811,29.382186,0 104.131272,29.400378,0 104.134967,29.399043,0 104.141126,29.374508,0 104.160836,29.379933,0 104.163412,29.364158,0 104.142022,29.355644,0 104.135415,29.338781,0 104.105626,29.338864,0 104.083229,29.348298,0 104.07651,29.323584,0 104.09174,29.315317,0 104.139447,29.307467,0 104.14639,29.283829,0 104.116377,29.263946,0 104.109658,29.241886,0 104.118393,29.236454,0 104.14359,29.256844,0 104.150981,29.22726,0 104.150645,29.194157,0 104.17685,29.195745,0</coordinates></LinearRing></outerBoundaryIs>
      </Polygon>
      <Polygon>
        <outerBoundaryIs><LinearRing><coordinates>104.150309,29.472027,0 104.14919,29.472277,0 104.14919,29.470776,0 104.149526,29.47061,0 104.150309,29.472027,0</coordinates></LinearRing></outerBoundaryIs>
      </Polygon>
      <Polygon>
        <outerBoundaryIs><LinearRing><coordinates>104.16666,29.496455,0 104.165988,29.496538,0 104.166324,29.495955,0 104.16666,29.496371,0 104.16666,29.496455,0</coordinates></LinearRing></outerBoundaryIs>
      </Polygon>
    </MultiGeometry>
    </Placemark>
  </Document>
</kml>
