<?xml version="1.0" encoding="UTF-8"?>
<kml xmlns="http://www.opengis.net/kml/2.2">
  <Document>
    <name><![CDATA[遂宁市]]></name>
    <Placemark>
      <name><![CDATA[遂宁市]]></name>
      <description><![CDATA[省级目录：四川省]]></description>
      <ExtendedData>
        <Data name="adcode"><value>510900</value></Data>
      </ExtendedData>
      <MultiGeometry>
      <Polygon>
        <outerBoundaryIs><LinearRing><coordinates>105.066927,30.53587,0 105.059983,30.522753,0 105.084173,30.494616,0 105.076558,30.481741,0 105.090444,30.459536,0 105.090108,30.442363,0 105.075214,30.44228,0 105.075102,30.442115,0 105.074766,30.44195,0 105.074206,30.441785,0 105.073758,30.44195,0 105.073646,30.442115,0 105.068942,30.432949,0 105.090444,30.425682,0 105.080141,30.412385,0 105.079917,30.411724,0 105.07387,30.403133,0 105.093692,30.395947,0 105.097275,30.396194,0 105.100635,30.38562,0 105.101419,30.385455,0 105.126056,30.341491,0 105.151365,30.341987,0 105.157412,30.323388,0 105.197056,30.310738,0 105.198064,30.311813,0 105.198176,30.311813,0 105.19784,30.309994,0 105.218894,30.30586,0 105.221805,30.287171,0 105.258313,30.280307,0 105.263913,30.287915,0 105.328305,30.303297,0 105.343088,30.298087,0 105.35843,30.308093,0 105.368845,30.278404,0 105.380379,30.276916,0 105.411064,30.295606,0 105.425958,30.259876,0 105.444996,30.265997,0 105.480944,30.238696,0 105.4824,30.223222,0 105.521036,30.202613,0 105.529323,30.21958,0 105.547129,30.212711,0 105.557544,30.195826,0 105.558887,30.185561,0 105.561463,30.183656,0 105.579941,30.173473,0 105.595171,30.183656,0 105.64243,30.186388,0 105.655421,30.220822,0 105.636271,30.219746,0 105.619473,30.234641,0 105.625072,30.27584,0 105.667179,30.265666,0 105.670651,30.254085,0 105.723845,30.254747,0 105.734932,30.276998,0 105.71175,30.282209,0 105.714774,30.322809,0 105.741875,30.319833,0 105.735044,30.336697,0 105.756209,30.347112,0 105.751842,30.357112,0 105.769536,30.375292,0 105.760241,30.384546,0 105.77032,30.403959,0 105.78275,30.403133,0 105.791709,30.425434,0 105.818026,30.437243,0 105.846695,30.410733,0 105.846247,30.392394,0 105.873796,30.408668,0 105.899441,30.405612,0 105.901569,30.386363,0 105.917023,30.395947,0 105.940877,30.372317,0 105.967978,30.379258,0 105.992055,30.369177,0 106.00079,30.376283,0 105.987239,30.394047,0 105.989815,30.41255,0 105.9794,30.427581,0 105.963834,30.424691,0 105.948268,30.441619,0 105.950172,30.452931,0 105.971225,30.456151,0 105.970665,30.477119,0 105.954203,30.514255,0 105.945692,30.501383,0 105.934045,30.516731,0 105.915791,30.508974,0 105.927102,30.494038,0 105.948828,30.494368,0 105.917807,30.466966,0 105.885331,30.458875,0 105.884099,30.496266,0 105.867413,30.497092,0 105.860246,30.48496,0 105.846807,30.491645,0 105.862821,30.51244,0 105.877492,30.547419,0 105.871332,30.562182,0 105.85431,30.565728,0 105.82385,30.602995,0 105.82329,30.621953,0 105.809067,30.625333,0 105.813771,30.651372,0 105.792717,30.711418,0 105.792941,30.759906,0 105.782302,30.785086,0 105.796749,30.800883,0 105.784318,30.823832,0 105.755761,30.841267,0 105.730564,30.876784,0 105.744899,30.879086,0 105.73202,30.905714,0 105.705927,30.910152,0 105.691705,30.933896,0 105.65934,30.918697,0 105.6599,30.942275,0 105.643438,30.948025,0 105.618689,30.977591,0 105.595843,30.972582,0 105.573334,30.98884,0 105.565831,31.011252,0 105.546009,31.013632,0 105.534362,31.027011,0 105.504462,31.026518,0 105.489903,31.035874,0 105.474225,31.06369,0 105.453955,31.060162,0 105.42831,31.075749,0 105.410728,31.07255,0 105.389338,31.112081,0 105.381275,31.152907,0 105.35395,31.160611,0 105.344431,31.125938,0 105.296837,31.106341,0 105.241179,31.101831,0 105.223933,31.107653,0 105.193248,31.08592,0 105.199968,31.075995,0 105.189889,31.054993,0 105.174771,31.045967,0 105.194704,30.992042,0 105.193808,30.964698,0 105.177346,30.960181,0 105.208815,30.906207,0 105.194256,30.897003,0 105.200192,30.886154,0 105.228636,30.877359,0 105.232332,30.846283,0 105.260441,30.822845,0 105.271976,30.751428,0 105.248682,30.739164,0 105.243979,30.726074,0 105.215198,30.734718,0 105.168723,30.706395,0 105.174547,30.697666,0 105.161108,30.672545,0 105.146998,30.669168,0 105.142742,30.653185,0 105.153829,30.640249,0 105.130088,30.624756,0 105.117657,30.602913,0 105.094812,30.584198,0 105.079021,30.543129,0 105.066927,30.53587,0</coordinates></LinearRing></outerBoundaryIs>
      </Polygon>
      <Polygon>
        <outerBoundaryIs><LinearRing><coordinates>105.093916,30.395616,0 105.094364,30.396277,0 105.094364,30.396277,0 105.093804,30.395864,0 105.093916,30.395616,0</coordinates></LinearRing></outerBoundaryIs>
      </Polygon>
      <Polygon>
        <outerBoundaryIs><LinearRing><coordinates>105.075102,30.442115,0 105.075214,30.44228,0 105.073646,30.442115,0 105.073758,30.44195,0 105.074206,30.441785,0 105.074766,30.44195,0 105.075102,30.442115,0</coordinates></LinearRing></outerBoundaryIs>
      </Polygon>
      <Polygon>
        <outerBoundaryIs><LinearRing><coordinates>105.198176,30.311813,0 105.198064,30.311813,0 105.197056,30.310738,0 105.19784,30.309994,0 105.198176,30.311813,0</coordinates></LinearRing></outerBoundaryIs>
      </Polygon>
    </MultiGeometry>
    </Placemark>
  </Document>
</kml>
