<?xml version="1.0" encoding="UTF-8"?>
<kml xmlns="http://www.opengis.net/kml/2.2">
  <Document>
    <name><![CDATA[阿坝藏族羌族自治州]]></name>
    <Placemark>
      <name><![CDATA[阿坝藏族羌族自治州]]></name>
      <description><![CDATA[省级目录：四川省]]></description>
      <ExtendedData>
        <Data name="adcode"><value>513200</value></Data>
      </ExtendedData>
      <MultiGeometry>
      <Polygon>
        <outerBoundaryIs><LinearRing><coordinates>100.667948,32.523674,0 100.659885,32.514871,0 100.622481,32.503645,0 100.634128,32.479329,0 100.612962,32.443207,0 100.594596,32.427768,0 100.562344,32.419441,0 100.537147,32.39397,0 100.530428,32.378199,0 100.537707,32.364529,0 100.52718,32.34592,0 100.531659,32.327066,0 100.553833,32.303998,0 100.552377,32.282219,0 100.573543,32.280438,0 100.588773,32.269101,0 100.58015,32.26076,0 100.599076,32.231518,0 100.629536,32.226819,0 100.638719,32.233057,0 100.666492,32.218554,0 100.682283,32.187516,0 100.72047,32.18322,0 100.726966,32.162547,0 100.692473,32.15598,0 100.698633,32.133436,0 100.717335,32.120377,0 100.730549,32.099772,0 100.762913,32.086628,0 100.766385,32.069017,0 100.785423,32.049131,0 100.799757,32.050105,0 100.785199,32.009751,0 100.803789,31.991883,0 100.828986,31.989608,0 100.834809,31.976529,0 100.869302,31.958167,0 100.880164,31.967024,0 100.950044,31.987496,0 100.962027,31.979698,0 100.990472,31.978885,0 101.01175,31.948984,0 100.991816,31.930616,0 100.98756,31.911269,0 100.998759,31.900374,0 100.992712,31.864835,0 100.952844,31.860524,0 100.938958,31.825295,0 100.916896,31.804949,0 100.862022,31.785819,0 100.852839,31.758705,0 100.869078,31.73753,0 100.898306,31.738182,0 100.933246,31.751132,0 100.952956,31.721808,0 100.964379,31.718224,0 100.968858,31.682044,0 101.016341,31.653351,0 101.024516,31.640877,0 101.063488,31.628319,0 101.050497,31.60638,0 101.053969,31.593246,0 101.074798,31.575705,0 101.061136,31.567545,0 101.05968,31.548693,0 101.07883,31.493503,0 101.0991,31.487132,0 101.107499,31.468999,0 101.144231,31.494973,0 101.185778,31.509508,0 101.202576,31.506405,0 101.221614,31.535143,0 101.241548,31.518244,0 101.264169,31.46418,0 101.263385,31.443509,0 101.245243,31.398967,0 101.257114,31.378609,0 101.285223,31.375665,0 101.301013,31.358655,0 101.32845,31.384823,0 101.336737,31.368878,0 101.354991,31.371004,0 101.390155,31.398803,0 101.405721,31.397495,0 101.415688,31.43689,0 101.449844,31.435011,0 101.464403,31.410492,0 101.456452,31.389728,0 101.429799,31.372149,0 101.426999,31.345651,0 101.43831,31.307035,0 101.452756,31.294351,0 101.46933,31.330681,0 101.447381,31.347778,0 101.475602,31.354239,0 101.481985,31.368469,0 101.54593,31.378691,0 101.563512,31.366997,0 101.573031,31.341397,0 101.610098,31.382206,0 101.628016,31.385313,0 101.685466,31.353012,0 101.691849,31.326918,0 101.708983,31.315709,0 101.715479,31.289195,0 101.765089,31.309572,0 101.763745,31.28232,0 101.78995,31.276999,0 101.814811,31.284939,0 101.836761,31.281747,0 101.858263,31.26603,0 101.863526,31.201171,0 101.87898,31.190193,0 101.884692,31.160939,0 101.910673,31.146104,0 101.929935,31.168888,0 101.97417,31.177083,0 101.985256,31.156349,0 102.013701,31.144628,0 102.02602,31.089037,0 102.034307,31.073288,0 102.078318,31.084033,0 102.1314,31.130693,0 102.154469,31.140612,0 102.172835,31.107161,0 102.163092,31.090103,0 102.168356,31.03292,0 102.163876,30.995983,0 102.178211,30.986952,0 102.194225,30.950161,0 102.188626,30.933732,0 102.200944,30.909905,0 102.170596,30.89577,0 102.163428,30.902016,0 102.112586,30.8984,0 102.087277,30.89051,0 102.065439,30.87103,0 102.069135,30.827533,0 102.066111,30.792491,0 102.03957,30.76328,0 102.070367,30.740728,0 102.057152,30.736118,0 102.039458,30.706642,0 102.054577,30.698984,0 102.047969,30.661671,0 102.066111,30.668591,0 102.104747,30.658128,0 102.114714,30.638106,0 102.148086,30.610579,0 102.177315,30.594504,0 102.184818,30.627887,0 102.227933,30.63687,0 102.246859,30.621459,0 102.2734,30.635634,0 102.273736,30.654091,0 102.296469,30.676087,0 102.316739,30.677899,0 102.348096,30.705901,0 102.391771,30.711995,0 102.447317,30.681853,0 102.477329,30.692972,0 102.475985,30.738999,0 102.469042,30.768712,0 102.493791,30.790352,0 102.52134,30.794548,0 102.532091,30.811659,0 102.56132,30.821036,0 102.590996,30.847845,0 102.667148,30.850723,0 102.679802,30.857629,0 102.686634,30.888045,0 102.708247,30.915493,0 102.75405,30.916396,0 102.801869,30.93595,0 102.828298,30.928721,0 102.852375,30.936772,0 102.875221,30.923298,0 102.889555,30.900784,0 102.889443,30.865851,0 102.863574,30.798332,0 102.897954,30.765255,0 102.962683,30.769699,0 102.992919,30.778339,0 103.037938,30.802364,0 103.083629,30.812728,0 103.123945,30.79282,0 103.165716,30.842171,0 103.199088,30.845707,0 103.228653,30.836579,0 103.25833,30.842418,0 103.284647,30.829589,0 103.305252,30.810507,0 103.337617,30.824655,0 103.354527,30.850887,0 103.383084,30.862891,0 103.409401,30.864946,0 103.451396,30.892565,0 103.454644,30.924695,0 103.465058,30.941536,0 103.516461,30.971761,0 103.52094,31.005095,0 103.517132,31.030129,0 103.504814,31.041044,0 103.521164,31.067792,0 103.525644,31.101092,0 103.557224,31.149055,0 103.564839,31.175034,0 103.583205,31.191422,0 103.57671,31.215834,0 103.581413,31.246626,0 103.569095,31.262019,0 103.579733,31.291241,0 103.569991,31.314563,0 103.569543,31.338453,0 103.60717,31.351295,0 103.627104,31.344097,0 103.669323,31.354812,0 103.700792,31.391118,0 103.739876,31.398885,0 103.75029,31.419156,0 103.787246,31.434439,0 103.802588,31.430108,0 103.795757,31.471777,0 103.84212,31.510896,0 103.857798,31.53849,0 103.898226,31.512856,0 103.915136,31.538409,0 103.907409,31.564444,0 103.923311,31.60328,0 103.917376,31.612089,0 103.928238,31.639572,0 103.962842,31.656612,0 103.989384,31.68237,0 104.016037,31.678539,0 104.040786,31.697691,0 104.085917,31.688075,0 104.09398,31.693535,0 104.103163,31.710321,0 104.142694,31.715454,0 104.147734,31.727104,0 104.171027,31.732317,0 104.169795,31.779876,0 104.152213,31.815855,0 104.132951,31.815936,0 104.127576,31.828712,0 104.080093,31.838639,0 104.061055,31.829038,0 104.046497,31.849297,0 104.030707,31.846938,0 104.01738,31.862232,0 103.975497,31.85605,0 103.957691,31.903545,0 103.920623,31.942239,0 103.886131,31.929234,0 103.876836,31.917854,0 103.845704,31.921187,0 103.817931,31.939801,0 103.763617,31.946384,0 103.754882,31.964342,0 103.758241,31.997894,0 103.795869,32.045965,0 103.817147,32.054732,0 103.824874,32.07056,0 103.811995,32.097987,0 103.82689,32.114375,0 103.826778,32.130354,0 103.855111,32.126704,0 103.850743,32.161331,0 103.897442,32.155736,0 103.922527,32.143087,0 103.938877,32.146817,0 103.974713,32.140897,0 103.994983,32.118917,0 104.048961,32.131408,0 104.100587,32.125001,0 104.129032,32.140248,0 104.152885,32.125893,0 104.142134,32.149655,0 104.156581,32.158899,0 104.158821,32.176491,0 104.18189,32.196593,0 104.221757,32.215394,0 104.257481,32.214746,0 104.247515,32.24942,0 104.209439,32.285053,0 104.211455,32.298412,0 104.182114,32.308936,0 104.159828,32.25995,0 104.162292,32.250473,0 104.135751,32.234677,0 104.131048,32.223011,0 104.075838,32.237513,0 104.066655,32.249258,0 104.033507,32.248691,0 104.022756,32.265214,0 103.981768,32.305617,0 103.960155,32.304564,0 103.921295,32.315411,0 103.898002,32.341227,0 103.904497,32.347053,0 103.889155,32.364852,0 103.914576,32.432699,0 103.902817,32.496617,0 103.906961,32.51051,0 103.84492,32.584058,0 103.853095,32.61367,0 103.877508,32.621333,0 103.890387,32.638997,0 103.922415,32.635771,0 103.993303,32.647788,0 104.007973,32.641578,0 104.035634,32.651578,0 104.065871,32.631013,0 104.068335,32.608426,0 104.084237,32.569127,0 104.129368,32.530457,0 104.132279,32.492094,0 104.0951,32.467694,0 104.144486,32.473754,0 104.162292,32.521332,0 104.174835,32.531345,0 104.168451,32.579377,0 104.177634,32.607054,0 104.182786,32.663431,0 104.155909,32.711473,0 104.130152,32.730327,0 104.146502,32.756589,0 104.121305,32.799911,0 104.108314,32.800635,0 104.101035,32.848201,0 104.079309,32.856971,0 104.068895,32.845224,0 104.035522,32.833073,0 104.032387,32.820357,0 104.004614,32.814159,0 103.971466,32.839671,0 103.994535,32.861154,0 103.993975,32.879334,0 103.958027,32.888422,0 103.952988,32.917451,0 103.965082,32.922114,0 103.959371,32.939879,0 103.978521,32.985602,0 103.973705,33.005122,0 103.986472,33.034674,0 104.013461,33.041258,0 104.069231,33.003114,0 104.113466,32.99982,0 104.158821,32.956998,0 104.195664,32.916888,0 104.217278,32.908767,0 104.220302,32.896143,0 104.247851,32.877564,0 104.277079,32.891317,0 104.28615,32.939075,0 104.305972,32.951533,0 104.345392,32.940361,0 104.378428,32.953221,0 104.383579,32.994278,0 104.426135,33.010744,0 104.421095,33.024235,0 104.391418,33.035477,0 104.360174,33.028411,0 104.337664,33.038287,0 104.367229,33.086768,0 104.360846,33.099285,0 104.377196,33.107067,0 104.374956,33.11918,0 104.350879,33.159038,0 104.328257,33.224118,0 104.329041,33.252956,0 104.303844,33.30452,0 104.336321,33.314205,0 104.349199,33.300678,0 104.39825,33.297316,0 104.393546,33.310924,0 104.420087,33.32709,0 104.367677,33.345014,0 104.328034,33.333092,0 104.295669,33.332852,0 104.270584,33.393325,0 104.242923,33.406998,0 104.22075,33.404599,0 104.221981,33.428741,0 104.213134,33.446884,0 104.18077,33.473092,0 104.156133,33.547118,0 104.168115,33.570981,0 104.17965,33.575689,0 104.168563,33.611749,0 104.103499,33.663499,0 104.05232,33.685258,0 104.013237,33.683265,0 103.966538,33.670434,0 103.926783,33.679679,0 103.861606,33.68215,0 103.800461,33.670194,0 103.778287,33.658875,0 103.689257,33.693386,0 103.667756,33.685816,0 103.667308,33.698566,0 103.64995,33.700159,0 103.669099,33.712429,0 103.651629,33.721351,0 103.644238,33.708525,0 103.633375,33.721829,0 103.598883,33.717846,0 103.563943,33.699601,0 103.552073,33.67147,0 103.520492,33.678563,0 103.545577,33.720396,0 103.549497,33.740308,0 103.531355,33.749069,0 103.54009,33.766746,0 103.518364,33.807102,0 103.506494,33.810126,0 103.464498,33.802407,0 103.431686,33.750741,0 103.349599,33.743494,0 103.320147,33.752095,0 103.279607,33.773593,0 103.284647,33.802009,0 103.24993,33.814026,0 103.228093,33.794846,0 103.203008,33.795403,0 103.161348,33.807182,0 103.153397,33.819118,0 103.18117,33.900717,0 103.171203,33.924403,0 103.134359,33.930363,0 103.123049,33.941567,0 103.123833,33.96818,0 103.139511,33.976123,0 103.157205,33.998756,0 103.147238,34.036543,0 103.119241,34.039558,0 103.130888,34.066934,0 103.170195,34.065744,0 103.178371,34.080341,0 103.149814,34.102867,0 103.135479,34.10025,0 103.121817,34.1127,0 103.13268,34.129033,0 103.124057,34.161849,0 103.100315,34.181896,0 103.071534,34.184907,0 103.050481,34.194731,0 103.03973,34.185779,0 103.005574,34.184907,0 102.973433,34.205424,0 102.980153,34.241298,0 102.956523,34.2694,0 102.939949,34.299946,0 102.913184,34.312446,0 102.879252,34.312129,0 102.86111,34.302398,0 102.856743,34.270667,0 102.806572,34.274703,0 102.783839,34.258081,0 102.777903,34.235676,0 102.731877,34.237498,0 102.701304,34.197662,0 102.6639,34.192513,0 102.647438,34.178331,0 102.650462,34.165573,0 102.625377,34.167475,0 102.598388,34.147741,0 102.641167,34.127051,0 102.655725,34.113493,0 102.660317,34.085101,0 102.649454,34.080024,0 102.61597,34.099695,0 102.585285,34.101043,0 102.5574,34.091526,0 102.516749,34.087401,0 102.46725,34.073916,0 102.438805,34.087401,0 102.417752,34.042177,0 102.39961,34.017731,0 102.391435,33.970802,0 102.350559,33.977394,0 102.345856,33.96969,0 102.32525,33.982159,0 102.310132,33.971675,0 102.316179,33.994071,0 102.287286,33.977553,0 102.277768,33.990021,0 102.25817,33.975647,0 102.241484,33.981524,0 102.238012,33.963653,0 102.202624,33.967068,0 102.198592,33.978347,0 102.1669,33.982874,0 102.136327,33.965242,0 102.205424,33.90493,0 102.233868,33.870187,0 102.253354,33.861518,0 102.261977,33.824847,0 102.237004,33.798746,0 102.238572,33.788877,0 102.300277,33.782349,0 102.324354,33.754563,0 102.322898,33.746043,0 102.295238,33.739034,0 102.284375,33.723423,0 102.301285,33.70988,0 102.325474,33.735291,0 102.3416,33.720873,0 102.328386,33.706294,0 102.313939,33.668839,0 102.333649,33.642053,0 102.344512,33.606883,0 102.386619,33.598747,0 102.410137,33.579439,0 102.440261,33.574811,0 102.454596,33.555179,0 102.477889,33.543446,0 102.474529,33.529635,0 102.445973,33.531152,0 102.461987,33.504323,0 102.4537,33.483636,0 102.462435,33.449681,0 102.442277,33.453117,0 102.434214,33.439451,0 102.403641,33.424585,0 102.396138,33.405319,0 102.367134,33.408996,0 102.370157,33.394125,0 102.347424,33.409716,0 102.31058,33.397963,0 102.300949,33.410915,0 102.277096,33.407637,0 102.263433,33.417151,0 102.261081,33.396363,0 102.238124,33.388607,0 102.219758,33.351494,0 102.186946,33.332772,0 102.205536,33.320128,0 102.202288,33.300998,0 102.217518,33.248151,0 102.203408,33.223317,0 102.174963,33.233652,0 102.15279,33.253117,0 102.144167,33.274418,0 102.111466,33.285628,0 102.108667,33.257762,0 102.089517,33.227563,0 102.089517,33.204968,0 102.055025,33.189981,0 102.010566,33.191745,0 101.993767,33.199999,0 101.957371,33.186695,0 101.935646,33.186855,0 101.923215,33.155831,0 101.884132,33.132495,0 101.86599,33.103056,0 101.825562,33.119501,0 101.840681,33.160401,0 101.841352,33.1891,0 101.82825,33.214984,0 101.797565,33.233011,0 101.788382,33.229006,0 101.767553,33.263368,0 101.8091,33.28835,0 101.823882,33.271215,0 101.832282,33.291712,0 101.858039,33.312044,0 101.876069,33.314125,0 101.875509,33.349334,0 101.886371,33.382369,0 101.914144,33.405878,0 101.915936,33.425784,0 101.946285,33.442808,0 101.924447,33.45,0 101.927359,33.472932,0 101.907425,33.480201,0 101.897906,33.519096,0 101.907201,33.542009,0 101.885252,33.56324,0 101.882004,33.57928,0 101.844376,33.602416,0 101.830826,33.578801,0 101.830266,33.554541,0 101.805964,33.548155,0 101.782335,33.556297,0 101.770016,33.545042,0 101.777856,33.533946,0 101.77584,33.492023,0 101.768785,33.465102,0 101.775952,33.453516,0 101.75949,33.444726,0 101.734516,33.445126,0 101.695769,33.433937,0 101.692969,33.422427,0 101.662733,33.38165,0 101.649294,33.324609,0 101.678187,33.297476,0 101.706744,33.298517,0 101.730933,33.283866,0 101.740452,33.269133,0 101.727573,33.2564,0 101.727461,33.240461,0 101.711111,33.213462,0 101.680651,33.202003,0 101.686698,33.185413,0 101.65411,33.162726,0 101.661165,33.136505,0 101.634176,33.102414,0 101.567095,33.154628,0 101.557576,33.167136,0 101.515469,33.193027,0 101.486464,33.227163,0 101.475937,33.223237,0 101.428231,33.230287,0 101.40337,33.22524,0 101.386795,33.207372,0 101.396202,33.187176,0 101.393851,33.157835,0 101.381196,33.154388,0 101.374477,33.171385,0 101.328898,33.223477,0 101.328674,33.237337,0 101.310532,33.244466,0 101.296982,33.262247,0 101.246251,33.262327,0 101.222734,33.270335,0 101.206944,33.255279,0 101.203248,33.269614,0 101.183538,33.270094,0 101.156997,33.237017,0 101.127881,33.223798,0 101.120377,33.186615,0 101.13348,33.1891,0 101.130568,33.168899,0 101.158677,33.144204,0 101.151174,33.132415,0 101.169652,33.101692,0 101.143223,33.08412,0 101.146582,33.056832,0 101.162149,33.056591,0 101.184434,33.041258,0 101.171332,33.013555,0 101.184098,32.984236,0 101.129112,32.989539,0 101.133704,32.947997,0 101.123961,32.910054,0 101.176259,32.894132,0 101.223854,32.855522,0 101.222622,32.838303,0 101.23774,32.827681,0 101.224414,32.771569,0 101.22307,32.725816,0 101.190146,32.686568,0 101.157445,32.661577,0 101.130232,32.660609,0 101.111866,32.637223,0 101.112874,32.671897,0 101.083981,32.671897,0 101.076702,32.683022,0 101.030563,32.660528,0 100.997191,32.627867,0 100.956876,32.62093,0 100.932126,32.60068,0 100.914768,32.616574,0 100.89797,32.615686,0 100.887555,32.632545,0 100.860679,32.635529,0 100.834026,32.648917,0 100.807037,32.646901,0 100.799645,32.654884,0 100.773552,32.640933,0 100.765825,32.663673,0 100.752051,32.65053,0 100.692025,32.677701,0 100.684746,32.67109,0 100.709271,32.649804,0 100.717559,32.617058,0 100.70412,32.611249,0 100.676347,32.627867,0 100.666156,32.624318,0 100.658653,32.599712,0 100.658093,32.546686,0 100.667948,32.523674,0</coordinates></LinearRing></outerBoundaryIs>
      </Polygon>
    </MultiGeometry>
    </Placemark>
  </Document>
</kml>
