<?xml version="1.0" encoding="UTF-8"?>
<kml xmlns="http://www.opengis.net/kml/2.2">
  <Document>
    <name>丽水市</name>
    <Placemark>
      <name>丽水市</name>
      <Polygon><outerBoundaryIs><LinearRing><coordinates>120.426713000000,28.831985000000,0 120.418101000000,28.851655000000,0 120.406881000000,28.845182000000,0 120.404715000000,28.853813000000,0 120.392954000000,28.847132000000,0 120.392855000000,28.834558000000,0 120.388475000000,28.829454000000,0 120.368446000000,28.838044000000,0 120.357914000000,28.839372000000,0 120.347284000000,28.858252000000,0 120.338278000000,28.860244000000,0 120.331388000000,28.868914000000,0 120.316428000000,28.876879000000,0 120.315394000000,28.887042000000,0 120.303239000000,28.892808000000,0 120.314312000000,28.919100000000,0 120.303977000000,28.931664000000,0 120.277894000000,28.930544000000,0 120.271004000000,28.950112000000,0 120.264951000000,28.938960000000,0 120.255453000000,28.931000000000,0 120.258603000000,28.927103000000,0 120.250729000000,28.913792000000,0 120.261752000000,28.911429000000,0 120.260719000000,28.865471000000,0 120.241821000000,28.857256000000,0 120.236506000000,28.844808000000,0 120.216526000000,28.832608000000,0 120.215148000000,28.825885000000,0 120.201860000000,28.810029000000,0 120.200335000000,28.801810000000,0 120.209341000000,28.795832000000,0 120.198858000000,28.783958000000,0 120.183553000000,28.785162000000,0 120.178435000000,28.775239000000,0 120.165344000000,28.774325000000,0 120.145561000000,28.784000000000,0 120.131437000000,28.759708000000,0 120.111309000000,28.762324000000,0 120.109882000000,28.767224000000,0 120.097037000000,28.768553000000,0 120.083946000000,28.787031000000,0 120.049202000000,28.763155000000,0 120.028976000000,28.758047000000,0 120.025679000000,28.764151000000,0 120.010669000000,28.772207000000,0 120.005304000000,28.780886000000,0 119.982421000000,28.796662000000,0 119.971643000000,28.794255000000,0 119.967607000000,28.787819000000,0 119.948562000000,28.787197000000,0 119.942164000000,28.793009000000,0 119.921298000000,28.796164000000,0 119.921003000000,28.784000000000,0 119.906731000000,28.768553000000,0 119.898070000000,28.750363000000,0 119.886751000000,28.744632000000,0 119.882371000000,28.749200000000,0 119.871790000000,28.742306000000,0 119.874448000000,28.735410000000,0 119.866180000000,28.718503000000,0 119.849644000000,28.716591000000,0 119.826367000000,28.695317000000,0 119.813867000000,28.686840000000,0 119.811751000000,28.653920000000,0 119.794969000000,28.632883000000,0 119.777252000000,28.630887000000,0 119.764949000000,28.638704000000,0 119.752449000000,28.635253000000,0 119.749398000000,28.622696000000,0 119.772725000000,28.608556000000,0 119.773955000000,28.603233000000,0 119.767065000000,28.588009000000,0 119.754122000000,28.592668000000,0 119.739900000000,28.591462000000,0 119.739309000000,28.584848000000,0 119.720461000000,28.565960000000,0 119.717705000000,28.553769000000,0 119.707813000000,28.545738000000,0 119.703581000000,28.533211000000,0 119.674742000000,28.530006000000,0 119.660224000000,28.539953000000,0 119.644722000000,28.541867000000,0 119.638276000000,28.528508000000,0 119.629171000000,28.525386000000,0 119.613374000000,28.527800000000,0 119.574201000000,28.523888000000,0 119.568492000000,28.532295000000,0 119.542458000000,28.532628000000,0 119.535175000000,28.543782000000,0 119.534880000000,28.555724000000,0 119.514653000000,28.561675000000,0 119.498413000000,28.548650000000,0 119.494427000000,28.554018000000,0 119.498068000000,28.584848000000,0 119.509879000000,28.603357000000,0 119.507911000000,28.615335000000,0 119.488423000000,28.626438000000,0 119.482025000000,28.639453000000,0 119.468442000000,28.633632000000,0 119.461208000000,28.634879000000,0 119.455696000000,28.650886000000,0 119.462241000000,28.661237000000,0 119.458895000000,28.683848000000,0 119.464210000000,28.708240000000,0 119.460814000000,28.739440000000,0 119.463767000000,28.742306000000,0 119.479663000000,28.739647000000,0 119.473019000000,28.749782000000,0 119.470854000000,28.765356000000,0 119.430696000000,28.755596000000,0 119.421198000000,28.749159000000,0 119.413619000000,28.751983000000,0 119.412438000000,28.761660000000,0 119.387684000000,28.786948000000,0 119.371887000000,28.784789000000,0 119.368737000000,28.774118000000,0 119.359534000000,28.768304000000,0 119.358206000000,28.761037000000,0 119.346247000000,28.757008000000,0 119.338422000000,28.761161000000,0 119.327694000000,28.779806000000,0 119.328629000000,28.800565000000,0 119.322428000000,28.800897000000,0 119.311503000000,28.811897000000,0 119.302644000000,28.804010000000,0 119.291325000000,28.806003000000,0 119.276512000000,28.802931000000,0 119.271148000000,28.786532000000,0 119.255745000000,28.776152000000,0 119.248510000000,28.763612000000,0 119.238028000000,28.761992000000,0 119.213569000000,28.768968000000,0 119.187536000000,28.770173000000,0 119.169573000000,28.748868000000,0 119.161207000000,28.748162000000,0 119.137683000000,28.738027000000,0 119.122378000000,28.737072000000,0 119.097132000000,28.743261000000,0 119.087831000000,28.735203000000,0 119.080793000000,28.740146000000,0 119.063962000000,28.733541000000,0 119.047575000000,28.722159000000,0 119.043687000000,28.712270000000,0 119.029710000000,28.709694000000,0 119.007958000000,28.694569000000,0 119.001659000000,28.683058000000,0 118.991472000000,28.676491000000,0 118.983992000000,28.663856000000,0 118.962683000000,28.642405000000,0 118.956974000000,28.647394000000,0 118.930202000000,28.640534000000,0 118.925527000000,28.633590000000,0 118.923657000000,28.619244000000,0 118.916619000000,28.610885000000,0 118.917112000000,28.599739000000,0 118.909139000000,28.589756000000,0 118.908549000000,28.574447000000,0 118.914060000000,28.563921000000,0 118.902938000000,28.548859000000,0 118.890192000000,28.539745000000,0 118.889306000000,28.533003000000,0 118.878332000000,28.522056000000,0 118.868046000000,28.521723000000,0 118.864552000000,28.529923000000,0 118.854562000000,28.532212000000,0 118.851019000000,28.539620000000,0 118.838420000000,28.539911000000,0 118.821786000000,28.547444000000,0 118.809385000000,28.536249000000,0 118.795359000000,28.534335000000,0 118.780546000000,28.526552000000,0 118.777298000000,28.518435000000,0 118.765142000000,28.524096000000,0 118.751215000000,28.524470000000,0 118.742800000000,28.509152000000,0 118.726953000000,28.499827000000,0 118.723164000000,28.493249000000,0 118.729709000000,28.479508000000,0 118.725379000000,28.460894000000,0 118.731136000000,28.456479000000,0 118.723951000000,28.433153000000,0 118.723459000000,28.411196000000,0 118.734975000000,28.416779000000,0 118.753233000000,28.417321000000,0 118.757564000000,28.407488000000,0 118.738371000000,28.369813000000,0 118.742012000000,28.364435000000,0 118.724001000000,28.338337000000,0 118.717898000000,28.338170000000,0 118.701904000000,28.327078000000,0 118.700182000000,28.310397000000,0 118.713518000000,28.312899000000,0 118.722327000000,28.310480000000,0 118.730152000000,28.296800000000,0 118.727298000000,28.281115000000,0 118.739355000000,28.277360000000,0 118.740881000000,28.267514000000,0 118.754513000000,28.253452000000,0 118.781186000000,28.243102000000,0 118.802052000000,28.240431000000,0 118.812387000000,28.225573000000,0 118.804168000000,28.207874000000,0 118.794769000000,28.205953000000,0 118.782121000000,28.193178000000,0 118.769276000000,28.185746000000,0 118.760959000000,28.167413000000,0 118.775182000000,28.167998000000,0 118.782908000000,28.172633000000,0 118.798115000000,28.168917000000,0 118.805891000000,28.153088000000,0 118.800428000000,28.133120000000,0 118.802298000000,28.117286000000,0 118.785369000000,28.106715000000,0 118.773607000000,28.107968000000,0 118.765142000000,28.102912000000,0 118.763518000000,28.094721000000,0 118.743144000000,28.088536000000,0 118.735320000000,28.074994000000,0 118.718784000000,28.063624000000,0 118.720359000000,28.045438000000,0 118.732662000000,28.035947000000,0 118.733499000000,28.026455000000,0 118.726609000000,28.014201000000,0 118.726560000000,28.000399000000,0 118.732514000000,27.990904000000,0 118.729906000000,27.972580000000,0 118.753479000000,27.948018000000,0 118.754168000000,27.942745000000,0 118.767111000000,27.941824000000,0 118.804562000000,27.927092000000,0 118.803725000000,27.918302000000,0 118.818440000000,27.916711000000,0 118.820408000000,27.895360000000,0 118.831531000000,27.886316000000,0 118.826560000000,27.874843000000,0 118.835763000000,27.866509000000,0 118.826314000000,27.846614000000,0 118.835418000000,27.838195000000,0 118.838814000000,27.820641000000,0 118.847131000000,27.812513000000,0 118.851462000000,27.796003000000,0 118.839405000000,27.788585000000,0 118.839995000000,27.779322000000,0 118.853972000000,27.774251000000,0 118.872180000000,27.734424000000,0 118.880645000000,27.731153000000,0 118.890438000000,27.718741000000,0 118.897968000000,27.718909000000,0 118.900084000000,27.704985000000,0 118.878479000000,27.705320000000,0 118.875035000000,27.700958000000,0 118.880546000000,27.689297000000,0 118.874641000000,27.682795000000,0 118.879907000000,27.667944000000,0 118.895310000000,27.655566000000,0 118.903726000000,27.638864000000,0 118.902643000000,27.623671000000,0 118.913913000000,27.619138000000,0 118.902741000000,27.592313000000,0 118.904070000000,27.575979000000,0 118.910222000000,27.570352000000,0 118.896048000000,27.563129000000,0 118.889011000000,27.547505000000,0 118.869178000000,27.539903000000,0 118.859631000000,27.527594000000,0 118.857859000000,27.516671000000,0 118.873607000000,27.517764000000,0 118.879907000000,27.499570000000,0 118.886501000000,27.501251000000,0 118.890340000000,27.494107000000,0 118.889454000000,27.481332000000,0 118.897722000000,27.478978000000,0 118.901462000000,27.464688000000,0 118.910763000000,27.460862000000,0 118.933352000000,27.463595000000,0 118.949198000000,27.456364000000,0 118.955448000000,27.449849000000,0 118.966029000000,27.473346000000,0 118.988322000000,27.477255000000,0 118.990439000000,27.488560000000,0 118.982761000000,27.496040000000,0 118.990734000000,27.503352000000,0 118.998903000000,27.496335000000,0 119.020803000000,27.497931000000,0 119.037191000000,27.480617000000,0 119.055301000000,27.477591000000,0 119.066423000000,27.466957000000,0 119.072525000000,27.472253000000,0 119.088126000000,27.464099000000,0 119.115095000000,27.482845000000,0 119.130744000000,27.472800000000,0 119.131286000000,27.463090000000,0 119.118884000000,27.461451000000,0 119.125921000000,27.452203000000,0 119.121394000000,27.438329000000,0 119.128530000000,27.431770000000,0 119.138766000000,27.434419000000,0 119.147526000000,27.424832000000,0 119.153973000000,27.428532000000,0 119.168490000000,27.424874000000,0 119.180252000000,27.428238000000,0 119.194770000000,27.418735000000,0 119.209485000000,27.422099000000,0 119.222674000000,27.417053000000,0 119.243441000000,27.419828000000,0 119.247280000000,27.429500000000,0 119.251069000000,27.420753000000,0 119.267851000000,27.421468000000,0 119.276463000000,27.435512000000,0 119.285026000000,27.457626000000,0 119.334682000000,27.480029000000,0 119.347674000000,27.492763000000,0 119.341867000000,27.506797000000,0 119.360027000000,27.524402000000,0 119.376808000000,27.534988000000,0 119.394968000000,27.539272000000,0 119.416670000000,27.539651000000,0 119.422674000000,27.536584000000,0 119.432861000000,27.513016000000,0 119.438472000000,27.508772000000,0 119.451710000000,27.513520000000,0 119.466523000000,27.526460000000,0 119.474643000000,27.539314000000,0 119.477497000000,27.553847000000,0 119.484830000000,27.570394000000,0 119.481877000000,27.585679000000,0 119.488718000000,27.598820000000,0 119.500923000000,27.608224000000,0 119.497970000000,27.625896000000,0 119.501169000000,27.649901000000,0 119.511503000000,27.653468000000,0 119.520460000000,27.650069000000,0 119.525923000000,27.660307000000,0 119.537094000000,27.658923000000,0 119.541917000000,27.663916000000,0 119.539161000000,27.675370000000,0 119.549299000000,27.670167000000,0 119.550135000000,27.663832000000,0 119.566523000000,27.663748000000,0 119.578925000000,27.669832000000,0 119.583945000000,27.665175000000,0 119.595018000000,27.666895000000,0 119.606238000000,27.674740000000,0 119.635569000000,27.668405000000,0 119.643000000000,27.673188000000,0 119.646937000000,27.685732000000,0 119.656140000000,27.693450000000,0 119.650923000000,27.695547000000,0 119.650726000000,27.717147000000,0 119.665982000000,27.721886000000,0 119.678581000000,27.734005000000,0 119.680205000000,27.744193000000,0 119.696986000000,27.753626000000,0 119.719427000000,27.760460000000,0 119.725874000000,27.767712000000,0 119.734831000000,27.766622000000,0 119.756189000000,27.795625000000,0 119.768148000000,27.805306000000,0 119.773069000000,27.794075000000,0 119.785077000000,27.795793000000,0 119.787882000000,27.808993000000,0 119.785766000000,27.822485000000,0 119.793886000000,27.826381000000,0 119.785766000000,27.833503000000,0 119.788965000000,27.853190000000,0 119.785077000000,27.861651000000,0 119.790097000000,27.867095000000,0 119.800186000000,27.890545000000,0 119.791032000000,27.898584000000,0 119.786455000000,27.909302000000,0 119.804713000000,27.922111000000,0 119.815146000000,27.920730000000,0 119.825284000000,27.911771000000,0 119.833060000000,27.911353000000,0 119.843099000000,27.927050000000,0 119.851170000000,27.932198000000,0 119.831436000000,27.951617000000,0 119.833601000000,27.956178000000,0 119.854861000000,27.961911000000,0 119.861997000000,27.949525000000,0 119.865688000000,27.950864000000,0 119.865540000000,27.966388000000,0 119.875235000000,27.974128000000,0 119.892115000000,27.951366000000,0 119.906830000000,27.954253000000,0 119.928631000000,27.968814000000,0 119.962440000000,27.976220000000,0 119.968739000000,27.962496000000,0 119.962145000000,27.950236000000,0 119.966919000000,27.937597000000,0 120.001269000000,27.941029000000,0 120.009389000000,27.947892000000,0 120.020511000000,27.939606000000,0 120.031781000000,27.941322000000,0 120.043001000000,27.951115000000,0 120.063572000000,27.951073000000,0 120.064311000000,27.961241000000,0 120.074301000000,27.972287000000,0 120.084389000000,27.967099000000,0 120.096889000000,27.980613000000,0 120.117460000000,27.982621000000,0 120.143888000000,27.976596000000,0 120.145758000000,27.979692000000,0 120.171939000000,27.978563000000,0 120.176713000000,27.972203000000,0 120.174842000000,27.960404000000,0 120.178337000000,27.952956000000,0 120.187835000000,27.948562000000,0 120.202057000000,27.935965000000,0 120.218691000000,27.935630000000,0 120.229961000000,27.931361000000,0 120.241575000000,27.934961000000,0 120.245610000000,27.943415000000,0 120.248957000000,27.964003000000,0 120.257471000000,27.967350000000,0 120.265591000000,27.957140000000,0 120.276516000000,27.959609000000,0 120.295168000000,27.977057000000,0 120.324646000000,27.978981000000,0 120.328928000000,27.966681000000,0 120.336064000000,27.970697000000,0 120.349154000000,27.987683000000,0 120.335522000000,27.990444000000,0 120.344479000000,28.019011000000,0 120.348711000000,28.021018000000,0 120.348810000000,28.034902000000,0 120.344922000000,28.040003000000,0 120.350286000000,28.052588000000,0 120.357176000000,28.050581000000,0 120.372432000000,28.054929000000,0 120.373810000000,28.066174000000,0 120.362294000000,28.080093000000,0 120.368446000000,28.088912000000,0 120.383652000000,28.095390000000,0 120.390542000000,28.094303000000,0 120.411851000000,28.114570000000,0 120.405601000000,28.124222000000,0 120.408013000000,28.131617000000,0 120.385670000000,28.142060000000,0 120.385916000000,28.147365000000,0 120.421546000000,28.160188000000,0 120.413672000000,28.172633000000,0 120.422087000000,28.182823000000,0 120.431044000000,28.186915000000,0 120.425188000000,28.196351000000,0 120.411950000000,28.199482000000,0 120.415788000000,28.213927000000,0 120.438426000000,28.234463000000,0 120.433505000000,28.246984000000,0 120.421448000000,28.253827000000,0 120.426418000000,28.268056000000,0 120.417019000000,28.288832000000,0 120.414164000000,28.302931000000,0 120.402796000000,28.305976000000,0 120.394971000000,28.315485000000,0 120.377698000000,28.317570000000,0 120.369971000000,28.331332000000,0 120.357914000000,28.328830000000,0 120.346595000000,28.335126000000,0 120.360768000000,28.345300000000,0 120.359883000000,28.359391000000,0 120.353485000000,28.367228000000,0 120.334686000000,28.371355000000,0 120.335030000000,28.384484000000,0 120.344725000000,28.392444000000,0 120.337638000000,28.395528000000,0 120.331684000000,28.407571000000,0 120.338819000000,28.412363000000,0 120.338180000000,28.427112000000,0 120.343790000000,28.431903000000,0 120.366723000000,28.424279000000,0 120.374302000000,28.410821000000,0 120.381684000000,28.425570000000,0 120.381044000000,28.436277000000,0 120.372137000000,28.446982000000,0 120.384341000000,28.458894000000,0 120.387786000000,28.479467000000,0 120.379715000000,28.498037000000,0 120.366280000000,28.499785000000,0 120.341034000000,28.496330000000,0 120.336802000000,28.509236000000,0 120.324252000000,28.512358000000,0 120.313376000000,28.522181000000,0 120.304223000000,28.506988000000,0 120.292658000000,28.511983000000,0 120.290935000000,28.539037000000,0 120.311556000000,28.557639000000,0 120.322087000000,28.554143000000,0 120.326221000000,28.563880000000,0 120.322481000000,28.573449000000,0 120.332963000000,28.580563000000,0 120.349597000000,28.574198000000,0 120.361359000000,28.580188000000,0 120.371152000000,28.573615000000,0 120.380700000000,28.581852000000,0 120.381733000000,28.599864000000,0 120.371644000000,28.606394000000,0 120.368839000000,28.618205000000,0 120.353288000000,28.626896000000,0 120.349745000000,28.633008000000,0 120.356733000000,28.637665000000,0 120.357471000000,28.646853000000,0 120.336211000000,28.654378000000,0 120.322530000000,28.669800000000,0 120.324056000000,28.686341000000,0 120.331585000000,28.701301000000,0 120.349499000000,28.704334000000,0 120.355503000000,28.712187000000,0 120.351861000000,28.723986000000,0 120.343101000000,28.721909000000,0 120.347481000000,28.730218000000,0 120.362934000000,28.734538000000,0 120.369971000000,28.740893000000,0 120.368987000000,28.763861000000,0 120.386064000000,28.787114000000,0 120.400680000000,28.785494000000,0 120.409883000000,28.798572000000,0 120.408111000000,28.806626000000,0 120.415099000000,28.822315000000,0 120.426713000000,28.831985000000,0</coordinates></LinearRing></outerBoundaryIs></Polygon>
    </Placemark>
  </Document>
</kml>
