<?xml version="1.0" encoding="UTF-8"?>
<kml xmlns="http://www.opengis.net/kml/2.2">
  <Document>
    <name>宁波市</name>
    <Placemark>
      <name>宁波市</name>
      <MultiGeometry><Polygon><outerBoundaryIs><LinearRing><coordinates>121.931000000000,29.041394000000,0 121.948766000000,29.047233000000,0 121.954524000000,29.043961000000,0 121.940991000000,29.033690000000,0 121.930459000000,29.036051000000,0 121.931000000000,29.041394000000,0</coordinates></LinearRing></outerBoundaryIs></Polygon><Polygon><outerBoundaryIs><LinearRing><coordinates>121.838628000000,29.057752000000,0 121.832329000000,29.050381000000,0 121.823520000000,29.051043000000,0 121.817319000000,29.063052000000,0 121.808559000000,29.059243000000,0 121.791089000000,29.074232000000,0 121.790892000000,29.082264000000,0 121.788677000000,29.094601000000,0 121.793795000000,29.099444000000,0 121.820272000000,29.099402000000,0 121.831591000000,29.095015000000,0 121.840941000000,29.081519000000,0 121.838628000000,29.057752000000,0</coordinates></LinearRing></outerBoundaryIs></Polygon><Polygon><outerBoundaryIs><LinearRing><coordinates>121.971601000000,29.185093000000,0 121.981788000000,29.175911000000,0 121.983511000000,29.165404000000,0 121.972314208172,29.163452630482,0 121.969674750508,29.165034493786,0 121.951719000000,29.183107000000,0 121.952064000000,29.187616000000,0 121.975636000000,29.192123000000,0 121.971601000000,29.185093000000,0</coordinates></LinearRing></outerBoundaryIs></Polygon><Polygon><outerBoundaryIs><LinearRing><coordinates>121.986660000000,29.154855000000,0 121.988284000000,29.149269000000,0 121.979278000000,29.144842000000,0 121.985381000000,29.137601000000,0 121.988530000000,29.110992000000,0 121.983363000000,29.101224000000,0 121.968747000000,29.093028000000,0 121.983314000000,29.091454000000,0 121.984396000000,29.086942000000,0 121.969829000000,29.075888000000,0 121.966138000000,29.052866000000,0 121.951621000000,29.047440000000,0 121.935085000000,29.051830000000,0 121.931591000000,29.070713000000,0 121.903835000000,29.069056000000,0 121.899406000000,29.076426000000,0 121.909642000000,29.085866000000,0 121.898077000000,29.103956000000,0 121.884494000000,29.105446000000,0 121.860036000000,29.086404000000,0 121.842368000000,29.088350000000,0 121.827014000000,29.101845000000,0 121.811167000000,29.109916000000,0 121.794238000000,29.105197000000,0 121.780557000000,29.109626000000,0 121.769386000000,29.148277000000,0 121.768008000000,29.166686000000,0 121.749947000000,29.136691000000,0 121.715596000000,29.124980000000,0 121.648814000000,29.150924000000,0 121.608460000000,29.169127000000,0 121.564267000000,29.173056000000,0 121.555802000000,29.168961000000,0 121.535920000000,29.139795000000,0 121.529719000000,29.136277000000,0 121.508361000000,29.140622000000,0 121.484542000000,29.142856000000,0 121.470517000000,29.147615000000,0 121.450044000000,29.159612000000,0 121.431048000000,29.159778000000,0 121.407032000000,29.156882000000,0 121.401225000000,29.160978000000,0 121.403833000000,29.178640000000,0 121.385378000000,29.196921000000,0 121.378784000000,29.199236000000,0 121.366924000000,29.189146000000,0 121.356343000000,29.186044000000,0 121.361904000000,29.173305000000,0 121.345418000000,29.145173000000,0 121.348715000000,29.135574000000,0 121.336609000000,29.121959000000,0 121.323813000000,29.117159000000,0 121.316973000000,29.105653000000,0 121.308213000000,29.114510000000,0 121.298616000000,29.114593000000,0 121.295221000000,29.092696000000,0 121.271746000000,29.101803000000,0 121.270713000000,29.110330000000,0 121.256096000000,29.114055000000,0 121.258754000000,29.129243000000,0 121.257622000000,29.149311000000,0 121.264364000000,29.154400000000,0 121.253045000000,29.157172000000,0 121.251028000000,29.163542000000,0 121.238872000000,29.175745000000,0 121.232966000000,29.186623000000,0 121.233705000000,29.196797000000,0 121.225338000000,29.203868000000,0 121.202701000000,29.203578000000,0 121.173517000000,29.206390000000,0 121.164708000000,29.211600000000,0 121.174403000000,29.223095000000,0 121.158852000000,29.244756000000,0 121.166824000000,29.258892000000,0 121.179325000000,29.258727000000,0 121.175289000000,29.278274000000,0 121.180899000000,29.292033000000,0 121.196992000000,29.303229000000,0 121.201077000000,29.312482000000,0 121.190742000000,29.312358000000,0 121.194187000000,29.322189000000,0 121.193399000000,29.341434000000,0 121.200240000000,29.342384000000,0 121.213134000000,29.353575000000,0 121.230063000000,29.362658000000,0 121.226421000000,29.384662000000,0 121.231441000000,29.393825000000,0 121.226815000000,29.414749000000,0 121.215102000000,29.417267000000,0 121.218252000000,29.421146000000,0 121.209197000000,29.436742000000,0 121.217514000000,29.439217000000,0 121.224059000000,29.449242000000,0 121.216972000000,29.452666000000,0 121.219827000000,29.477785000000,0 121.228488000000,29.490733000000,0 121.216726000000,29.496795000000,0 121.231539000000,29.513080000000,0 121.225585000000,29.532908000000,0 121.213183000000,29.530311000000,0 121.205850000000,29.536947000000,0 121.183557000000,29.538802000000,0 121.169334000000,29.537112000000,0 121.155702000000,29.541770000000,0 121.140348000000,29.543006000000,0 121.130948000000,29.554174000000,0 121.112986000000,29.554834000000,0 121.113478000000,29.565960000000,0 121.120417000000,29.575601000000,0 121.115643000000,29.586724000000,0 121.105702000000,29.585447000000,0 121.117562000000,29.605508000000,0 121.110181000000,29.607444000000,0 121.113281000000,29.613745000000,0 121.101716000000,29.626265000000,0 121.087740000000,29.628077000000,0 121.074206000000,29.637259000000,0 121.074895000000,29.660850000000,0 121.068399000000,29.666860000000,0 121.058802000000,29.683859000000,0 121.054226000000,29.685670000000,0 121.038428000000,29.675751000000,0 121.017759000000,29.669742000000,0 120.992414000000,29.675833000000,0 120.992956000000,29.685259000000,0 121.010229000000,29.686740000000,0 121.013970000000,29.693119000000,0 121.006785000000,29.698592000000,0 121.009639000000,29.709003000000,0 121.034787000000,29.715997000000,0 121.035869000000,29.721140000000,0 121.019727000000,29.723403000000,0 121.010722000000,29.735250000000,0 121.014954000000,29.741667000000,0 121.035180000000,29.746439000000,0 121.024796000000,29.763918000000,0 121.033999000000,29.768770000000,0 121.045515000000,29.767290000000,0 121.055111000000,29.760669000000,0 121.082080000000,29.778433000000,0 121.092612000000,29.788959000000,0 121.096007000000,29.797839000000,0 121.104964000000,29.805485000000,0 121.096499000000,29.815966000000,0 121.106490000000,29.836228000000,0 121.085771000000,29.849295000000,0 121.077011000000,29.849007000000,0 121.063133000000,29.859032000000,0 121.060574000000,29.854143000000,0 121.031096000000,29.874602000000,0 121.016578000000,29.894934000000,0 121.023172000000,29.897357000000,0 121.031637000000,29.911073000000,0 121.030800000000,29.918792000000,0 121.042021000000,29.933203000000,0 121.045072000000,29.955616000000,0 121.066135000000,29.960829000000,0 121.076470000000,29.970391000000,0 121.085869000000,29.972648000000,0 121.091627000000,29.987257000000,0 121.082621000000,29.991072000000,0 121.075781000000,30.001986000000,0 121.064413000000,30.006827000000,0 121.051420000000,30.006786000000,0 121.038133000000,29.998704000000,0 121.034737000000,30.003955000000,0 121.039511000000,30.013923000000,0 121.018202000000,30.010765000000,0 120.990151000000,30.027787000000,0 120.986509000000,30.044274000000,0 120.992562000000,30.050425000000,0 120.986656000000,30.054402000000,0 120.981440000000,30.067359000000,0 120.969924000000,30.070270000000,0 120.973861000000,30.078305000000,0 120.967660000000,30.089987000000,0 120.959737000000,30.094537000000,0 120.950141000000,30.091012000000,0 120.938280000000,30.113021000000,0 120.930455000000,30.115192000000,0 120.939461000000,30.125723000000,0 120.931194000000,30.146618000000,0 120.927650000000,30.165215000000,0 120.916233000000,30.188394000000,0 120.893447000000,30.228843000000,0 120.867020000000,30.271729000000,0 120.916036000000,30.285762000000,0 120.954373000000,30.306418000000,0 120.995170000000,30.319914000000,0 121.013920000000,30.323635000000,0 121.032572000000,30.337006000000,0 121.040102000000,30.352868000000,0 121.060180000000,30.376371000000,0 121.086952000000,30.397131000000,0 121.099501000000,30.443661000000,0 121.119236000000,30.489760000000,0 121.183212000000,30.434348000000,0 121.225486000000,30.404649000000,0 121.278784000000,30.405057000000,0 121.328046000000,30.397131000000,0 121.371894000000,30.370894000000,0 121.395073000000,30.338437000000,0 121.452701000000,30.298565000000,0 121.476274000000,30.279421000000,0 121.497780000000,30.258595000000,0 121.527554000000,30.224913000000,0 121.561462000000,30.184176000000,0 121.591678000000,30.143546000000,0 121.614710000000,30.108308000000,0 121.619927000000,30.088512000000,0 121.626029000000,30.077690000000,0 121.635330000000,30.069819000000,0 121.653096000000,30.071131000000,0 121.667466000000,30.048867000000,0 121.699750000000,30.008016000000,0 121.724996000000,29.992221000000,0 121.771453000000,29.994970000000,0 121.784051000000,29.993493000000,0 121.814366000000,29.974331000000,0 121.835183000000,29.957956000000,0 121.859986000000,29.944000000000,0 121.901817000000,29.923678000000,0 121.919534000000,29.920804000000,0 121.927113000000,29.931151000000,0 121.952900000000,29.950732000000,0 121.968008000000,29.956519000000,0 121.981739000000,29.947037000000,0 121.984396000000,29.937637000000,0 121.994534000000,29.934599000000,0 122.002900000000,29.923186000000,0 122.003442000000,29.898999000000,0 122.009790000000,29.891114000000,0 122.080115000000,29.892634000000,0 122.096257000000,29.905036000000,0 122.116730000000,29.909964000000,0 122.140155000000,29.901751000000,0 122.143058000000,29.877724000000,0 122.135922000000,29.872261000000,0 122.102212000000,29.859649000000,0 122.084790000000,29.844528000000,0 122.048570000000,29.826036000000,0 122.037595000000,29.813747000000,0 122.015991000000,29.771936000000,0 122.003146000000,29.762273000000,0 121.959199000000,29.750017000000,0 121.937595000000,29.748536000000,0 121.925538000000,29.741256000000,0 121.906443000000,29.719247000000,0 121.863234000000,29.679250000000,0 121.833559000000,29.653111000000,0 121.858953000000,29.636601000000,0 121.872486000000,29.632483000000,0 121.893845000000,29.636559000000,0 121.909593000000,29.650105000000,0 121.923422000000,29.651670000000,0 121.937595000000,29.642571000000,0 121.966089000000,29.635859000000,0 121.985381000000,29.606291000000,0 121.999751000000,29.593686000000,0 122.000292000000,29.582440000000,0 121.987201000000,29.570616000000,0 121.985774000000,29.563776000000,0 121.995076000000,29.545108000000,0 121.986414000000,29.541193000000,0 121.968993000000,29.515595000000,0 121.966680000000,29.506566000000,0 121.973127000000,29.477991000000,0 121.992074000000,29.461411000000,0 121.991729000000,29.445942000000,0 121.981493000000,29.429934000000,0 121.975538000000,29.411159000000,0 121.959642000000,29.407156000000,0 121.945814000000,29.395311000000,0 121.937693000000,29.384125000000,0 121.938579000000,29.369512000000,0 121.932231000000,29.353451000000,0 121.935971000000,29.348124000000,0 121.952064000000,29.344119000000,0 121.958363000000,29.334373000000,0 121.946552000000,29.316695000000,0 121.940892000000,29.298271000000,0 121.944829000000,29.284182000000,0 121.967566000000,29.281414000000,0 121.981099000000,29.284100000000,0 122.000243000000,29.278811000000,0 121.998520000000,29.266124000000,0 122.001965000000,29.260090000000,0 121.990991000000,29.260793000000,0 121.968304000000,29.250006000000,0 121.968008000000,29.243888000000,0 121.977457000000,29.224087000000,0 121.971896000000,29.193364000000,0 121.948619000000,29.193240000000,0 121.937300000000,29.182859000000,0 121.949111000000,29.183314000000,0 121.960430000000,29.170575000000,0 121.969674750508,29.165034493786,0 121.971404000000,29.163294000000,0 121.972314208172,29.163452630482,0 121.986660000000,29.154855000000,0</coordinates></LinearRing></outerBoundaryIs></Polygon><Polygon><outerBoundaryIs><LinearRing><coordinates>121.991089000000,29.221441000000,0 121.983461000000,29.227808000000,0 121.993451000000,29.227808000000,0 122.001818000000,29.221441000000,0 121.991089000000,29.221441000000,0</coordinates></LinearRing></outerBoundaryIs></Polygon><Polygon><outerBoundaryIs><LinearRing><coordinates>122.008609000000,29.222971000000,0 122.001030000000,29.227394000000,0 122.006641000000,29.234877000000,0 122.013826000000,29.232810000000,0 122.008609000000,29.222971000000,0</coordinates></LinearRing></outerBoundaryIs></Polygon><Polygon><outerBoundaryIs><LinearRing><coordinates>121.985135000000,29.348454000000,0 121.978688000000,29.340485000000,0 121.981444000000,29.332638000000,0 121.970223000000,29.340856000000,0 121.985135000000,29.348454000000,0</coordinates></LinearRing></outerBoundaryIs></Polygon><Polygon><outerBoundaryIs><LinearRing><coordinates>121.980705000000,29.472671000000,0 121.987792000000,29.474898000000,0 121.990843000000,29.467845000000,0 121.980705000000,29.472671000000,0</coordinates></LinearRing></outerBoundaryIs></Polygon><Polygon><outerBoundaryIs><LinearRing><coordinates>121.989908000000,29.510071000000,0 122.004967000000,29.503763000000,0 122.004574000000,29.500299000000,0 121.984741000000,29.503886000000,0 121.983806000000,29.497042000000,0 121.976178000000,29.501124000000,0 121.989908000000,29.510071000000,0</coordinates></LinearRing></outerBoundaryIs></Polygon><Polygon><outerBoundaryIs><LinearRing><coordinates>122.231297000000,28.859829000000,0 122.243797000000,28.861322000000,0 122.238679000000,28.853315000000,0 122.231297000000,28.859829000000,0</coordinates></LinearRing></outerBoundaryIs></Polygon><Polygon><outerBoundaryIs><LinearRing><coordinates>122.258807000000,28.886586000000,0 122.267025000000,28.886835000000,0 122.267321000000,28.880364000000,0 122.258807000000,28.886586000000,0</coordinates></LinearRing></outerBoundaryIs></Polygon><Polygon><outerBoundaryIs><LinearRing><coordinates>122.056198000000,29.200518000000,0 122.050095000000,29.193488000000,0 122.057576000000,29.188939000000,0 122.044534000000,29.184100000000,0 122.049013000000,29.175083000000,0 122.063235000000,29.174008000000,0 122.074505000000,29.178144000000,0 122.067910000000,29.165611000000,0 122.056739000000,29.158454000000,0 122.039859000000,29.163253000000,0 122.037645000000,29.151959000000,0 122.027605000000,29.155806000000,0 122.013383000000,29.151504000000,0 122.026375000000,29.178351000000,0 122.040843000000,29.179550000000,0 122.029771000000,29.187367000000,0 122.037005000000,29.190552000000,0 122.031247000000,29.196342000000,0 122.036217000000,29.207383000000,0 122.056198000000,29.200518000000,0</coordinates></LinearRing></outerBoundaryIs></Polygon><Polygon><outerBoundaryIs><LinearRing><coordinates>122.184348000000,29.399604000000,0 122.173866000000,29.399769000000,0 122.178295000000,29.406001000000,0 122.184348000000,29.399604000000,0</coordinates></LinearRing></outerBoundaryIs></Polygon><Polygon><outerBoundaryIs><LinearRing><coordinates>122.003835000000,29.405051000000,0 122.001621000000,29.410416000000,0 122.018944000000,29.409674000000,0 122.016286000000,29.404185000000,0 122.003835000000,29.405051000000,0</coordinates></LinearRing></outerBoundaryIs></Polygon><Polygon><outerBoundaryIs><LinearRing><coordinates>122.224850000000,29.438392000000,0 122.223866000000,29.428366000000,0 122.207921000000,29.429645000000,0 122.205362000000,29.418092000000,0 122.190204000000,29.415905000000,0 122.181936000000,29.407693000000,0 122.179771000000,29.424694000000,0 122.187497000000,29.421806000000,0 122.197242000000,29.425478000000,0 122.199358000000,29.436247000000,0 122.211120000000,29.440950000000,0 122.224850000000,29.438392000000,0</coordinates></LinearRing></outerBoundaryIs></Polygon><Polygon><outerBoundaryIs><LinearRing><coordinates>122.194141000000,29.453450000000,0 122.183216000000,29.455595000000,0 122.184299000000,29.460627000000,0 122.194830000000,29.465453000000,0 122.194141000000,29.453450000000,0</coordinates></LinearRing></outerBoundaryIs></Polygon><Polygon><outerBoundaryIs><LinearRing><coordinates>122.033855000000,29.624741000000,0 122.037645000000,29.613457000000,0 122.025686000000,29.604314000000,0 122.022389000000,29.620211000000,0 122.026473000000,29.621859000000,0 122.033855000000,29.624741000000,0</coordinates></LinearRing></outerBoundaryIs></Polygon><Polygon><outerBoundaryIs><LinearRing><coordinates>122.017221000000,29.900806000000,0 122.014367000000,29.892634000000,0 122.006247000000,29.899574000000,0 122.017221000000,29.900806000000,0</coordinates></LinearRing></outerBoundaryIs></Polygon><Polygon><outerBoundaryIs><LinearRing><coordinates>122.011513000000,29.917027000000,0 122.024160000000,29.909594000000,0 122.021650000000,29.901546000000,0 122.009987000000,29.902654000000,0 122.005312000000,29.913044000000,0 122.011513000000,29.917027000000,0</coordinates></LinearRing></outerBoundaryIs></Polygon></MultiGeometry>
    </Placemark>
  </Document>
</kml>
