<?xml version="1.0" encoding="UTF-8"?>
<kml xmlns="http://www.opengis.net/kml/2.2">
<Document>
<name>湖州市</name>
<Placemark><name>湖州市</name><MultiGeometry><Polygon><outerBoundaryIs><LinearRing><coordinates>120.489065999999994,30.763860999999999,0 120.477008999999995,30.785596000000002,0 120.477255,30.800001999999999,0 120.455257000000003,30.816846999999999,0 120.461015000000003,30.828278999999998,0 120.460374999999999,30.839872,0 120.454469000000003,30.849633000000001,0 120.441280000000006,30.856303,0 120.452353000000002,30.867892999999999,0 120.439558000000005,30.885213,0 120.434488999999999,30.887978,0 120.442265000000006,30.900580000000001,0 120.434980999999993,30.920821,0 120.423416000000003,30.927444999999999,0 120.418002999999999,30.925576,0 120.423514999999995,30.90306,0 120.394676000000004,30.890782999999999,0 120.379419999999996,30.890782999999999,0 120.372432000000003,30.882164,0 120.364655999999997,30.880457,0 120.358012000000002,30.887084000000002,0 120.360129000000001,30.892775,0 120.356930000000006,30.908871999999999,0 120.362688000000006,30.921673999999999,0 120.359440000000006,30.931915,0 120.371103000000005,30.948777,0 120.343346999999994,30.939961,0 120.308060999999995,30.932281,0 120.250777999999997,30.926226,0 120.221790999999996,30.926876,0 120.149646000000004,30.937481999999999,0 120.135127999999995,30.941911000000001,0 120.111013999999997,30.955928,0 120.094380000000001,30.973233,0 120.052449999999993,31.005721999999999,0 120.017016999999996,31.017821000000001,0 120.001711999999998,31.027118000000002,0 119.988523000000001,31.059222999999999,0 119.969773000000004,31.074276999999999,0 119.946248999999995,31.106245000000001,0 119.936751000000001,31.146554999999999,0 119.921052000000003,31.161190000000001,0 119.920953999999995,31.170392,0 119.900234999999995,31.169176,0 119.878729000000007,31.160785000000001,0 119.866623000000004,31.168323999999998,0 119.842163999999997,31.168769999999999,0 119.837586999999999,31.173674999999999,0 119.826464999999999,31.173188,0 119.823463000000004,31.165811000000001,0 119.829762000000002,31.161393,0 119.823316000000005,31.154136000000001,0 119.809881000000004,31.148501,0 119.800972999999999,31.156324999999999,0 119.791278000000005,31.156609,0 119.793394000000006,31.168040999999999,0 119.779319000000001,31.178782000000002,0 119.755352999999999,31.170756000000001,0 119.740491000000006,31.173431999999998,0 119.713127999999998,31.167635000000001,0 119.703875999999994,31.151906,0 119.682764000000006,31.160501,0 119.678038999999998,31.168202999999998,0 119.663719,31.165973000000001,0 119.662537,31.159852000000001,0 119.641572999999994,31.148136000000001,0 119.638127999999995,31.135525999999999,0 119.623806999999999,31.130254000000001,0 119.624151999999995,31.116019999999999,0 119.649152000000001,31.105108999999999,0 119.634682999999995,31.093751000000001,0 119.629515999999995,31.082311000000001,0 119.634978000000004,31.064174000000001,0 119.631337000000002,31.046316999999998,0 119.634043000000005,31.019485,0 119.624003999999999,31.005316000000001,0 119.616276999999997,31.002392,0 119.607467999999997,30.991875,0 119.585864000000001,30.976400999999999,0 119.579565000000002,30.962671,0 119.582172999999997,30.947437000000001,0 119.580352000000005,30.929151999999998,0 119.563817,30.919236000000001,0 119.556336000000002,30.896718,0 119.559092000000007,30.891718000000001,0 119.558944999999994,30.871186000000002,0 119.573757999999998,30.853334,0 119.575726000000003,30.829743000000001,0 119.561207999999993,30.829459,0 119.554514999999995,30.825634999999998,0 119.524495999999999,30.776032000000001,0 119.507124000000005,30.769642000000001,0 119.491523000000001,30.777253000000002,0 119.479563999999996,30.771229000000002,0 119.478776999999994,30.753074000000002,0 119.484583999999998,30.744605,0 119.480303000000006,30.738091000000001,0 119.482763000000006,30.704452,0 119.465981999999997,30.683921000000002,0 119.452939999999998,30.671616,0 119.448313999999996,30.655846,0 119.433649000000003,30.644476000000001,0 119.412683999999999,30.642968,0 119.400036999999998,30.658861999999999,0 119.395657,30.678705999999998,0 119.391523000000007,30.685224000000002,0 119.379367000000002,30.679358000000001,0 119.372378999999995,30.680375999999999,0 119.354563999999996,30.666930000000001,0 119.343147000000002,30.664200000000001,0 119.333647999999997,30.652218999999999,0 119.323116999999996,30.630291,0 119.311946000000006,30.621241000000001,0 119.291227000000006,30.616022999999998,0 119.278383000000005,30.617612999999999,0 119.255005999999995,30.615126,0 119.245852999999997,30.618877000000001,0 119.240094999999997,30.604932999999999,0 119.253677999999994,30.596451999999999,0 119.254120999999998,30.588663,0 119.264751000000004,30.582056000000001,0 119.264751000000004,30.573450000000001,0 119.245508000000001,30.561416999999999,0 119.236945000000006,30.546731000000001,0 119.242555999999993,30.530042999999999,0 119.261895999999993,30.525554,0 119.261650000000003,30.517759999999999,0 119.272132999999997,30.510494999999999,0 119.287930000000003,30.512618,0 119.313619000000003,30.531186000000002,0 119.326561999999996,30.532980999999999,0 119.328677999999996,30.521636999999998,0 119.336354999999998,30.507148999999998,0 119.330350999999993,30.488249,0 119.334485000000001,30.478083999999999,0 119.336157999999998,30.44558,0 119.349692000000005,30.438841,0 119.352988999999994,30.424831000000001,0 119.349543999999995,30.408612000000002,0 119.360911999999999,30.410737000000001,0 119.368933999999996,30.399746,0 119.366572000000005,30.388386000000001,0 119.371443999999997,30.383932000000001,0 119.393835999999993,30.383033000000001,0 119.403037999999995,30.373346999999999,0 119.418147000000005,30.376085,0 119.435715999999999,30.391492,0 119.441030999999995,30.392472000000001,0 119.450233999999995,30.410817999999999,0 119.467015000000004,30.408121999999999,0 119.490391000000002,30.408203,0 119.513126999999997,30.401665999999999,0 119.533451999999997,30.409428999999999,0 119.535273000000004,30.424054999999999,0 119.551760000000002,30.439779999999999,0 119.565933000000001,30.443375,0 119.572823,30.431325999999999,0 119.581778999999997,30.423646000000002,0 119.594967999999994,30.421644000000001,0 119.627941000000007,30.431774999999998,0 119.635569000000004,30.441782,0 119.650578999999993,30.440352000000001,0 119.642950999999996,30.428507,0 119.631828999999996,30.424666999999999,0 119.637389999999996,30.410368999999999,0 119.633256000000003,30.395292000000001,0 119.646691000000004,30.39378,0 119.655500000000004,30.405180000000001,0 119.668098999999998,30.399501000000001,0 119.681090999999995,30.408735,0 119.686012000000005,30.417559000000001,0 119.709191000000004,30.434062000000001,0 119.694918999999999,30.452726999999999,0 119.695362000000003,30.464487999999999,0 119.701711000000003,30.467998999999999,0 119.708895999999996,30.487964000000002,0 119.704712999999998,30.494577,0 119.709191000000004,30.508821999999999,0 119.704859999999996,30.525963000000001,0 119.695018000000005,30.542325000000002,0 119.692409999999995,30.556155,0 119.711749999999995,30.566516,0 119.729073,30.551749000000001,0 119.743245999999999,30.550158,0 119.768935999999997,30.551341000000001,0 119.766375999999994,30.514087,0 119.784043999999994,30.511026000000001,0 119.794182000000006,30.505638000000001,0 119.815883999999997,30.510659,0 119.836012999999994,30.496576999999998,0 119.851121000000006,30.502006000000002,0 119.854123000000001,30.493963999999998,0 119.867114999999998,30.477757,0 119.880796000000004,30.476206000000001,0 119.872578000000004,30.462486999999999,0 119.890047999999993,30.457056000000001,0 119.903040000000004,30.459423999999999,0 119.90934,30.456320999999999,0 119.921543999999997,30.462527999999999,0 119.931436000000005,30.456443,0 119.934978999999998,30.446764000000002,0 119.950727999999998,30.444232,0 119.955894999999998,30.433654000000001,0 119.965047999999996,30.431571000000002,0 119.982962000000001,30.445294000000001,0 120.003680000000003,30.444272999999999,0 120.013818000000001,30.435614000000001,0 120.041524999999993,30.433368000000002,0 120.046102000000005,30.427444999999999,0 120.064753999999994,30.430099999999999,0 120.062145000000001,30.434633999999999,0 120.068100000000001,30.445948000000001,0 120.059241999999998,30.459015999999998,0 120.059488000000002,30.47343,0 120.065836000000004,30.483595000000001,0 120.068297000000001,30.496618000000002,0 120.099252000000007,30.495801,0 120.096742000000006,30.48678,0 120.11121,30.476206000000001,0 120.146004000000005,30.482697000000002,0 120.149793000000003,30.467509,0 120.175038999999998,30.476818000000002,0 120.180550999999994,30.482534000000001,0 120.173809000000006,30.492045999999998,0 120.185914999999994,30.494617999999999,0 120.185079000000002,30.502617999999998,0 120.195659000000006,30.503598,0 120.201762000000002,30.514413000000001,0 120.205404000000001,30.505842999999999,0 120.224597000000003,30.509761000000001,0 120.239261999999997,30.505230000000001,0 120.251909999999995,30.506536000000001,0 120.277450999999999,30.504822000000001,0 120.285816999999994,30.507802000000002,0 120.299892,30.5198,0 120.301958999999997,30.530002,0 120.299498,30.557092999999998,0 120.295955000000006,30.565536999999999,0 120.304715000000002,30.564477,0 120.319134000000005,30.579079,0 120.302599000000001,30.595635999999999,0 120.303189000000003,30.609010000000001,0 120.309389999999993,30.612639000000001,0 120.332717000000002,30.615044000000001,0 120.340098999999995,30.631350999999999,0 120.344971000000001,30.662732999999999,0 120.353977,30.662814999999998,0 120.364607000000007,30.654541999999999,0 120.378287999999998,30.656538999999999,0 120.379469,30.669374999999999,0 120.406092999999998,30.670760999999999,0 120.407962999999995,30.675691,0 120.455010999999999,30.685549999999999,0 120.441181999999998,30.695571999999999,0 120.444479000000001,30.701763,0 120.462885,30.701397,0 120.475286999999994,30.710723999999999,0 120.486260999999999,30.727992,0 120.471890999999999,30.746682,0 120.469971999999999,30.764430999999998,0 120.489065999999994,30.763860999999999,0</coordinates></LinearRing></outerBoundaryIs></Polygon></MultiGeometry></Placemark>
</Document>
</kml>