<?xml version="1.0" encoding="UTF-8"?>
<kml xmlns="http://www.opengis.net/kml/2.2">
  <Document>
    <name>金华市</name>
    <Placemark>
      <name>金华市</name>
      <Polygon><outerBoundaryIs><LinearRing><coordinates>119.322428000000,28.800897000000,0 119.328629000000,28.800565000000,0 119.327694000000,28.779806000000,0 119.338422000000,28.761161000000,0 119.346247000000,28.757008000000,0 119.358206000000,28.761037000000,0 119.359534000000,28.768304000000,0 119.368737000000,28.774118000000,0 119.371887000000,28.784789000000,0 119.387684000000,28.786948000000,0 119.412438000000,28.761660000000,0 119.413619000000,28.751983000000,0 119.421198000000,28.749159000000,0 119.430696000000,28.755596000000,0 119.470854000000,28.765356000000,0 119.473019000000,28.749782000000,0 119.479663000000,28.739647000000,0 119.463767000000,28.742306000000,0 119.460814000000,28.739440000000,0 119.464210000000,28.708240000000,0 119.458895000000,28.683848000000,0 119.462241000000,28.661237000000,0 119.455696000000,28.650886000000,0 119.461208000000,28.634879000000,0 119.468442000000,28.633632000000,0 119.482025000000,28.639453000000,0 119.488423000000,28.626438000000,0 119.507911000000,28.615335000000,0 119.509879000000,28.603357000000,0 119.498068000000,28.584848000000,0 119.494427000000,28.554018000000,0 119.498413000000,28.548650000000,0 119.514653000000,28.561675000000,0 119.534880000000,28.555724000000,0 119.535175000000,28.543782000000,0 119.542458000000,28.532628000000,0 119.568492000000,28.532295000000,0 119.574201000000,28.523888000000,0 119.613374000000,28.527800000000,0 119.629171000000,28.525386000000,0 119.638276000000,28.528508000000,0 119.644722000000,28.541867000000,0 119.660224000000,28.539953000000,0 119.674742000000,28.530006000000,0 119.703581000000,28.533211000000,0 119.707813000000,28.545738000000,0 119.717705000000,28.553769000000,0 119.720461000000,28.565960000000,0 119.739309000000,28.584848000000,0 119.739900000000,28.591462000000,0 119.754122000000,28.592668000000,0 119.767065000000,28.588009000000,0 119.773955000000,28.603233000000,0 119.772725000000,28.608556000000,0 119.749398000000,28.622696000000,0 119.752449000000,28.635253000000,0 119.764949000000,28.638704000000,0 119.777252000000,28.630887000000,0 119.794969000000,28.632883000000,0 119.811751000000,28.653920000000,0 119.813867000000,28.686840000000,0 119.826367000000,28.695317000000,0 119.849644000000,28.716591000000,0 119.866180000000,28.718503000000,0 119.874448000000,28.735410000000,0 119.871790000000,28.742306000000,0 119.882371000000,28.749200000000,0 119.886751000000,28.744632000000,0 119.898070000000,28.750363000000,0 119.906731000000,28.768553000000,0 119.921003000000,28.784000000000,0 119.921298000000,28.796164000000,0 119.942164000000,28.793009000000,0 119.948562000000,28.787197000000,0 119.967607000000,28.787819000000,0 119.971643000000,28.794255000000,0 119.982421000000,28.796662000000,0 120.005304000000,28.780886000000,0 120.010669000000,28.772207000000,0 120.025679000000,28.764151000000,0 120.028976000000,28.758047000000,0 120.049202000000,28.763155000000,0 120.083946000000,28.787031000000,0 120.097037000000,28.768553000000,0 120.109882000000,28.767224000000,0 120.111309000000,28.762324000000,0 120.131437000000,28.759708000000,0 120.145561000000,28.784000000000,0 120.165344000000,28.774325000000,0 120.178435000000,28.775239000000,0 120.183553000000,28.785162000000,0 120.198858000000,28.783958000000,0 120.209341000000,28.795832000000,0 120.200335000000,28.801810000000,0 120.201860000000,28.810029000000,0 120.215148000000,28.825885000000,0 120.216526000000,28.832608000000,0 120.236506000000,28.844808000000,0 120.241821000000,28.857256000000,0 120.260719000000,28.865471000000,0 120.261752000000,28.911429000000,0 120.250729000000,28.913792000000,0 120.258603000000,28.927103000000,0 120.255453000000,28.931000000000,0 120.264951000000,28.938960000000,0 120.271004000000,28.950112000000,0 120.277894000000,28.930544000000,0 120.303977000000,28.931664000000,0 120.314312000000,28.919100000000,0 120.303239000000,28.892808000000,0 120.315394000000,28.887042000000,0 120.316428000000,28.876879000000,0 120.331388000000,28.868914000000,0 120.338278000000,28.860244000000,0 120.347284000000,28.858252000000,0 120.357914000000,28.839372000000,0 120.368446000000,28.838044000000,0 120.388475000000,28.829454000000,0 120.392855000000,28.834558000000,0 120.392954000000,28.847132000000,0 120.404715000000,28.853813000000,0 120.406881000000,28.845182000000,0 120.418101000000,28.851655000000,0 120.426713000000,28.831985000000,0 120.441773000000,28.841406000000,0 120.473909000000,28.839206000000,0 120.481143000000,28.828167000000,0 120.486802000000,28.846012000000,0 120.498466000000,28.849207000000,0 120.502206000000,28.857215000000,0 120.494972000000,28.866010000000,0 120.509982000000,28.874888000000,0 120.514706000000,28.890734000000,0 120.525484000000,28.878663000000,0 120.533948000000,28.879534000000,0 120.533604000000,28.866301000000,0 120.542757000000,28.867048000000,0 120.563230000000,28.861696000000,0 120.579962000000,28.869371000000,0 120.590051000000,28.881111000000,0 120.604470000000,28.890692000000,0 120.619086000000,28.895628000000,0 120.646990000000,28.900480000000,0 120.663771000000,28.916488000000,0 120.664953000000,28.923786000000,0 120.659638000000,28.937136000000,0 120.673417000000,28.959895000000,0 120.673319000000,28.973158000000,0 120.677699000000,28.977302000000,0 120.696695000000,28.980037000000,0 120.698860000000,28.972992000000,0 120.717315000000,28.973779000000,0 120.726665000000,28.981280000000,0 120.721990000000,28.995245000000,0 120.729520000000,28.997110000000,0 120.728240000000,29.009829000000,0 120.720317000000,29.012356000000,0 120.724451000000,29.023873000000,0 120.713575000000,29.035264000000,0 120.701714000000,29.022713000000,0 120.693151000000,29.040565000000,0 120.700730000000,29.044334000000,0 120.691626000000,29.052079000000,0 120.702207000000,29.060195000000,0 120.704864000000,29.075888000000,0 120.694382000000,29.086942000000,0 120.701222000000,29.097457000000,0 120.709884000000,29.098409000000,0 120.723614000000,29.119145000000,0 120.736606000000,29.113310000000,0 120.746843000000,29.122911000000,0 120.734441000000,29.131270000000,0 120.722187000000,29.130236000000,0 120.712295000000,29.143767000000,0 120.731095000000,29.164494000000,0 120.749648000000,29.176035000000,0 120.759884000000,29.189022000000,0 120.778240000000,29.199650000000,0 120.773171000000,29.205687000000,0 120.783063000000,29.221193000000,0 120.776518000000,29.225079000000,0 120.773171000000,29.231859000000,0 120.776567000000,29.242111000000,0 120.772384000000,29.262859000000,0 120.775091000000,29.276951000000,0 120.759047000000,29.281125000000,0 120.756784000000,29.286290000000,0 120.773024000000,29.304633000000,0 120.761410000000,29.313391000000,0 120.749894000000,29.315910000000,0 120.738723000000,29.309590000000,0 120.725927000000,29.310251000000,0 120.720415000000,29.303187000000,0 120.711508000000,29.302113000000,0 120.699844000000,29.318843000000,0 120.707866000000,29.341311000000,0 120.704667000000,29.347587000000,0 120.697433000000,29.341847000000,0 120.687935000000,29.341889000000,0 120.670218000000,29.325534000000,0 120.653683000000,29.334290000000,0 120.645218000000,29.328054000000,0 120.624106000000,29.336355000000,0 120.600976000000,29.334166000000,0 120.590986000000,29.348496000000,0 120.579125000000,29.340113000000,0 120.571399000000,29.342880000000,0 120.578190000000,29.357704000000,0 120.566675000000,29.367324000000,0 120.553781000000,29.371493000000,0 120.559490000000,29.379626000000,0 120.550484000000,29.390936000000,0 120.538230000000,29.391514000000,0 120.523761000000,29.401461000000,0 120.511163000000,29.419412000000,0 120.511852000000,29.440290000000,0 120.515592000000,29.451593000000,0 120.522186000000,29.456997000000,0 120.515247000000,29.468546000000,0 120.496448000000,29.466773000000,0 120.497777000000,29.474361000000,0 120.474844000000,29.492877000000,0 120.461458000000,29.484960000000,0 120.427796000000,29.477207000000,0 120.410375000000,29.450645000000,0 120.398465000000,29.455760000000,0 120.383997000000,29.456172000000,0 120.367314000000,29.445571000000,0 120.364410000000,29.433854000000,0 120.369971000000,29.428655000000,0 120.372825000000,29.414915000000,0 120.361999000000,29.415038000000,0 120.343692000000,29.410210000000,0 120.334243000000,29.403483000000,0 120.333308000000,29.395146000000,0 120.325335000000,29.380658000000,0 120.317953000000,29.379791000000,0 120.307619000000,29.365714000000,0 120.289902000000,29.355598000000,0 120.278288000000,29.363443000000,0 120.266723000000,29.376571000000,0 120.261359000000,29.390358000000,0 120.264016000000,29.400842000000,0 120.277992000000,29.416771000000,0 120.281536000000,29.440785000000,0 120.267215000000,29.452253000000,0 120.261801000000,29.469165000000,0 120.269676000000,29.481042000000,0 120.282077000000,29.489249000000,0 120.268494000000,29.498650000000,0 120.250925000000,29.496052000000,0 120.249449000000,29.504793000000,0 120.241821000000,29.512008000000,0 120.227057000000,29.514441000000,0 120.223809000000,29.521820000000,0 120.207864000000,29.528951000000,0 120.211900000000,29.535711000000,0 120.200728000000,29.549476000000,0 120.186506000000,29.548776000000,0 120.185472000000,29.541357000000,0 120.171250000000,29.521614000000,0 120.157421000000,29.512544000000,0 120.138770000000,29.508463000000,0 120.127057000000,29.494279000000,0 120.114212000000,29.497496000000,0 120.102893000000,29.506608000000,0 120.093346000000,29.500299000000,0 120.079616000000,29.504711000000,0 120.075580000000,29.513163000000,0 120.085029000000,29.514523000000,0 120.091722000000,29.532249000000,0 120.088080000000,29.536412000000,0 120.073612000000,29.537648000000,0 120.058750000000,29.542635000000,0 120.051122000000,29.549682000000,0 120.054714000000,29.558213000000,0 120.040147000000,29.570162000000,0 120.029960000000,29.565960000000,0 120.007076000000,29.572470000000,0 120.006486000000,29.593563000000,0 120.019232000000,29.617864000000,0 120.035078000000,29.617452000000,0 120.045216000000,29.626389000000,0 120.044625000000,29.631618000000,0 120.031732000000,29.636806000000,0 120.024744000000,29.647923000000,0 120.036702000000,29.653852000000,0 120.037194000000,29.663979000000,0 120.029468000000,29.667807000000,0 120.029074000000,29.653275000000,0 120.021692000000,29.647964000000,0 120.002598000000,29.655087000000,0 119.991082000000,29.654346000000,0 119.988818000000,29.661179000000,0 119.973119000000,29.674804000000,0 119.936161000000,29.666531000000,0 119.924792000000,29.669906000000,0 119.921249000000,29.664020000000,0 119.911702000000,29.666490000000,0 119.895708000000,29.660644000000,0 119.879271000000,29.667930000000,0 119.859536000000,29.671347000000,0 119.852499000000,29.668877000000,0 119.835422000000,29.678138000000,0 119.824448000000,29.671841000000,0 119.817607000000,29.673076000000,0 119.791180000000,29.654963000000,0 119.776514000000,29.626841000000,0 119.779319000000,29.603984000000,0 119.764949000000,29.594675000000,0 119.769182000000,29.579556000000,0 119.761652000000,29.566536000000,0 119.764211000000,29.557347000000,0 119.750678000000,29.550713000000,0 119.741081000000,29.551908000000,0 119.722626000000,29.542759000000,0 119.744920000000,29.516419000000,0 119.735422000000,29.510936000000,0 119.726908000000,29.511555000000,0 119.718837000000,29.505288000000,0 119.719575000000,29.491146000000,0 119.706780000000,29.472382000000,0 119.707124000000,29.464215000000,0 119.715835000000,29.448995000000,0 119.707272000000,29.433235000000,0 119.691179000000,29.438763000000,0 119.688916000000,29.421764000000,0 119.676317000000,29.419206000000,0 119.673413000000,29.425024000000,0 119.664408000000,29.424075000000,0 119.642508000000,29.432946000000,0 119.624939000000,29.417762000000,0 119.625529000000,29.410499000000,0 119.606238000000,29.388088000000,0 119.617606000000,29.380369000000,0 119.616277000000,29.368273000000,0 119.604565000000,29.369636000000,0 119.592901000000,29.377686000000,0 119.582075000000,29.379131000000,0 119.574594000000,29.372773000000,0 119.558551000000,29.372154000000,0 119.545411000000,29.367365000000,0 119.536061000000,29.373145000000,0 119.523905000000,29.366003000000,0 119.522724000000,29.350024000000,0 119.510421000000,29.333464000000,0 119.500037000000,29.335735000000,0 119.492310000000,29.331069000000,0 119.480204000000,29.332968000000,0 119.471493000000,29.349033000000,0 119.461454000000,29.350932000000,0 119.454810000000,29.365259000000,0 119.457566000000,29.370379000000,0 119.451858000000,29.385611000000,0 119.451365000000,29.397292000000,0 119.443147000000,29.404556000000,0 119.437143000000,29.424116000000,0 119.427793000000,29.422177000000,0 119.432320000000,29.415162000000,0 119.426759000000,29.405547000000,0 119.404761000000,29.400677000000,0 119.399938000000,29.411242000000,0 119.393540000000,29.411242000000,0 119.388521000000,29.429728000000,0 119.378137000000,29.429810000000,0 119.368294000000,29.415699000000,0 119.360223000000,29.416276000000,0 119.346395000000,29.408724000000,0 119.337093000000,29.411159000000,0 119.328629000000,29.393413000000,0 119.340145000000,29.382350000000,0 119.333058000000,29.355061000000,0 119.348462000000,29.336231000000,0 119.344278000000,29.324378000000,0 119.348806000000,29.319504000000,0 119.324200000000,29.307979000000,0 119.328629000000,29.299263000000,0 119.322625000000,29.296164000000,0 119.318294000000,29.279885000000,0 119.286011000000,29.279348000000,0 119.288077000000,29.268852000000,0 119.270656000000,29.251659000000,0 119.260912000000,29.247815000000,0 119.244918000000,29.228634000000,0 119.234928000000,29.221937000000,0 119.233353000000,29.195845000000,0 119.242162000000,29.189683000000,0 119.241522000000,29.165735000000,0 119.253333000000,29.154772000000,0 119.251119000000,29.141656000000,0 119.267162000000,29.133919000000,0 119.267703000000,29.119104000000,0 119.282762000000,29.118317000000,0 119.292507000000,29.105901000000,0 119.302595000000,29.100893000000,0 119.299987000000,29.090709000000,0 119.305351000000,29.085617000000,0 119.326020000000,29.086238000000,0 119.332517000000,29.075971000000,0 119.327841000000,29.067649000000,0 119.334288000000,29.052369000000,0 119.332369000000,29.043423000000,0 119.334682000000,29.022216000000,0 119.327349000000,29.038080000000,0 119.321542000000,29.000590000000,0 119.328038000000,28.987579000000,0 119.325922000000,28.979125000000,0 119.316621000000,28.970256000000,0 119.304613000000,28.969345000000,0 119.311503000000,28.959853000000,0 119.315587000000,28.943231000000,0 119.327152000000,28.924739000000,0 119.333796000000,28.907945000000,0 119.345460000000,28.899734000000,0 119.333599000000,28.865181000000,0 119.319672000000,28.867794000000,0 119.310912000000,28.851240000000,0 119.311306000000,28.842153000000,0 119.331926000000,28.846966000000,0 119.338028000000,28.843149000000,0 119.336355000000,28.835222000000,0 119.345558000000,28.827711000000,0 119.331631000000,28.807912000000,0 119.322428000000,28.800897000000,0</coordinates></LinearRing></outerBoundaryIs></Polygon>
    </Placemark>
  </Document>
</kml>
