<?xml version="1.0" encoding="UTF-8"?>
<kml xmlns="http://www.opengis.net/kml/2.2">
  <Document>
    <name><![CDATA[吕梁市]]></name>
    <Placemark>
      <name><![CDATA[吕梁市]]></name>
      <description><![CDATA[省级目录：山西省]]></description>
      <ExtendedData>
        <Data name="adcode"><value>141100</value></Data>
      </ExtendedData>
      <MultiGeometry>
      <Polygon>
        <outerBoundaryIs><LinearRing><coordinates>112.33011,37.458923,0 112.317439,37.476414,0 112.290361,37.48729,0 112.313446,37.495508,0 112.295698,37.521452,0 112.273741,37.524046,0 112.294093,37.548745,0 112.290448,37.566894,0 112.255689,37.561709,0 112.233776,37.570042,0 112.227006,37.59232,0 112.174109,37.6355,0 112.175932,37.674525,0 112.118652,37.698558,0 112.10277,37.716178,0 112.075909,37.717779,0 112.034642,37.71125,0 112.023316,37.723939,0 111.996238,37.722091,0 111.974975,37.713159,0 111.935053,37.740752,0 111.921384,37.757931,0 111.912272,37.792953,0 111.819843,37.796091,0 111.808474,37.817133,0 111.767814,37.832325,0 111.767901,37.841427,0 111.746855,37.855509,0 111.747158,37.870509,0 111.706151,37.878992,0 111.683456,37.86387,0 111.653515,37.856677,0 111.642536,37.861534,0 111.570242,37.852373,0 111.56638,37.87598,0 111.547113,37.885261,0 111.580093,37.902713,0 111.572412,37.931955,0 111.545595,37.955966,0 111.538044,37.992429,0 111.516868,38.019672,0 111.52802,38.037705,0 111.515913,38.051258,0 111.524158,38.066096,0 111.546419,38.074924,0 111.547547,38.085344,0 111.567682,38.095518,0 111.625005,38.10183,0 111.643187,38.116106,0 111.689749,38.134668,0 111.716609,38.15849,0 111.716305,38.174959,0 111.744164,38.18359,0 111.766338,38.179305,0 111.773368,38.187752,0 111.806434,38.195464,0 111.81763,38.214311,0 111.800272,38.235416,0 111.779183,38.248015,0 111.777274,38.292705,0 111.842364,38.304072,0 111.841149,38.320997,0 111.821535,38.336758,0 111.823314,38.369062,0 111.78886,38.387803,0 111.793763,38.402572,0 111.782828,38.421,0 111.79372,38.429723,0 111.793546,38.450827,0 111.728759,38.500024,0 111.725375,38.514161,0 111.769029,38.537129,0 111.749762,38.581884,0 111.719256,38.602335,0 111.706325,38.598318,0 111.684368,38.566603,0 111.609557,38.542184,0 111.565599,38.511907,0 111.551757,38.506849,0 111.522422,38.524763,0 111.505846,38.518975,0 111.503633,38.483873,0 111.468397,38.510384,0 111.450779,38.530306,0 111.44631,38.56362,0 111.432771,38.570256,0 111.373625,38.573057,0 111.348934,38.586815,0 111.346938,38.60343,0 111.276206,38.594301,0 111.25004,38.636041,0 111.248044,38.657449,0 111.227519,38.66736,0 111.219664,38.711791,0 111.202437,38.72935,0 111.151753,38.723882,0 111.123634,38.706505,0 111.071301,38.686327,0 111.025087,38.659334,0 111.003086,38.663225,0 110.985946,38.684321,0 110.949495,38.685841,0 110.955006,38.709482,0 110.945286,38.729471,0 110.915388,38.704256,0 110.916212,38.673987,0 110.896425,38.657814,0 110.880803,38.626916,0 110.896641,38.588276,0 110.919901,38.582067,0 110.909443,38.563194,0 110.907664,38.521107,0 110.871039,38.510201,0 110.87425,38.453693,0 110.840707,38.439971,0 110.825042,38.449424,0 110.796836,38.453449,0 110.777613,38.440886,0 110.758953,38.400436,0 110.750318,38.369489,0 110.70163,38.353309,0 110.668607,38.313666,0 110.638839,38.304745,0 110.601304,38.308167,0 110.577481,38.297228,0 110.567977,38.245752,0 110.56724,38.217553,0 110.558214,38.210517,0 110.523933,38.210517,0 110.507877,38.184937,0 110.510611,38.147223,0 110.521199,38.124438,0 110.501889,38.098092,0 110.508788,38.061927,0 110.501411,38.038993,0 110.508138,38.012862,0 110.527057,37.988133,0 110.518161,37.976409,0 110.522501,37.954922,0 110.547626,37.940307,0 110.587982,37.926611,0 110.607249,37.8962,0 110.650599,37.840013,0 110.660753,37.808028,0 110.680367,37.790061,0 110.735738,37.770366,0 110.755699,37.755037,0 110.750708,37.736133,0 110.716644,37.728681,0 110.703496,37.718642,0 110.706577,37.705335,0 110.739079,37.689439,0 110.775399,37.680873,0 110.796142,37.66306,0 110.793321,37.650791,0 110.763683,37.63957,0 110.772275,37.59269,0 110.794927,37.566154,0 110.771103,37.538373,0 110.771277,37.520155,0 110.759517,37.503477,0 110.758346,37.471161,0 110.74498,37.450763,0 110.648169,37.438151,0 110.629683,37.383659,0 110.641486,37.360081,0 110.695034,37.34962,0 110.693949,37.325907,0 110.678718,37.317918,0 110.690044,37.287071,0 110.661925,37.281991,0 110.65138,37.256583,0 110.584554,37.180681,0 110.540292,37.144626,0 110.535562,37.115136,0 110.498634,37.089797,0 110.460491,37.044749,0 110.425993,37.040833,0 110.424084,37.023924,0 110.450337,37.016463,0 110.441224,37.006141,0 110.412845,37.019261,0 110.383207,37.02181,0 110.377132,37.010245,0 110.405555,36.991464,0 110.424257,36.963719,0 110.410545,36.899481,0 110.432763,36.885406,0 110.461793,36.887212,0 110.469777,36.876748,0 110.499719,36.879613,0 110.534998,36.869958,0 110.539251,36.860426,0 110.558214,36.872325,0 110.574313,36.861485,0 110.604819,36.874941,0 110.630334,36.871889,0 110.647128,36.892568,0 110.648733,36.92339,0 110.661751,36.933723,0 110.717816,36.932602,0 110.725323,36.910813,0 110.765766,36.900166,0 110.776528,36.876685,0 110.791412,36.864475,0 110.838928,36.85893,0 110.89521,36.875938,0 110.896728,36.885966,0 110.926887,36.895433,0 110.937432,36.906393,0 110.971062,36.89618,0 110.99367,36.908011,0 110.989547,36.928245,0 111.00313,36.923514,0 110.999224,36.89892,0 111.014108,36.899792,0 111.020357,36.917475,0 111.042184,36.929117,0 111.080804,36.931109,0 111.09469,36.912744,0 111.084189,36.908074,0 111.06783,36.85513,0 111.096383,36.836622,0 111.114565,36.8355,0 111.135264,36.846032,0 111.18508,36.840361,0 111.181087,36.82746,0 111.200528,36.806264,0 111.211637,36.748944,0 111.229298,36.741207,0 111.243878,36.758116,0 111.277248,36.758552,0 111.274688,36.738523,0 111.325241,36.739959,0 111.323375,36.753811,0 111.356919,36.754559,0 111.365684,36.778264,0 111.414676,36.804019,0 111.414112,36.832944,0 111.420577,36.844287,0 111.455379,36.8484,0 111.464752,36.865285,0 111.487838,36.870331,0 111.505108,36.886527,0 111.543338,36.892506,0 111.584736,36.918783,0 111.570286,36.928868,0 111.541429,36.931856,0 111.540127,36.954448,0 111.512312,36.973487,0 111.498643,36.991277,0 111.527152,36.999052,0 111.541038,36.977655,0 111.552798,36.982258,0 111.580353,36.967016,0 111.637286,36.943183,0 111.647483,36.964528,0 111.679334,36.970252,0 111.680679,36.988043,0 111.735355,36.997559,0 111.759482,37.015468,0 111.791637,37.022556,0 111.826395,37.044314,0 111.845836,37.034182,0 111.88003,37.057178,0 111.906457,37.098493,0 111.923337,37.106256,0 111.934272,37.148971,0 111.951239,37.179441,0 111.946422,37.209402,0 111.958876,37.222238,0 111.956577,37.240281,0 111.942083,37.255406,0 111.972328,37.254042,0 111.980443,37.271271,0 112.014811,37.268668,0 112.04549,37.280008,0 112.049699,37.298594,0 112.06927,37.317485,0 112.095002,37.315441,0 112.102596,37.298718,0 112.117611,37.296116,0 112.12169,37.274493,0 112.139611,37.266499,0 112.177364,37.308071,0 112.217243,37.338229,0 112.259638,37.394115,0 112.263847,37.421331,0 112.286933,37.437533,0 112.327246,37.448352,0 112.33011,37.458923,0</coordinates></LinearRing></outerBoundaryIs>
      </Polygon>
    </MultiGeometry>
    </Placemark>
  </Document>
</kml>
