<?xml version="1.0" encoding="UTF-8"?>
<kml xmlns="http://www.opengis.net/kml/2.2">
  <Document>
    <name><![CDATA[忻州市]]></name>
    <Placemark>
      <name><![CDATA[忻州市]]></name>
      <description><![CDATA[省级目录：山西省]]></description>
      <ExtendedData>
        <Data name="adcode"><value>140900</value></Data>
      </ExtendedData>
      <MultiGeometry>
      <Polygon>
        <outerBoundaryIs><LinearRing><coordinates>111.93028,39.611411,0 111.902031,39.61717,0 111.878902,39.605892,0 111.842538,39.620109,0 111.787645,39.589691,0 111.722684,39.606012,0 111.707844,39.621429,0 111.646528,39.644278,0 111.61663,39.633305,0 111.589596,39.644938,0 111.568637,39.643559,0 111.557615,39.654231,0 111.501941,39.663104,0 111.461541,39.646377,0 111.438108,39.643019,0 111.442751,39.630186,0 111.46293,39.624488,0 111.451951,39.608112,0 111.443359,39.620169,0 111.428952,39.613691,0 111.438803,39.601452,0 111.433205,39.561841,0 111.422487,39.542148,0 111.433986,39.523409,0 111.426479,39.503404,0 111.38864,39.492167,0 111.364165,39.467284,0 111.364079,39.446361,0 111.352449,39.426754,0 111.337218,39.42092,0 111.289268,39.41719,0 111.26206,39.424228,0 111.199356,39.420799,0 111.172192,39.423386,0 111.145331,39.409429,0 111.119598,39.377233,0 111.125587,39.366458,0 111.155051,39.368264,0 111.155398,39.338699,0 111.167505,39.337253,0 111.183648,39.350924,0 111.195017,39.344962,0 111.179438,39.326773,0 111.187987,39.314303,0 111.213806,39.301288,0 111.24748,39.302313,0 111.227171,39.284354,0 111.213546,39.257165,0 111.219013,39.245648,0 111.163079,39.152473,0 111.174144,39.13514,0 111.162515,39.108437,0 111.147327,39.100521,0 111.138345,39.064314,0 111.09417,39.030205,0 111.038235,39.020102,0 110.9984,38.9985,0 110.983299,38.980342,0 111.009899,38.932626,0 111.015714,38.896211,0 111.012329,38.87833,0 110.996013,38.868024,0 111.010116,38.841584,0 110.99649,38.825085,0 110.979133,38.787705,0 110.956308,38.776717,0 110.96503,38.755709,0 110.945286,38.729471,0 110.955006,38.709482,0 110.949495,38.685841,0 110.985946,38.684321,0 111.003086,38.663225,0 111.025087,38.659334,0 111.071301,38.686327,0 111.123634,38.706505,0 111.151753,38.723882,0 111.202437,38.72935,0 111.219664,38.711791,0 111.227519,38.66736,0 111.248044,38.657449,0 111.25004,38.636041,0 111.276206,38.594301,0 111.346938,38.60343,0 111.348934,38.586815,0 111.373625,38.573057,0 111.432771,38.570256,0 111.44631,38.56362,0 111.450779,38.530306,0 111.468397,38.510384,0 111.503633,38.483873,0 111.505846,38.518975,0 111.522422,38.524763,0 111.551757,38.506849,0 111.565599,38.511907,0 111.609557,38.542184,0 111.684368,38.566603,0 111.706325,38.598318,0 111.719256,38.602335,0 111.749762,38.581884,0 111.769029,38.537129,0 111.725375,38.514161,0 111.728759,38.500024,0 111.793546,38.450827,0 111.79372,38.429723,0 111.782828,38.421,0 111.793763,38.402572,0 111.78886,38.387803,0 111.823314,38.369062,0 111.821535,38.336758,0 111.841149,38.320997,0 111.842364,38.304072,0 111.777274,38.292705,0 111.779183,38.248015,0 111.800272,38.235416,0 111.81763,38.214311,0 111.849611,38.214984,0 111.847658,38.229788,0 111.869138,38.220062,0 111.87287,38.193383,0 111.898125,38.198034,0 111.915136,38.180713,0 111.951326,38.167919,0 112.01173,38.184202,0 112.046445,38.171837,0 112.101381,38.167368,0 112.134751,38.140976,0 112.160353,38.15004,0 112.214726,38.132401,0 112.212166,38.143671,0 112.236206,38.142752,0 112.25148,38.150101,0 112.267753,38.182488,0 112.25148,38.219572,0 112.220888,38.250583,0 112.234036,38.26159,0 112.269966,38.267888,0 112.248009,38.291728,0 112.274002,38.31391,0 112.305202,38.3067,0 112.319739,38.310977,0 112.340611,38.303034,0 112.36374,38.278036,0 112.406483,38.266787,0 112.433126,38.280664,0 112.446926,38.27608,0 112.458685,38.249972,0 112.499606,38.237312,0 112.524731,38.249972,0 112.524947,38.267826,0 112.562526,38.239147,0 112.557536,38.223426,0 112.569036,38.21064,0 112.620761,38.20654,0 112.648359,38.227586,0 112.639984,38.246425,0 112.681686,38.235844,0 112.693879,38.241471,0 112.748989,38.242021,0 112.796115,38.251011,0 112.822628,38.287327,0 112.850834,38.306089,0 112.911021,38.321181,0 112.945129,38.333887,0 112.972207,38.357461,0 112.978238,38.342255,0 113.00345,38.343354,0 113.031135,38.367597,0 113.039293,38.381699,0 113.069365,38.388108,0 113.083902,38.399216,0 113.085551,38.415753,0 113.121351,38.421305,0 113.145695,38.411664,0 113.203018,38.415386,0 113.208572,38.42045,0 113.284858,38.451559,0 113.294492,38.468022,0 113.333242,38.485823,0 113.368174,38.495941,0 113.416688,38.517878,0 113.435087,38.520681,0 113.458086,38.510079,0 113.48486,38.508556,0 113.517449,38.519828,0 113.555548,38.521046,0 113.562057,38.558322,0 113.602804,38.586876,0 113.604236,38.616087,0 113.612871,38.646016,0 113.632616,38.65307,0 113.66707,38.646989,0 113.702132,38.651672,0 113.713805,38.663712,0 113.709987,38.698301,0 113.729036,38.711974,0 113.745396,38.701522,0 113.775641,38.709847,0 113.780415,38.728317,0 113.802936,38.7633,0 113.83956,38.758381,0 113.836566,38.795959,0 113.853663,38.810159,0 113.855529,38.828967,0 113.835611,38.842555,0 113.80133,38.854866,0 113.776205,38.885665,0 113.775121,38.919056,0 113.767527,38.959637,0 113.776726,38.98694,0 113.806798,38.989725,0 113.830534,39.011813,0 113.884429,39.051676,0 113.898012,39.067639,0 113.930297,39.063467,0 113.942881,39.087467,0 113.961757,39.100823,0 113.952514,39.127468,0 113.940104,39.20692,0 113.958589,39.222908,0 113.967181,39.281521,0 113.946873,39.295805,0 113.942186,39.30876,0 113.898185,39.345083,0 113.899574,39.373019,0 113.840602,39.370913,0 113.791306,39.378437,0 113.772777,39.390715,0 113.766529,39.405217,0 113.739234,39.420859,0 113.698314,39.418814,0 113.649496,39.434634,0 113.599159,39.424048,0 113.586141,39.441249,0 113.577289,39.438122,0 113.560842,39.426815,0 113.561103,39.404315,0 113.533895,39.384877,0 113.515062,39.346949,0 113.452879,39.33912,0 113.449234,39.321653,0 113.422677,39.332194,0 113.380628,39.30171,0 113.362403,39.314303,0 113.258649,39.314725,0 113.225105,39.296407,0 113.212174,39.295322,0 113.164701,39.307073,0 113.130073,39.325388,0 113.135888,39.343818,0 113.10894,39.361882,0 113.088632,39.36128,0 113.054264,39.349659,0 113.035995,39.321171,0 112.967346,39.297251,0 112.921089,39.287126,0 112.898264,39.246552,0 112.88633,39.238953,0 112.872922,39.212532,0 112.833694,39.206256,0 112.819764,39.174933,0 112.807701,39.173303,0 112.780927,39.192679,0 112.751029,39.183384,0 112.747254,39.158873,0 112.725947,39.140032,0 112.686502,39.126381,0 112.672399,39.13224,0 112.655302,39.119011,0 112.649965,39.089764,0 112.638292,39.08523,0 112.589344,39.088434,0 112.577584,39.113513,0 112.557797,39.11889,0 112.546167,39.138099,0 112.505377,39.140455,0 112.457514,39.112063,0 112.437726,39.104389,0 112.405137,39.114661,0 112.365345,39.108075,0 112.331455,39.12475,0 112.312579,39.115446,0 112.314054,39.100702,0 112.294397,39.099071,0 112.289537,39.112183,0 112.304681,39.119131,0 112.298866,39.129703,0 112.274088,39.126985,0 112.2635,39.175476,0 112.250265,39.18272,0 112.218675,39.175657,0 112.219716,39.203601,0 112.201881,39.211385,0 112.192248,39.229966,0 112.194374,39.249688,0 112.182831,39.266631,0 112.134795,39.27917,0 112.107977,39.270128,0 112.100644,39.255778,0 112.085412,39.253125,0 112.068055,39.282304,0 112.048528,39.29707,0 112.064193,39.304904,0 112.019671,39.357065,0 112.023186,39.368866,0 112.007174,39.383011,0 112.012251,39.40281,0 111.999753,39.413219,0 111.987299,39.448405,0 111.971287,39.446481,0 111.951543,39.46007,0 111.914875,39.463256,0 111.895782,39.497395,0 111.906023,39.517582,0 111.943819,39.525511,0 111.987516,39.526112,0 112.002227,39.537163,0 111.971721,39.567064,0 111.942734,39.585311,0 111.93028,39.611411,0</coordinates></LinearRing></outerBoundaryIs>
      </Polygon>
    </MultiGeometry>
    </Placemark>
  </Document>
</kml>
