<?xml version="1.0" encoding="UTF-8"?>
<kml xmlns="http://www.opengis.net/kml/2.2">
  <Document>
    <name><![CDATA[长治市]]></name>
    <Placemark>
      <name><![CDATA[长治市]]></name>
      <description><![CDATA[省级目录：山西省]]></description>
      <ExtendedData>
        <Data name="adcode"><value>140400</value></Data>
      </ExtendedData>
      <MultiGeometry>
      <Polygon>
        <outerBoundaryIs><LinearRing><coordinates>111.996412,36.687148,0 112.019367,36.67828,0 112.022535,36.654669,0 112.039111,36.636863,0 112.041585,36.60205,0 112.087105,36.580105,0 112.106068,36.544703,0 112.132798,36.524556,0 112.161785,36.512916,0 112.180965,36.458759,0 112.202792,36.417914,0 112.212816,36.409642,0 112.257165,36.410456,0 112.290838,36.383002,0 112.330761,36.365133,0 112.354887,36.34312,0 112.39468,36.345566,0 112.443671,36.342681,0 112.461029,36.313634,0 112.454563,36.304849,0 112.471226,36.287088,0 112.472224,36.270829,0 112.506939,36.259213,0 112.540699,36.255571,0 112.565521,36.27265,0 112.574416,36.263295,0 112.560964,36.224796,0 112.567213,36.188416,0 112.561008,36.162455,0 112.570381,36.132021,0 112.564783,36.114472,0 112.49813,36.082508,0 112.490536,36.068725,0 112.503337,36.032586,0 112.522127,36.031075,0 112.532151,36.038317,0 112.629917,36.062304,0 112.658123,36.043606,0 112.687674,36.005,0 112.714448,36.014637,0 112.739399,35.994416,0 112.797026,35.977529,0 112.824625,35.98717,0 112.873659,35.97608,0 112.880472,35.92691,0 112.910371,35.922559,0 112.967477,35.929748,0 113.039684,35.914802,0 113.065677,35.891022,0 113.122132,35.887111,0 113.140704,35.871463,0 113.199893,35.897835,0 113.204103,35.888878,0 113.239555,35.892158,0 113.263465,35.866983,0 113.2767,35.86326,0 113.3217,35.88566,0 113.353898,35.881496,0 113.377157,35.863007,0 113.389698,35.832899,0 113.41773,35.83372,0 113.445198,35.864901,0 113.47501,35.862187,0 113.504691,35.850763,0 113.526344,35.853351,0 113.570606,35.826396,0 113.585273,35.825765,0 113.606059,35.823744,0 113.623807,35.83151,0 113.641208,35.822482,0 113.661038,35.837255,0 113.658218,35.853919,0 113.644028,35.854866,0 113.637389,35.869886,0 113.654443,35.917199,0 113.647803,35.96713,0 113.636868,35.97589,0 113.648888,35.994164,0 113.686467,35.986414,0 113.695927,35.999897,0 113.680739,36.014826,0 113.695146,36.026793,0 113.670195,36.029501,0 113.661429,36.042913,0 113.685773,36.056009,0 113.673796,36.111578,0 113.655527,36.125102,0 113.693193,36.124222,0 113.713762,36.132964,0 113.706862,36.147365,0 113.681347,36.150698,0 113.679264,36.15994,0 113.651665,36.172199,0 113.697923,36.181879,0 113.68638,36.195517,0 113.705387,36.20067,0 113.698444,36.214305,0 113.677311,36.222535,0 113.703911,36.237799,0 113.70057,36.252306,0 113.716235,36.262604,0 113.709075,36.299703,0 113.723308,36.304849,0 113.736413,36.324677,0 113.728733,36.341427,0 113.729601,36.381623,0 113.708381,36.423365,0 113.670195,36.425119,0 113.629231,36.454688,0 113.587226,36.461014,0 113.582105,36.482931,0 113.55442,36.494701,0 113.559454,36.531001,0 113.566961,36.54414,0 113.58089,36.541075,0 113.588137,36.562719,0 113.569695,36.58592,0 113.539753,36.59411,0 113.545264,36.616865,0 113.535457,36.629239,0 113.486856,36.635238,0 113.477049,36.655232,0 113.502001,36.681528,0 113.507034,36.70488,0 113.477526,36.697263,0 113.465376,36.707752,0 113.4777,36.726416,0 113.499353,36.740583,0 113.536195,36.732345,0 113.543528,36.744327,0 113.521875,36.754435,0 113.510462,36.769781,0 113.495318,36.807199,0 113.461775,36.826151,0 113.418034,36.859304,0 113.399027,36.863042,0 113.378328,36.878928,0 113.360971,36.878616,0 113.372904,36.90714,0 113.331159,36.947602,0 113.311936,36.976535,0 113.294188,36.977406,0 113.280215,36.955754,0 113.254439,36.947602,0 113.227752,36.931233,0 113.214647,36.946669,0 113.211089,36.927872,0 113.1808,36.930424,0 113.176287,36.949905,0 113.153983,36.950589,0 113.156109,36.921958,0 113.109287,36.927249,0 113.089717,36.918783,0 113.067803,36.928494,0 113.040248,36.926004,0 113.008831,36.930486,0 112.967954,36.90633,0 112.928596,36.874381,0 112.897613,36.875004,0 112.877955,36.894,0 112.881904,36.936648,0 112.87201,36.947727,0 112.879604,36.970127,0 112.871056,36.984622,0 112.853308,36.987234,0 112.833086,37.006328,0 112.794336,37.007261,0 112.75897,37.04941,0 112.738792,37.049659,0 112.739616,37.071097,0 112.716835,37.095387,0 112.68251,37.10017,0 112.651397,37.120973,0 112.637467,37.106753,0 112.614425,37.103089,0 112.59377,37.079733,0 112.541047,37.09135,0 112.521389,37.12029,0 112.49813,37.125195,0 112.482248,37.118862,0 112.446448,37.116875,0 112.45222,37.104641,0 112.485633,37.094828,0 112.486153,37.049472,0 112.504943,37.034057,0 112.513188,36.994698,0 112.53866,36.992024,0 112.551027,36.973985,0 112.542782,36.960234,0 112.510454,36.951025,0 112.482422,36.961977,0 112.448488,36.939076,0 112.422452,36.938267,0 112.405007,36.949282,0 112.354887,36.95563,0 112.331889,36.934096,0 112.318957,36.950465,0 112.279035,36.978712,0 112.24866,36.983938,0 112.215854,37.017147,0 112.176366,37.012422,0 112.164172,36.998741,0 112.100817,36.977344,0 112.061372,36.975478,0 112.062761,36.962412,0 112.086107,36.9392,0 112.068402,36.908323,0 112.084024,36.894063,0 112.07656,36.883599,0 112.051348,36.880423,0 112.02887,36.886963,0 112.007651,36.819294,0 111.988297,36.810628,0 111.98552,36.770592,0 112.007781,36.746573,0 111.997497,36.730723,0 111.996412,36.687148,0</coordinates></LinearRing></outerBoundaryIs>
      </Polygon>
    </MultiGeometry>
    </Placemark>
  </Document>
</kml>
