<?xml version="1.0" encoding="UTF-8"?>
<kml xmlns="http://www.opengis.net/kml/2.2">
<Document>
<name>东营市</name>
<Placemark><name>东营市</name><MultiGeometry><Polygon><outerBoundaryIs><LinearRing><coordinates>118.235324000000006,38.082968999999999,0 118.245510999999993,38.103321999999999,0 118.241247000000001,38.112138000000002,0 118.227664000000004,38.119261999999999,0 118.236272,38.125754000000001,0 118.245431999999994,38.144286000000001,0 118.274333999999996,38.138542000000001,0 118.330717000000007,38.125045999999998,0 118.360172000000006,38.120953999999998,0 118.380229999999997,38.119931000000001,0 118.390969999999996,38.123314999999998,0 118.404077999999998,38.120913999999999,0 118.420424999999994,38.107337000000001,0 118.431479999999993,38.106273999999999,0 118.449721999999994,38.124259000000002,0 118.461409000000003,38.126658999999997,0 118.483204000000001,38.123235999999999,0 118.504525999999998,38.113909,0 118.513211999999996,38.104660000000003,0 118.517081000000005,38.088363000000001,0 118.530269000000004,38.073203999999997,0 118.534532999999996,38.063516999999997,0 118.552458999999999,38.055678999999998,0 118.565567999999999,38.060209,0 118.597628999999998,38.078992999999997,0 118.603945999999993,38.101354000000001,0 118.607816,38.129060000000003,0 118.625820000000004,38.138306,0 118.726425000000006,38.154237999999999,0 118.777754000000002,38.156951999999997,0 118.811474000000004,38.157620000000001,0 118.853720999999993,38.154985000000003,0 118.877491000000006,38.149596000000003,0 118.908051,38.139367999999997,0 118.931426000000002,38.127485999999998,0 118.958511999999999,38.110131000000003,0 118.974068000000003,38.094149999999999,0 118.985281999999998,38.062099000000003,0 118.996494999999996,38.013995999999999,0 119.004549999999995,37.992277999999999,0 119.045297000000005,37.967596999999998,0 119.110603999999995,37.921365000000002,0 119.120553999999998,37.897053999999997,0 119.122844000000001,37.866536000000004,0 119.135874000000001,37.827984999999998,0 119.161617000000007,37.819214000000002,0 119.212709000000004,37.838810000000002,0 119.240347999999997,37.878025999999998,0 119.263801000000001,37.881540000000001,0 119.292151000000004,37.869616000000001,0 119.304074999999997,37.845486000000001,0 119.309128999999999,37.805382999999999,0 119.299653000000006,37.755490000000002,0 119.280463999999995,37.692503000000002,0 119.262617000000006,37.660474999999998,0 119.236321000000004,37.652079000000001,0 119.153403999999995,37.655405999999999,0 119.118342999999996,37.648040000000002,0 119.065354999999997,37.641939999999998,0 119.024213000000003,37.6419,0 118.988676999999996,37.620905,0 118.972330999999997,37.594473999999998,0 118.951800000000006,37.556018999999999,0 118.939638000000002,37.527065999999998,0 118.942954999999998,37.497466000000003,0 118.958275,37.454912,0 118.973121000000006,37.404345999999997,0 118.977384999999998,37.382052000000002,0 118.982596999999998,37.378076999999998,0 119.003444000000002,37.383403000000001,0 119.012842000000006,37.376089,0 119.009840999999994,37.370762999999997,0 118.985597999999996,37.365754000000003,0 118.981412000000006,37.359830000000002,0 118.986940000000004,37.339511000000002,0 119.001232999999999,37.318747999999999,0 119.010315000000006,37.313217999999999,0 119.039928000000003,37.304465999999998,0 118.856959000000003,37.293841999999998,0 118.821897000000007,37.288787999999997,0 118.777991,37.280112000000003,0 118.728398999999996,37.252763999999999,0 118.709683999999996,37.241256,0 118.680623999999995,37.229269000000002,0 118.672331999999997,37.215128999999997,0 118.668779000000001,37.198436000000001,0 118.660408000000004,37.187877,0 118.649274000000005,37.189112000000002,0 118.645482999999999,37.178153000000002,0 118.633638000000005,37.171177999999998,0 118.634191000000001,37.163366000000003,0 118.645719999999997,37.159579000000001,0 118.649195000000006,37.164242999999999,0 118.653616999999997,37.149692000000002,0 118.673754000000002,37.144309,0 118.667040999999998,37.11392,0 118.668384000000003,37.091538999999997,0 118.665145999999993,37.081763000000002,0 118.655512000000002,37.082681000000001,0 118.654090999999994,37.076934999999999,0 118.632137999999998,37.070428999999997,0 118.631900999999999,37.066757000000003,0 118.610894999999999,37.063004999999997,0 118.591469000000004,37.068474000000002,0 118.580414000000005,37.063324999999999,0 118.561302999999995,37.063324999999999,0 118.557592,37.051468999999997,0 118.560040000000001,37.041407999999997,0 118.545430999999994,37.038494,0 118.545826000000005,37.023519,0 118.571489999999997,37.022081,0 118.588389000000006,37.017409000000001,0 118.583572000000004,37.008422000000003,0 118.590205999999995,37.001351,0 118.571173999999999,37.004148000000001,0 118.566198999999997,36.999034000000002,0 118.580493000000004,36.994999,0 118.564145999999994,36.994160000000001,0 118.553959000000006,37.000233000000001,0 118.552301,36.979657000000003,0 118.559803000000002,36.977058999999997,0 118.557434000000001,36.965389999999999,0 118.560750999999996,36.946564000000002,0 118.554670000000002,36.938367999999997,0 118.537771000000006,36.936768999999998,0 118.527109999999993,36.939686999999999,0 118.524583000000007,36.945284000000001,0 118.503183000000007,36.944285000000001,0 118.503736000000004,36.951560000000001,0 118.476650000000006,36.957076999999998,0 118.467410999999998,36.945484,0 118.439060999999995,36.942205999999999,0 118.403210000000001,36.943125000000002,0 118.401787999999996,36.949801999999998,0 118.386548000000005,36.950481000000003,0 118.387574000000001,36.971305000000001,0 118.384652000000003,36.974381999999999,0 118.352276000000003,36.974581999999998,0 118.344300000000004,36.960714000000003,0 118.324636999999996,36.964751,0 118.322346999999993,36.974502000000001,0 118.312476000000004,36.970905000000002,0 118.294629,36.969665999999997,0 118.291628000000003,36.995877999999998,0 118.288785000000004,36.999993000000003,0 118.289969999999997,37.009459999999997,0 118.308211999999997,37.019885000000002,0 118.310186000000002,37.028230999999998,0 118.325900000000004,37.035459000000003,0 118.324557999999996,37.046278999999998,0 118.337587999999997,37.053904000000003,0 118.338534999999993,37.072265000000002,0 118.332927999999995,37.081923000000003,0 118.338851000000005,37.093893999999999,0 118.338297999999995,37.103110000000001,0 118.349354000000005,37.101753000000002,0 118.338218999999995,37.123134,0 118.346115999999995,37.123930999999999,0 118.340666999999996,37.131748000000002,0 118.347616000000002,37.139803000000001,0 118.356223999999997,37.139324999999999,0 118.361593999999997,37.148494999999997,0 118.366568999999998,37.146780999999997,0 118.377544999999998,37.154156999999998,0 118.380466999999996,37.175164000000002,0 118.387574000000001,37.177833999999997,0 118.383388999999994,37.190587000000001,0 118.376598000000001,37.196961999999999,0 118.375966000000005,37.206125999999998,0 118.364199999999997,37.210189,0 118.346669000000006,37.233252,0 118.350459000000001,37.243765000000003,0 118.360330000000005,37.244560999999997,0 118.368385000000004,37.258575999999998,0 118.375729000000007,37.258496999999998,0 118.372095999999999,37.273702999999998,0 118.362620000000007,37.273783000000002,0 118.368069000000006,37.279594000000003,0 118.358277000000001,37.280669000000003,0 118.355197000000004,37.286997,0 118.342168000000001,37.287075999999999,0 118.342168000000001,37.295074999999997,0 118.325584000000006,37.296866000000001,0 118.326058000000003,37.306534999999997,0 118.319740999999993,37.305978000000003,0 118.315240000000003,37.314770000000003,0 118.315398000000002,37.352513999999999,0 118.287284999999997,37.352434000000002,0 118.291865000000001,37.358517999999997,0 118.286495000000002,37.362772,0 118.273623999999998,37.360028999999997,0 118.262015000000005,37.364283,0 118.258540999999994,37.379109999999997,0 118.245827000000006,37.376646000000001,0 118.245352999999994,37.367781000000001,0 118.222768000000002,37.367860999999998,0 118.217950999999999,37.371478000000003,0 118.216925000000003,37.385190999999999,0 118.201999999999998,37.382409000000003,0 118.161015000000006,37.362572999999998,0 118.156198000000003,37.364322000000001,0 118.154934999999995,37.377400999999999,0 118.141667999999996,37.376486999999997,0 118.135508999999999,37.384833999999998,0 118.144036999999997,37.392822000000002,0 118.161410000000004,37.389961,0 118.160146999999995,37.399617999999997,0 118.165595999999994,37.408200000000001,0 118.163937000000004,37.416741999999999,0 118.149959999999993,37.438350999999997,0 118.136140999999995,37.441687999999999,0 118.114897999999997,37.439742000000003,0 118.118531000000004,37.456181999999998,0 118.125321999999997,37.459119999999999,0 118.112765999999993,37.463527999999997,0 118.120425999999995,37.480756999999997,0 118.128480999999994,37.483694,0 118.127848999999998,37.491830999999998,0 118.135035000000002,37.496752000000001,0 118.134245000000007,37.507387000000001,0 118.139377999999994,37.507427,0 118.136771999999993,37.516790999999998,0 118.142537000000004,37.518932999999997,0 118.150987000000001,37.530517000000003,0 118.156987999999998,37.530358,0 118.159830999999997,37.539164,0 118.173254999999997,37.546858,0 118.176097999999996,37.557129000000003,0 118.173175999999998,37.563592999999997,0 118.141430999999997,37.556297000000001,0 118.134165999999993,37.558478000000001,0 118.139219999999995,37.571364000000003,0 118.131324000000006,37.571285000000003,0 118.127611999999999,37.578102999999999,0 118.134877000000003,37.590035,0 118.148696000000001,37.594078000000003,0 118.146721999999997,37.599943000000003,0 118.154934999999995,37.605491000000001,0 118.157461999999995,37.620350000000002,0 118.154934999999995,37.628036000000002,0 118.163542000000007,37.630690000000001,0 118.165595999999994,37.644632999999999,0 118.172545,37.644078999999998,0 118.177125000000004,37.657623000000001,0 118.195445000000007,37.661741999999997,0 118.200657000000007,37.667403999999998,0 118.207448999999997,37.661583,0 118.22569,37.663682000000001,0 118.239430999999996,37.65596,0 118.246459000000002,37.658375999999997,0 118.260988999999995,37.654614000000002,0 118.284599999999998,37.662058000000002,0 118.293128999999993,37.670096000000001,0 118.294076000000004,37.678528999999997,0 118.305132,37.683121999999997,0 118.304500000000004,37.690722000000001,0 118.316186999999999,37.714151000000001,0 118.319424999999995,37.712924000000001,0 118.317530000000005,37.728394999999999,0 118.337508999999997,37.729501999999997,0 118.341931000000002,37.746670000000002,0 118.353696999999997,37.750151000000002,0 118.353065000000001,37.758139999999997,0 118.340666999999996,37.763913000000002,0 118.340587999999997,37.774391000000001,0 118.348405999999997,37.790719000000003,0 118.361909999999995,37.792062999999999,0 118.352355000000003,37.814273999999997,0 118.356381999999996,37.820833999999998,0 118.344932,37.824627,0 118.346115999999995,37.832371000000002,0 118.334271000000001,37.832134000000003,0 118.340192999999999,37.838059000000001,0 118.328111000000007,37.865271999999997,0 118.313265000000001,37.861521000000003,0 118.301657000000006,37.870207999999998,0 118.286337000000003,37.856900000000003,0 118.269754000000006,37.853109000000003,0 118.258303999999995,37.844182000000004,0 118.258145999999996,37.854886,0 118.247642999999997,37.871788000000002,0 118.248749000000004,37.858164000000002,0 118.239114999999998,37.868707999999998,0 118.236587999999998,37.884501,0 118.243142000000006,37.895673000000002,0 118.235403000000005,37.905343000000002,0 118.232718000000006,37.922508999999998,0 118.225611000000001,37.923417000000001,0 118.226954000000006,37.939672000000002,0 118.224742000000006,37.950558999999998,0 118.215502999999998,37.949376000000001,0 118.213528999999994,37.955410000000001,0 118.223478999999998,37.959788000000003,0 118.220872999999997,37.982579999999999,0 118.229560000000006,37.986443999999999,0 118.223399999999998,38.000950000000003,0 118.227585000000005,38.037874000000002,0 118.230665000000002,38.056742999999997,0 118.226637999999994,38.079583,0 118.235324000000006,38.082968999999999,0</coordinates></LinearRing></outerBoundaryIs><innerBoundaryIs><LinearRing><coordinates>118.407790000000006,38.026212000000001,0 118.419950999999998,38.025503,0 118.419319000000002,38.053119000000002,0 118.410000999999994,38.053277000000001,0 118.407790000000006,38.026212000000001,0</coordinates></LinearRing></innerBoundaryIs></Polygon></MultiGeometry></Placemark>
</Document>
</kml>