<?xml version="1.0" encoding="UTF-8"?>
<kml xmlns="http://www.opengis.net/kml/2.2">
  <Document>
    <name>临沂市</name>
    <Placemark>
      <name>临沂市</name>
      <Polygon><outerBoundaryIs><LinearRing><coordinates>119.203233000000,35.110894000000,0 119.196679000000,35.129919000000,0 119.189967000000,35.138101000000,0 119.174252000000,35.139042000000,0 119.164223000000,35.143173000000,0 119.163433000000,35.154134000000,0 119.173146000000,35.161700000000,0 119.164855000000,35.166525000000,0 119.157274000000,35.182430000000,0 119.149219000000,35.189298000000,0 119.135400000000,35.191669000000,0 119.139032000000,35.202338000000,0 119.161301000000,35.204136000000,0 119.170225000000,35.212310000000,0 119.174568000000,35.230331000000,0 119.182149000000,35.241852000000,0 119.181991000000,35.252310000000,0 119.187519000000,35.258192000000,0 119.179543000000,35.287595000000,0 119.164065000000,35.289554000000,0 119.155931000000,35.293882000000,0 119.157669000000,35.301721000000,0 119.143218000000,35.314048000000,0 119.141322000000,35.320823000000,0 119.148193000000,35.326741000000,0 119.146455000000,35.334862000000,0 119.133741000000,35.335596000000,0 119.105708000000,35.330659000000,0 119.096153000000,35.326864000000,0 119.087229000000,35.340575000000,0 119.085571000000,35.354243000000,0 119.078385000000,35.357506000000,0 119.075542000000,35.366113000000,0 119.065750000000,35.364563000000,0 119.048930000000,35.371498000000,0 119.044587000000,35.377004000000,0 119.024371000000,35.386873000000,0 118.999654000000,35.388953000000,0 118.984413000000,35.382224000000,0 118.988520000000,35.366970000000,0 118.986861000000,35.353141000000,0 118.973042000000,35.340167000000,0 118.961828000000,35.334168000000,0 118.947219000000,35.336943000000,0 118.930478000000,35.331271000000,0 118.923213000000,35.339187000000,0 118.921950000000,35.348408000000,0 118.904814000000,35.355507000000,0 118.889573000000,35.357261000000,0 118.871015000000,35.367215000000,0 118.874174000000,35.388464000000,0 118.865725000000,35.391685000000,0 118.859644000000,35.381694000000,0 118.843140000000,35.370804000000,0 118.816764000000,35.373292000000,0 118.797575000000,35.369417000000,0 118.784151000000,35.371049000000,0 118.776412000000,35.376270000000,0 118.768989000000,35.368031000000,0 118.739455000000,35.359505000000,0 118.723898000000,35.368479000000,0 118.712527000000,35.363544000000,0 118.709605000000,35.369825000000,0 118.696891000000,35.379818000000,0 118.682914000000,35.368642000000,0 118.652274000000,35.373578000000,0 118.632059000000,35.368438000000,0 118.625425000000,35.370315000000,0 118.624952000000,35.387036000000,0 118.606157000000,35.390747000000,0 118.601419000000,35.414517000000,0 118.619029000000,35.423118000000,0 118.635691000000,35.421039000000,0 118.642246000000,35.425156000000,0 118.632611000000,35.430903000000,0 118.628900000000,35.449324000000,0 118.648010000000,35.453276000000,0 118.651011000000,35.458614000000,0 118.662066000000,35.461547000000,0 118.667831000000,35.456821000000,0 118.693575000000,35.459103000000,0 118.698234000000,35.455436000000,0 118.709131000000,35.457677000000,0 118.723898000000,35.468758000000,0 118.734322000000,35.486070000000,0 118.725004000000,35.496578000000,0 118.698865000000,35.513558000000,0 118.696575000000,35.528622000000,0 118.725083000000,35.553205000000,0 118.724056000000,35.562972000000,0 118.734875000000,35.569767000000,0 118.740560000000,35.581484000000,0 118.735822000000,35.593443000000,0 118.739692000000,35.624960000000,0 118.751458000000,35.640409000000,0 118.766620000000,35.653539000000,0 118.791416000000,35.682960000000,0 118.794101000000,35.697504000000,0 118.806499000000,35.718056000000,0 118.804209000000,35.728655000000,0 118.798918000000,35.730117000000,0 118.757223000000,35.725935000000,0 118.743482000000,35.729346000000,0 118.722161000000,35.731010000000,0 118.707078000000,35.738075000000,0 118.703288000000,35.745221000000,0 118.706525000000,35.765152000000,0 118.702182000000,35.772295000000,0 118.700603000000,35.791367000000,0 118.716712000000,35.807230000000,0 118.724609000000,35.820454000000,0 118.722082000000,35.834932000000,0 118.732822000000,35.848111000000,0 118.749800000000,35.849489000000,0 118.754380000000,35.853544000000,0 118.756038000000,35.877379000000,0 118.765198000000,35.898331000000,0 118.777281000000,35.896791000000,0 118.775148000000,35.917251000000,0 118.805709000000,35.923854000000,0 118.804130000000,35.939731000000,0 118.813922000000,35.948761000000,0 118.837217000000,35.948883000000,0 118.883571000000,35.957305000000,0 118.893047000000,35.963257000000,0 118.897312000000,35.976050000000,0 118.879860000000,35.992321000000,0 118.896048000000,36.006404000000,0 118.956853000000,36.008427000000,0 118.981886000000,36.017409000000,0 118.999022000000,36.038404000000,0 119.012526000000,36.035330000000,0 119.024134000000,36.026310000000,0 119.035584000000,36.022750000000,0 119.047903000000,36.024813000000,0 119.052089000000,36.037838000000,0 119.040322000000,36.042934000000,0 119.042534000000,36.055512000000,0 119.049641000000,36.066632000000,0 119.063539000000,36.075042000000,0 119.066935000000,36.081631000000,0 119.048851000000,36.092707000000,0 119.038506000000,36.090444000000,0 119.020344000000,36.104307000000,0 119.013868000000,36.098810000000,0 119.000523000000,36.099497000000,0 118.988756000000,36.092343000000,0 118.970278000000,36.098730000000,0 118.970041000000,36.104671000000,0 118.958512000000,36.104145000000,0 118.954642000000,36.111500000000,0 118.943271000000,36.119582000000,0 118.936322000000,36.113440000000,0 118.916185000000,36.111702000000,0 118.920765000000,36.105721000000,0 118.908288000000,36.091292000000,0 118.886493000000,36.088584000000,0 118.880886000000,36.084380000000,0 118.875911000000,36.091535000000,0 118.860513000000,36.101316000000,0 118.865961000000,36.113682000000,0 118.860197000000,36.114733000000,0 118.858302000000,36.129966000000,0 118.863908000000,36.139298000000,0 118.858302000000,36.143256000000,0 118.859802000000,36.162320000000,0 118.854590000000,36.170194000000,0 118.846614000000,36.172092000000,0 118.844561000000,36.184730000000,0 118.848746000000,36.188606000000,0 118.847009000000,36.199263000000,0 118.835796000000,36.203138000000,0 118.809026000000,36.198738000000,0 118.802076000000,36.202855000000,0 118.785730000000,36.197487000000,0 118.766383000000,36.206649000000,0 118.745535000000,36.191754000000,0 118.751142000000,36.183115000000,0 118.741824000000,36.165551000000,0 118.733532000000,36.166802000000,0 118.732980000000,36.151900000000,0 118.736454000000,36.146528000000,0 118.726030000000,36.141035000000,0 118.714659000000,36.154485000000,0 118.703761000000,36.150446000000,0 118.701235000000,36.144509000000,0 118.679913000000,36.152062000000,0 118.683388000000,36.158564000000,0 118.675491000000,36.170194000000,0 118.666015000000,36.168983000000,0 118.653143000000,36.176695000000,0 118.644299000000,36.177018000000,0 118.640824000000,36.171042000000,0 118.622109000000,36.177180000000,0 118.606236000000,36.164218000000,0 118.581914000000,36.151456000000,0 118.572201000000,36.156424000000,0 118.563988000000,36.147094000000,0 118.565015000000,36.130087000000,0 118.556881000000,36.130935000000,0 118.541719000000,36.124996000000,0 118.535797000000,36.118531000000,0 118.515502000000,36.109884000000,0 118.509974000000,36.114612000000,0 118.504762000000,36.105802000000,0 118.526716000000,36.104671000000,0 118.529479000000,36.093879000000,0 118.522925000000,36.084784000000,0 118.507842000000,36.074961000000,0 118.516608000000,36.068573000000,0 118.513449000000,36.064085000000,0 118.522214000000,36.053490000000,0 118.522609000000,36.043622000000,0 118.516845000000,36.026107000000,0 118.507447000000,36.029789000000,0 118.503341000000,36.024246000000,0 118.489206000000,36.025784000000,0 118.476097000000,36.031407000000,0 118.469859000000,36.022992000000,0 118.476571000000,36.012797000000,0 118.487074000000,36.005797000000,0 118.492680000000,35.995437000000,0 118.486521000000,35.988759000000,0 118.499393000000,35.976212000000,0 118.505157000000,35.965808000000,0 118.502157000000,35.962488000000,0 118.470964000000,35.960868000000,0 118.459356000000,35.952689000000,0 118.430612000000,35.969694000000,0 118.415213000000,35.990783000000,0 118.387021000000,35.987586000000,0 118.382283000000,35.975078000000,0 118.360725000000,35.970908000000,0 118.352828000000,35.956698000000,0 118.344774000000,35.955888000000,0 118.320136000000,35.946575000000,0 118.314134000000,35.950827000000,0 118.303552000000,35.948923000000,0 118.293523000000,35.937503000000,0 118.281362000000,35.935964000000,0 118.269280000000,35.928512000000,0 118.257593000000,35.925717000000,0 118.257119000000,35.930699000000,0 118.245906000000,35.932157000000,0 118.236904000000,35.939245000000,0 118.236351000000,35.947749000000,0 118.225690000000,35.948235000000,0 118.209897000000,35.955767000000,0 118.207054000000,35.964391000000,0 118.193787000000,35.974026000000,0 118.206106000000,35.978640000000,0 118.197578000000,36.004947000000,0 118.178388000000,36.017005000000,0 118.135588000000,36.023640000000,0 118.132666000000,36.030436000000,0 118.109370000000,36.030031000000,0 118.096104000000,36.024246000000,0 118.093261000000,36.014618000000,0 118.084338000000,36.012149000000,0 118.078415000000,36.017652000000,0 118.075888000000,36.009034000000,0 118.066807000000,36.009155000000,0 118.058989000000,35.992968000000,0 118.042248000000,35.986371000000,0 118.032693000000,35.974268000000,0 118.032930000000,35.964998000000,0 118.022980000000,35.958965000000,0 118.021084000000,35.949004000000,0 117.988471000000,35.947709000000,0 117.997394000000,35.934587000000,0 117.999210000000,35.925393000000,0 117.988234000000,35.908703000000,0 117.981364000000,35.906191000000,0 117.979310000000,35.889699000000,0 117.968097000000,35.884066000000,0 117.960516000000,35.870570000000,0 117.937615000000,35.874826000000,0 117.924586000000,35.880946000000,0 117.906265000000,35.884634000000,0 117.883364000000,35.882648000000,0 117.866860000000,35.869840000000,0 117.855410000000,35.850219000000,0 117.842143000000,35.845070000000,0 117.827376000000,35.827754000000,0 117.828403000000,35.821792000000,0 117.840959000000,35.812058000000,0 117.846092000000,35.796398000000,0 117.831167000000,35.786661000000,0 117.828482000000,35.773837000000,0 117.833694000000,35.760484000000,0 117.837405000000,35.741445000000,0 117.823033000000,35.739496000000,0 117.811504000000,35.732919000000,0 117.781733000000,35.734096000000,0 117.769019000000,35.726625000000,0 117.754173000000,35.709609000000,0 117.732615000000,35.712370000000,0 117.707424000000,35.726016000000,0 117.679154000000,35.713305000000,0 117.663913000000,35.709690000000,0 117.634616000000,35.709324000000,0 117.625850000000,35.703841000000,0 117.605319000000,35.674834000000,0 117.599001000000,35.649149000000,0 117.596948000000,35.630449000000,0 117.588893000000,35.619878000000,0 117.585577000000,35.593972000000,0 117.592763000000,35.589701000000,0 117.590394000000,35.573551000000,0 117.593473000000,35.567448000000,0 117.582418000000,35.554141000000,0 117.528641000000,35.547182000000,0 117.515058000000,35.551008000000,0 117.499502000000,35.550845000000,0 117.496264000000,35.543031000000,0 117.504240000000,35.531675000000,0 117.516401000000,35.527319000000,0 117.520033000000,35.519910000000,0 117.513795000000,35.514576000000,0 117.501634000000,35.512947000000,0 117.498396000000,35.503093000000,0 117.481734000000,35.507898000000,0 117.472416000000,35.514372000000,0 117.467441000000,35.512255000000,0 117.462703000000,35.497922000000,0 117.452279000000,35.490306000000,0 117.442171000000,35.469247000000,0 117.428510000000,35.458614000000,0 117.453779000000,35.442396000000,0 117.455833000000,35.424953000000,0 117.467441000000,35.418186000000,0 117.474785000000,35.400941000000,0 117.463334000000,35.390380000000,0 117.463887000000,35.375617000000,0 117.439644000000,35.359668000000,0 117.439012000000,35.348939000000,0 117.446988000000,35.330292000000,0 117.453937000000,35.325027000000,0 117.478891000000,35.314375000000,0 117.463098000000,35.287472000000,0 117.439565000000,35.282368000000,0 117.419191000000,35.273997000000,0 117.426456000000,35.261786000000,0 117.439486000000,35.258927000000,0 117.449752000000,35.246795000000,0 117.448331000000,35.231842000000,0 117.468073000000,35.228369000000,0 117.480628000000,35.222771000000,0 117.494843000000,35.205893000000,0 117.507162000000,35.198986000000,0 117.526825000000,35.200621000000,0 117.528009000000,35.184351000000,0 117.548462000000,35.161741000000,0 117.556043000000,35.161291000000,0 117.570336000000,35.168365000000,0 117.583760000000,35.164317000000,0 117.586208000000,35.152989000000,0 117.591025000000,35.152539000000,0 117.600344000000,35.135524000000,0 117.604371000000,35.134010000000,0 117.623007000000,35.113063000000,0 117.650725000000,35.092724000000,0 117.656885000000,35.077497000000,0 117.676469000000,35.065543000000,0 117.693210000000,35.060180000000,0 117.707345000000,35.052318000000,0 117.704423000000,35.031227000000,0 117.736247000000,35.031514000000,0 117.744618000000,35.022748000000,0 117.737985000000,35.013203000000,0 117.728035000000,35.008041000000,0 117.726534000000,34.979561000000,0 117.719506000000,34.968331000000,0 117.724323000000,34.958329000000,0 117.714689000000,34.947833000000,0 117.712004000000,34.934999000000,0 117.704265000000,34.933605000000,0 117.698501000000,34.919989000000,0 117.704660000000,34.906699000000,0 117.715163000000,34.896238000000,0 117.729298000000,34.876994000000,0 117.742407000000,34.874163000000,0 117.752910000000,34.857623000000,0 117.763175000000,34.848839000000,0 117.795315000000,34.835907000000,0 117.803686000000,34.830734000000,0 117.798632000000,34.810653000000,0 117.777390000000,34.801248000000,0 117.784023000000,34.794840000000,0 117.784576000000,34.780667000000,0 117.799580000000,34.768875000000,0 117.830614000000,34.760246000000,0 117.830061000000,34.740888000000,0 117.823665000000,34.728680000000,0 117.825244000000,34.713139000000,0 117.831719000000,34.707793000000,0 117.825639000000,34.684392000000,0 117.819243000000,34.681842000000,0 117.805818000000,34.646254000000,0 117.820111000000,34.646172000000,0 117.831798000000,34.653455000000,0 117.834483000000,34.647324000000,0 117.847513000000,34.652386000000,0 117.849408000000,34.647201000000,0 117.863465000000,34.645184000000,0 117.877916000000,34.650205000000,0 117.880995000000,34.645184000000,0 117.903106000000,34.644567000000,0 117.909740000000,34.670160000000,0 117.939669000000,34.664852000000,0 117.951672000000,34.678469000000,0 117.963280000000,34.678552000000,0 117.991708000000,34.670077000000,0 117.990840000000,34.661726000000,0 118.007423000000,34.656130000000,0 118.007818000000,34.647530000000,0 118.018242000000,34.647036000000,0 118.020690000000,34.660409000000,0 118.053935000000,34.650945000000,0 118.057410000000,34.655019000000,0 118.077783000000,34.653702000000,0 118.084022000000,34.655924000000,0 118.102658000000,34.647736000000,0 118.094603000000,34.636583000000,0 118.100526000000,34.626582000000,0 118.113003000000,34.621437000000,0 118.114740000000,34.614397000000,0 118.102816000000,34.593441000000,0 118.082363000000,34.579893000000,0 118.078968000000,34.569761000000,0 118.100447000000,34.564736000000,0 118.126428000000,34.555220000000,0 118.137167000000,34.563253000000,0 118.140721000000,34.554025000000,0 118.153671000000,34.549164000000,0 118.163542000000,34.551471000000,0 118.184706000000,34.544179000000,0 118.167570000000,34.519701000000,0 118.164964000000,34.504904000000,0 118.141826000000,34.497154000000,0 118.132824000000,34.483425000000,0 118.139931000000,34.475344000000,0 118.177757000000,34.453238000000,0 118.178862000000,34.425186000000,0 118.177125000000,34.408722000000,0 118.170413000000,34.381356000000,0 118.179336000000,34.379416000000,0 118.183363000000,34.390355000000,0 118.189602000000,34.380654000000,0 118.204369000000,34.377352000000,0 118.217714000000,34.379127000000,0 118.220241000000,34.405957000000,0 118.230981000000,34.398693000000,0 118.242431000000,34.405709000000,0 118.277414000000,34.404677000000,0 118.279862000000,34.412188000000,0 118.289180000000,34.412271000000,0 118.290681000000,34.424567000000,0 118.320925000000,34.421349000000,0 118.352197000000,34.422834000000,0 118.353223000000,34.417470000000,0 118.379993000000,34.415531000000,0 118.395155000000,34.427084000000,0 118.404947000000,34.427744000000,0 118.405342000000,34.437027000000,0 118.411344000000,34.446391000000,0 118.416240000000,34.473859000000,0 118.421372000000,34.483219000000,0 118.430928000000,34.489074000000,0 118.439535000000,34.507996000000,0 118.440956000000,34.524770000000,0 118.428322000000,34.563253000000,0 118.423820000000,34.591094000000,0 118.439219000000,34.626294000000,0 118.452881000000,34.617691000000,0 118.463620000000,34.625265000000,0 118.473807000000,34.623412000000,0 118.474913000000,34.637201000000,0 118.466463000000,34.643127000000,0 118.460856000000,34.657570000000,0 118.468437000000,34.674315000000,0 118.484231000000,34.670900000000,0 118.500814000000,34.675178000000,0 118.508158000000,34.687066000000,0 118.522688000000,34.692289000000,0 118.525215000000,34.712563000000,0 118.539350000000,34.711494000000,0 118.546063000000,34.706190000000,0 118.558934000000,34.706847000000,0 118.570464000000,34.712522000000,0 118.601340000000,34.714167000000,0 118.604894000000,34.696484000000,0 118.633717000000,34.687025000000,0 118.650537000000,34.695086000000,0 118.664357000000,34.693441000000,0 118.681335000000,34.678346000000,0 118.690258000000,34.678593000000,0 118.704077000000,34.688752000000,0 118.720108000000,34.694222000000,0 118.739376000000,34.693770000000,0 118.758723000000,34.703434000000,0 118.783440000000,34.722061000000,0 118.768515000000,34.738093000000,0 118.759197000000,34.740847000000,0 118.740087000000,34.736901000000,0 118.730374000000,34.745451000000,0 118.719239000000,34.745533000000,0 118.716475000000,34.763821000000,0 118.727215000000,34.768752000000,0 118.738507000000,34.766862000000,0 118.740166000000,34.781243000000,0 118.728399000000,34.786871000000,0 118.737560000000,34.792088000000,0 118.756512000000,34.789541000000,0 118.773569000000,34.795333000000,0 118.779018000000,34.809627000000,0 118.776649000000,34.818785000000,0 118.781940000000,34.827490000000,0 118.768278000000,34.838822000000,0 118.768989000000,34.846129000000,0 118.802471000000,34.845637000000,0 118.805235000000,34.873055000000,0 118.829715000000,34.911129000000,0 118.860750000000,34.943979000000,0 118.859249000000,34.962633000000,0 118.865093000000,34.993208000000,0 118.862487000000,35.025697000000,0 118.865330000000,35.029834000000,0 118.885782000000,35.034258000000,0 118.903787000000,35.041343000000,0 118.911131000000,35.047773000000,0 118.928504000000,35.050885000000,0 118.945166000000,35.040811000000,0 118.965619000000,35.046462000000,0 118.992152000000,35.048182000000,0 118.999891000000,35.053055000000,0 119.027214000000,35.055307000000,0 119.037401000000,35.051335000000,0 119.061407000000,35.051581000000,0 119.073647000000,35.056659000000,0 119.114631000000,35.054980000000,0 119.120396000000,35.058010000000,0 119.120475000000,35.070088000000,0 119.129477000000,35.076187000000,0 119.138085000000,35.096285000000,0 119.159011000000,35.100991000000,0 119.171409000000,35.107170000000,0 119.203233000000,35.110894000000,0</coordinates></LinearRing></outerBoundaryIs></Polygon>
    </Placemark>
  </Document>
</kml>
