<?xml version="1.0" encoding="UTF-8"?>
<kml xmlns="http://www.opengis.net/kml/2.2">
  <Document>
    <name>山东省 全省轮廓</name>
    <Placemark>
      <name>山东省 全省轮廓</name>
      <MultiGeometry><Polygon><outerBoundaryIs><LinearRing><coordinates>117.791446000000,34.585082000000,0 117.794605000000,34.559751000000,0 117.793499000000,34.548463000000,0 117.799185000000,34.535155000000,0 117.801712000000,34.518753000000,0 117.790498000000,34.518918000000,0 117.773994000000,34.529056000000,0 117.748645000000,34.533383000000,0 117.700712000000,34.545250000000,0 117.684523000000,34.547351000000,0 117.681996000000,34.529551000000,0 117.673389000000,34.515827000000,0 117.659096000000,34.501071000000,0 117.647014000000,34.492908000000,0 117.642039000000,34.496825000000,0 117.629246000000,34.488538000000,0 117.609662000000,34.490476000000,0 117.603187000000,34.476828000000,0 117.592289000000,34.462518000000,0 117.569783000000,34.463054000000,0 117.561334000000,34.471962000000,0 117.547830000000,34.475179000000,0 117.538275000000,34.467220000000,0 117.513005000000,34.472581000000,0 117.493263000000,34.472663000000,0 117.487341000000,34.466354000000,0 117.486630000000,34.482065000000,0 117.482050000000,34.485940000000,0 117.465467000000,34.484580000000,0 117.451410000000,34.506264000000,0 117.438223000000,34.516445000000,0 117.439486000000,34.520031000000,0 117.426772000000,34.525224000000,0 117.424482000000,34.537009000000,0 117.403793000000,34.546898000000,0 117.402529000000,34.569431000000,0 117.392342000000,34.574909000000,0 117.370863000000,34.584670000000,0 117.364941000000,34.577710000000,0 117.352937000000,34.584052000000,0 117.344014000000,34.582075000000,0 117.325378000000,34.570996000000,0 117.333037000000,34.561770000000,0 117.321350000000,34.565436000000,0 117.303030000000,34.558927000000,0 117.308400000000,34.571903000000,0 117.281629000000,34.563829000000,0 117.272864000000,34.556703000000,0 117.279734000000,34.552748000000,0 117.288579000000,34.555797000000,0 117.303030000000,34.548999000000,0 117.302477000000,34.541253000000,0 117.285341000000,34.533012000000,0 117.268047000000,34.532806000000,0 117.275075000000,34.519619000000,0 117.269705000000,34.511664000000,0 117.274364000000,34.503544000000,0 117.259282000000,34.497360000000,0 117.267494000000,34.480003000000,0 117.263625000000,34.472622000000,0 117.256044000000,34.476292000000,0 117.252332000000,34.486518000000,0 117.242698000000,34.478519000000,0 117.255096000000,34.472539000000,0 117.255886000000,34.462023000000,0 117.247910000000,34.451052000000,0 117.234644000000,34.454476000000,0 117.222325000000,34.450599000000,0 117.222088000000,34.445731000000,0 117.200214000000,34.441606000000,0 117.199503000000,34.434510000000,0 117.166099000000,34.434675000000,0 117.159861000000,34.453115000000,0 117.156623000000,34.480910000000,0 117.145963000000,34.503956000000,0 117.139803000000,34.522875000000,0 117.140593000000,34.538699000000,0 117.151253000000,34.559257000000,0 117.147621000000,34.570255000000,0 117.133486000000,34.586070000000,0 117.123694000000,34.604682000000,0 117.115244000000,34.628146000000,0 117.103952000000,34.648970000000,0 117.095897000000,34.647530000000,0 117.081525000000,34.638188000000,0 117.072996000000,34.639094000000,0 117.062336000000,34.657735000000,0 117.061704000000,34.675713000000,0 117.072049000000,34.694181000000,0 117.077340000000,34.696484000000,0 117.069048000000,34.708287000000,0 117.070469000000,34.713714000000,0 117.061151000000,34.723993000000,0 117.043225000000,34.736531000000,0 117.021904000000,34.759219000000,0 116.995687000000,34.758274000000,0 116.989685000000,34.765136000000,0 116.978472000000,34.763616000000,0 116.976814000000,34.771259000000,0 116.967890000000,34.772984000000,0 116.965837000000,34.785063000000,0 116.951623000000,34.794553000000,0 116.951149000000,34.810571000000,0 116.971681000000,34.811885000000,0 116.979183000000,34.814966000000,0 116.966074000000,34.844487000000,0 116.928880000000,34.842886000000,0 116.930144000000,34.859675000000,0 116.933776000000,34.861933000000,0 116.976892000000,34.868541000000,0 116.966943000000,34.875599000000,0 116.945226000000,34.876789000000,0 116.945305000000,34.873794000000,0 116.922168000000,34.871413000000,0 116.922326000000,34.894515000000,0 116.899030000000,34.904689000000,0 116.876129000000,34.912524000000,0 116.858125000000,34.928355000000,0 116.822115000000,34.929299000000,0 116.815877000000,34.965298000000,0 116.805769000000,34.968372000000,0 116.806796000000,34.936926000000,0 116.812166000000,34.927986000000,0 116.798899000000,34.928520000000,0 116.803242000000,34.937377000000,0 116.801979000000,34.970503000000,0 116.789107000000,34.975094000000,0 116.789107000000,34.959804000000,0 116.781605000000,34.961895000000,0 116.785474000000,34.947300000000,0 116.796925000000,34.944143000000,0 116.797635000000,34.938771000000,0 116.786975000000,34.940453000000,0 116.781210000000,34.916585000000,0 116.764627000000,34.916462000000,0 116.735172000000,34.924623000000,0 116.720405000000,34.926141000000,0 116.706191000000,34.933974000000,0 116.696951000000,34.932743000000,0 116.677999000000,34.939182000000,0 116.675709000000,34.933154000000,0 116.658415000000,34.933441000000,0 116.657862000000,34.929012000000,0 116.640016000000,34.932579000000,0 116.631803000000,34.940740000000,0 116.622485000000,34.940043000000,0 116.613877000000,34.922778000000,0 116.560100000000,34.909324000000,0 116.546123000000,34.909406000000,0 116.523064000000,34.903951000000,0 116.502769000000,34.906125000000,0 116.500558000000,34.901120000000,0 116.480737000000,34.897387000000,0 116.455784000000,34.900628000000,0 116.445044000000,34.895418000000,0 116.445281000000,34.888648000000,0 116.436042000000,34.883026000000,0 116.409745000000,34.852944000000,0 116.406350000000,34.820140000000,0 116.403191000000,34.756301000000,0 116.371525000000,34.750136000000,0 116.365681000000,34.742779000000,0 116.368445000000,34.725309000000,0 116.363786000000,34.715195000000,0 116.377053000000,34.718155000000,0 116.391820000000,34.710343000000,0 116.392688000000,34.703887000000,0 116.385502000000,34.694716000000,0 116.385186000000,34.686696000000,0 116.378079000000,34.684146000000,0 116.378237000000,34.668020000000,0 116.364418000000,34.651851000000,0 116.374210000000,34.639958000000,0 116.372157000000,34.633455000000,0 116.350914000000,34.621148000000,0 116.334015000000,34.620902000000,0 116.324934000000,34.601100000000,0 116.310878000000,34.601429000000,0 116.301086000000,34.607769000000,0 116.286082000000,34.608799000000,0 116.278659000000,34.602129000000,0 116.274868000000,34.584629000000,0 116.266024000000,34.583764000000,0 116.259154000000,34.567619000000,0 116.252915000000,34.565724000000,0 116.247703000000,34.551759000000,0 116.233410000000,34.555137000000,0 116.216906000000,34.575115000000,0 116.199059000000,34.577463000000,0 116.190136000000,34.570502000000,0 116.156653000000,34.553737000000,0 116.146861000000,34.553201000000,0 116.134542000000,34.559710000000,0 116.124829000000,34.572314000000,0 116.117880000000,34.589776000000,0 116.101297000000,34.605793000000,0 116.082661000000,34.608305000000,0 116.055101000000,34.595417000000,0 116.037570000000,34.593029000000,0 116.023908000000,34.601964000000,0 116.010168000000,34.615838000000,0 116.001561000000,34.619049000000,0 115.991374000000,34.615344000000,0 115.984740000000,34.607234000000,0 115.984030000000,34.589282000000,0 115.969973000000,34.582611000000,0 115.946204000000,34.581622000000,0 115.858313000000,34.569967000000,0 115.849705000000,34.565601000000,0 115.838097000000,34.567784000000,0 115.838808000000,34.560575000000,0 115.827436000000,34.558268000000,0 115.802404000000,34.572479000000,0 115.795928000000,34.578492000000,0 115.762051000000,34.587717000000,0 115.718224000000,34.591094000000,0 115.711433000000,34.598670000000,0 115.699114000000,34.598876000000,0 115.697297000000,34.569019000000,0 115.684426000000,34.555591000000,0 115.669422000000,34.556950000000,0 115.643599000000,34.567701000000,0 115.639493000000,34.571532000000,0 115.621883000000,34.574744000000,0 115.610354000000,34.572067000000,0 115.593771000000,34.573179000000,0 115.576792000000,34.570667000000,0 115.561157000000,34.572232000000,0 115.554760000000,34.569060000000,0 115.535176000000,34.573303000000,0 115.515592000000,34.582611000000,0 115.491586000000,34.607028000000,0 115.479030000000,34.625882000000,0 115.461420000000,34.637283000000,0 115.458183000000,34.656171000000,0 115.444758000000,34.674479000000,0 115.447048000000,34.698623000000,0 115.444916000000,34.710302000000,0 115.433861000000,34.725103000000,0 115.437256000000,34.734312000000,0 115.449259000000,34.744300000000,0 115.436546000000,34.776805000000,0 115.434650000000,34.790322000000,0 115.426754000000,34.805396000000,0 115.413882000000,34.807820000000,0 115.416172000000,34.813323000000,0 115.408512000000,34.825930000000,0 115.393982000000,34.831801000000,0 115.379215000000,34.828763000000,0 115.356946000000,34.837303000000,0 115.345969000000,34.846212000000,0 115.329623000000,34.851466000000,0 115.317146000000,34.859183000000,0 115.302379000000,34.858813000000,0 115.289586000000,34.851589000000,0 115.274661000000,34.854750000000,0 115.256104000000,34.845308000000,0 115.243469000000,34.850152000000,0 115.239363000000,34.874655000000,0 115.240784000000,34.883847000000,0 115.249234000000,34.894515000000,0 115.252156000000,34.906576000000,0 115.239363000000,34.911868000000,0 115.204933000000,34.914247000000,0 115.202722000000,34.925608000000,0 115.211724000000,34.943364000000,0 115.222148000000,34.945578000000,0 115.219147000000,34.960624000000,0 115.208249000000,34.958329000000,0 115.201616000000,34.950990000000,0 115.175004000000,34.962469000000,0 115.156920000000,34.958001000000,0 115.157236000000,34.966978000000,0 115.146576000000,34.980135000000,0 115.131177000000,34.983578000000,0 115.132993000000,34.999683000000,0 115.128097000000,35.004354000000,0 115.106144000000,35.000789000000,0 115.074952000000,35.000379000000,0 115.051656000000,34.985996000000,0 115.037600000000,34.981611000000,0 115.028835000000,34.971815000000,0 115.016042000000,34.977348000000,0 115.008066000000,34.988496000000,0 114.970319000000,34.990504000000,0 114.946787000000,34.988701000000,0 114.934784000000,34.980709000000,0 114.923807000000,34.968741000000,0 114.913936000000,34.977881000000,0 114.907935000000,34.989356000000,0 114.889693000000,34.993987000000,0 114.880296000000,35.003493000000,0 114.884402000000,35.021929000000,0 114.869951000000,35.024468000000,0 114.859291000000,35.002674000000,0 114.827072000000,35.010130000000,0 114.846972000000,35.023444000000,0 114.855263000000,35.036183000000,0 114.850920000000,35.041917000000,0 114.834021000000,35.042162000000,0 114.819254000000,35.051786000000,0 114.831810000000,35.074182000000,0 114.861186000000,35.082983000000,0 114.876269000000,35.091128000000,0 114.882902000000,35.098781000000,0 114.883613000000,35.109667000000,0 114.872557000000,35.125992000000,0 114.860633000000,35.137405000000,0 114.841681000000,35.151189000000,0 114.841049000000,35.159246000000,0 114.850288000000,35.172617000000,0 114.861660000000,35.182389000000,0 114.876584000000,35.189012000000,0 114.909356000000,35.194490000000,0 114.928308000000,35.194776000000,0 114.932494000000,35.198659000000,0 114.929730000000,35.248225000000,0 114.954605000000,35.255455000000,0 114.957684000000,35.261132000000,0 114.975531000000,35.261541000000,0 114.975768000000,35.270281000000,0 114.963607000000,35.273752000000,0 114.987613000000,35.302210000000,0 115.004749000000,35.317273000000,0 115.014541000000,35.318089000000,0 115.017700000000,35.340575000000,0 115.025360000000,35.346328000000,0 115.035152000000,35.368316000000,0 115.043286000000,35.376963000000,0 115.057737000000,35.378472000000,0 115.075426000000,35.375168000000,0 115.088613000000,35.392990000000,0 115.084823000000,35.410074000000,0 115.091614000000,35.416066000000,0 115.105907000000,35.403958000000,0 115.114831000000,35.404121000000,0 115.117989000000,35.418390000000,0 115.117831000000,35.400125000000,0 115.126597000000,35.408728000000,0 115.126439000000,35.418023000000,0 115.136863000000,35.421529000000,0 115.167660000000,35.426094000000,0 115.189534000000,35.425116000000,0 115.197905000000,35.420673000000,0 115.209829000000,35.423118000000,0 115.237310000000,35.423118000000,0 115.257446000000,35.435590000000,0 115.272608000000,35.448305000000,0 115.270792000000,35.456821000000,0 115.286665000000,35.464481000000,0 115.307117000000,35.480001000000,0 115.339099000000,35.490673000000,0 115.355761000000,35.490143000000,0 115.357973000000,35.506555000000,0 115.350313000000,35.529476000000,0 115.353550000000,35.540548000000,0 115.360499000000,35.543275000000,0 115.345969000000,35.546979000000,0 115.345101000000,35.553612000000,0 115.357973000000,35.554711000000,0 115.359236000000,35.565454000000,0 115.369502000000,35.559757000000,0 115.370765000000,35.571028000000,0 115.383242000000,35.568912000000,0 115.383716000000,35.577660000000,0 115.389718000000,35.577334000000,0 115.394456000000,35.586894000000,0 115.411908000000,35.603571000000,0 115.416251000000,35.623985000000,0 115.439388000000,35.643458000000,0 115.452418000000,35.660732000000,0 115.461499000000,35.680847000000,0 115.485979000000,35.710137000000,0 115.511486000000,35.727153000000,0 115.524121000000,35.726341000000,0 115.533202000000,35.734137000000,0 115.552786000000,35.730320000000,0 115.562499000000,35.738644000000,0 115.583031000000,35.730564000000,0 115.588875000000,35.738522000000,0 115.619514000000,35.739212000000,0 115.643046000000,35.743841000000,0 115.665079000000,35.751067000000,0 115.693586000000,35.754071000000,0 115.698245000000,35.768399000000,0 115.696271000000,35.788892000000,0 115.704404000000,35.788933000000,0 115.706379000000,35.805608000000,0 115.717434000000,35.802727000000,0 115.720277000000,35.817087000000,0 115.727937000000,35.815627000000,0 115.734886000000,35.832945000000,0 115.753128000000,35.832945000000,0 115.752891000000,35.838379000000,0 115.763709000000,35.838379000000,0 115.773343000000,35.854192000000,0 115.816776000000,35.844259000000,0 115.821356000000,35.852652000000,0 115.841335000000,35.850016000000,0 115.840861000000,35.857192000000,0 115.859971000000,35.857882000000,0 115.865499000000,35.868624000000,0 115.872606000000,35.872799000000,0 115.871422000000,35.858327000000,0 115.876002000000,35.867124000000,0 115.876081000000,35.875069000000,0 115.882872000000,35.879892000000,0 115.883267000000,35.895413000000,0 115.889110000000,35.897561000000,0 115.884767000000,35.909108000000,0 115.872369000000,35.909351000000,0 115.875133000000,35.920168000000,0 115.907826000000,35.926851000000,0 115.909958000000,35.935762000000,0 115.906325000000,35.945400000000,0 115.911853000000,35.960261000000,0 115.957654000000,35.967994000000,0 115.985135000000,35.974107000000,0 116.008510000000,35.973135000000,0 116.038596000000,35.963419000000,0 116.048704000000,35.970301000000,0 116.050600000000,35.981919000000,0 116.052574000000,35.999120000000,0 116.062840000000,36.028899000000,0 116.073658000000,36.026148000000,0 116.079502000000,36.042611000000,0 116.076106000000,36.056887000000,0 116.087162000000,36.071403000000,0 116.091742000000,36.089474000000,0 116.096875000000,36.092182000000,0 116.099323000000,36.112066000000,0 116.057391000000,36.104913000000,0 116.028804000000,36.072292000000,0 116.016406000000,36.061375000000,0 115.989794000000,36.045442000000,0 115.964051000000,36.041600000000,0 115.935859000000,36.031447000000,0 115.919276000000,36.019675000000,0 115.895981000000,36.026188000000,0 115.869447000000,36.015346000000,0 115.859655000000,36.003693000000,0 115.846231000000,36.004987000000,0 115.837465000000,36.011016000000,0 115.817250000000,36.012756000000,0 115.797508000000,36.006970000000,0 115.779819000000,35.993778000000,0 115.786689000000,35.991228000000,0 115.774528000000,35.981878000000,0 115.774686000000,35.974511000000,0 115.764341000000,35.970989000000,0 115.733070000000,35.966820000000,0 115.717908000000,35.971394000000,0 115.698719000000,35.966050000000,0 115.686953000000,35.955200000000,0 115.684110000000,35.944388000000,0 115.675423000000,35.938435000000,0 115.651812000000,35.928917000000,0 115.642415000000,35.920046000000,0 115.607353000000,35.925839000000,0 115.583742000000,35.921707000000,0 115.548206000000,35.898006000000,0 115.513302000000,35.890348000000,0 115.503431000000,35.888686000000,0 115.488033000000,35.880784000000,0 115.460078000000,35.867732000000,0 115.433861000000,35.839069000000,0 115.432834000000,35.833878000000,0 115.417909000000,35.824996000000,0 115.407564000000,35.808650000000,0 115.370923000000,35.788852000000,0 115.363500000000,35.779925000000,0 115.334993000000,35.796723000000,0 115.335704000000,35.814329000000,0 115.344074000000,35.838744000000,0 115.349602000000,35.860963000000,0 115.338152000000,35.864692000000,0 115.343600000000,35.872150000000,0 115.354893000000,35.869273000000,0 115.364290000000,35.894035000000,0 115.367449000000,35.920330000000,0 115.364132000000,35.929484000000,0 115.354182000000,35.937503000000,0 115.356472000000,35.954633000000,0 115.363105000000,35.972002000000,0 115.386322000000,35.974471000000,0 115.395956000000,35.991673000000,0 115.419646000000,36.004745000000,0 115.443100000000,36.008872000000,0 115.447522000000,36.011826000000,0 115.448865000000,36.047383000000,0 115.441599000000,36.055755000000,0 115.459604000000,36.063357000000,0 115.455103000000,36.071282000000,0 115.459762000000,36.080378000000,0 115.466395000000,36.079691000000,0 115.468843000000,36.092222000000,0 115.473976000000,36.098123000000,0 115.484242000000,36.125845000000,0 115.485190000000,36.139702000000,0 115.480689000000,36.171729000000,0 115.475950000000,36.193046000000,0 115.479109000000,36.209555000000,0 115.475950000000,36.218878000000,0 115.476503000000,36.246516000000,0 115.465369000000,36.250389000000,0 115.468922000000,36.265353000000,0 115.462684000000,36.276120000000,0 115.446101000000,36.273782000000,0 115.436388000000,36.276362000000,0 115.428491000000,36.286201000000,0 115.417040000000,36.292773000000,0 115.422963000000,36.302610000000,0 115.419410000000,36.310914000000,0 115.422963000000,36.322199000000,0 115.414987000000,36.326551000000,0 115.394614000000,36.322602000000,0 115.366659000000,36.308938000000,0 115.359789000000,36.318733000000,0 115.370449000000,36.332757000000,0 115.368712000000,36.342629000000,0 115.349602000000,36.363094000000,0 115.348575000000,36.384641000000,0 115.339968000000,36.398090000000,0 115.324885000000,36.405095000000,0 115.313514000000,36.406625000000,0 115.297404000000,36.413469000000,0 115.312092000000,36.433593000000,0 115.316909000000,36.432587000000,0 115.317067000000,36.454035000000,0 115.300247000000,36.465902000000,0 115.291403000000,36.460592000000,0 115.288876000000,36.470006000000,0 115.293693000000,36.476079000000,0 115.284690000000,36.476441000000,0 115.283506000000,36.486416000000,0 115.276083000000,36.486938000000,0 115.272845000000,36.497394000000,0 115.289744000000,36.497796000000,0 115.296536000000,36.508853000000,0 115.292587000000,36.514401000000,0 115.295193000000,36.523205000000,0 115.288323000000,36.528511000000,0 115.295035000000,36.533254000000,0 115.300484000000,36.525938000000,0 115.307433000000,36.527426000000,0 115.331281000000,36.550213000000,0 115.334282000000,36.582473000000,0 115.337836000000,36.588980000000,0 115.350550000000,36.590065000000,0 115.351576000000,36.595004000000,0 115.340363000000,36.595245000000,0 115.341468000000,36.603478000000,0 115.350707000000,36.606650000000,0 115.345022000000,36.612392000000,0 115.355130000000,36.627407000000,0 115.366027000000,36.621947000000,0 115.378504000000,36.632866000000,0 115.387980000000,36.646432000000,0 115.386322000000,36.656305000000,0 115.406459000000,36.663246000000,0 115.412144000000,36.676486000000,0 115.420594000000,36.686756000000,0 115.446653000000,36.694617000000,0 115.451391000000,36.702197000000,0 115.450523000000,36.713626000000,0 115.459762000000,36.717395000000,0 115.460947000000,36.731869000000,0 115.475477000000,36.744215000000,0 115.478398000000,36.758804000000,0 115.491428000000,36.761609000000,0 115.506511000000,36.770465000000,0 115.523568000000,36.763853000000,0 115.528780000000,36.773950000000,0 115.536835000000,36.772628000000,0 115.538730000000,36.784127000000,0 115.549470000000,36.782885000000,0 115.552628000000,36.775874000000,0 115.561315000000,36.775753000000,0 115.560525000000,36.783806000000,0 115.572133000000,36.775353000000,0 115.584689000000,36.781042000000,0 115.637440000000,36.797506000000,0 115.650469000000,36.807519000000,0 115.666184000000,36.812485000000,0 115.671554000000,36.809281000000,0 115.684189000000,36.812966000000,0 115.692243000000,36.829343000000,0 115.688532000000,36.840312000000,0 115.700772000000,36.860726000000,0 115.699982000000,36.866929000000,0 115.711275000000,36.882374000000,0 115.726121000000,36.893616000000,0 115.735202000000,36.897017000000,0 115.740572000000,36.906417000000,0 115.757787000000,36.903017000000,0 115.765131000000,36.909096000000,0 115.768684000000,36.921014000000,0 115.761972000000,36.924413000000,0 115.762683000000,36.939327000000,0 115.772791000000,36.936849000000,0 115.788189000000,36.952600000000,0 115.796876000000,36.968747000000,0 115.791743000000,36.975261000000,0 115.784478000000,36.970625000000,0 115.786373000000,36.983093000000,0 115.776265000000,36.990884000000,0 115.790874000000,37.005985000000,0 115.808089000000,37.010259000000,0 115.813222000000,37.019126000000,0 115.812354000000,37.028950000000,0 115.825778000000,37.032384000000,0 115.831938000000,37.045281000000,0 115.856260000000,37.060730000000,0 115.855154000000,37.071108000000,0 115.865025000000,37.070828000000,0 115.868263000000,37.084038000000,0 115.879476000000,37.105583000000,0 115.885399000000,37.128757000000,0 115.879397000000,37.138647000000,0 115.879950000000,37.152004000000,0 115.892269000000,37.157625000000,0 115.912485000000,37.178751000000,0 115.904825000000,37.189391000000,0 115.909800000000,37.206803000000,0 115.920145000000,37.214173000000,0 115.920934000000,37.223534000000,0 115.926778000000,37.219511000000,0 115.941387000000,37.227716000000,0 115.953232000000,37.223693000000,0 115.969421000000,37.239464000000,0 115.971079000000,37.245636000000,0 115.963972000000,37.250096000000,0 115.972895000000,37.257103000000,0 115.966973000000,37.265742000000,0 115.975185000000,37.268967000000,0 115.976212000000,37.276171000000,0 115.968710000000,37.286320000000,0 115.970763000000,37.295553000000,0 115.981503000000,37.307370000000,0 115.984346000000,37.319265000000,0 115.975659000000,37.317515000000,0 115.972974000000,37.324039000000,0 115.984503000000,37.326067000000,0 115.975738000000,37.337283000000,0 115.986951000000,37.341738000000,0 116.009457000000,37.343169000000,0 116.000376000000,37.350804000000,0 116.013643000000,37.349571000000,0 116.024461000000,37.359949000000,0 116.031252000000,37.356411000000,0 116.051942000000,37.357484000000,0 116.056206000000,37.369053000000,0 116.072474000000,37.368099000000,0 116.087557000000,37.373307000000,0 116.106588000000,37.368815000000,0 116.116459000000,37.374301000000,0 116.126646000000,37.373466000000,0 116.168814000000,37.384118000000,0 116.185240000000,37.369928000000,0 116.195506000000,37.365674000000,0 116.234437000000,37.361221000000,0 116.251652000000,37.376566000000,0 116.261602000000,37.389802000000,0 116.270446000000,37.389126000000,0 116.273052000000,37.398425000000,0 116.282923000000,37.401326000000,0 116.270446000000,37.413802000000,0 116.275026000000,37.418252000000,0 116.263023000000,37.422423000000,0 116.270999000000,37.426714000000,0 116.250072000000,37.425919000000,0 116.247151000000,37.422066000000,0 116.231515000000,37.424529000000,0 116.227330000000,37.434261000000,0 116.243123000000,37.448201000000,0 116.243597000000,37.455904000000,0 116.229936000000,37.459676000000,0 116.224803000000,37.479963000000,0 116.235068000000,37.479725000000,0 116.241307000000,37.491434000000,0 116.258285000000,37.482662000000,0 116.256469000000,37.478812000000,0 116.276448000000,37.466902000000,0 116.271473000000,37.478931000000,0 116.290899000000,37.484766000000,0 116.286082000000,37.491117000000,0 116.292952000000,37.497387000000,0 116.284344000000,37.500721000000,0 116.297532000000,37.508816000000,0 116.280317000000,37.510879000000,0 116.283555000000,37.517584000000,0 116.278422000000,37.524765000000,0 116.291373000000,37.523813000000,0 116.286082000000,37.532619000000,0 116.291373000000,37.545589000000,0 116.287898000000,37.549317000000,0 116.299348000000,37.559350000000,0 116.299664000000,37.569580000000,0 116.304481000000,37.564505000000,0 116.334805000000,37.574773000000,0 116.319406000000,37.580046000000,0 116.335910000000,37.581235000000,0 116.344913000000,37.570492000000,0 116.343491000000,37.566011000000,0 116.367655000000,37.566289000000,0 116.375473000000,37.560341000000,0 116.376895000000,37.546581000000,0 116.367892000000,37.533809000000,0 116.368919000000,37.526392000000,0 116.382738000000,37.523615000000,0 116.388661000000,37.516315000000,0 116.402164000000,37.509847000000,0 116.414089000000,37.490997000000,0 116.434146000000,37.473334000000,0 116.438648000000,37.477224000000,0 116.446702000000,37.500562000000,0 116.462180000000,37.517426000000,0 116.482633000000,37.521790000000,0 116.499690000000,37.537855000000,0 116.507113000000,37.541822000000,0 116.519590000000,37.559905000000,0 116.538463000000,37.568430000000,0 116.545807000000,37.582504000000,0 116.563496000000,37.596495000000,0 116.556547000000,37.596852000000,0 116.580316000000,37.613258000000,0 116.604480000000,37.625105000000,0 116.630776000000,37.652713000000,0 116.640884000000,37.666454000000,0 116.636462000000,37.675877000000,0 116.641042000000,37.682330000000,0 116.646412000000,37.676233000000,0 116.653677000000,37.677540000000,0 116.664022000000,37.687793000000,0 116.675235000000,37.720838000000,0 116.679736000000,37.728790000000,0 116.699320000000,37.730650000000,0 116.698768000000,37.738759000000,0 116.709586000000,37.735199000000,0 116.724511000000,37.744297000000,0 116.718826000000,37.762331000000,0 116.723169000000,37.766721000000,0 116.739120000000,37.756914000000,0 116.744174000000,37.757349000000,0 116.753808000000,37.770517000000,0 116.753650000000,37.793011000000,0 116.745990000000,37.795778000000,0 116.758941000000,37.801865000000,0 116.766838000000,37.811350000000,0 116.786185000000,37.826326000000,0 116.788159000000,37.843432000000,0 116.794556000000,37.846987000000,0 116.811771000000,37.847935000000,0 116.812718000000,37.843590000000,0 116.828038000000,37.840627000000,0 116.843753000000,37.834465000000,0 116.879604000000,37.843748000000,0 116.919325000000,37.845920000000,0 116.950359000000,37.839719000000,0 116.976656000000,37.841062000000,0 117.008874000000,37.833872000000,0 117.027195000000,37.832371000000,0 117.040541000000,37.839324000000,0 117.074339000000,37.848725000000,0 117.093765000000,37.849515000000,0 117.150148000000,37.839600000000,0 117.163651000000,37.839798000000,0 117.185368000000,37.849791000000,0 117.208821000000,37.843748000000,0 117.259755000000,37.838257000000,0 117.271364000000,37.839916000000,0 117.284472000000,37.846750000000,0 117.302951000000,37.852358000000,0 117.320166000000,37.861402000000,0 117.344251000000,37.862666000000,0 117.364704000000,37.854136000000,0 117.381919000000,37.854531000000,0 117.406320000000,37.843511000000,0 117.423614000000,37.847263000000,0 117.438539000000,37.853859000000,0 117.466809000000,37.890739000000,0 117.481181000000,37.914854000000,0 117.492710000000,37.927481000000,0 117.512847000000,37.943459000000,0 117.520902000000,37.966729000000,0 117.524377000000,37.989479000000,0 117.541039000000,38.011237000000,0 117.545935000000,38.026842000000,0 117.560386000000,38.040987000000,0 117.556517000000,38.057215000000,0 117.564887000000,38.063674000000,0 117.576180000000,38.065132000000,0 117.583760000000,38.070645000000,0 117.605082000000,38.073008000000,0 117.616769000000,38.069030000000,0 117.644961000000,38.072377000000,0 117.666045000000,38.072535000000,0 117.679469000000,38.079544000000,0 117.704502000000,38.076040000000,0 117.729219000000,38.093796000000,0 117.730641000000,38.108321000000,0 117.743197000000,38.123393000000,0 117.768782000000,38.131893000000,0 117.772099000000,38.138817000000,0 117.766966000000,38.158682000000,0 117.771704000000,38.166076000000,0 117.794210000000,38.167846000000,0 117.801317000000,38.175239000000,0 117.789235000000,38.180744000000,0 117.796105000000,38.193600000000,0 117.797842000000,38.207712000000,0 117.805897000000,38.217734000000,0 117.808582000000,38.228383000000,0 117.823586000000,38.235652000000,0 117.847513000000,38.253920000000,0 117.860859000000,38.274578000000,0 117.895683000000,38.301629000000,0 117.893393000000,38.287968000000,0 117.896710000000,38.279605000000,0 117.935404000000,38.255098000000,0 117.997631000000,38.211918000000,0 118.018794000000,38.202641000000,0 118.033009000000,38.205904000000,0 118.045170000000,38.214001000000,0 118.112134000000,38.210227000000,0 118.177915000000,38.186406000000,0 118.216846000000,38.146921000000,0 118.245432000000,38.144286000000,0 118.274334000000,38.138542000000,0 118.330717000000,38.125046000000,0 118.360172000000,38.120954000000,0 118.380230000000,38.119931000000,0 118.390970000000,38.123315000000,0 118.404078000000,38.120914000000,0 118.420425000000,38.107337000000,0 118.431480000000,38.106274000000,0 118.449722000000,38.124259000000,0 118.461409000000,38.126659000000,0 118.483204000000,38.123236000000,0 118.504526000000,38.113909000000,0 118.513212000000,38.104660000000,0 118.517081000000,38.088363000000,0 118.530269000000,38.073204000000,0 118.534533000000,38.063517000000,0 118.552459000000,38.055679000000,0 118.565568000000,38.060209000000,0 118.597629000000,38.078993000000,0 118.603946000000,38.101354000000,0 118.607816000000,38.129060000000,0 118.625820000000,38.138306000000,0 118.726425000000,38.154238000000,0 118.777754000000,38.156952000000,0 118.811474000000,38.157620000000,0 118.853721000000,38.154985000000,0 118.877491000000,38.149596000000,0 118.908051000000,38.139368000000,0 118.931426000000,38.127486000000,0 118.958512000000,38.110131000000,0 118.974068000000,38.094150000000,0 118.985282000000,38.062099000000,0 118.996495000000,38.013996000000,0 119.004550000000,37.992278000000,0 119.045297000000,37.967597000000,0 119.110604000000,37.921365000000,0 119.120554000000,37.897054000000,0 119.122844000000,37.866536000000,0 119.135874000000,37.827985000000,0 119.161617000000,37.819214000000,0 119.212709000000,37.838810000000,0 119.240348000000,37.878026000000,0 119.263801000000,37.881540000000,0 119.292151000000,37.869616000000,0 119.304075000000,37.845486000000,0 119.309129000000,37.805383000000,0 119.299653000000,37.755490000000,0 119.280464000000,37.692503000000,0 119.262617000000,37.660475000000,0 119.236321000000,37.652079000000,0 119.153404000000,37.655406000000,0 119.118343000000,37.648040000000,0 119.065355000000,37.641940000000,0 119.024213000000,37.641900000000,0 118.988677000000,37.620905000000,0 118.972331000000,37.594474000000,0 118.951800000000,37.556019000000,0 118.939638000000,37.527066000000,0 118.942955000000,37.497466000000,0 118.958275000000,37.454912000000,0 118.973121000000,37.404346000000,0 118.977385000000,37.382052000000,0 118.982597000000,37.378077000000,0 119.003444000000,37.383403000000,0 119.012842000000,37.376089000000,0 119.009841000000,37.370763000000,0 118.985598000000,37.365754000000,0 118.981412000000,37.359830000000,0 118.986940000000,37.339511000000,0 119.001233000000,37.318748000000,0 119.010315000000,37.313218000000,0 119.039928000000,37.304466000000,0 119.045376000000,37.298935000000,0 119.052089000000,37.276848000000,0 119.054142000000,37.254953000000,0 119.066935000000,37.241814000000,0 119.084465000000,37.239424000000,0 119.091336000000,37.257581000000,0 119.108393000000,37.260328000000,0 119.128214000000,37.254874000000,0 119.134294000000,37.263314000000,0 119.135479000000,37.282102000000,0 119.139032000000,37.288191000000,0 119.157748000000,37.288191000000,0 119.169830000000,37.278599000000,0 119.166513000000,37.274380000000,0 119.157590000000,37.281226000000,0 119.142586000000,37.279475000000,0 119.141559000000,37.262557000000,0 119.128451000000,37.235721000000,0 119.136979000000,37.231181000000,0 119.204260000000,37.280112000000,0 119.212788000000,37.273305000000,0 119.190993000000,37.259452000000,0 119.191941000000,37.254117000000,0 119.202365000000,37.253759000000,0 119.204418000000,37.246313000000,0 119.194231000000,37.221741000000,0 119.191941000000,37.197639000000,0 119.205365000000,37.194292000000,0 119.204102000000,37.210070000000,0 119.206945000000,37.223175000000,0 119.222106000000,37.225007000000,0 119.232767000000,37.221821000000,0 119.244533000000,37.211424000000,0 119.261432000000,37.207998000000,0 119.282201000000,37.212420000000,0 119.296336000000,37.205050000000,0 119.298389000000,37.197360000000,0 119.291519000000,37.177635000000,0 119.291756000000,37.164801000000,0 119.297126000000,37.158781000000,0 119.299337000000,37.142594000000,0 119.308260000000,37.136733000000,0 119.320421000000,37.120501000000,0 119.329582000000,37.115715000000,0 119.342296000000,37.117350000000,0 119.351298000000,37.122894000000,0 119.365670000000,37.126045000000,0 119.425528000000,37.125447000000,0 119.445585000000,37.130831000000,0 119.489729000000,37.134460000000,0 119.489965000000,37.142355000000,0 119.479068000000,37.153399000000,0 119.481832000000,37.155791000000,0 119.493282000000,37.143591000000,0 119.493282000000,37.133383000000,0 119.503153000000,37.128279000000,0 119.519420000000,37.130312000000,0 119.576514000000,37.127561000000,0 119.629423000000,37.142116000000,0 119.678541000000,37.157984000000,0 119.686280000000,37.156110000000,0 119.687069000000,37.143950000000,0 119.724895000000,37.143551000000,0 119.740294000000,37.133782000000,0 119.754034000000,37.147459000000,0 119.771091000000,37.160456000000,0 119.780488000000,37.175204000000,0 119.790517000000,37.185008000000,0 119.807890000000,37.196404000000,0 119.822104000000,37.220068000000,0 119.830080000000,37.225724000000,0 119.865063000000,37.233969000000,0 119.877066000000,37.240460000000,0 119.885989000000,37.252286000000,0 119.858982000000,37.253719000000,0 119.860956000000,37.262557000000,0 119.892149000000,37.263911000000,0 119.895781000000,37.275495000000,0 119.882199000000,37.280947000000,0 119.888516000000,37.293682000000,0 119.888753000000,37.302317000000,0 119.883383000000,37.310871000000,0 119.874697000000,37.313099000000,0 119.869406000000,37.321016000000,0 119.853060000000,37.326226000000,0 119.848085000000,37.337323000000,0 119.838214000000,37.343090000000,0 119.842715000000,37.361341000000,0 119.839714000000,37.371120000000,0 119.843978000000,37.376725000000,0 119.927131000000,37.386702000000,0 119.937397000000,37.393339000000,0 119.949874000000,37.420040000000,0 119.986357000000,37.425681000000,0 120.012654000000,37.442919000000,0 120.064930000000,37.449114000000,0 120.086252000000,37.465275000000,0 120.108758000000,37.470515000000,0 120.144372000000,37.481908000000,0 120.194517000000,37.512982000000,0 120.199492000000,37.524646000000,0 120.222313000000,37.532857000000,0 120.235975000000,37.548128000000,0 120.246793000000,37.556614000000,0 120.208178000000,37.588648000000,0 120.217575000000,37.603787000000,0 120.210152000000,37.616745000000,0 120.215048000000,37.621143000000,0 120.248610000000,37.623876000000,0 120.265667000000,37.628868000000,0 120.272300000000,37.636830000000,0 120.273563000000,37.650891000000,0 120.269299000000,37.658495000000,0 120.244661000000,37.657703000000,0 120.232895000000,37.662138000000,0 120.220339000000,37.672036000000,0 120.216154000000,37.686605000000,0 120.227209000000,37.693611000000,0 120.341555000000,37.693215000000,0 120.368246000000,37.698005000000,0 120.386408000000,37.707701000000,0 120.437817000000,37.741410000000,0 120.447924000000,37.754659000000,0 120.472010000000,37.757626000000,0 120.482354000000,37.755015000000,0 120.518443000000,37.750586000000,0 120.528235000000,37.757151000000,0 120.579959000000,37.760868000000,0 120.595357000000,37.767551000000,0 120.621654000000,37.790877000000,0 120.634210000000,37.796371000000,0 120.657031000000,37.793051000000,0 120.733393000000,37.833556000000,0 120.743185000000,37.833082000000,0 120.754241000000,37.837506000000,0 120.762611000000,37.829961000000,0 120.778563000000,37.831146000000,0 120.797278000000,37.827709000000,0 120.811887000000,37.822098000000,0 120.832972000000,37.821624000000,0 120.865112000000,37.832963000000,0 120.890381000000,37.832963000000,0 120.900489000000,37.823679000000,0 120.915019000000,37.824034000000,0 120.921653000000,37.819885000000,0 120.935788000000,37.822375000000,0 120.946370000000,37.813405000000,0 120.947712000000,37.798624000000,0 120.941158000000,37.793367000000,0 120.943448000000,37.785540000000,0 120.952924000000,37.776882000000,0 120.975588000000,37.762371000000,0 120.995724000000,37.759049000000,0 121.016098000000,37.741766000000,0 121.019573000000,37.731085000000,0 121.037735000000,37.718583000000,0 121.055108000000,37.715734000000,0 121.064584000000,37.717119000000,0 121.068375000000,37.725190000000,0 121.075482000000,37.717791000000,0 121.096329000000,37.722698000000,0 121.139841000000,37.723054000000,0 121.148527000000,37.719651000000,0 121.159583000000,37.706870000000,0 121.160057000000,37.699034000000,0 121.146079000000,37.678846000000,0 121.142684000000,37.661267000000,0 121.156582000000,37.657386000000,0 121.161715000000,37.646336000000,0 121.150107000000,37.628987000000,0 121.149554000000,37.619875000000,0 121.169770000000,37.600617000000,0 121.182483000000,37.594276000000,0 121.215887000000,37.583098000000,0 121.251264000000,37.581116000000,0 121.304963000000,37.582979000000,0 121.354791000000,37.596178000000,0 121.361583000000,37.600855000000,0 121.358266000000,37.616467000000,0 121.344289000000,37.627759000000,0 121.349264000000,37.635206000000,0 121.361898000000,37.634216000000,0 121.374849000000,37.628749000000,0 121.386142000000,37.627798000000,0 121.411174000000,37.609494000000,0 121.436760000000,37.600815000000,0 121.439603000000,37.596218000000,0 121.427047000000,37.590788000000,0 121.411016000000,37.591263000000,0 121.389774000000,37.597050000000,0 121.385905000000,37.591303000000,0 121.395934000000,37.589876000000,0 121.401066000000,37.557804000000,0 121.412438000000,37.547652000000,0 121.436444000000,37.541227000000,0 121.459819000000,37.522623000000,0 121.456660000000,37.502665000000,0 121.460450000000,37.493855000000,0 121.479245000000,37.474961000000,0 121.514938000000,37.461860000000,0 121.532074000000,37.462456000000,0 121.537207000000,37.451219000000,0 121.565320000000,37.440377000000,0 121.571558000000,37.441449000000,0 121.576059000000,37.460391000000,0 121.586562000000,37.467299000000,0 121.599118000000,37.469920000000,0 121.618939000000,37.481948000000,0 121.633469000000,37.493180000000,0 121.653843000000,37.493061000000,0 121.660239000000,37.487187000000,0 121.665767000000,37.473453000000,0 121.747893000000,37.467458000000,0 121.773084000000,37.466505000000,0 121.838943000000,37.471468000000,0 121.887587000000,37.470039000000,0 121.923992000000,37.473096000000,0 121.966002000000,37.489648000000,0 121.979111000000,37.488378000000,0 121.996958000000,37.493974000000,0 121.999485000000,37.506236000000,0 122.013225000000,37.510006000000,0 122.017253000000,37.530914000000,0 122.036284000000,37.529446000000,0 122.045207000000,37.531628000000,0 122.053736000000,37.543448000000,0 122.069924000000,37.537062000000,0 122.075215000000,37.540473000000,0 122.074583000000,37.551816000000,0 122.066529000000,37.562364000000,0 122.069529000000,37.568747000000,0 122.088797000000,37.554116000000,0 122.107434000000,37.550309000000,0 122.123148000000,37.552926000000,0 122.119437000000,37.564227000000,0 122.125833000000,37.567320000000,0 122.133572000000,37.556455000000,0 122.150471000000,37.557129000000,0 122.144154000000,37.550388000000,0 122.150708000000,37.544281000000,0 122.171398000000,37.541147000000,0 122.171714000000,37.534285000000,0 122.163106000000,37.518973000000,0 122.154420000000,37.518219000000,0 122.147550000000,37.511990000000,0 122.136336000000,37.512307000000,0 122.131993000000,37.499371000000,0 122.149524000000,37.493418000000,0 122.153946000000,37.488616000000,0 122.148892000000,37.481948000000,0 122.156947000000,37.459438000000,0 122.165712000000,37.450027000000,0 122.167213000000,37.438073000000,0 122.183717000000,37.431282000000,0 122.185849000000,37.441688000000,0 122.194456000000,37.456222000000,0 122.212461000000,37.455666000000,0 122.220595000000,37.463289000000,0 122.233151000000,37.460510000000,0 122.235046000000,37.469205000000,0 122.240890000000,37.465354000000,0 122.252656000000,37.467855000000,0 122.260316000000,37.460470000000,0 122.276820000000,37.456778000000,0 122.286138000000,37.447287000000,0 122.280373000000,37.442641000000,0 122.280216000000,37.433863000000,0 122.285664000000,37.425403000000,0 122.310460000000,37.423059000000,0 122.312355000000,37.416663000000,0 122.336993000000,37.414438000000,0 122.387375000000,37.420000000000,0 122.393376000000,37.415114000000,0 122.416751000000,37.414676000000,0 122.437046000000,37.420358000000,0 122.464684000000,37.424410000000,0 122.480952000000,37.433665000000,0 122.489559000000,37.431917000000,0 122.487348000000,37.420278000000,0 122.495245000000,37.413683000000,0 122.513408000000,37.410703000000,0 122.553602000000,37.406929000000,0 122.580293000000,37.410187000000,0 122.595929000000,37.421152000000,0 122.606511000000,37.424131000000,0 122.626648000000,37.424688000000,0 122.643862000000,37.428064000000,0 122.649548000000,37.419881000000,0 122.656655000000,37.428461000000,0 122.665816000000,37.424251000000,0 122.659735000000,37.421589000000,0 122.666526000000,37.414438000000,0 122.675923000000,37.413326000000,0 122.669527000000,37.428580000000,0 122.684847000000,37.428700000000,0 122.688558000000,37.422423000000,0 122.704273000000,37.414955000000,0 122.706958000000,37.404108000000,0 122.715802000000,37.396121000000,0 122.697877000000,37.384118000000,0 122.694560000000,37.376328000000,0 122.680662000000,37.374380000000,0 122.675134000000,37.383761000000,0 122.655629000000,37.388292000000,0 122.641809000000,37.385867000000,0 122.626884000000,37.369570000000,0 122.611486000000,37.366907000000,0 122.594823000000,37.347981000000,0 122.593560000000,37.336289000000,0 122.611486000000,37.339431000000,0 122.610459000000,37.331119000000,0 122.594192000000,37.319822000000,0 122.573897000000,37.296349000000,0 122.581083000000,37.286957000000,0 122.571370000000,37.279037000000,0 122.577056000000,37.271395000000,0 122.567185000000,37.261164000000,0 122.584716000000,37.258736000000,0 122.592454000000,37.261284000000,0 122.590638000000,37.248065000000,0 122.600430000000,37.242212000000,0 122.600430000000,37.228950000000,0 122.604063000000,37.221462000000,0 122.623963000000,37.212739000000,0 122.628859000000,37.203456000000,0 122.624042000000,37.191144000000,0 122.606274000000,37.193057000000,0 122.596877000000,37.181262000000,0 122.579030000000,37.183493000000,0 122.573344000000,37.176240000000,0 122.587243000000,37.163684000000,0 122.586374000000,37.153519000000,0 122.581083000000,37.147738000000,0 122.559762000000,37.147419000000,0 122.533544000000,37.153359000000,0 122.501562000000,37.148695000000,0 122.493113000000,37.142036000000,0 122.484505000000,37.128877000000,0 122.481189000000,37.117829000000,0 122.477951000000,37.091539000000,0 122.481031000000,37.071786000000,0 122.480083000000,37.061050000000,0 122.459630000000,37.045840000000,0 122.461447000000,37.039532000000,0 122.487901000000,37.034301000000,0 122.498641000000,37.034301000000,0 122.524226000000,37.040330000000,0 122.548706000000,37.050910000000,0 122.575634000000,37.054423000000,0 122.585268000000,37.042965000000,0 122.583373000000,37.037296000000,0 122.555971000000,37.023240000000,0 122.544837000000,37.004587000000,0 122.545232000000,36.990205000000,0 122.556919000000,36.978898000000,0 122.557551000000,36.968707000000,0 122.545863000000,36.956317000000,0 122.546574000000,36.923494000000,0 122.542468000000,36.913536000000,0 122.532123000000,36.901457000000,0 122.516408000000,36.890256000000,0 122.497061000000,36.886095000000,0 122.484663000000,36.891536000000,0 122.485453000000,36.903777000000,0 122.492639000000,36.912176000000,0 122.483005000000,36.914056000000,0 122.434124000000,36.914256000000,0 122.428833000000,36.908856000000,0 122.446601000000,36.898217000000,0 122.454498000000,36.883535000000,0 122.464448000000,36.879294000000,0 122.457025000000,36.869130000000,0 122.445732000000,36.873052000000,0 122.416119000000,36.859485000000,0 122.403326000000,36.860686000000,0 122.392587000000,36.866209000000,0 122.383900000000,36.865368000000,0 122.386506000000,36.860046000000,0 122.378373000000,36.844275000000,0 122.350655000000,36.835228000000,0 122.342758000000,36.828502000000,0 122.335414000000,36.837670000000,0 122.326570000000,36.830424000000,0 122.298141000000,36.837070000000,0 122.278162000000,36.836189000000,0 122.263869000000,36.841633000000,0 122.250603000000,36.839912000000,0 122.245865000000,36.835428000000,0 122.220437000000,36.848919000000,0 122.196115000000,36.842874000000,0 122.174714000000,36.842474000000,0 122.172030000000,36.852441000000,0 122.181427000000,36.856323000000,0 122.188534000000,36.866209000000,0 122.175662000000,36.894537000000,0 122.164291000000,36.892536000000,0 122.155999000000,36.883055000000,0 122.119674000000,36.892096000000,0 122.117463000000,36.895737000000,0 122.127176000000,36.918535000000,0 122.141390000000,36.938288000000,0 122.136731000000,36.944325000000,0 122.127650000000,36.945484000000,0 122.112409000000,36.939607000000,0 122.106486000000,36.941686000000,0 122.099300000000,36.932890000000,0 122.100801000000,36.921934000000,0 122.093220000000,36.914136000000,0 122.073636000000,36.914376000000,0 122.051998000000,36.904977000000,0 122.053420000000,36.895697000000,0 122.046234000000,36.891176000000,0 122.042522000000,36.872011000000,0 122.037784000000,36.875492000000,0 122.037310000000,36.895817000000,0 122.025307000000,36.908856000000,0 122.022464000000,36.942006000000,0 122.013936000000,36.959994000000,0 121.994668000000,36.953719000000,0 121.983060000000,36.958436000000,0 121.977611000000,36.947163000000,0 121.964818000000,36.938128000000,0 121.927545000000,36.932371000000,0 121.897616000000,36.921694000000,0 121.870846000000,36.915736000000,0 121.862791000000,36.909256000000,0 121.829388000000,36.898057000000,0 121.816121000000,36.891856000000,0 121.790457000000,36.884255000000,0 121.767714000000,36.874852000000,0 121.761950000000,36.866049000000,0 121.763766000000,36.850840000000,0 121.757606000000,36.841753000000,0 121.738180000000,36.835068000000,0 121.726256000000,36.826260000000,0 121.718517000000,36.829223000000,0 121.706830000000,36.822296000000,0 121.670742000000,36.817651000000,0 121.641760000000,36.805757000000,0 121.628494000000,36.797306000000,0 121.628968000000,36.783245000000,0 121.634416000000,36.766858000000,0 121.653527000000,36.727980000000,0 121.651473000000,36.723851000000,0 121.620834000000,36.737241000000,0 121.606067000000,36.738122000000,0 121.599671000000,36.745578000000,0 121.601250000000,36.763412000000,0 121.586009000000,36.756399000000,0 121.570531000000,36.766257000000,0 121.556317000000,36.764294000000,0 121.574638000000,36.745538000000,0 121.574322000000,36.737000000000,0 121.565477000000,36.728822000000,0 121.542024000000,36.734595000000,0 121.531995000000,36.731027000000,0 121.532153000000,36.736198000000,0 121.546051000000,36.741971000000,0 121.547394000000,36.746420000000,0 121.532390000000,36.753273000000,0 121.520466000000,36.749386000000,0 121.517702000000,36.761088000000,0 121.507594000000,36.760928000000,0 121.505857000000,36.770665000000,0 121.482245000000,36.773550000000,0 121.481061000000,36.780401000000,0 121.496302000000,36.792379000000,0 121.528205000000,36.805637000000,0 121.546051000000,36.806558000000,0 121.554027000000,36.817090000000,0 121.569979000000,36.827501000000,0 121.565083000000,36.830504000000,0 121.539339000000,36.823417000000,0 121.530179000000,36.818772000000,0 121.522914000000,36.808240000000,0 121.506962000000,36.803834000000,0 121.504356000000,36.797867000000,0 121.480271000000,36.784487000000,0 121.478218000000,36.770825000000,0 121.460687000000,36.762450000000,0 121.454291000000,36.752351000000,0 121.412596000000,36.748103000000,0 121.394038000000,36.737962000000,0 121.390406000000,36.728742000000,0 121.404304000000,36.726457000000,0 121.410385000000,36.714709000000,0 121.405489000000,36.704443000000,0 121.394354000000,36.699029000000,0 121.374691000000,36.699791000000,0 121.365531000000,36.711461000000,0 121.357792000000,36.713105000000,0 121.318308000000,36.702117000000,0 121.298724000000,36.702318000000,0 121.285536000000,36.699871000000,0 121.274876000000,36.692652000000,0 121.251896000000,36.671351000000,0 121.239261000000,36.668342000000,0 121.220941000000,36.671271000000,0 121.194881000000,36.653295000000,0 121.176877000000,36.654820000000,0 121.161399000000,36.651288000000,0 121.146079000000,36.640372000000,0 121.113939000000,36.621907000000,0 121.077930000000,36.607614000000,0 121.055582000000,36.592675000000,0 121.045237000000,36.579581000000,0 121.028970000000,36.573194000000,0 121.016019000000,36.574721000000,0 120.955609000000,36.576087000000,0 120.928681000000,36.589783000000,0 120.924495000000,36.596892000000,0 120.925917000000,36.613837000000,0 120.905780000000,36.623473000000,0 120.895040000000,36.622188000000,0 120.882011000000,36.627086000000,0 120.847107000000,36.618615000000,0 120.850108000000,36.612271000000,0 120.865980000000,36.605606000000,0 120.884854000000,36.601430000000,0 120.891961000000,36.588980000000,0 120.893382000000,36.579180000000,0 120.912650000000,36.568414000000,0 120.923785000000,36.572029000000,0 120.936341000000,36.565320000000,0 120.962163000000,36.562789000000,0 120.969349000000,36.559495000000,0 120.983326000000,36.545913000000,0 120.983958000000,36.540809000000,0 120.962716000000,36.519225000000,0 120.954345000000,36.507567000000,0 120.958610000000,36.498721000000,0 120.954977000000,36.489311000000,0 120.967691000000,36.477970000000,0 120.963585000000,36.464334000000,0 120.952371000000,36.459184000000,0 120.947238000000,36.449287000000,0 120.938315000000,36.448120000000,0 120.934524000000,36.454678000000,0 120.920152000000,36.455201000000,0 120.907833000000,36.445987000000,0 120.917388000000,36.435364000000,0 120.918810000000,36.425383000000,0 120.925522000000,36.419909000000,0 120.935077000000,36.421036000000,0 120.927812000000,36.410047000000,0 120.918415000000,36.418742000000,0 120.903332000000,36.406142000000,0 120.891645000000,36.389675000000,0 120.895909000000,36.376104000000,0 120.872061000000,36.367001000000,0 120.874430000000,36.373244000000,0 120.854925000000,36.381903000000,0 120.851134000000,36.406021000000,0 120.859505000000,36.412422000000,0 120.858952000000,36.424578000000,0 120.838342000000,36.436974000000,0 120.842369000000,36.441601000000,0 120.843001000000,36.457736000000,0 120.828471000000,36.466627000000,0 120.759453000000,36.462604000000,0 120.756768000000,36.458098000000,0 120.761664000000,36.443211000000,0 120.760084000000,36.434559000000,0 120.751003000000,36.431299000000,0 120.736868000000,36.432829000000,0 120.726997000000,36.422928000000,0 120.725970000000,36.413912000000,0 120.711440000000,36.408678000000,0 120.694383000000,36.390158000000,0 120.700385000000,36.371230000000,0 120.709703000000,36.368089000000,0 120.716494000000,36.360516000000,0 120.726760000000,36.359831000000,0 120.729603000000,36.349801000000,0 120.739632000000,36.338600000000,0 120.744449000000,36.328163000000,0 120.738210000000,36.323730000000,0 120.707966000000,36.328929000000,0 120.692093000000,36.325544000000,0 120.663033000000,36.331790000000,0 120.656005000000,36.322158000000,0 120.666350000000,36.309342000000,0 120.665718000000,36.297490000000,0 120.656005000000,36.288620000000,0 120.654820000000,36.279830000000,0 120.659716000000,36.274830000000,0 120.677326000000,36.281443000000,0 120.686249000000,36.279104000000,0 120.685855000000,36.260231000000,0 120.689724000000,36.251437000000,0 120.681038000000,36.238932000000,0 120.689171000000,36.230176000000,0 120.696752000000,36.204026000000,0 120.693041000000,36.190624000000,0 120.697147000000,36.168579000000,0 120.707255000000,36.165066000000,0 120.707018000000,36.159331000000,0 120.698332000000,36.158887000000,0 120.704333000000,36.152344000000,0 120.705439000000,36.139702000000,0 120.716257000000,36.142085000000,0 120.719811000000,36.134410000000,0 120.712230000000,36.126572000000,0 120.695647000000,36.123744000000,0 120.672667000000,36.129844000000,0 120.650951000000,36.117885000000,0 120.632235000000,36.113319000000,0 120.621259000000,36.119259000000,0 120.612099000000,36.117521000000,0 120.607834000000,36.107217000000,0 120.599859000000,36.101801000000,0 120.579248000000,36.103943000000,0 120.580827000000,36.111419000000,0 120.573325000000,36.114248000000,0 120.567087000000,36.105964000000,0 120.547187000000,36.109520000000,0 120.552241000000,36.097881000000,0 120.547345000000,36.092141000000,0 120.526261000000,36.093435000000,0 120.497832000000,36.086240000000,0 120.479827000000,36.091656000000,0 120.467587000000,36.087169000000,0 120.449662000000,36.073020000000,0 120.441923000000,36.063236000000,0 120.437185000000,36.065500000000,0 120.422260000000,36.054986000000,0 120.415311000000,36.057413000000,0 120.404413000000,36.051589000000,0 120.387830000000,36.051711000000,0 120.389172000000,36.059394000000,0 120.370220000000,36.053409000000,0 120.371089000000,36.044835000000,0 120.365166000000,36.041398000000,0 120.357980000000,36.048920000000,0 120.345661000000,36.043541000000,0 120.337922000000,36.044633000000,0 120.342897000000,36.051670000000,0 120.337527000000,36.054986000000,0 120.324577000000,36.051104000000,0 120.324814000000,36.059515000000,0 120.315969000000,36.059677000000,0 120.307993000000,36.050214000000,0 120.296069000000,36.052439000000,0 120.297649000000,36.045361000000,0 120.286119000000,36.047181000000,0 120.290147000000,36.060526000000,0 120.301360000000,36.071282000000,0 120.311231000000,36.087614000000,0 120.312653000000,36.100185000000,0 120.317549000000,36.108106000000,0 120.326235000000,36.111662000000,0 120.333658000000,36.134652000000,0 120.347004000000,36.155818000000,0 120.356953000000,36.166076000000,0 120.358217000000,36.174757000000,0 120.369509000000,36.177745000000,0 120.358770000000,36.200312000000,0 120.336896000000,36.213954000000,0 120.319997000000,36.232234000000,0 120.297412000000,36.225455000000,0 120.293305000000,36.219241000000,0 120.298280000000,36.203783000000,0 120.313205000000,36.196316000000,0 120.310283000000,36.185295000000,0 120.291489000000,36.185941000000,0 120.280750000000,36.179320000000,0 120.276564000000,36.185699000000,0 120.262982000000,36.182267000000,0 120.260929000000,36.198415000000,0 120.244819000000,36.199384000000,0 120.235027000000,36.189211000000,0 120.224445000000,36.191310000000,0 120.217338000000,36.211412000000,0 120.207230000000,36.211613000000,0 120.181566000000,36.203945000000,0 120.164351000000,36.188767000000,0 120.140345000000,36.173304000000,0 120.142556000000,36.143539000000,0 120.128105000000,36.129723000000,0 120.108600000000,36.127420000000,0 120.116023000000,36.114046000000,0 120.116891000000,36.102852000000,0 120.152111000000,36.095254000000,0 120.161903000000,36.082682000000,0 120.173906000000,36.077225000000,0 120.181645000000,36.066511000000,0 120.194990000000,36.064206000000,0 120.231868000000,36.063842000000,0 120.241345000000,36.060445000000,0 120.240950000000,36.047828000000,0 120.230605000000,36.044916000000,0 120.234790000000,36.030638000000,0 120.223656000000,36.022385000000,0 120.223577000000,36.016398000000,0 120.198860000000,35.995720000000,0 120.213232000000,35.998351000000,0 120.244977000000,36.020444000000,0 120.256980000000,36.024813000000,0 120.265509000000,36.014011000000,0 120.256427000000,36.005433000000,0 120.248768000000,35.992078000000,0 120.247662000000,35.982567000000,0 120.254927000000,35.980826000000,0 120.265588000000,36.001062000000,0 120.271273000000,35.993940000000,0 120.278775000000,35.996368000000,0 120.274590000000,36.004664000000,0 120.291173000000,36.017611000000,0 120.309494000000,36.014132000000,0 120.316522000000,36.002155000000,0 120.305072000000,35.971840000000,0 120.284619000000,35.965565000000,0 120.261718000000,35.965484000000,0 120.251531000000,35.959370000000,0 120.246477000000,35.947466000000,0 120.233132000000,35.941553000000,0 120.222076000000,35.924947000000,0 120.209284000000,35.917616000000,0 120.204388000000,35.910404000000,0 120.202098000000,35.892050000000,0 120.185198000000,35.887470000000,0 120.169405000000,35.888565000000,0 120.172169000000,35.904408000000,0 120.184172000000,35.915671000000,0 120.194438000000,35.934020000000,0 120.210784000000,35.938435000000,0 120.207862000000,35.947344000000,0 120.179276000000,35.936653000000,0 120.167983000000,35.918426000000,0 120.156770000000,35.909149000000,0 120.147768000000,35.907852000000,0 120.141924000000,35.919438000000,0 120.142714000000,35.909392000000,0 120.135843000000,35.905421000000,0 120.125420000000,35.906718000000,0 120.123998000000,35.895291000000,0 120.118392000000,35.888524000000,0 120.102203000000,35.881918000000,0 120.084041000000,35.880378000000,0 120.078750000000,35.885768000000,0 120.062798000000,35.871340000000,0 120.036423000000,35.824753000000,0 120.033264000000,35.806013000000,0 120.041319000000,35.799198000000,0 120.049453000000,35.782278000000,0 120.043135000000,35.776759000000,0 120.037450000000,35.763041000000,0 120.037529000000,35.753908000000,0 120.031369000000,35.752244000000,0 120.020235000000,35.722239000000,0 120.011074000000,35.713223000000,0 120.001519000000,35.720209000000,0 119.981224000000,35.715335000000,0 119.986041000000,35.729711000000,0 119.978461000000,35.739496000000,0 119.967879000000,35.741080000000,0 119.969932000000,35.749078000000,0 119.959982000000,35.759104000000,0 119.937081000000,35.763407000000,0 119.924841000000,35.758252000000,0 119.920735000000,35.737548000000,0 119.930369000000,35.728899000000,0 119.949321000000,35.729873000000,0 119.953349000000,35.725610000000,0 119.952954000000,35.713142000000,0 119.944820000000,35.705506000000,0 119.923894000000,35.696529000000,0 119.910864000000,35.674305000000,0 119.912285000000,35.660651000000,0 119.927921000000,35.650450000000,0 119.925157000000,35.637360000000,0 119.902493000000,35.632970000000,0 119.894597000000,35.628742000000,0 119.877619000000,35.610972000000,0 119.868379000000,35.608817000000,0 119.851717000000,35.622074000000,0 119.844768000000,35.623619000000,0 119.831422000000,35.618333000000,0 119.829606000000,35.643702000000,0 119.824315000000,35.646304000000,0 119.818472000000,35.638580000000,0 119.800625000000,35.626465000000,0 119.802204000000,35.620244000000,0 119.792649000000,35.615446000000,0 119.802994000000,35.609183000000,0 119.800467000000,35.598690000000,0 119.792649000000,35.593850000000,0 119.800862000000,35.581891000000,0 119.786174000000,35.576073000000,0 119.780172000000,35.584860000000,0 119.769670000000,35.577212000000,0 119.762483000000,35.578351000000,0 119.752849000000,35.588684000000,0 119.751349000000,35.617845000000,0 119.729949000000,35.618943000000,0 119.717946000000,35.615649000000,0 119.682173000000,35.590027000000,0 119.662115000000,35.589294000000,0 119.665748000000,35.570255000000,0 119.649875000000,35.537658000000,0 119.639215000000,35.509446000000,0 119.628712000000,35.500854000000,0 119.618999000000,35.459469000000,0 119.612997000000,35.449813000000,0 119.600205000000,35.443537000000,0 119.592545000000,35.433390000000,0 119.579673000000,35.406527000000,0 119.578804000000,35.385568000000,0 119.588991000000,35.376106000000,0 119.586938000000,35.363870000000,0 119.579120000000,35.357629000000,0 119.543743000000,35.347960000000,0 119.539794000000,35.329802000000,0 119.552745000000,35.330006000000,0 119.552113000000,35.324456000000,0 119.538610000000,35.320456000000,0 119.538452000000,35.296740000000,0 119.528502000000,35.303721000000,0 119.520447000000,35.303803000000,0 119.516025000000,35.318089000000,0 119.502442000000,35.321721000000,0 119.476541000000,35.308334000000,0 119.451113000000,35.285390000000,0 119.424580000000,35.255332000000,0 119.411313000000,35.231638000000,0 119.397652000000,35.166893000000,0 119.416604000000,35.167465000000,0 119.416999000000,35.158183000000,0 119.396073000000,35.157815000000,0 119.393546000000,35.143582000000,0 119.397731000000,35.137692000000,0 119.418973000000,35.128283000000,0 119.428292000000,35.121205000000,0 119.432398000000,35.111385000000,0 119.426633000000,35.108234000000,0 119.412893000000,35.110730000000,0 119.403259000000,35.106802000000,0 119.396467000000,35.091701000000,0 119.386518000000,35.088918000000,0 119.374041000000,35.078685000000,0 119.380358000000,35.070292000000,0 119.357457000000,35.072831000000,0 119.350508000000,35.083883000000,0 119.305812000000,35.076679000000,0 119.301785000000,35.093174000000,0 119.286702000000,35.115150000000,0 119.267276000000,35.117154000000,0 119.255510000000,35.122637000000,0 119.240743000000,35.122923000000,0 119.220685000000,35.107170000000,0 119.203233000000,35.110894000000,0 119.171409000000,35.107170000000,0 119.159011000000,35.100991000000,0 119.138085000000,35.096285000000,0 119.129477000000,35.076187000000,0 119.120475000000,35.070088000000,0 119.120396000000,35.058010000000,0 119.114631000000,35.054980000000,0 119.073647000000,35.056659000000,0 119.061407000000,35.051581000000,0 119.037401000000,35.051335000000,0 119.027214000000,35.055307000000,0 118.999891000000,35.053055000000,0 118.992152000000,35.048182000000,0 118.965619000000,35.046462000000,0 118.945166000000,35.040811000000,0 118.928504000000,35.050885000000,0 118.911131000000,35.047773000000,0 118.903787000000,35.041343000000,0 118.885782000000,35.034258000000,0 118.865330000000,35.029834000000,0 118.862487000000,35.025697000000,0 118.865093000000,34.993208000000,0 118.859249000000,34.962633000000,0 118.860750000000,34.943979000000,0 118.829715000000,34.911129000000,0 118.805235000000,34.873055000000,0 118.802471000000,34.845637000000,0 118.768989000000,34.846129000000,0 118.768278000000,34.838822000000,0 118.781940000000,34.827490000000,0 118.776649000000,34.818785000000,0 118.779018000000,34.809627000000,0 118.773569000000,34.795333000000,0 118.756512000000,34.789541000000,0 118.737560000000,34.792088000000,0 118.728399000000,34.786871000000,0 118.740166000000,34.781243000000,0 118.738507000000,34.766862000000,0 118.727215000000,34.768752000000,0 118.716475000000,34.763821000000,0 118.719239000000,34.745533000000,0 118.730374000000,34.745451000000,0 118.740087000000,34.736901000000,0 118.759197000000,34.740847000000,0 118.768515000000,34.738093000000,0 118.783440000000,34.722061000000,0 118.758723000000,34.703434000000,0 118.739376000000,34.693770000000,0 118.720108000000,34.694222000000,0 118.704077000000,34.688752000000,0 118.690258000000,34.678593000000,0 118.681335000000,34.678346000000,0 118.664357000000,34.693441000000,0 118.650537000000,34.695086000000,0 118.633717000000,34.687025000000,0 118.604894000000,34.696484000000,0 118.601340000000,34.714167000000,0 118.570464000000,34.712522000000,0 118.558934000000,34.706847000000,0 118.546063000000,34.706190000000,0 118.539350000000,34.711494000000,0 118.525215000000,34.712563000000,0 118.522688000000,34.692289000000,0 118.508158000000,34.687066000000,0 118.500814000000,34.675178000000,0 118.484231000000,34.670900000000,0 118.468437000000,34.674315000000,0 118.460856000000,34.657570000000,0 118.466463000000,34.643127000000,0 118.474913000000,34.637201000000,0 118.473807000000,34.623412000000,0 118.463620000000,34.625265000000,0 118.452881000000,34.617691000000,0 118.439219000000,34.626294000000,0 118.423820000000,34.591094000000,0 118.428322000000,34.563253000000,0 118.440956000000,34.524770000000,0 118.439535000000,34.507996000000,0 118.430928000000,34.489074000000,0 118.421372000000,34.483219000000,0 118.416240000000,34.473859000000,0 118.411344000000,34.446391000000,0 118.405342000000,34.437027000000,0 118.404947000000,34.427744000000,0 118.395155000000,34.427084000000,0 118.379993000000,34.415531000000,0 118.353223000000,34.417470000000,0 118.352197000000,34.422834000000,0 118.320925000000,34.421349000000,0 118.290681000000,34.424567000000,0 118.289180000000,34.412271000000,0 118.279862000000,34.412188000000,0 118.277414000000,34.404677000000,0 118.242431000000,34.405709000000,0 118.230981000000,34.398693000000,0 118.220241000000,34.405957000000,0 118.217714000000,34.379127000000,0 118.204369000000,34.377352000000,0 118.189602000000,34.380654000000,0 118.183363000000,34.390355000000,0 118.179336000000,34.379416000000,0 118.170413000000,34.381356000000,0 118.177125000000,34.408722000000,0 118.178862000000,34.425186000000,0 118.177757000000,34.453238000000,0 118.139931000000,34.475344000000,0 118.132824000000,34.483425000000,0 118.141826000000,34.497154000000,0 118.164964000000,34.504904000000,0 118.167570000000,34.519701000000,0 118.184706000000,34.544179000000,0 118.163542000000,34.551471000000,0 118.153671000000,34.549164000000,0 118.140721000000,34.554025000000,0 118.137167000000,34.563253000000,0 118.126428000000,34.555220000000,0 118.100447000000,34.564736000000,0 118.078968000000,34.569761000000,0 118.082363000000,34.579893000000,0 118.102816000000,34.593441000000,0 118.114740000000,34.614397000000,0 118.113003000000,34.621437000000,0 118.100526000000,34.626582000000,0 118.094603000000,34.636583000000,0 118.102658000000,34.647736000000,0 118.084022000000,34.655924000000,0 118.077783000000,34.653702000000,0 118.057410000000,34.655019000000,0 118.053935000000,34.650945000000,0 118.020690000000,34.660409000000,0 118.018242000000,34.647036000000,0 118.007818000000,34.647530000000,0 118.007423000000,34.656130000000,0 117.990840000000,34.661726000000,0 117.991708000000,34.670077000000,0 117.963280000000,34.678552000000,0 117.951672000000,34.678469000000,0 117.939669000000,34.664852000000,0 117.909740000000,34.670160000000,0 117.903106000000,34.644567000000,0 117.880995000000,34.645184000000,0 117.877916000000,34.650205000000,0 117.863465000000,34.645184000000,0 117.849408000000,34.647201000000,0 117.847513000000,34.652386000000,0 117.834483000000,34.647324000000,0 117.831798000000,34.653455000000,0 117.820111000000,34.646172000000,0 117.805818000000,34.646254000000,0 117.793657000000,34.651768000000,0 117.796026000000,34.637736000000,0 117.793657000000,34.625594000000,0 117.798553000000,34.621848000000,0 117.791446000000,34.585082000000,0</coordinates></LinearRing></outerBoundaryIs><innerBoundaryIs><LinearRing><coordinates>115.505406000000,35.914415000000,0 115.490717000000,35.908379000000,0 115.495377000000,35.896021000000,0 115.504932000000,35.899100000000,0 115.510775000000,35.908014000000,0 115.505406000000,35.914415000000,0</coordinates></LinearRing></innerBoundaryIs></Polygon><Polygon><outerBoundaryIs><LinearRing><coordinates>119.743689000000,35.591328000000,0 119.741873000000,35.583884000000,0 119.735240000000,35.595762000000,0 119.738872000000,35.599666000000,0 119.743689000000,35.591328000000,0</coordinates></LinearRing></outerBoundaryIs></Polygon><Polygon><outerBoundaryIs><LinearRing><coordinates>119.818867000000,37.316560000000,0 119.825895000000,37.315168000000,0 119.821394000000,37.309121000000,0 119.818867000000,37.316560000000,0</coordinates></LinearRing></outerBoundaryIs></Polygon><Polygon><outerBoundaryIs><LinearRing><coordinates>120.158665000000,35.744896000000,0 120.155428000000,35.751838000000,0 120.158823000000,35.764990000000,0 120.172090000000,35.785727000000,0 120.180539000000,35.788649000000,0 120.184725000000,35.766978000000,0 120.192858000000,35.757156000000,0 120.187962000000,35.748712000000,0 120.173037000000,35.741405000000,0 120.158665000000,35.744896000000,0</coordinates></LinearRing></outerBoundaryIs></Polygon><Polygon><outerBoundaryIs><LinearRing><coordinates>120.595042000000,36.090282000000,0 120.579485000000,36.091535000000,0 120.584381000000,36.096183000000,0 120.587461000000,36.099457000000,0 120.595042000000,36.090282000000,0</coordinates></LinearRing></outerBoundaryIs></Polygon><Polygon><outerBoundaryIs><LinearRing><coordinates>120.777457000000,36.222308000000,0 120.768060000000,36.230701000000,0 120.775088000000,36.237963000000,0 120.777457000000,36.222308000000,0</coordinates></LinearRing></outerBoundaryIs></Polygon><Polygon><outerBoundaryIs><LinearRing><coordinates>120.435526000000,37.786608000000,0 120.453136000000,37.788387000000,0 120.463323000000,37.786054000000,0 120.452584000000,37.768856000000,0 120.443976000000,37.770991000000,0 120.435526000000,37.786608000000,0</coordinates></LinearRing></outerBoundaryIs></Polygon><Polygon><outerBoundaryIs><LinearRing><coordinates>120.760558000000,37.890581000000,0 120.753056000000,37.894883000000,0 120.740974000000,37.908777000000,0 120.727708000000,37.909448000000,0 120.721627000000,37.917182000000,0 120.731735000000,37.920971000000,0 120.725023000000,37.923891000000,0 120.729287000000,37.931269000000,0 120.721548000000,37.931308000000,0 120.722101000000,37.945510000000,0 120.729761000000,37.946930000000,0 120.737736000000,37.955174000000,0 120.746423000000,37.951466000000,0 120.758031000000,37.929454000000,0 120.765375000000,37.922904000000,0 120.759058000000,37.911776000000,0 120.764901000000,37.896186000000,0 120.760558000000,37.890581000000,0</coordinates></LinearRing></outerBoundaryIs></Polygon><Polygon><outerBoundaryIs><LinearRing><coordinates>120.682775000000,37.928310000000,0 120.673536000000,37.929178000000,0 120.679379000000,37.937147000000,0 120.678511000000,37.944642000000,0 120.692804000000,37.946930000000,0 120.687829000000,37.931308000000,0 120.682775000000,37.928310000000,0</coordinates></LinearRing></outerBoundaryIs></Polygon><Polygon><outerBoundaryIs><LinearRing><coordinates>120.626550000000,37.945786000000,0 120.604913000000,37.956712000000,0 120.598279000000,37.970633000000,0 120.602070000000,37.978480000000,0 120.614152000000,37.984512000000,0 120.632472000000,37.978913000000,0 120.630972000000,37.952018000000,0 120.626550000000,37.945786000000,0</coordinates></LinearRing></outerBoundaryIs></Polygon><Polygon><outerBoundaryIs><LinearRing><coordinates>120.644160000000,37.964757000000,0 120.653004000000,37.980017000000,0 120.658611000000,37.975483000000,0 120.653952000000,37.963969000000,0 120.644160000000,37.964757000000,0</coordinates></LinearRing></outerBoundaryIs></Polygon><Polygon><outerBoundaryIs><LinearRing><coordinates>120.736631000000,37.971146000000,0 120.732525000000,37.961484000000,0 120.706465000000,37.966808000000,0 120.696278000000,37.974024000000,0 120.692409000000,37.983842000000,0 120.685539000000,37.991332000000,0 120.697147000000,37.995117000000,0 120.716020000000,37.987311000000,0 120.724707000000,37.987429000000,0 120.730787000000,37.974142000000,0 120.736631000000,37.971146000000,0</coordinates></LinearRing></outerBoundaryIs></Polygon><Polygon><outerBoundaryIs><LinearRing><coordinates>120.644791000000,38.069660000000,0 120.652056000000,38.069109000000,0 120.652767000000,38.058988000000,0 120.645423000000,38.055010000000,0 120.641238000000,38.061233000000,0 120.644791000000,38.069660000000,0</coordinates></LinearRing></outerBoundaryIs></Polygon><Polygon><outerBoundaryIs><LinearRing><coordinates>120.640922000000,38.148141000000,0 120.647318000000,38.149557000000,0 120.653715000000,38.141532000000,0 120.645818000000,38.132011000000,0 120.637763000000,38.139171000000,0 120.640922000000,38.148141000000,0</coordinates></LinearRing></outerBoundaryIs></Polygon><Polygon><outerBoundaryIs><LinearRing><coordinates>120.760321000000,38.176615000000,0 120.777694000000,38.172565000000,0 120.787328000000,38.158682000000,0 120.771456000000,38.156558000000,0 120.760479000000,38.159390000000,0 120.750687000000,38.150304000000,0 120.738210000000,38.161711000000,0 120.738052000000,38.174688000000,0 120.742554000000,38.198986000000,0 120.747607000000,38.202759000000,0 120.753688000000,38.195291000000,0 120.760321000000,38.176615000000,0</coordinates></LinearRing></outerBoundaryIs></Polygon><Polygon><outerBoundaryIs><LinearRing><coordinates>120.823890000000,38.297939000000,0 120.815520000000,38.288714000000,0 120.802253000000,38.284041000000,0 120.797041000000,38.288282000000,0 120.808492000000,38.311913000000,0 120.816546000000,38.318075000000,0 120.835262000000,38.320077000000,0 120.849871000000,38.310343000000,0 120.843080000000,38.300570000000,0 120.823890000000,38.297939000000,0</coordinates></LinearRing></outerBoundaryIs></Polygon><Polygon><outerBoundaryIs><LinearRing><coordinates>120.842843000000,38.355898000000,0 120.856820000000,38.343188000000,0 120.841342000000,38.335655000000,0 120.842843000000,38.355898000000,0</coordinates></LinearRing></outerBoundaryIs></Polygon><Polygon><outerBoundaryIs><LinearRing><coordinates>120.877352000000,35.893590000000,0 120.888802000000,35.897277000000,0 120.875377000000,35.888443000000,0 120.877352000000,35.893590000000,0</coordinates></LinearRing></outerBoundaryIs></Polygon><Polygon><outerBoundaryIs><LinearRing><coordinates>121.391432000000,36.271926000000,0 121.396644000000,36.264183000000,0 121.388668000000,36.266442000000,0 121.391432000000,36.271926000000,0</coordinates></LinearRing></outerBoundaryIs></Polygon><Polygon><outerBoundaryIs><LinearRing><coordinates>120.978115000000,36.428643000000,0 120.990039000000,36.413348000000,0 120.981431000000,36.417494000000,0 120.963663000000,36.413630000000,0 120.950318000000,36.414757000000,0 120.948502000000,36.421117000000,0 120.963900000000,36.424618000000,0 120.969823000000,36.431581000000,0 120.978115000000,36.428643000000,0</coordinates></LinearRing></outerBoundaryIs></Polygon><Polygon><outerBoundaryIs><LinearRing><coordinates>121.004253000000,36.488306000000,0 120.988538000000,36.485249000000,0 120.989881000000,36.492367000000,0 121.004253000000,36.488306000000,0</coordinates></LinearRing></outerBoundaryIs></Polygon><Polygon><outerBoundaryIs><LinearRing><coordinates>121.623124000000,36.728702000000,0 121.631179000000,36.725855000000,0 121.620834000000,36.713827000000,0 121.623124000000,36.728702000000,0</coordinates></LinearRing></outerBoundaryIs></Polygon><Polygon><outerBoundaryIs><LinearRing><coordinates>121.492274000000,36.740207000000,0 121.499776000000,36.737120000000,0 121.484614000000,36.732871000000,0 121.492274000000,36.740207000000,0</coordinates></LinearRing></outerBoundaryIs></Polygon><Polygon><outerBoundaryIs><LinearRing><coordinates>122.257631000000,36.755638000000,0 122.267028000000,36.754195000000,0 122.260316000000,36.748704000000,0 122.257631000000,36.755638000000,0</coordinates></LinearRing></outerBoundaryIs></Polygon><Polygon><outerBoundaryIs><LinearRing><coordinates>122.483479000000,37.454991000000,0 122.490586000000,37.449829000000,0 122.482215000000,37.447089000000,0 122.483479000000,37.454991000000,0</coordinates></LinearRing></outerBoundaryIs></Polygon><Polygon><outerBoundaryIs><LinearRing><coordinates>122.216173000000,37.497824000000,0 122.183559000000,37.499570000000,0 122.171951000000,37.501792000000,0 122.184901000000,37.515600000000,0 122.188218000000,37.510165000000,0 122.199747000000,37.510323000000,0 122.202748000000,37.501951000000,0 122.216173000000,37.497824000000,0</coordinates></LinearRing></outerBoundaryIs></Polygon><Polygon><outerBoundaryIs><LinearRing><coordinates>121.526625000000,37.562522000000,0 121.508621000000,37.552530000000,0 121.507120000000,37.556892000000,0 121.520308000000,37.565139000000,0 121.526625000000,37.562522000000,0</coordinates></LinearRing></outerBoundaryIs></Polygon><Polygon><outerBoundaryIs><LinearRing><coordinates>120.876720000000,38.018213000000,0 120.872693000000,38.027552000000,0 120.878141000000,38.026961000000,0 120.876720000000,38.018213000000,0</coordinates></LinearRing></outerBoundaryIs></Polygon><Polygon><outerBoundaryIs><LinearRing><coordinates>120.932708000000,38.026882000000,0 120.931287000000,38.035353000000,0 120.947870000000,38.032398000000,0 120.951108000000,38.024360000000,0 120.943843000000,38.019907000000,0 120.932708000000,38.026882000000,0</coordinates></LinearRing></outerBoundaryIs></Polygon><Polygon><outerBoundaryIs><LinearRing><coordinates>120.914151000000,38.354682000000,0 120.918810000000,38.345110000000,0 120.906570000000,38.349778000000,0 120.895277000000,38.363232000000,0 120.900015000000,38.371900000000,0 120.914940000000,38.373429000000,0 120.913993000000,38.364566000000,0 120.921021000000,38.362997000000,0 120.914151000000,38.354682000000,0</coordinates></LinearRing></outerBoundaryIs></Polygon><Polygon><outerBoundaryIs><LinearRing><coordinates>120.898515000000,38.386487000000,0 120.915730000000,38.401933000000,0 120.931997000000,38.391231000000,0 120.931918000000,38.382291000000,0 120.922126000000,38.385271000000,0 120.903332000000,38.381742000000,0 120.898515000000,38.386487000000,0</coordinates></LinearRing></outerBoundaryIs></Polygon></MultiGeometry>
    </Placemark>
  </Document>
</kml>
