<?xml version="1.0" encoding="UTF-8"?>
<kml xmlns="http://www.opengis.net/kml/2.2">
<Document>
<name>德州市</name>
<Placemark><name>德州市</name><MultiGeometry><Polygon><outerBoundaryIs><LinearRing><coordinates>117.273416999999995,37.532618999999997,0 117.277681000000001,37.545391000000002,0 117.280681999999999,37.566209999999998,0 117.288972999999999,37.577112,0 117.308321000000007,37.589956000000001,0 117.314875000000001,37.600458000000003,0 117.317796999999999,37.615081000000004,0 117.312584999999999,37.633701000000002,0 117.304924999999997,37.640514000000003,0 117.312505999999999,37.641939999999998,0 117.318427999999997,37.662019000000001,0 117.329404999999994,37.673343000000003,0 117.347488999999996,37.683318999999997,0 117.344566999999998,37.693136000000003,0 117.352542999999997,37.707344999999997,0 117.365729999999999,37.698360999999998,0 117.363597999999996,37.679558999999998,0 117.358148999999997,37.672947000000001,0 117.357596000000001,37.658495000000002,0 117.363834999999995,37.649624000000003,0 117.373074000000003,37.648594000000003,0 117.392973999999995,37.660038999999998,0 117.407188000000005,37.678846,0 117.415401000000003,37.669581999999998,0 117.428825000000003,37.665740999999997,0 117.444224000000006,37.671917999999998,0 117.451963000000006,37.669978,0 117.465625000000003,37.655563999999998,0 117.477074999999999,37.654415999999998,0 117.488603999999995,37.677025,0 117.503450000000001,37.680548000000002,0 117.506450999999998,37.686802999999998,0 117.531246999999993,37.688901000000001,0 117.543092000000001,37.703625000000002,0 117.539775000000006,37.713993000000002,0 117.556201000000001,37.716683000000003,0 117.542618000000004,37.726258000000001,0 117.547197999999995,37.737493999999998,0 117.544118999999995,37.747698999999997,0 117.531563000000006,37.748213,0 117.522165000000001,37.755370999999997,0 117.526509000000004,37.762963999999997,0 117.547355999999994,37.767512000000004,0 117.546566999999996,37.776367999999998,0 117.559911999999997,37.800007999999998,0 117.568599000000006,37.804986999999997,0 117.566230000000004,37.812733000000001,0 117.588025000000002,37.82273,0 117.595290000000006,37.834741000000001,0 117.605002999999996,37.838968000000001,0 117.606582000000003,37.845208999999997,0 117.595685000000003,37.853504000000001,0 117.581075999999996,37.858992999999998,0 117.580601999999999,37.875301999999998,0 117.568835000000007,37.882409000000003,0 117.547197999999995,37.883198,0 117.542776000000003,37.890146000000001,0 117.539302000000006,37.913552000000003,0 117.529036000000005,37.932295000000003,0 117.567808999999997,37.946772000000003,0 117.570651999999995,37.957264000000002,0 117.563545000000005,37.998584999999999,0 117.549329999999998,38.010252000000001,0 117.541038999999998,38.011237000000001,0 117.524377000000001,37.989479000000003,0 117.520902000000007,37.966729000000001,0 117.512846999999994,37.943458999999997,0 117.492710000000002,37.927481,0 117.481181000000007,37.914853999999998,0 117.466808999999998,37.890739000000004,0 117.438539000000006,37.853859,0 117.423614000000001,37.847262999999998,0 117.406319999999994,37.843510999999999,0 117.381918999999996,37.854531000000001,0 117.364704000000003,37.854135999999997,0 117.344251,37.862665999999997,0 117.320166,37.861401999999998,0 117.302950999999993,37.852358000000002,0 117.284471999999994,37.84675,0 117.271364000000005,37.839916000000002,0 117.259754999999998,37.838256999999999,0 117.208821,37.843747999999998,0 117.185367999999997,37.849791000000003,0 117.163651000000002,37.839798000000002,0 117.150148000000002,37.839599999999997,0 117.093765000000005,37.849514999999997,0 117.074338999999995,37.848725000000002,0 117.040541000000005,37.839323999999998,0 117.027195000000006,37.832371000000002,0 117.008874000000006,37.833872,0 116.976656000000006,37.841062000000001,0 116.950359000000006,37.839719000000002,0 116.919325000000001,37.84592,0 116.879604,37.843747999999998,0 116.843753000000007,37.834465000000002,0 116.828038000000006,37.840626999999998,0 116.812718000000004,37.843589999999999,0 116.811770999999993,37.847935,0 116.794556,37.846986999999999,0 116.788158999999993,37.843432,0 116.786185000000003,37.826326000000002,0 116.766838000000007,37.811349999999997,0 116.758940999999993,37.801864999999999,0 116.745990000000006,37.795777999999999,0 116.753649999999993,37.793011,0 116.753808000000006,37.770516999999998,0 116.744174000000001,37.757348999999998,0 116.73912,37.756914000000002,0 116.723168999999999,37.766720999999997,0 116.718826000000007,37.762331000000003,0 116.724511000000007,37.744297000000003,0 116.709586000000002,37.735199000000001,0 116.698768000000001,37.738759000000002,0 116.69932,37.730649999999997,0 116.679736000000005,37.728789999999996,0 116.675235000000001,37.720838000000001,0 116.664022000000003,37.687792999999999,0 116.653677000000002,37.67754,0 116.646411999999998,37.676233000000003,0 116.641041999999999,37.68233,0 116.636461999999995,37.675877,0 116.640884,37.666454000000002,0 116.630775999999997,37.652712999999999,0 116.604479999999995,37.625104999999998,0 116.580315999999996,37.613258000000002,0 116.556546999999995,37.596851999999998,0 116.563496000000001,37.596494999999997,0 116.545806999999996,37.582504,0 116.538462999999993,37.568429999999999,0 116.519589999999994,37.559905000000001,0 116.507113000000004,37.541822000000003,0 116.499690000000001,37.537855,0 116.482633000000007,37.521790000000003,0 116.462180000000004,37.517426,0 116.446702000000002,37.500562000000002,0 116.438648000000001,37.477224,0 116.434145999999998,37.473334000000001,0 116.414089000000004,37.490997,0 116.402163999999999,37.509847000000001,0 116.388660999999999,37.516314999999999,0 116.382738000000003,37.523614999999999,0 116.368919000000005,37.526392000000001,0 116.367891999999998,37.533808999999998,0 116.376895000000005,37.546581000000003,0 116.375473,37.560341000000001,0 116.367654999999999,37.566288999999998,0 116.343491,37.566011000000003,0 116.344913000000005,37.570492000000002,0 116.335909999999998,37.581235,0 116.319406000000001,37.580046000000003,0 116.334805000000003,37.574773,0 116.304480999999996,37.564504999999997,0 116.299664000000007,37.569580000000002,0 116.299347999999995,37.559350000000002,0 116.287897999999998,37.549317000000002,0 116.291372999999993,37.545589,0 116.286081999999993,37.532618999999997,0 116.291372999999993,37.523812999999997,0 116.278422000000006,37.524765000000002,0 116.283555000000007,37.517583999999999,0 116.280316999999997,37.510879000000003,0 116.297532000000004,37.508816000000003,0 116.284344000000004,37.500720999999999,0 116.292952,37.497387000000003,0 116.286081999999993,37.491117000000003,0 116.290898999999996,37.484766,0 116.271473,37.478931000000003,0 116.276448000000002,37.466901999999997,0 116.256468999999996,37.478811999999998,0 116.258285000000001,37.482661999999998,0 116.241307000000006,37.491433999999998,0 116.235067999999998,37.479725000000002,0 116.224802999999994,37.479962999999998,0 116.229935999999995,37.459676000000002,0 116.243596999999994,37.455903999999997,0 116.243122999999997,37.448200999999997,0 116.227329999999995,37.434260999999999,0 116.231515000000002,37.424529,0 116.247151000000002,37.422066000000001,0 116.250072000000003,37.425919,0 116.270999000000003,37.426713999999997,0 116.263023000000004,37.422423000000002,0 116.275025999999997,37.418252000000003,0 116.270446000000007,37.413801999999997,0 116.282922999999997,37.401325999999997,0 116.273052000000007,37.398425000000003,0 116.270446000000007,37.389125999999997,0 116.261601999999996,37.389802000000003,0 116.251652000000007,37.376565999999997,0 116.234437,37.361221,0 116.195505999999995,37.365673999999999,0 116.185239999999993,37.369928000000002,0 116.168813999999998,37.384118000000001,0 116.126645999999994,37.373466000000001,0 116.116459000000006,37.374301000000003,0 116.106588000000002,37.368814999999998,0 116.087557000000004,37.373306999999997,0 116.072474,37.368099000000001,0 116.056206000000003,37.369053000000001,0 116.051941999999997,37.357483999999999,0 116.031251999999995,37.356411000000001,0 116.024461000000002,37.359949,0 116.013643000000002,37.349570999999997,0 116.000376000000003,37.350803999999997,0 116.009456999999998,37.343169000000003,0 115.986951000000005,37.341737999999999,0 115.975738000000007,37.337282999999999,0 115.984503000000004,37.326067000000002,0 115.972973999999994,37.324038999999999,0 115.975658999999993,37.317515,0 115.984346000000002,37.319265000000001,0 115.981503000000004,37.307369999999999,0 115.970763000000005,37.295552999999998,0 115.968710000000002,37.286320000000003,0 115.976212000000004,37.276170999999998,0 115.975184999999996,37.268967000000004,0 115.966972999999996,37.265742000000003,0 115.972894999999994,37.257103000000001,0 115.963971999999998,37.250095999999999,0 115.971079000000003,37.245635999999998,0 115.969420999999997,37.239463999999998,0 115.953232,37.223692999999997,0 115.941387000000006,37.227716000000001,0 115.926777999999999,37.219510999999997,0 115.920934000000003,37.223534000000001,0 115.920145000000005,37.214173000000002,0 115.909800000000004,37.206803000000001,0 115.904825000000002,37.189391000000001,0 115.912485000000004,37.178750999999998,0 115.892268999999999,37.157625000000003,0 115.879949999999994,37.152003999999998,0 115.879396999999997,37.138646999999999,0 115.885399000000007,37.128757,0 115.879475999999997,37.105583000000003,0 115.868262999999999,37.084038,0 115.865025000000003,37.070827999999999,0 115.855153999999999,37.071108000000002,0 115.856260000000006,37.06073,0 115.831937999999994,37.045281000000003,0 115.825778,37.032384,0 115.812353999999999,37.028950000000002,0 115.813221999999996,37.019126,0 115.808088999999995,37.010258999999998,0 115.790874000000002,37.005985000000003,0 115.776264999999995,36.990884000000001,0 115.786372999999998,36.983092999999997,0 115.784477999999993,36.970624999999998,0 115.791742999999997,36.975261000000003,0 115.796875999999997,36.968747,0 115.788189000000003,36.952599999999997,0 115.772790999999998,36.936849000000002,0 115.762682999999996,36.939326999999999,0 115.761972,36.924413000000001,0 115.768683999999993,36.921014,0 115.780293,36.912216000000001,0 115.779819000000003,36.904977000000002,0 115.791347999999999,36.914335999999999,0 115.813063999999997,36.913415999999998,0 115.818749999999994,36.908577000000001,0 115.823250999999999,36.913496000000002,0 115.831779999999995,36.910856000000003,0 115.832964000000004,36.918574999999997,0 115.848995000000002,36.912655999999998,0 115.853970000000004,36.916215000000001,0 115.858549999999994,36.908337000000003,0 115.853733000000005,36.904777000000003,0 115.868420999999998,36.901457000000001,0 115.875844000000001,36.916255,0 115.881686999999999,36.917574999999999,0 115.885240999999994,36.907017000000003,0 115.894795999999999,36.905656999999998,0 115.920461000000003,36.892975999999997,0 115.947704000000002,36.888576,0 116.005667000000003,36.884374999999999,0 116.050126000000006,36.894497000000001,0 116.061892,36.888576,0 116.075947999999997,36.889496000000001,0 116.082424000000003,36.883854999999997,0 116.098217000000005,36.883895000000003,0 116.097348999999994,36.891336000000003,0 116.114958000000001,36.897697000000001,0 116.123723999999996,36.890656,0 116.146388000000002,36.910775999999998,0 116.164392000000007,36.916975000000001,0 116.173237,36.929692000000003,0 116.172842000000003,36.947723000000003,0 116.183660000000003,36.959595,0 116.191478000000004,36.963312000000002,0 116.211535999999995,36.963112000000002,0 116.210588000000001,36.970146,0 116.219195999999997,36.979616999999998,0 116.212089000000006,36.982453999999997,0 116.211693999999994,36.990085000000001,0 116.229225,36.996437999999998,0 116.235778999999994,37.010139000000002,0 116.222275999999994,37.010339000000002,0 116.225592000000006,37.025396000000001,0 116.232856999999996,37.032224999999997,0 116.250388000000001,37.025475999999998,0 116.247624000000002,37.019685000000003,0 116.254731000000007,37.008262000000002,0 116.267840000000007,37.010499000000003,0 116.290740999999997,36.995759,0 116.305350000000004,36.994999,0 116.304955000000007,36.990245000000002,0 116.317036999999999,36.981853999999998,0 116.324065000000004,36.972023999999998,0 116.340175000000002,36.971944000000001,0 116.341358999999997,36.980255999999997,0 116.366471000000004,36.971863999999997,0 116.370260999999999,36.963272000000003,0 116.379343000000006,36.966309000000003,0 116.405876000000006,36.969107000000001,0 116.421116999999995,36.975661000000002,0 116.434382999999997,36.968228000000003,0 116.442674999999994,36.954318999999998,0 116.458073999999996,36.955357999999997,0 116.471102999999999,36.947043000000001,0 116.470551,36.940007000000001,0 116.461547999999993,36.940686999999997,0 116.443149000000005,36.932211000000002,0 116.444727999999998,36.923693999999998,0 116.439910999999995,36.916494999999998,0 116.449308000000002,36.915495999999997,0 116.452466999999999,36.906416999999998,0 116.447965999999994,36.899977,0 116.433987999999999,36.908417,0 116.421591000000006,36.905256999999999,0 116.417957999999999,36.894297000000002,0 116.422143000000005,36.890535999999997,0 116.415904999999995,36.881374000000001,0 116.419537000000005,36.877212999999998,0 116.434145999999998,36.876452999999998,0 116.429644999999994,36.865208000000003,0 116.412745999999999,36.861086,0 116.415351999999999,36.855922999999997,0 116.407218,36.846716999999998,0 116.409587000000002,36.837589999999999,0 116.399873999999997,36.823856999999997,0 116.408007999999995,36.815728999999997,0 116.409193000000002,36.807037999999999,0 116.397662999999994,36.809441,0 116.391977999999995,36.802912999999997,0 116.376025999999996,36.797024999999998,0 116.396242000000001,36.792459000000001,0 116.405638999999994,36.761208000000003,0 116.398295000000005,36.741489999999999,0 116.394504999999995,36.741689999999998,0 116.386054999999999,36.725293999999998,0 116.3964,36.718317999999996,0 116.407139000000001,36.704804000000003,0 116.407060000000001,36.689042000000001,0 116.411246000000006,36.676647000000003,0 116.413219999999995,36.643180999999998,0 116.406034000000005,36.631982999999998,0 116.411325000000005,36.615242000000002,0 116.408165999999994,36.581349000000003,0 116.400426999999993,36.566364999999998,0 116.399242999999998,36.533735999999998,0 116.400901000000005,36.524813000000002,0 116.413061999999996,36.518743000000001,0 116.430277000000004,36.503706999999999,0 116.443149000000005,36.498238000000001,0 116.446071000000003,36.488909,0 116.459258000000005,36.480060999999999,0 116.455704999999995,36.461919999999999,0 116.461547999999993,36.449970999999998,0 116.481684999999999,36.448360999999998,0 116.489345,36.454476999999997,0 116.507271000000003,36.447999000000003,0 116.512798000000004,36.441239000000003,0 116.511850999999993,36.430011999999998,0 116.527091999999996,36.424337000000001,0 116.539647000000002,36.427596999999999,0 116.535856999999993,36.418419999999998,0 116.549518000000006,36.417332999999999,0 116.546201999999994,36.408920000000002,0 116.591212999999996,36.416285999999999,0 116.612376999999995,36.42333,0 116.619799999999998,36.428522000000001,0 116.620904999999993,36.44144,0 116.611429000000001,36.459104000000004,0 116.613009000000005,36.473424999999999,0 116.595635999999999,36.480383000000003,0 116.593266999999997,36.485973000000001,0 116.602031999999994,36.495223000000003,0 116.624301000000003,36.497233000000001,0 116.627223000000001,36.508853000000002,0 116.610086999999993,36.516089999999998,0 116.608350000000002,36.520110000000003,0 116.622800999999995,36.532651000000001,0 116.629592000000002,36.544587,0 116.646727999999996,36.544105000000002,0 116.658968000000002,36.553026000000003,0 116.662915999999996,36.563110999999999,0 116.661258000000004,36.578375999999999,0 116.682421000000005,36.580585999999997,0 116.694344999999998,36.591149000000001,0 116.693319000000002,36.607894999999999,0 116.713139999999996,36.608857999999998,0 116.742041999999998,36.620381000000002,0 116.759494000000004,36.632745999999997,0 116.763126,36.651971000000003,0 116.777261999999993,36.660718000000003,0 116.780736000000005,36.671551999999998,0 116.780657000000005,36.691048000000002,0 116.799689000000001,36.694417000000001,0 116.802768,36.706729000000003,0 116.830881000000005,36.723851000000003,0 116.842489,36.72786,0 116.861756999999997,36.730345,0 116.873997000000003,36.739846,0 116.886790000000005,36.745538000000003,0 116.883868000000007,36.758243,0 116.870760000000004,36.759163999999998,0 116.865548000000004,36.777876999999997,0 116.868233000000004,36.801872000000003,0 116.872812999999994,36.812004000000002,0 116.887974999999997,36.811404000000003,0 116.882446999999999,36.824058000000001,0 116.887106000000003,36.833427,0 116.892476000000002,36.830022999999997,0 116.919404,36.822775999999998,0 116.933222999999998,36.823697000000003,0 116.935907999999998,36.829743000000001,0 116.934724000000003,36.845115999999997,0 116.944199999999995,36.844915999999998,0 116.948069000000004,36.839230999999998,0 116.962835999999996,36.842674000000002,0 116.96181,36.867528999999998,0 116.963151999999994,36.893895999999998,0 116.957465999999997,36.916494999999998,0 116.934408000000005,36.925972999999999,0 116.922562999999997,36.934530000000002,0 116.935434000000001,36.934570000000001,0 116.931881000000004,36.946204000000002,0 116.933380999999997,36.959595,0 116.907717000000005,36.963272000000003,0 116.897767000000002,36.962712000000003,0 116.899187999999995,36.977499000000002,0 116.886157999999995,36.983573,0 116.885763999999995,36.991444000000001,0 116.875023999999996,36.999274,0 116.891606999999993,37.00271,0 116.907796000000005,37.019046000000003,0 116.943173000000002,37.030906999999999,0 116.948701,37.036537000000003,0 116.944278999999995,37.042327,0 116.928642999999994,37.051029999999997,0 116.925246999999999,37.069831000000001,0 116.919719999999998,37.081364000000001,0 116.919009000000003,37.093055999999997,0 116.931486000000007,37.100476999999998,0 116.982578000000004,37.113601000000003,0 117.004531,37.121219000000004,0 117.024272999999994,37.119664,0 117.044883999999996,37.122615000000003,0 117.047410999999997,37.134739000000003,0 117.059809000000001,37.137250999999999,0 117.054676000000001,37.141717,0 117.050647999999995,37.160893999999999,0 117.061783000000005,37.164960000000001,0 117.063519999999997,37.182656000000001,0 117.05744,37.192140999999999,0 117.045357999999993,37.197161000000001,0 117.037381999999994,37.195169,0 117.037777000000006,37.207360999999999,0 117.022299000000004,37.215088999999999,0 117.035960000000003,37.224091000000001,0 117.036591999999999,37.237392999999997,0 117.042672999999994,37.238866999999999,0 117.041251000000003,37.247667,0 117.032328000000007,37.253241000000003,0 117.030275000000003,37.264229,0 117.038961,37.266537999999997,0 117.024272999999994,37.278917999999997,0 117.002240999999998,37.285961999999998,0 116.993397000000002,37.322009999999999,0 116.986683999999997,37.335335000000001,0 116.987157999999994,37.342692,0 117.006663000000003,37.355137999999997,0 117.009664000000001,37.359670999999999,0 116.99924,37.376964000000001,0 117.008163999999994,37.392463999999997,0 117.019693000000004,37.405379000000003,0 117.012112000000002,37.419643000000001,0 117.018429999999995,37.435848999999997,0 117.030670000000001,37.442957999999997,0 117.038408000000004,37.435451999999998,0 117.089264,37.435054999999998,0 117.102293000000003,37.445777999999997,0 117.104978000000003,37.455309,0 117.098819000000006,37.469721,0 117.109795000000005,37.479010000000002,0 117.124877999999995,37.483853000000003,0 117.135617999999994,37.475239000000002,0 117.163809000000001,37.478971000000001,0 117.176049000000006,37.486116000000003,0 117.199344999999994,37.487147999999998,0 117.221140000000005,37.513179999999998,0 117.230063000000001,37.528891000000002,0 117.238197,37.532896999999998,0 117.260861000000006,37.530081000000003,0 117.273416999999995,37.532618999999997,0</coordinates></LinearRing></outerBoundaryIs></Polygon></MultiGeometry></Placemark>
</Document>
</kml>