<?xml version="1.0" encoding="UTF-8"?>
<kml xmlns="http://www.opengis.net/kml/2.2">
  <Document>
    <name>泰安市</name>
    <Placemark>
      <name>泰安市</name>
      <Polygon><outerBoundaryIs><LinearRing><coordinates>117.937536000000,35.996530000000,0 117.935088000000,36.004421000000,0 117.926165000000,36.005068000000,0 117.922848000000,36.015467000000,0 117.914557000000,36.020039000000,0 117.895052000000,36.020363000000,0 117.877047000000,36.016357000000,0 117.866386000000,36.007415000000,0 117.854462000000,36.006889000000,0 117.841827000000,36.011947000000,0 117.828719000000,36.008022000000,0 117.825244000000,36.013363000000,0 117.801159000000,36.012959000000,0 117.794763000000,36.015143000000,0 117.782286000000,36.007294000000,0 117.781022000000,35.995437000000,0 117.762307000000,35.990621000000,0 117.756621000000,35.991916000000,0 117.756542000000,36.002236000000,0 117.750304000000,36.011947000000,0 117.757016000000,36.019392000000,0 117.741696000000,36.036058000000,0 117.725824000000,36.029667000000,0 117.720454000000,36.038243000000,0 117.701186000000,36.045280000000,0 117.689972000000,36.052358000000,0 117.656569000000,36.049729000000,0 117.630588000000,36.059879000000,0 117.601844000000,36.075648000000,0 117.575943000000,36.074516000000,0 117.561649000000,36.079327000000,0 117.552884000000,36.087978000000,0 117.547672000000,36.106166000000,0 117.534879000000,36.111419000000,0 117.505898000000,36.098245000000,0 117.491052000000,36.096587000000,0 117.484893000000,36.100750000000,0 117.473758000000,36.089797000000,0 117.451963000000,36.087412000000,0 117.447067000000,36.092060000000,0 117.456148000000,36.100467000000,0 117.454885000000,36.111177000000,0 117.463571000000,36.116875000000,0 117.446830000000,36.120834000000,0 117.459623000000,36.149800000000,0 117.469178000000,36.154687000000,0 117.476601000000,36.150123000000,0 117.487972000000,36.159210000000,0 117.475653000000,36.173102000000,0 117.461202000000,36.170194000000,0 117.446988000000,36.186910000000,0 117.440434000000,36.191189000000,0 117.452437000000,36.203138000000,0 117.447778000000,36.203541000000,0 117.447383000000,36.218313000000,0 117.427878000000,36.221662000000,0 117.412716000000,36.210927000000,0 117.399528000000,36.215004000000,0 117.393211000000,36.222994000000,0 117.392895000000,36.237439000000,0 117.417217000000,36.243652000000,0 117.413901000000,36.267934000000,0 117.394553000000,36.266522000000,0 117.397791000000,36.283782000000,0 117.387604000000,36.285556000000,0 117.387920000000,36.296361000000,0 117.379707000000,36.315146000000,0 117.388710000000,36.326148000000,0 117.387762000000,36.337915000000,0 117.362729000000,36.360234000000,0 117.351753000000,36.377997000000,0 117.350410000000,36.393379000000,0 117.344962000000,36.403968000000,0 117.339434000000,36.425786000000,0 117.339118000000,36.438181000000,0 117.346936000000,36.455724000000,0 117.346383000000,36.463730000000,0 117.335328000000,36.466345000000,0 117.306820000000,36.467029000000,0 117.306820000000,36.472097000000,0 117.288184000000,36.476039000000,0 117.288973000000,36.468718000000,0 117.275786000000,36.451218000000,0 117.263862000000,36.449206000000,0 117.249726000000,36.436732000000,0 117.242145000000,36.415280000000,0 117.218297000000,36.406182000000,0 117.208742000000,36.405297000000,0 117.200924000000,36.389755000000,0 117.191685000000,36.378762000000,0 117.180945000000,36.372560000000,0 117.182920000000,36.360798000000,0 117.179603000000,36.353144000000,0 117.161361000000,36.351895000000,0 117.142567000000,36.345731000000,0 117.137039000000,36.335135000000,0 117.111691000000,36.340413000000,0 117.107347000000,36.338882000000,0 117.088711000000,36.346013000000,0 117.077340000000,36.321957000000,0 117.077655000000,36.307205000000,0 117.074102000000,36.296724000000,0 117.066995000000,36.296885000000,0 117.051201000000,36.288741000000,0 117.048200000000,36.283701000000,0 117.030275000000,36.277532000000,0 117.027353000000,36.268983000000,0 117.003347000000,36.265353000000,0 117.002794000000,36.254503000000,0 116.987632000000,36.250711000000,0 116.975471000000,36.243208000000,0 116.956835000000,36.259787000000,0 116.950201000000,36.257327000000,0 116.932828000000,36.261925000000,0 116.928722000000,36.269910000000,0 116.891133000000,36.255471000000,0 116.873129000000,36.264062000000,0 116.867759000000,36.281080000000,0 116.855519000000,36.289709000000,0 116.855756000000,36.301642000000,0 116.830644000000,36.294587000000,0 116.808612000000,36.299022000000,0 116.786659000000,36.311357000000,0 116.772761000000,36.312002000000,0 116.762574000000,36.305391000000,0 116.732961000000,36.294144000000,0 116.710376000000,36.279185000000,0 116.701058000000,36.280153000000,0 116.686528000000,36.275435000000,0 116.675709000000,36.276645000000,0 116.649018000000,36.295797000000,0 116.632277000000,36.296321000000,0 116.609613000000,36.291322000000,0 116.600611000000,36.273983000000,0 116.587502000000,36.268862000000,0 116.581264000000,36.255471000000,0 116.574393000000,36.263457000000,0 116.558837000000,36.261037000000,0 116.552361000000,36.247767000000,0 116.536410000000,36.245588000000,0 116.525591000000,36.255229000000,0 116.512325000000,36.253414000000,0 116.506402000000,36.240344000000,0 116.485239000000,36.236067000000,0 116.487529000000,36.228441000000,0 116.472604000000,36.214640000000,0 116.481922000000,36.197002000000,0 116.502059000000,36.192764000000,0 116.510350000000,36.176857000000,0 116.525986000000,36.168297000000,0 116.521880000000,36.157151000000,0 116.510192000000,36.148346000000,0 116.507192000000,36.141277000000,0 116.519748000000,36.141196000000,0 116.528513000000,36.145276000000,0 116.525275000000,36.135298000000,0 116.543122000000,36.139580000000,0 116.558600000000,36.133804000000,0 116.562153000000,36.121643000000,0 116.569024000000,36.118774000000,0 116.566891000000,36.108752000000,0 116.554651000000,36.108187000000,0 116.546597000000,36.101195000000,0 116.543359000000,36.086604000000,0 116.532303000000,36.074274000000,0 116.504112000000,36.064732000000,0 116.471182000000,36.064570000000,0 116.452072000000,36.058019000000,0 116.449387000000,36.047302000000,0 116.434541000000,36.038607000000,0 116.436121000000,36.046534000000,0 116.429566000000,36.052439000000,0 116.433357000000,36.059839000000,0 116.427829000000,36.067441000000,0 116.409508000000,36.068007000000,0 116.401059000000,36.074031000000,0 116.398058000000,36.084582000000,0 116.386845000000,36.090807000000,0 116.360233000000,36.084744000000,0 116.352731000000,36.070797000000,0 116.338753000000,36.060082000000,0 116.324855000000,36.054178000000,0 116.310404000000,36.052196000000,0 116.304718000000,36.046251000000,0 116.301244000000,36.031123000000,0 116.294689000000,36.031407000000,0 116.271552000000,36.043824000000,0 116.267998000000,36.052964000000,0 116.267287000000,36.074233000000,0 116.273368000000,36.093758000000,0 116.271710000000,36.109843000000,0 116.261444000000,36.122693000000,0 116.246677000000,36.149436000000,0 116.226066000000,36.173748000000,0 116.213036000000,36.169831000000,0 116.169446000000,36.171325000000,0 116.164392000000,36.168862000000,0 116.164313000000,36.146084000000,0 116.123882000000,36.136429000000,0 116.114011000000,36.122047000000,0 116.099323000000,36.112066000000,0 116.096875000000,36.092182000000,0 116.091742000000,36.089474000000,0 116.087162000000,36.071403000000,0 116.076106000000,36.056887000000,0 116.079502000000,36.042611000000,0 116.073658000000,36.026148000000,0 116.062840000000,36.028899000000,0 116.052574000000,35.999120000000,0 116.050600000000,35.981919000000,0 116.061892000000,35.973580000000,0 116.065367000000,35.964714000000,0 116.060392000000,35.956374000000,0 116.048704000000,35.948114000000,0 116.058970000000,35.936167000000,0 116.072790000000,35.940055000000,0 116.074606000000,35.927459000000,0 116.086767000000,35.923246000000,0 116.081634000000,35.914172000000,0 116.092610000000,35.904935000000,0 116.126172000000,35.891037000000,0 116.142834000000,35.895656000000,0 116.154284000000,35.886012000000,0 116.161155000000,35.900397000000,0 116.166998000000,35.904570000000,0 116.185398000000,35.900478000000,0 116.190057000000,35.892536000000,0 116.208140000000,35.886863000000,0 116.214774000000,35.889659000000,0 116.218485000000,35.879811000000,0 116.221091000000,35.892779000000,0 116.233963000000,35.888403000000,0 116.230804000000,35.860963000000,0 116.233963000000,35.851273000000,0 116.245808000000,35.834162000000,0 116.250072000000,35.823536000000,0 116.274868000000,35.803377000000,0 116.277395000000,35.806581000000,0 116.304007000000,35.799401000000,0 116.297295000000,35.795546000000,0 116.301875000000,35.777084000000,0 116.309377000000,35.774040000000,0 116.329830000000,35.787594000000,0 116.336621000000,35.796723000000,0 116.355652000000,35.800537000000,0 116.362838000000,35.795952000000,0 116.377921000000,35.796642000000,0 116.385581000000,35.801754000000,0 116.400822000000,35.794613000000,0 116.421196000000,35.799279000000,0 116.428698000000,35.796398000000,0 116.436989000000,35.807271000000,0 116.459811000000,35.815830000000,0 116.459732000000,35.828241000000,0 116.468024000000,35.836149000000,0 116.475841000000,35.833270000000,0 116.486976000000,35.841380000000,0 116.507508000000,35.843610000000,0 116.515325000000,35.841866000000,0 116.520616000000,35.853057000000,0 116.525275000000,35.847462000000,0 116.536410000000,35.847178000000,0 116.549834000000,35.857517000000,0 116.557020000000,35.890753000000,0 116.566023000000,35.899222000000,0 116.595715000000,35.905056000000,0 116.599663000000,35.916157000000,0 116.618536000000,35.935195000000,0 116.628170000000,35.938556000000,0 116.665996000000,35.940176000000,0 116.676973000000,35.925596000000,0 116.672392000000,35.921180000000,0 116.666944000000,35.898209000000,0 116.647518000000,35.884674000000,0 116.624380000000,35.878068000000,0 116.614904000000,35.865746000000,0 116.617036000000,35.855206000000,0 116.647281000000,35.832621000000,0 116.676736000000,35.822198000000,0 116.686607000000,35.814005000000,0 116.687317000000,35.798062000000,0 116.670497000000,35.761499000000,0 116.662679000000,35.758252000000,0 116.636699000000,35.764137000000,0 116.619563000000,35.756628000000,0 116.614588000000,35.749240000000,0 116.612061000000,35.712370000000,0 116.615615000000,35.705222000000,0 116.627539000000,35.705791000000,0 116.648939000000,35.713426000000,0 116.664969000000,35.716716000000,0 116.688660000000,35.724838000000,0 116.698847000000,35.720980000000,0 116.702242000000,35.709974000000,0 116.739673000000,35.703435000000,0 116.762732000000,35.708309000000,0 116.770076000000,35.703557000000,0 116.777341000000,35.690923000000,0 116.778762000000,35.679222000000,0 116.805137000000,35.679506000000,0 116.802137000000,35.684219000000,0 116.808296000000,35.691370000000,0 116.811376000000,35.706034000000,0 116.821800000000,35.705222000000,0 116.823300000000,35.696935000000,0 116.836882000000,35.697382000000,0 116.861994000000,35.679059000000,0 116.879367000000,35.685479000000,0 116.880710000000,35.696732000000,0 116.897135000000,35.701851000000,0 116.909849000000,35.699982000000,0 116.918140000000,35.706278000000,0 116.930538000000,35.709406000000,0 116.931012000000,35.713629000000,0 116.949649000000,35.715741000000,0 116.954939000000,35.719072000000,0 116.952412000000,35.737507000000,0 116.946253000000,35.744368000000,0 116.952412000000,35.756100000000,0 116.974366000000,35.760444000000,0 116.993397000000,35.794045000000,0 116.991423000000,35.805973000000,0 117.009506000000,35.807636000000,0 117.026800000000,35.799401000000,0 117.049622000000,35.801307000000,0 117.070864000000,35.790394000000,0 117.083815000000,35.804310000000,0 117.097318000000,35.802687000000,0 117.103241000000,35.790272000000,0 117.131275000000,35.786498000000,0 117.139566000000,35.777449000000,0 117.128353000000,35.769901000000,0 117.135381000000,35.767303000000,0 117.143436000000,35.771727000000,0 117.163651000000,35.775014000000,0 117.175023000000,35.780209000000,0 117.200214000000,35.775095000000,0 117.218060000000,35.778464000000,0 117.226984000000,35.773959000000,0 117.260308000000,35.771037000000,0 117.297581000000,35.788487000000,0 117.306504000000,35.798833000000,0 117.318428000000,35.793802000000,0 117.341013000000,35.793558000000,0 117.343382000000,35.784267000000,0 117.350331000000,35.782725000000,0 117.364467000000,35.770225000000,0 117.379155000000,35.775785000000,0 117.391000000000,35.767141000000,0 117.415559000000,35.775177000000,0 117.431195000000,35.760971000000,0 117.440197000000,35.744571000000,0 117.452832000000,35.742298000000,0 117.478733000000,35.732675000000,0 117.488683000000,35.721102000000,0 117.491210000000,35.707903000000,0 117.511031000000,35.712411000000,0 117.530931000000,35.707131000000,0 117.520586000000,35.697626000000,0 117.529431000000,35.682879000000,0 117.576022000000,35.650206000000,0 117.596948000000,35.630449000000,0 117.599001000000,35.649149000000,0 117.605319000000,35.674834000000,0 117.625850000000,35.703841000000,0 117.634616000000,35.709324000000,0 117.663913000000,35.709690000000,0 117.679154000000,35.713305000000,0 117.707424000000,35.726016000000,0 117.732615000000,35.712370000000,0 117.754173000000,35.709609000000,0 117.769019000000,35.726625000000,0 117.781733000000,35.734096000000,0 117.811504000000,35.732919000000,0 117.823033000000,35.739496000000,0 117.837405000000,35.741445000000,0 117.833694000000,35.760484000000,0 117.828482000000,35.773837000000,0 117.831167000000,35.786661000000,0 117.846092000000,35.796398000000,0 117.840959000000,35.812058000000,0 117.828403000000,35.821792000000,0 117.827376000000,35.827754000000,0 117.842143000000,35.845070000000,0 117.855410000000,35.850219000000,0 117.866860000000,35.869840000000,0 117.883364000000,35.882648000000,0 117.906265000000,35.884634000000,0 117.924586000000,35.880946000000,0 117.937615000000,35.874826000000,0 117.960516000000,35.870570000000,0 117.968097000000,35.884066000000,0 117.979310000000,35.889699000000,0 117.981364000000,35.906191000000,0 117.988234000000,35.908703000000,0 117.999210000000,35.925393000000,0 117.997394000000,35.934587000000,0 117.988471000000,35.947709000000,0 117.984443000000,35.956293000000,0 117.992577000000,35.971273000000,0 117.971414000000,35.969937000000,0 117.953962000000,35.957913000000,0 117.947013000000,35.960382000000,0 117.947013000000,35.971111000000,0 117.937221000000,35.981190000000,0 117.937536000000,35.996530000000,0</coordinates></LinearRing></outerBoundaryIs></Polygon>
    </Placemark>
  </Document>
</kml>
