<?xml version="1.0" encoding="UTF-8"?>
<kml xmlns="http://www.opengis.net/kml/2.2">
  <Document>
    <name>济南市</name>
    <Placemark>
      <name>济南市</name>
      <Polygon><outerBoundaryIs><LinearRing><coordinates>116.546202000000,36.408920000000,0 116.528592000000,36.387259000000,0 116.519984000000,36.384158000000,0 116.503717000000,36.369982000000,0 116.484607000000,36.336948000000,0 116.449071000000,36.337149000000,0 116.441411000000,36.321755000000,0 116.430593000000,36.318007000000,0 116.406745000000,36.319015000000,0 116.374526000000,36.303900000000,0 116.331251000000,36.290677000000,0 116.322644000000,36.284669000000,0 116.310799000000,36.270515000000,0 116.307166000000,36.259464000000,0 116.286240000000,36.239174000000,0 116.280159000000,36.221945000000,0 116.255047000000,36.203703000000,0 116.234911000000,36.180935000000,0 116.226066000000,36.173748000000,0 116.246677000000,36.149436000000,0 116.261444000000,36.122693000000,0 116.271710000000,36.109843000000,0 116.273368000000,36.093758000000,0 116.267287000000,36.074233000000,0 116.267998000000,36.052964000000,0 116.271552000000,36.043824000000,0 116.294689000000,36.031407000000,0 116.301244000000,36.031123000000,0 116.304718000000,36.046251000000,0 116.310404000000,36.052196000000,0 116.324855000000,36.054178000000,0 116.338753000000,36.060082000000,0 116.352731000000,36.070797000000,0 116.360233000000,36.084744000000,0 116.386845000000,36.090807000000,0 116.398058000000,36.084582000000,0 116.401059000000,36.074031000000,0 116.409508000000,36.068007000000,0 116.427829000000,36.067441000000,0 116.433357000000,36.059839000000,0 116.429566000000,36.052439000000,0 116.436121000000,36.046534000000,0 116.434541000000,36.038607000000,0 116.449387000000,36.047302000000,0 116.452072000000,36.058019000000,0 116.471182000000,36.064570000000,0 116.504112000000,36.064732000000,0 116.532303000000,36.074274000000,0 116.543359000000,36.086604000000,0 116.546597000000,36.101195000000,0 116.554651000000,36.108187000000,0 116.566891000000,36.108752000000,0 116.569024000000,36.118774000000,0 116.562153000000,36.121643000000,0 116.558600000000,36.133804000000,0 116.543122000000,36.139580000000,0 116.525275000000,36.135298000000,0 116.528513000000,36.145276000000,0 116.519748000000,36.141196000000,0 116.507192000000,36.141277000000,0 116.510192000000,36.148346000000,0 116.521880000000,36.157151000000,0 116.525986000000,36.168297000000,0 116.510350000000,36.176857000000,0 116.502059000000,36.192764000000,0 116.481922000000,36.197002000000,0 116.472604000000,36.214640000000,0 116.487529000000,36.228441000000,0 116.485239000000,36.236067000000,0 116.506402000000,36.240344000000,0 116.512325000000,36.253414000000,0 116.525591000000,36.255229000000,0 116.536410000000,36.245588000000,0 116.552361000000,36.247767000000,0 116.558837000000,36.261037000000,0 116.574393000000,36.263457000000,0 116.581264000000,36.255471000000,0 116.587502000000,36.268862000000,0 116.600611000000,36.273983000000,0 116.609613000000,36.291322000000,0 116.632277000000,36.296321000000,0 116.649018000000,36.295797000000,0 116.675709000000,36.276645000000,0 116.686528000000,36.275435000000,0 116.701058000000,36.280153000000,0 116.710376000000,36.279185000000,0 116.732961000000,36.294144000000,0 116.762574000000,36.305391000000,0 116.772761000000,36.312002000000,0 116.786659000000,36.311357000000,0 116.808612000000,36.299022000000,0 116.830644000000,36.294587000000,0 116.855756000000,36.301642000000,0 116.855519000000,36.289709000000,0 116.867759000000,36.281080000000,0 116.873129000000,36.264062000000,0 116.891133000000,36.255471000000,0 116.928722000000,36.269910000000,0 116.932828000000,36.261925000000,0 116.950201000000,36.257327000000,0 116.956835000000,36.259787000000,0 116.975471000000,36.243208000000,0 116.987632000000,36.250711000000,0 117.002794000000,36.254503000000,0 117.003347000000,36.265353000000,0 117.027353000000,36.268983000000,0 117.030275000000,36.277532000000,0 117.048200000000,36.283701000000,0 117.051201000000,36.288741000000,0 117.066995000000,36.296885000000,0 117.074102000000,36.296724000000,0 117.077655000000,36.307205000000,0 117.077340000000,36.321957000000,0 117.088711000000,36.346013000000,0 117.107347000000,36.338882000000,0 117.111691000000,36.340413000000,0 117.137039000000,36.335135000000,0 117.142567000000,36.345731000000,0 117.161361000000,36.351895000000,0 117.179603000000,36.353144000000,0 117.182920000000,36.360798000000,0 117.180945000000,36.372560000000,0 117.191685000000,36.378762000000,0 117.200924000000,36.389755000000,0 117.208742000000,36.405297000000,0 117.218297000000,36.406182000000,0 117.242145000000,36.415280000000,0 117.249726000000,36.436732000000,0 117.263862000000,36.449206000000,0 117.275786000000,36.451218000000,0 117.288973000000,36.468718000000,0 117.288184000000,36.476039000000,0 117.306820000000,36.472097000000,0 117.306820000000,36.467029000000,0 117.335328000000,36.466345000000,0 117.346383000000,36.463730000000,0 117.346936000000,36.455724000000,0 117.339118000000,36.438181000000,0 117.339434000000,36.425786000000,0 117.344962000000,36.403968000000,0 117.350410000000,36.393379000000,0 117.351753000000,36.377997000000,0 117.362729000000,36.360234000000,0 117.387762000000,36.337915000000,0 117.388710000000,36.326148000000,0 117.379707000000,36.315146000000,0 117.387920000000,36.296361000000,0 117.387604000000,36.285556000000,0 117.397791000000,36.283782000000,0 117.394553000000,36.266522000000,0 117.413901000000,36.267934000000,0 117.417217000000,36.243652000000,0 117.392895000000,36.237439000000,0 117.393211000000,36.222994000000,0 117.399528000000,36.215004000000,0 117.412716000000,36.210927000000,0 117.427878000000,36.221662000000,0 117.447383000000,36.218313000000,0 117.447778000000,36.203541000000,0 117.452437000000,36.203138000000,0 117.440434000000,36.191189000000,0 117.446988000000,36.186910000000,0 117.461202000000,36.170194000000,0 117.475653000000,36.173102000000,0 117.487972000000,36.159210000000,0 117.476601000000,36.150123000000,0 117.469178000000,36.154687000000,0 117.459623000000,36.149800000000,0 117.446830000000,36.120834000000,0 117.463571000000,36.116875000000,0 117.454885000000,36.111177000000,0 117.456148000000,36.100467000000,0 117.447067000000,36.092060000000,0 117.451963000000,36.087412000000,0 117.473758000000,36.089797000000,0 117.484893000000,36.100750000000,0 117.491052000000,36.096587000000,0 117.505898000000,36.098245000000,0 117.534879000000,36.111419000000,0 117.547672000000,36.106166000000,0 117.552884000000,36.087978000000,0 117.561649000000,36.079327000000,0 117.575943000000,36.074516000000,0 117.601844000000,36.075648000000,0 117.630588000000,36.059879000000,0 117.656569000000,36.049729000000,0 117.689972000000,36.052358000000,0 117.701186000000,36.045280000000,0 117.720454000000,36.038243000000,0 117.725824000000,36.029667000000,0 117.741696000000,36.036058000000,0 117.757016000000,36.019392000000,0 117.750304000000,36.011947000000,0 117.756542000000,36.002236000000,0 117.756621000000,35.991916000000,0 117.762307000000,35.990621000000,0 117.781022000000,35.995437000000,0 117.782286000000,36.007294000000,0 117.794763000000,36.015143000000,0 117.801159000000,36.012959000000,0 117.825244000000,36.013363000000,0 117.828719000000,36.008022000000,0 117.841827000000,36.011947000000,0 117.854462000000,36.006889000000,0 117.866386000000,36.007415000000,0 117.877047000000,36.016357000000,0 117.895052000000,36.020363000000,0 117.914557000000,36.020039000000,0 117.922848000000,36.015467000000,0 117.926165000000,36.005068000000,0 117.935088000000,36.004421000000,0 117.937536000000,35.996530000000,0 117.950803000000,35.996489000000,0 117.943380000000,36.017288000000,0 117.949855000000,36.018259000000,0 117.946855000000,36.042530000000,0 117.932798000000,36.052196000000,0 117.935799000000,36.061214000000,0 117.948829000000,36.062589000000,0 117.941880000000,36.071807000000,0 117.946223000000,36.081510000000,0 117.953172000000,36.081833000000,0 117.954041000000,36.090201000000,0 117.946618000000,36.100387000000,0 117.939984000000,36.094324000000,0 117.931535000000,36.094203000000,0 117.921111000000,36.110005000000,0 117.923875000000,36.117400000000,0 117.912030000000,36.132753000000,0 117.914162000000,36.140631000000,0 117.906660000000,36.152708000000,0 117.917873000000,36.163370000000,0 117.912109000000,36.171648000000,0 117.903027000000,36.172092000000,0 117.915899000000,36.192562000000,0 117.914636000000,36.200837000000,0 117.921664000000,36.203662000000,0 117.928534000000,36.196558000000,0 117.943933000000,36.207981000000,0 117.959332000000,36.204308000000,0 117.967781000000,36.214640000000,0 117.963280000000,36.224971000000,0 117.967070000000,36.248251000000,0 117.975362000000,36.262328000000,0 117.972993000000,36.268378000000,0 117.943696000000,36.274064000000,0 117.932719000000,36.271846000000,0 117.926797000000,36.277532000000,0 117.931140000000,36.283742000000,0 117.922533000000,36.300514000000,0 117.924823000000,36.313171000000,0 117.918347000000,36.317725000000,0 117.919611000000,36.324738000000,0 117.933509000000,36.334369000000,0 117.933904000000,36.341219000000,0 117.915346000000,36.352903000000,0 117.902633000000,36.352057000000,0 117.893472000000,36.339446000000,0 117.895210000000,36.359227000000,0 117.890314000000,36.366035000000,0 117.882101000000,36.356730000000,0 117.879732000000,36.370626000000,0 117.867492000000,36.386373000000,0 117.859279000000,36.389433000000,0 117.855094000000,36.412945000000,0 117.829508000000,36.417776000000,0 117.826823000000,36.427114000000,0 117.833062000000,36.443010000000,0 117.822717000000,36.443050000000,0 117.817268000000,36.436129000000,0 117.799343000000,36.432265000000,0 117.796500000000,36.439630000000,0 117.786471000000,36.434277000000,0 117.779838000000,36.441239000000,0 117.755752000000,36.445303000000,0 117.763491000000,36.452868000000,0 117.757016000000,36.459144000000,0 117.765544000000,36.469845000000,0 117.748566000000,36.478694000000,0 117.757332000000,36.484485000000,0 117.755673000000,36.496228000000,0 117.743118000000,36.498439000000,0 117.735853000000,36.504993000000,0 117.751646000000,36.509979000000,0 117.765544000000,36.509496000000,0 117.765860000000,36.512994000000,0 117.750777000000,36.524652000000,0 117.742486000000,36.525737000000,0 117.739406000000,36.539925000000,0 117.723770000000,36.547320000000,0 117.720849000000,36.560057000000,0 117.694315000000,36.568896000000,0 117.696132000000,36.575042000000,0 117.706792000000,36.581469000000,0 117.715321000000,36.578537000000,0 117.706792000000,36.593559000000,0 117.715163000000,36.600546000000,0 117.697869000000,36.599422000000,0 117.690525000000,36.604883000000,0 117.705055000000,36.605807000000,0 117.706555000000,36.611549000000,0 117.714926000000,36.610545000000,0 117.715321000000,36.627527000000,0 117.708530000000,36.635154000000,0 117.712241000000,36.642258000000,0 117.709003000000,36.651569000000,0 117.698027000000,36.652974000000,0 117.695184000000,36.666978000000,0 117.701265000000,36.685191000000,0 117.715637000000,36.691208000000,0 117.718006000000,36.697826000000,0 117.718480000000,36.704724000000,0 117.739959000000,36.721004000000,0 117.736642000000,36.729423000000,0 117.747303000000,36.748584000000,0 117.724165000000,36.755998000000,0 117.695974000000,36.754115000000,0 117.687603000000,36.763853000000,0 117.677811000000,36.783245000000,0 117.648119000000,36.805436000000,0 117.608556000000,36.821815000000,0 117.580523000000,36.851360000000,0 117.577364000000,36.862847000000,0 117.579891000000,36.878093000000,0 117.585024000000,36.886815000000,0 117.583760000000,36.894176000000,0 117.569230000000,36.915736000000,0 117.534248000000,36.931611000000,0 117.539538000000,36.941486000000,0 117.551305000000,36.933850000000,0 117.553674000000,36.940727000000,0 117.564650000000,36.945084000000,0 117.565440000000,36.959954000000,0 117.549330000000,36.965070000000,0 117.555253000000,36.970785000000,0 117.549094000000,36.979817000000,0 117.536854000000,36.978498000000,0 117.519875000000,36.957117000000,0 117.509847000000,36.969267000000,0 117.494527000000,36.972344000000,0 117.476522000000,36.968348000000,0 117.477628000000,36.961154000000,0 117.458754000000,36.957676000000,0 117.444461000000,36.958116000000,0 117.416901000000,36.952640000000,0 117.414927000000,36.957236000000,0 117.406162000000,36.950001000000,0 117.404030000000,36.955038000000,0 117.391632000000,36.952000000000,0 117.378286000000,36.956997000000,0 117.365335000000,36.994960000000,0 117.353490000000,37.003349000000,0 117.328457000000,37.011218000000,0 117.317323000000,37.020923000000,0 117.315349000000,37.030547000000,0 117.326088000000,37.036178000000,0 117.336670000000,37.046838000000,0 117.339434000000,37.056419000000,0 117.336433000000,37.073941000000,0 117.365256000000,37.069272000000,0 117.391158000000,37.083479000000,0 117.409241000000,37.089425000000,0 117.442092000000,37.093574000000,0 117.459781000000,37.109931000000,0 117.455596000000,37.117670000000,0 117.450700000000,37.143711000000,0 117.450700000000,37.153957000000,0 117.444066000000,37.156868000000,0 117.442724000000,37.170859000000,0 117.436091000000,37.184251000000,0 117.417928000000,37.200030000000,0 117.404977000000,37.217160000000,0 117.402371000000,37.224808000000,0 117.408768000000,37.239703000000,0 117.429141000000,37.239783000000,0 117.424403000000,37.243367000000,0 117.431037000000,37.254396000000,0 117.443908000000,37.250056000000,0 117.438302000000,37.257860000000,0 117.436880000000,37.272350000000,0 117.432379000000,37.272032000000,0 117.430168000000,37.285166000000,0 117.417612000000,37.296587000000,0 117.409005000000,37.321692000000,0 117.413901000000,37.349333000000,0 117.407741000000,37.353667000000,0 117.415401000000,37.364203000000,0 117.401029000000,37.379071000000,0 117.368652000000,37.396399000000,0 117.360202000000,37.405697000000,0 117.368257000000,37.419563000000,0 117.369758000000,37.436048000000,0 117.353332000000,37.450901000000,0 117.309189000000,37.447486000000,0 117.295449000000,37.453800000000,0 117.307768000000,37.461940000000,0 117.304609000000,37.466069000000,0 117.283998000000,37.471587000000,0 117.285894000000,37.479328000000,0 117.312585000000,37.487068000000,0 117.317718000000,37.499371000000,0 117.307215000000,37.507744000000,0 117.286525000000,37.510046000000,0 117.284393000000,37.522266000000,0 117.275549000000,37.526193000000,0 117.273417000000,37.532619000000,0 117.260861000000,37.530081000000,0 117.238197000000,37.532897000000,0 117.230063000000,37.528891000000,0 117.221140000000,37.513180000000,0 117.199345000000,37.487148000000,0 117.176049000000,37.486116000000,0 117.163809000000,37.478971000000,0 117.135618000000,37.475239000000,0 117.124878000000,37.483853000000,0 117.109795000000,37.479010000000,0 117.098819000000,37.469721000000,0 117.104978000000,37.455309000000,0 117.102293000000,37.445778000000,0 117.089264000000,37.435055000000,0 117.038408000000,37.435452000000,0 117.030670000000,37.442958000000,0 117.018430000000,37.435849000000,0 117.012112000000,37.419643000000,0 117.019693000000,37.405379000000,0 117.008164000000,37.392464000000,0 116.999240000000,37.376964000000,0 117.009664000000,37.359671000000,0 117.006663000000,37.355138000000,0 116.987158000000,37.342692000000,0 116.986684000000,37.335335000000,0 116.993397000000,37.322010000000,0 117.002241000000,37.285962000000,0 117.024273000000,37.278918000000,0 117.038961000000,37.266538000000,0 117.030275000000,37.264229000000,0 117.032328000000,37.253241000000,0 117.041251000000,37.247667000000,0 117.042673000000,37.238867000000,0 117.036592000000,37.237393000000,0 117.035960000000,37.224091000000,0 117.022299000000,37.215089000000,0 117.037777000000,37.207361000000,0 117.037382000000,37.195169000000,0 117.045358000000,37.197161000000,0 117.057440000000,37.192141000000,0 117.063520000000,37.182656000000,0 117.061783000000,37.164960000000,0 117.050648000000,37.160894000000,0 117.054676000000,37.141717000000,0 117.059809000000,37.137251000000,0 117.047411000000,37.134739000000,0 117.044884000000,37.122615000000,0 117.024273000000,37.119664000000,0 117.004531000000,37.121219000000,0 116.982578000000,37.113601000000,0 116.931486000000,37.100477000000,0 116.919009000000,37.093056000000,0 116.919720000000,37.081364000000,0 116.925247000000,37.069831000000,0 116.928643000000,37.051030000000,0 116.944279000000,37.042327000000,0 116.948701000000,37.036537000000,0 116.943173000000,37.030907000000,0 116.907796000000,37.019046000000,0 116.891607000000,37.002710000000,0 116.875024000000,36.999274000000,0 116.885764000000,36.991444000000,0 116.886158000000,36.983573000000,0 116.899188000000,36.977499000000,0 116.897767000000,36.962712000000,0 116.907717000000,36.963272000000,0 116.933381000000,36.959595000000,0 116.931881000000,36.946204000000,0 116.935434000000,36.934570000000,0 116.922563000000,36.934530000000,0 116.934408000000,36.925973000000,0 116.957466000000,36.916495000000,0 116.963152000000,36.893896000000,0 116.961810000000,36.867529000000,0 116.962836000000,36.842674000000,0 116.948069000000,36.839231000000,0 116.944200000000,36.844916000000,0 116.934724000000,36.845116000000,0 116.935908000000,36.829743000000,0 116.933223000000,36.823697000000,0 116.919404000000,36.822776000000,0 116.892476000000,36.830023000000,0 116.887106000000,36.833427000000,0 116.882447000000,36.824058000000,0 116.887975000000,36.811404000000,0 116.872813000000,36.812004000000,0 116.868233000000,36.801872000000,0 116.865548000000,36.777877000000,0 116.870760000000,36.759164000000,0 116.883868000000,36.758243000000,0 116.886790000000,36.745538000000,0 116.873997000000,36.739846000000,0 116.861757000000,36.730345000000,0 116.842489000000,36.727860000000,0 116.830881000000,36.723851000000,0 116.802768000000,36.706729000000,0 116.799689000000,36.694417000000,0 116.780657000000,36.691048000000,0 116.780736000000,36.671552000000,0 116.777262000000,36.660718000000,0 116.763126000000,36.651971000000,0 116.759494000000,36.632746000000,0 116.742042000000,36.620381000000,0 116.713140000000,36.608858000000,0 116.693319000000,36.607895000000,0 116.694345000000,36.591149000000,0 116.682421000000,36.580586000000,0 116.661258000000,36.578376000000,0 116.662916000000,36.563111000000,0 116.658968000000,36.553026000000,0 116.646728000000,36.544105000000,0 116.629592000000,36.544587000000,0 116.622801000000,36.532651000000,0 116.608350000000,36.520110000000,0 116.610087000000,36.516090000000,0 116.627223000000,36.508853000000,0 116.624301000000,36.497233000000,0 116.602032000000,36.495223000000,0 116.593267000000,36.485973000000,0 116.595636000000,36.480383000000,0 116.613009000000,36.473425000000,0 116.611429000000,36.459104000000,0 116.620905000000,36.441440000000,0 116.619800000000,36.428522000000,0 116.612377000000,36.423330000000,0 116.591213000000,36.416286000000,0 116.546202000000,36.408920000000,0</coordinates></LinearRing></outerBoundaryIs></Polygon>
    </Placemark>
  </Document>
</kml>
