<?xml version="1.0" encoding="UTF-8"?>
<kml xmlns="http://www.opengis.net/kml/2.2">
  <Document>
    <name>淄博市</name>
    <Placemark>
      <name>淄博市</name>
      <Polygon><outerBoundaryIs><LinearRing><coordinates>117.988471000000,35.947709000000,0 118.021084000000,35.949004000000,0 118.022980000000,35.958965000000,0 118.032930000000,35.964998000000,0 118.032693000000,35.974268000000,0 118.042248000000,35.986371000000,0 118.058989000000,35.992968000000,0 118.066807000000,36.009155000000,0 118.075888000000,36.009034000000,0 118.078415000000,36.017652000000,0 118.084338000000,36.012149000000,0 118.093261000000,36.014618000000,0 118.096104000000,36.024246000000,0 118.109370000000,36.030031000000,0 118.132666000000,36.030436000000,0 118.135588000000,36.023640000000,0 118.178388000000,36.017005000000,0 118.197578000000,36.004947000000,0 118.206106000000,35.978640000000,0 118.193787000000,35.974026000000,0 118.207054000000,35.964391000000,0 118.209897000000,35.955767000000,0 118.225690000000,35.948235000000,0 118.236351000000,35.947749000000,0 118.236904000000,35.939245000000,0 118.245906000000,35.932157000000,0 118.257119000000,35.930699000000,0 118.257593000000,35.925717000000,0 118.269280000000,35.928512000000,0 118.281362000000,35.935964000000,0 118.293523000000,35.937503000000,0 118.303552000000,35.948923000000,0 118.314134000000,35.950827000000,0 118.320136000000,35.946575000000,0 118.344774000000,35.955888000000,0 118.352828000000,35.956698000000,0 118.360725000000,35.970908000000,0 118.382283000000,35.975078000000,0 118.387021000000,35.987586000000,0 118.415213000000,35.990783000000,0 118.430612000000,35.969694000000,0 118.459356000000,35.952689000000,0 118.470964000000,35.960868000000,0 118.502157000000,35.962488000000,0 118.505157000000,35.965808000000,0 118.499393000000,35.976212000000,0 118.486521000000,35.988759000000,0 118.492680000000,35.995437000000,0 118.487074000000,36.005797000000,0 118.476571000000,36.012797000000,0 118.469859000000,36.022992000000,0 118.476097000000,36.031407000000,0 118.489206000000,36.025784000000,0 118.503341000000,36.024246000000,0 118.507447000000,36.029789000000,0 118.516845000000,36.026107000000,0 118.522609000000,36.043622000000,0 118.522214000000,36.053490000000,0 118.513449000000,36.064085000000,0 118.516608000000,36.068573000000,0 118.507842000000,36.074961000000,0 118.496866000000,36.067683000000,0 118.480440000000,36.074071000000,0 118.482099000000,36.092546000000,0 118.478545000000,36.098245000000,0 118.484468000000,36.104064000000,0 118.479493000000,36.118814000000,0 118.492601000000,36.127057000000,0 118.487863000000,36.131784000000,0 118.462594000000,36.140590000000,0 118.457303000000,36.132470000000,0 118.447116000000,36.140913000000,0 118.440956000000,36.132511000000,0 118.428953000000,36.132672000000,0 118.412844000000,36.127218000000,0 118.402183000000,36.131622000000,0 118.405263000000,36.141641000000,0 118.402262000000,36.162926000000,0 118.387653000000,36.174555000000,0 118.374387000000,36.203097000000,0 118.382046000000,36.207335000000,0 118.386548000000,36.239053000000,0 118.379756000000,36.245265000000,0 118.368385000000,36.248412000000,0 118.350775000000,36.263538000000,0 118.315240000000,36.249380000000,0 118.306948000000,36.252123000000,0 118.315003000000,36.266361000000,0 118.313660000000,36.277371000000,0 118.317609000000,36.288903000000,0 118.310107000000,36.295716000000,0 118.315477000000,36.304464000000,0 118.309080000000,36.307125000000,0 118.304105000000,36.321393000000,0 118.291075000000,36.326189000000,0 118.300157000000,36.338116000000,0 118.269912000000,36.339849000000,0 118.261857000000,36.345852000000,0 118.262726000000,36.352218000000,0 118.256093000000,36.363175000000,0 118.239825000000,36.376748000000,0 118.235403000000,36.389634000000,0 118.251592000000,36.401995000000,0 118.250407000000,36.411214000000,0 118.227427000000,36.408034000000,0 118.224427000000,36.414234000000,0 118.228533000000,36.430736000000,0 118.232797000000,36.432869000000,0 118.227190000000,36.451379000000,0 118.233508000000,36.456609000000,0 118.229638000000,36.467793000000,0 118.216135000000,36.478573000000,0 118.212818000000,36.490075000000,0 118.218346000000,36.497354000000,0 118.210528000000,36.503466000000,0 118.213766000000,36.513075000000,0 118.210844000000,36.526099000000,0 118.221663000000,36.531887000000,0 118.214556000000,36.539322000000,0 118.191892000000,36.546074000000,0 118.183916000000,36.561142000000,0 118.180915000000,36.560700000000,0 118.180678000000,36.577412000000,0 118.176967000000,36.582996000000,0 118.180363000000,36.593599000000,0 118.189523000000,36.599141000000,0 118.200657000000,36.612071000000,0 118.214793000000,36.621144000000,0 118.206580000000,36.637482000000,0 118.199631000000,36.639047000000,0 118.215898000000,36.648921000000,0 118.221189000000,36.664169000000,0 118.230191000000,36.660357000000,0 118.226796000000,36.668382000000,0 118.215819000000,36.668262000000,0 118.216530000000,36.681100000000,0 118.228059000000,36.694016000000,0 118.245037000000,36.690647000000,0 118.238246000000,36.697305000000,0 118.227585000000,36.697625000000,0 118.237614000000,36.712704000000,0 118.227743000000,36.717957000000,0 118.234219000000,36.726457000000,0 118.254276000000,36.731789000000,0 118.264147000000,36.723730000000,0 118.277019000000,36.719801000000,0 118.284363000000,36.723370000000,0 118.276151000000,36.731749000000,0 118.271570000000,36.744015000000,0 118.279546000000,36.753033000000,0 118.298183000000,36.753914000000,0 118.297788000000,36.777677000000,0 118.307501000000,36.776234000000,0 118.318161000000,36.779720000000,0 118.321636000000,36.770905000000,0 118.350222000000,36.768301000000,0 118.388522000000,36.791217000000,0 118.419872000000,36.796304000000,0 118.424531000000,36.802673000000,0 118.438666000000,36.809682000000,0 118.440720000000,36.828142000000,0 118.435508000000,36.838391000000,0 118.450038000000,36.837470000000,0 118.453828000000,36.857564000000,0 118.461488000000,36.854322000000,0 118.460462000000,36.846597000000,0 118.480993000000,36.852641000000,0 118.479967000000,36.860166000000,0 118.465042000000,36.861366000000,0 118.476966000000,36.876893000000,0 118.482809000000,36.879214000000,0 118.483046000000,36.900777000000,0 118.474913000000,36.905297000000,0 118.481862000000,36.914136000000,0 118.489680000000,36.914096000000,0 118.496708000000,36.924733000000,0 118.492365000000,36.931611000000,0 118.494339000000,36.941846000000,0 118.467411000000,36.945484000000,0 118.439061000000,36.942206000000,0 118.403210000000,36.943125000000,0 118.401788000000,36.949802000000,0 118.386548000000,36.950481000000,0 118.387574000000,36.971305000000,0 118.384652000000,36.974382000000,0 118.352276000000,36.974582000000,0 118.344300000000,36.960714000000,0 118.324637000000,36.964751000000,0 118.322347000000,36.974502000000,0 118.312476000000,36.970905000000,0 118.294629000000,36.969666000000,0 118.291628000000,36.995878000000,0 118.288785000000,36.999993000000,0 118.271412000000,37.006744000000,0 118.262568000000,37.002710000000,0 118.250802000000,37.002949000000,0 118.247327000000,36.986130000000,0 118.235087000000,36.985570000000,0 118.231376000000,36.974822000000,0 118.222531000000,36.967109000000,0 118.209739000000,36.963152000000,0 118.195209000000,36.967348000000,0 118.192918000000,36.977739000000,0 118.160936000000,36.981934000000,0 118.161331000000,36.988567000000,0 118.151460000000,36.988527000000,0 118.153198000000,37.000512000000,0 118.138983000000,37.005985000000,0 118.139299000000,37.014693000000,0 118.134008000000,37.025955000000,0 118.139299000000,37.033103000000,0 118.139615000000,37.044363000000,0 118.151460000000,37.047038000000,0 118.150829000000,37.054743000000,0 118.157620000000,37.057776000000,0 118.156909000000,37.065281000000,0 118.136220000000,37.065360000000,0 118.136062000000,37.077773000000,0 118.130455000000,37.091101000000,0 118.115925000000,37.100636000000,0 118.111187000000,37.094652000000,0 118.086075000000,37.091899000000,0 118.063016000000,37.082841000000,0 118.056857000000,37.093654000000,0 118.045959000000,37.098202000000,0 118.045485000000,37.105982000000,0 118.057252000000,37.106141000000,0 118.068623000000,37.115875000000,0 118.079679000000,37.120781000000,0 118.065069000000,37.139564000000,0 118.059858000000,37.151087000000,0 118.062385000000,37.162528000000,0 118.074467000000,37.170341000000,0 118.071545000000,37.177675000000,0 118.082995000000,37.185605000000,0 118.077941000000,37.188953000000,0 118.074072000000,37.204094000000,0 118.064122000000,37.210070000000,0 118.048012000000,37.205568000000,0 118.046275000000,37.216324000000,0 118.036799000000,37.220905000000,0 118.022348000000,37.222100000000,0 118.019584000000,37.210309000000,0 118.010898000000,37.207560000000,0 117.994393000000,37.212699000000,0 117.984364000000,37.210349000000,0 117.980890000000,37.218674000000,0 117.973862000000,37.216483000000,0 117.981048000000,37.238429000000,0 117.996446000000,37.246273000000,0 117.990761000000,37.248981000000,0 117.990603000000,37.262358000000,0 117.963833000000,37.271753000000,0 117.947013000000,37.262159000000,0 117.948829000000,37.268290000000,0 117.941327000000,37.280549000000,0 117.909266000000,37.265065000000,0 117.888497000000,37.262319000000,0 117.877600000000,37.273027000000,0 117.850909000000,37.282460000000,0 117.838590000000,37.282659000000,0 117.818848000000,37.276012000000,0 117.782128000000,37.248702000000,0 117.773678000000,37.244959000000,0 117.760333000000,37.244959000000,0 117.729851000000,37.249101000000,0 117.693447000000,37.257661000000,0 117.675995000000,37.270121000000,0 117.659491000000,37.274101000000,0 117.644329000000,37.265862000000,0 117.630430000000,37.247269000000,0 117.627193000000,37.228074000000,0 117.615348000000,37.212699000000,0 117.598212000000,37.203058000000,0 117.592052000000,37.169624000000,0 117.586366000000,37.160216000000,0 117.574284000000,37.151366000000,0 117.551305000000,37.146781000000,0 117.557464000000,37.124211000000,0 117.574442000000,37.121060000000,0 117.576969000000,37.114758000000,0 117.567888000000,37.110290000000,0 117.575074000000,37.089185000000,0 117.590946000000,37.084996000000,0 117.608477000000,37.090622000000,0 117.619375000000,37.090103000000,0 117.644645000000,37.083878000000,0 117.673942000000,37.073143000000,0 117.703002000000,37.068673000000,0 117.726692000000,37.068753000000,0 117.739801000000,37.064921000000,0 117.761991000000,37.065839000000,0 117.771783000000,37.069032000000,0 117.800369000000,37.070789000000,0 117.847355000000,37.065959000000,0 117.840327000000,37.035539000000,0 117.841827000000,37.026354000000,0 117.865992000000,37.023719000000,0 117.870493000000,37.013375000000,0 117.866386000000,37.007024000000,0 117.866623000000,36.993282000000,0 117.870493000000,36.985451000000,0 117.906581000000,36.981695000000,0 117.911951000000,36.975141000000,0 117.910292000000,36.962592000000,0 117.913372000000,36.953679000000,0 117.931772000000,36.941886000000,0 117.936115000000,36.934890000000,0 117.935404000000,36.915736000000,0 117.943380000000,36.930012000000,0 117.949145000000,36.918375000000,0 117.961780000000,36.922494000000,0 117.960674000000,36.910376000000,0 117.950645000000,36.902137000000,0 117.940300000000,36.901177000000,0 117.940616000000,36.891616000000,0 117.929719000000,36.890216000000,0 117.918900000000,36.880094000000,0 117.917005000000,36.869730000000,0 117.891814000000,36.871811000000,0 117.891103000000,36.864408000000,0 117.875152000000,36.861246000000,0 117.865597000000,36.866529000000,0 117.856594000000,36.859926000000,0 117.832825000000,36.859966000000,0 117.828008000000,36.855883000000,0 117.831877000000,36.836629000000,0 117.822085000000,36.825139000000,0 117.820901000000,36.801511000000,0 117.814662000000,36.797306000000,0 117.815531000000,36.788573000000,0 117.824297000000,36.787933000000,0 117.825639000000,36.775834000000,0 117.840327000000,36.777516000000,0 117.850672000000,36.764735000000,0 117.852488000000,36.750708000000,0 117.832983000000,36.744816000000,0 117.834404000000,36.751871000000,0 117.826429000000,36.763011000000,0 117.820743000000,36.756359000000,0 117.810161000000,36.734394000000,0 117.795157000000,36.719761000000,0 117.793025000000,36.707451000000,0 117.781970000000,36.703040000000,0 117.777942000000,36.695219000000,0 117.754173000000,36.696944000000,0 117.725666000000,36.695219000000,0 117.718006000000,36.697826000000,0 117.715637000000,36.691208000000,0 117.701265000000,36.685191000000,0 117.695184000000,36.666978000000,0 117.698027000000,36.652974000000,0 117.709003000000,36.651569000000,0 117.712241000000,36.642258000000,0 117.708530000000,36.635154000000,0 117.715321000000,36.627527000000,0 117.714926000000,36.610545000000,0 117.706555000000,36.611549000000,0 117.705055000000,36.605807000000,0 117.690525000000,36.604883000000,0 117.697869000000,36.599422000000,0 117.715163000000,36.600546000000,0 117.706792000000,36.593559000000,0 117.715321000000,36.578537000000,0 117.706792000000,36.581469000000,0 117.696132000000,36.575042000000,0 117.694315000000,36.568896000000,0 117.720849000000,36.560057000000,0 117.723770000000,36.547320000000,0 117.739406000000,36.539925000000,0 117.742486000000,36.525737000000,0 117.750777000000,36.524652000000,0 117.765860000000,36.512994000000,0 117.765544000000,36.509496000000,0 117.751646000000,36.509979000000,0 117.735853000000,36.504993000000,0 117.743118000000,36.498439000000,0 117.755673000000,36.496228000000,0 117.757332000000,36.484485000000,0 117.748566000000,36.478694000000,0 117.765544000000,36.469845000000,0 117.757016000000,36.459144000000,0 117.763491000000,36.452868000000,0 117.755752000000,36.445303000000,0 117.779838000000,36.441239000000,0 117.786471000000,36.434277000000,0 117.796500000000,36.439630000000,0 117.799343000000,36.432265000000,0 117.817268000000,36.436129000000,0 117.822717000000,36.443050000000,0 117.833062000000,36.443010000000,0 117.826823000000,36.427114000000,0 117.829508000000,36.417776000000,0 117.855094000000,36.412945000000,0 117.859279000000,36.389433000000,0 117.867492000000,36.386373000000,0 117.879732000000,36.370626000000,0 117.882101000000,36.356730000000,0 117.890314000000,36.366035000000,0 117.895210000000,36.359227000000,0 117.893472000000,36.339446000000,0 117.902633000000,36.352057000000,0 117.915346000000,36.352903000000,0 117.933904000000,36.341219000000,0 117.933509000000,36.334369000000,0 117.919611000000,36.324738000000,0 117.918347000000,36.317725000000,0 117.924823000000,36.313171000000,0 117.922533000000,36.300514000000,0 117.931140000000,36.283742000000,0 117.926797000000,36.277532000000,0 117.932719000000,36.271846000000,0 117.943696000000,36.274064000000,0 117.972993000000,36.268378000000,0 117.975362000000,36.262328000000,0 117.967070000000,36.248251000000,0 117.963280000000,36.224971000000,0 117.967781000000,36.214640000000,0 117.959332000000,36.204308000000,0 117.943933000000,36.207981000000,0 117.928534000000,36.196558000000,0 117.921664000000,36.203662000000,0 117.914636000000,36.200837000000,0 117.915899000000,36.192562000000,0 117.903027000000,36.172092000000,0 117.912109000000,36.171648000000,0 117.917873000000,36.163370000000,0 117.906660000000,36.152708000000,0 117.914162000000,36.140631000000,0 117.912030000000,36.132753000000,0 117.923875000000,36.117400000000,0 117.921111000000,36.110005000000,0 117.931535000000,36.094203000000,0 117.939984000000,36.094324000000,0 117.946618000000,36.100387000000,0 117.954041000000,36.090201000000,0 117.953172000000,36.081833000000,0 117.946223000000,36.081510000000,0 117.941880000000,36.071807000000,0 117.948829000000,36.062589000000,0 117.935799000000,36.061214000000,0 117.932798000000,36.052196000000,0 117.946855000000,36.042530000000,0 117.949855000000,36.018259000000,0 117.943380000000,36.017288000000,0 117.950803000000,35.996489000000,0 117.937536000000,35.996530000000,0 117.937221000000,35.981190000000,0 117.947013000000,35.971111000000,0 117.947013000000,35.960382000000,0 117.953962000000,35.957913000000,0 117.971414000000,35.969937000000,0 117.992577000000,35.971273000000,0 117.984443000000,35.956293000000,0 117.988471000000,35.947709000000,0</coordinates></LinearRing></outerBoundaryIs></Polygon>
    </Placemark>
  </Document>
</kml>
