<?xml version="1.0" encoding="UTF-8"?>
<kml xmlns="http://www.opengis.net/kml/2.2">
<Document>
<name>桂林市</name>
<Placemark><name>桂林市</name><MultiGeometry><Polygon><outerBoundaryIs><LinearRing><coordinates>111.097436000000002,24.940885000000002,0 111.086094000000003,24.941157,0 111.050242999999995,24.928277000000001,0 111.030376000000004,24.931972999999999,0 111.018578000000005,24.929798999999999,0 111.014544000000001,24.923766000000001,0 111.003429999999994,24.921484,0 110.997189000000006,24.927026999999999,0 110.979149000000007,24.91469,0 110.983716000000001,24.924201,0 110.994905000000003,24.930342,0 110.987292999999994,24.942515,0 110.992089000000007,24.959033999999999,0 110.985543000000007,24.966042999999999,0 110.973439999999997,24.96827,0 110.968796999999995,24.975549999999998,0 110.975419000000002,24.987773000000001,0 110.960728000000003,25.001515999999999,0 110.955399999999997,25.016886,0 110.957454999999996,25.024868999999999,0 110.951898,25.041159,0 110.956160999999994,25.058805,0 110.966665000000006,25.073136000000002,0 110.961412999999993,25.077859,0 110.983943999999994,25.101686000000001,0 110.977626000000001,25.108958000000001,0 110.982802000000007,25.126647999999999,0 110.995818999999997,25.147535999999999,0 111.000538000000006,25.149978000000001,0 111.002745000000004,25.165762999999998,0 111.034638999999999,25.17916,0 111.047197999999995,25.178998,0 111.054962000000003,25.187674999999999,0 111.065466000000001,25.187512000000002,0 111.077873999999994,25.201070000000001,0 111.112735999999998,25.217065999999999,0 111.117835999999997,25.239293,0 111.109842999999998,25.252737,0 111.109538999999998,25.266286999999998,0 111.103296999999998,25.285091999999999,0 111.119510000000005,25.290835999999999,0 111.138463999999999,25.303569,0 111.155438000000004,25.324373000000001,0 111.163887000000003,25.342410000000001,0 111.181850999999995,25.366565000000001,0 111.210547000000005,25.363531999999999,0 111.227977999999993,25.375446,0 111.236732000000003,25.378153000000001,0 111.242136000000002,25.387844999999999,0 111.257512000000006,25.395966000000001,0 111.256902999999994,25.40766,0 111.265884999999997,25.425414,0 111.278976999999998,25.423303000000001,0 111.300213999999997,25.448308000000001,0 111.300899000000001,25.469736000000001,0 111.317265000000006,25.494406000000001,0 111.321450999999996,25.496137000000001,0 111.328149999999994,25.521450000000002,0 111.323886999999999,25.548867000000001,0 111.324876000000003,25.564114,0 111.336827,25.595790999999998,0 111.343145000000007,25.602762999999999,0 111.334695999999994,25.618382,0 111.317644999999999,25.631295999999999,0 111.310033000000004,25.644966,0 111.309804999999997,25.658093999999998,0 111.313914999999994,25.682670999999999,0 111.308739000000003,25.692339,0 111.307522000000006,25.716315000000002,0 111.318710999999993,25.729543,0 111.327312000000006,25.732728000000002,0 111.346798000000007,25.729651,0 111.399624000000003,25.744605,0 111.416066000000001,25.768191999999999,0 111.432888000000005,25.766627,0 111.440195000000003,25.769596,0 111.442250000000001,25.778068999999999,0 111.436085000000006,25.813573999999999,0 111.425048000000004,25.826250999999999,0 111.433267999999998,25.846263,0 111.456864999999993,25.848096999999999,0 111.465162000000007,25.855862999999999,0 111.486245999999994,25.859314999999999,0 111.492108000000002,25.868590000000001,0 111.471023000000002,25.875277000000001,0 111.456789000000001,25.871071000000001,0 111.454200999999998,25.888432999999999,0 111.440652,25.884929,0 111.432203000000001,25.886924,0 111.415836999999996,25.876840999999999,0 111.408681999999999,25.885090999999999,0 111.382574000000005,25.882287000000002,0 111.378462999999996,25.904769000000002,0 111.365218999999996,25.900563999999999,0 111.360347000000004,25.89059,0 111.355018999999999,25.892154000000001,0 111.346266,25.906331999999999,0 111.327617000000004,25.900186999999999,0 111.326475000000002,25.895496000000001,0 111.305313999999996,25.883689,0 111.297093000000004,25.874253,0 111.291916999999998,25.854406999999998,0 111.278520999999998,25.860285999999999,0 111.259872000000001,25.861041,0 111.251575000000003,25.864708,0 111.242669000000006,25.887785999999998,0 111.229119999999995,25.897490999999999,0 111.222498000000002,25.907302999999999,0 111.232241000000002,25.911076000000001,0 111.216637000000006,25.928917999999999,0 111.219680999999994,25.937055999999998,0 111.206513000000001,25.939643,0 111.204991000000007,25.9529,0 111.189538999999996,25.953277,0 111.196084999999997,25.960875000000001,0 111.196693999999994,25.970842999999999,0 111.202934999999997,25.976123000000001,0 111.215343000000004,26.011783999999999,0 111.213972999999996,26.019808999999999,0 111.230490000000003,26.034457,0 111.236807999999996,26.048833999999999,0 111.252944999999997,26.056694,0 111.265961000000004,26.055724999999999,0 111.244647999999998,26.077959,0 111.265961000000004,26.096043999999999,0 111.259338999999997,26.096689999999999,0 111.268929999999997,26.107346,0 111.268625,26.129301000000002,0 111.262383999999997,26.135864999999999,0 111.258044999999996,26.149315000000001,0 111.269690999999995,26.170563000000001,0 111.274410000000003,26.184546999999998,0 111.266493999999994,26.191376999999999,0 111.270679999999999,26.200787999999999,0 111.27167,26.217186999999999,0 111.291460999999998,26.220790000000001,0 111.295722999999995,26.237563000000002,0 111.292069999999995,26.253581000000001,0 111.281261000000001,26.271101999999999,0 111.267864000000003,26.273036000000001,0 111.252488,26.269221000000002,0 111.247844999999998,26.263631,0 111.240538000000001,26.267071000000001,0 111.231707999999998,26.262288000000002,0 111.225465999999997,26.269435999999999,0 111.212830999999994,26.269113000000001,0 111.203316000000001,26.280667000000001,0 111.208872999999997,26.290929999999999,0 111.209253000000004,26.302696999999998,0 111.204762000000002,26.307853999999999,0 111.177817000000005,26.307102,0 111.168910999999994,26.310486999999998,0 111.157798,26.307478,0 111.135799000000006,26.306511,0 111.128416000000001,26.309304999999998,0 111.111061000000007,26.308499000000001,0 111.106875000000002,26.304093999999999,0 111.092563999999996,26.306726000000001,0 111.079396000000003,26.318221999999999,0 111.064780999999996,26.318867000000001,0 111.061204000000004,26.325367,0 111.053516000000002,26.319512,0 111.040347999999994,26.323487,0 111.043164000000004,26.332457000000002,0 111.034105999999994,26.331973999999999,0 111.022536000000002,26.337935999999999,0 111.002593000000005,26.340138,0 111.008606,26.358879999999999,0 110.991860000000003,26.363551999999999,0 110.983639999999994,26.377996,0 110.974581999999998,26.385566000000001,0 110.958900999999997,26.382721,0 110.944820000000007,26.373593,0 110.950528000000006,26.356947000000002,0 110.947407999999996,26.353134000000001,0 110.943905999999998,26.326709999999999,0 110.925409000000002,26.318760000000001,0 110.935990000000004,26.305382999999999,0 110.939719999999994,26.286684999999999,0 110.930357000000001,26.264330000000001,0 110.929976999999994,26.255676999999999,0 110.921604000000002,26.254871000000001,0 110.924344000000005,26.26304,0 110.916351000000006,26.275991999999999,0 110.899985999999998,26.275024999999999,0 110.855609000000001,26.268146000000002,0 110.846018000000001,26.259868999999998,0 110.834295999999995,26.255891999999999,0 110.814657999999994,26.258794000000002,0 110.782231999999993,26.257451,0 110.759091999999995,26.24869,0 110.758178000000001,26.255192999999998,0 110.735191,26.270994000000002,0 110.742801999999998,26.276098999999999,0 110.750033999999999,26.290500000000002,0 110.749500999999995,26.301085,0 110.741737000000001,26.313925000000001,0 110.732527000000005,26.311775999999998,0 110.720956999999999,26.294208000000001,0 110.709463,26.293187,0 110.697817000000001,26.308713999999998,0 110.667216999999994,26.317632,0 110.643772999999996,26.308444999999999,0 110.625809000000004,26.315643999999999,0 110.622840999999994,26.330093999999999,0 110.612335999999999,26.333639000000002,0 110.595057999999995,26.318383999999998,0 110.584097,26.296948,0 110.569329999999994,26.289587000000001,0 110.555248000000006,26.286363000000001,0 110.546114000000003,26.257289,0 110.546646999999993,26.233585000000001,0 110.542687999999998,26.221166,0 110.531041999999999,26.209391,0 110.517568999999995,26.186806000000001,0 110.500138000000007,26.169756,0 110.490548000000004,26.165561,0 110.474106000000006,26.180136999999998,0 110.456980000000001,26.164431,0 110.437950000000001,26.153942000000001,0 110.427141000000006,26.138017999999999,0 110.414581999999996,26.12575,0 110.400347999999994,26.116440999999998,0 110.377132000000003,26.094429999999999,0 110.373174000000006,26.078551000000001,0 110.353307000000001,26.054701999999999,0 110.357950000000002,26.046465000000001,0 110.335342999999995,25.9925,0 110.325524000000001,25.975638,0 110.305124000000006,25.967341000000001,0 110.287921999999995,25.966909999999999,0 110.261736999999997,25.961359999999999,0 110.245828000000003,25.968579999999999,0 110.251080999999999,25.996594000000002,0 110.245219000000006,26.022286000000001,0 110.234105999999997,26.032733,0 110.212108000000001,26.043071999999999,0 110.201147000000006,26.06617,0 110.190946999999994,26.067677,0 110.181661000000005,26.060462999999999,0 110.172983000000002,26.045010999999999,0 110.165828000000005,26.023848000000001,0 110.156390000000002,26.018516000000002,0 110.140480999999994,26.020347000000001,0 110.129671999999999,26.029233000000001,0 110.112545999999995,26.034780000000001,0 110.100976000000003,26.020185999999999,0 110.083393000000001,26.039034000000001,0 110.073193000000003,26.040272000000002,0 110.064896000000005,26.050018000000001,0 110.072126999999995,26.063908999999999,0 110.074410999999998,26.083072999999999,0 110.100976000000003,26.132583,0 110.094430000000003,26.147110000000001,0 110.098692,26.169165,0 110.084001999999998,26.171478,0 110.068473999999995,26.168035,0 110.051575,26.169218999999998,0 110.041528,26.162441000000001,0 110.030186,26.166098999999999,0 110.016712999999996,26.184224,0 110.005752000000001,26.185784000000002,0 109.984363000000002,26.179922000000001,0 109.966246999999996,26.195518,0 109.931233000000006,26.161258,0 109.914486999999994,26.154371999999999,0 109.907179999999997,26.144904,0 109.899034999999998,26.108961000000001,0 109.899034999999998,26.095182999999999,0 109.888149999999996,26.087971,0 109.882517000000007,26.075268000000001,0 109.880461999999994,26.057341000000001,0 109.870870999999994,26.033325999999999,0 109.856256999999999,26.026271000000001,0 109.840196000000006,26.029071999999999,0 109.814620000000005,26.040972,0 109.801985000000002,26.034403000000001,0 109.782421999999997,25.997187,0 109.784630000000007,25.985766000000002,0 109.806476000000004,25.973645000000001,0 109.810434000000001,25.945678999999998,0 109.825047999999995,25.922881,0 109.825962000000004,25.9114,0 109.815837999999999,25.89086,0 109.813249999999996,25.879805999999999,0 109.799396999999999,25.871880000000001,0 109.779529999999994,25.865947999999999,0 109.764763000000002,25.876194000000002,0 109.749995999999996,25.863629,0 109.730509999999995,25.852789000000001,0 109.725486000000004,25.836176999999999,0 109.720309999999998,25.80602,0 109.727616999999995,25.796037999999999,0 109.749691999999996,25.78557,0 109.764002000000005,25.7819,0 109.772451000000004,25.774398999999999,0 109.776561000000001,25.755400999999999,0 109.782574999999994,25.745144,0 109.803279000000003,25.737857000000002,0 109.804877000000005,25.730298999999999,0 109.782878999999994,25.693418999999999,0 109.782955000000001,25.684021000000001,0 109.789576999999994,25.675974,0 109.799015999999995,25.674191,0 109.814239999999998,25.660309000000002,0 109.815229000000002,25.654527999999999,0 109.794144000000003,25.639887000000002,0 109.786760999999998,25.620922,0 109.780748000000003,25.614545,0 109.764381999999998,25.613032,0 109.753421000000003,25.596007,0 109.740710000000007,25.584819,0 109.738806999999994,25.572872,0 109.749463000000006,25.558762000000002,0 109.751594999999995,25.549624000000001,0 109.769863000000001,25.533563999999998,0 109.773668999999998,25.518692000000001,0 109.781204000000002,25.504574999999999,0 109.781433000000007,25.490997,0 109.770471999999998,25.480069,0 109.762403000000006,25.445872000000001,0 109.768416999999999,25.43927,0 109.765828999999997,25.429148999999999,0 109.754182999999998,25.426822000000001,0 109.764686999999995,25.418865,0 109.762174999999999,25.403977999999999,0 109.752965000000003,25.392175999999999,0 109.762935999999996,25.382484999999999,0 109.758521000000002,25.375824999999999,0 109.748017000000004,25.380644,0 109.746875000000003,25.364940000000001,0 109.751366000000004,25.350968000000002,0 109.748549999999994,25.300643000000001,0 109.739262999999994,25.283033,0 109.725257999999997,25.268563,0 109.724877000000006,25.247696000000001,0 109.716960999999998,25.235607000000002,0 109.716352000000001,25.225252000000001,0 109.709501000000003,25.211372000000001,0 109.679586999999998,25.176936999999999,0 109.653402,25.166143000000002,0 109.648683000000005,25.148620999999999,0 109.637721999999997,25.120625,0 109.639853000000002,25.113354000000001,0 109.661698999999999,25.096205000000001,0 109.664287000000002,25.078835999999999,0 109.651347000000001,25.064558999999999,0 109.654696000000001,25.0442,0 109.644953000000001,25.016886,0 109.649444000000003,24.984134000000001,0 109.636809,24.989892000000001,0 109.633992000000006,24.983644999999999,0 109.621813000000003,24.980820000000001,0 109.619073,24.962674,0 109.622422,24.948004000000001,0 109.632698000000005,24.938493999999999,0 109.619225,24.936212000000001,0 109.621127999999999,24.920016,0 109.628207000000003,24.915396000000001,0 109.630414999999999,24.889195000000001,0 109.623945000000006,24.887291999999999,0 109.631784999999994,24.879681000000001,0 109.624097000000006,24.873918,0 109.629120999999998,24.864184999999999,0 109.623564000000002,24.859672,0 109.619148999999993,24.840312000000001,0 109.630033999999995,24.833731,0 109.648225999999994,24.837973000000002,0 109.663906999999995,24.848796,0 109.674259000000006,24.850318000000001,0 109.686970000000002,24.846131,0 109.709197000000003,24.834329,0 109.721528000000006,24.835906000000001,0 109.742384000000001,24.825899,0 109.792164999999997,24.820513999999999,0 109.807237000000001,24.813388,0 109.813554999999994,24.825409000000001,0 109.828321000000003,24.825899,0 109.836847000000006,24.832262,0 109.837378999999999,24.821003000000001,0 109.854506000000001,24.807131999999999,0 109.872927000000004,24.811484,0 109.876047,24.815943999999998,0 109.889139999999998,24.809743000000001,0 109.894239999999996,24.790430000000001,0 109.888454999999993,24.784499,0 109.889443999999997,24.767685,0 109.905428999999998,24.758053,0 109.911974999999998,24.763712000000002,0 109.928111999999999,24.763005,0 109.929177999999993,24.771712000000001,0 109.939530000000005,24.779492999999999,0 109.940366999999995,24.770351000000002,0 109.947902999999997,24.761263,0 109.948588000000001,24.749617000000001,0 109.943411999999995,24.747112999999999,0 109.937854999999999,24.717718999999999,0 109.952622000000005,24.717773999999999,0 109.957722000000004,24.700133999999998,0 109.972031999999999,24.698554999999999,0 109.976066000000003,24.708300999999999,0 109.984134999999995,24.709987999999999,0 109.989006000000003,24.677318,0 110.003468999999996,24.672961999999998,0 110.009178000000006,24.675249000000001,0 110.019909999999996,24.669149000000001,0 110.024173000000005,24.659617999999998,0 110.045029,24.665664,0 110.048074,24.672145,0 110.057131999999996,24.672688999999998,0 110.066038000000006,24.684888000000001,0 110.084762999999995,24.658311000000001,0 110.095951999999997,24.647091,0 110.110110000000006,24.655697,0 110.133859000000001,24.651557,0 110.141395000000003,24.645783000000002,0 110.158368999999993,24.643222999999999,0 110.170167000000006,24.648288999999998,0 110.177627000000001,24.63053,0 110.167731000000003,24.624647,0 110.156694000000002,24.626118000000002,0 110.152963999999997,24.616147000000002,0 110.158445,24.610699,0 110.156390000000002,24.600563999999999,0 110.163773000000006,24.591355,0 110.163392999999999,24.565576,0 110.171537000000001,24.549441000000002,0 110.152507999999997,24.529105999999999,0 110.132868999999999,24.525397999999999,0 110.138045000000005,24.516511000000001,0 110.134544000000005,24.505877000000002,0 110.137968999999998,24.496169999999999,0 110.132183999999995,24.491644000000001,0 110.135153000000003,24.481663000000001,0 110.130357000000004,24.472390000000001,0 110.116198999999995,24.460826000000001,0 110.120233999999996,24.449587000000001,0 110.135001000000003,24.447241999999999,0 110.147407999999999,24.436001999999998,0 110.156160999999997,24.44435,0 110.164153999999996,24.437857000000001,0 110.187140999999997,24.447623,0 110.202669,24.449697,0 110.204496000000006,24.443149999999999,0 110.195362000000003,24.430655000000002,0 110.202517,24.414448,0 110.189958000000004,24.405771000000001,0 110.205028999999996,24.405553000000001,0 110.211879999999994,24.399930999999999,0 110.197188999999995,24.386341000000002,0 110.188816000000003,24.382574000000002,0 110.190642999999994,24.372475999999999,0 110.200614000000002,24.370892000000001,0 110.196961000000002,24.357244000000001,0 110.198711000000003,24.347908,0 110.209671999999998,24.350856,0 110.220556999999999,24.346270000000001,0 110.229462999999996,24.360628999999999,0 110.231290000000001,24.351948,0 110.260367000000002,24.360247000000001,0 110.267065000000002,24.356971000000001,0 110.264476999999999,24.34141,0 110.258007000000006,24.340209000000002,0 110.260138999999995,24.322296999999999,0 110.271023,24.319785,0 110.268359000000004,24.303728,0 110.277569999999997,24.307333,0 110.288987000000006,24.299904999999999,0 110.316923000000003,24.296409000000001,0 110.339376999999999,24.300723999999999,0 110.352316999999999,24.314215000000001,0 110.373630000000006,24.323608,0 110.398748999999995,24.321805999999999,0 110.410548000000006,24.325355999999999,0 110.424324999999996,24.338844000000002,0 110.428588000000005,24.330107000000002,0 110.444040000000001,24.329450999999999,0 110.445334000000003,24.317765000000001,0 110.455229000000003,24.313614000000001,0 110.482403000000005,24.312740000000002,0 110.484154000000004,24.321532999999999,0 110.476161000000005,24.340919,0 110.467712000000006,24.350365,0 110.469463000000005,24.357517000000001,0 110.483772999999999,24.348181,0 110.506379999999993,24.345777999999999,0 110.507446000000002,24.360247000000001,0 110.513992000000002,24.364941999999999,0 110.516503999999998,24.375751000000001,0 110.527769000000006,24.38252,0 110.538959000000006,24.401513999999999,0 110.551899000000006,24.404952000000002,0 110.555019000000001,24.38645,0 110.552126999999999,24.371601999999999,0 110.555323999999999,24.366088000000001,0 110.567503000000002,24.362649000000001,0 110.581052,24.372475999999999,0 110.587902,24.390433999999999,0 110.598178000000004,24.396438,0 110.621547000000007,24.394145999999999,0 110.640348000000003,24.382792999999999,0 110.647730999999993,24.368435999999999,0 110.656408999999996,24.360683999999999,0 110.670261999999994,24.355333000000002,0 110.682669000000004,24.346270000000001,0 110.713193000000004,24.337806,0 110.727121999999994,24.328032,0 110.754068000000004,24.329177999999999,0 110.771193999999994,24.319403000000001,0 110.791290000000004,24.316289999999999,0 110.797988000000004,24.332619000000001,0 110.790833000000006,24.346816,0 110.796998000000002,24.365214999999999,0 110.811155999999997,24.38252,0 110.832926,24.388359999999999,0 110.843734999999995,24.386341000000002,0 110.856751000000003,24.361885000000001,0 110.855000000000004,24.328959999999999,0 110.876769999999993,24.310665,0 110.875247999999999,24.29701,0 110.880043000000001,24.289636000000002,0 110.879966999999994,24.271007000000001,0 110.883240000000001,24.259150999999999,0 110.888873000000004,24.261828000000001,0 110.910033999999996,24.287013000000002,0 110.911404000000005,24.297611,0 110.923429999999996,24.299795,0 110.918025999999998,24.309190000000001,0 110.932259999999999,24.309626999999999,0 110.934010999999998,24.324373000000001,0 110.943220999999994,24.336003999999999,0 110.950224000000006,24.333546999999999,0 110.958444999999998,24.31842,0 110.960424000000003,24.298048000000001,0 110.977322000000001,24.294824999999999,0 110.993611000000001,24.309080999999999,0 111.004114999999999,24.310009000000001,0 111.014391000000003,24.331962999999998,0 111.02619,24.332073000000001,0 111.024362999999994,24.347853000000001,0 111.017816999999994,24.353313,0 110.992545000000007,24.354896,0 110.975037999999998,24.36112,0 110.962327000000002,24.370674000000001,0 110.968264000000005,24.376024000000001,0 110.981431999999998,24.371002000000001,0 110.992469,24.376570000000001,0 110.995818999999997,24.395074000000001,0 111.018882000000005,24.419578000000001,0 111.026112999999995,24.446695999999999,0 111.040651999999994,24.462679999999999,0 111.025885000000002,24.483243999999999,0 111.042022000000003,24.489298000000002,0 111.044000999999994,24.498951999999999,0 111.020176000000006,24.519237,0 111.011422999999994,24.54279,0 110.991174999999998,24.556854999999999,0 110.982726,24.569664,0 110.983411000000004,24.58596,0 111.001070999999996,24.600345999999998,0 111.002516999999997,24.606776,0 110.989272,24.62116,0 110.994828999999996,24.631074999999999,0 111.009748000000002,24.634616000000001,0 111.012641000000002,24.649595999999999,0 111.020633000000004,24.669639,0 111.029691,24.675902000000001,0 111.058768000000001,24.672906999999999,0 111.069119999999998,24.682818000000001,0 111.072545000000005,24.695941000000001,0 111.079396000000003,24.703782,0 111.090508999999997,24.701332000000001,0 111.106570000000005,24.707592999999999,0 111.100708999999995,24.719515999999999,0 111.108016000000006,24.732199000000001,0 111.118825000000001,24.728770000000001,0 111.132450000000006,24.735737,0 111.147368999999998,24.767903,0 111.165790000000001,24.771875000000001,0 111.170052999999996,24.776717999999999,0 111.169214999999994,24.801964000000002,0 111.163049999999998,24.815020000000001,0 111.161527000000007,24.837319999999998,0 111.169443999999999,24.862608000000002,0 111.169139000000001,24.883976000000001,0 111.164496,24.898437000000001,0 111.151936000000006,24.900448000000001,0 111.138311000000002,24.891479,0 111.127503000000004,24.890065,0 111.117151000000007,24.895500999999999,0 111.105960999999994,24.908113,0 111.097740000000002,24.931972999999999,0 111.097436000000002,24.940885000000002,0</coordinates></LinearRing></outerBoundaryIs></Polygon></MultiGeometry></Placemark>
</Document>
</kml>