<?xml version="1.0" encoding="UTF-8"?>
<kml xmlns="http://www.opengis.net/kml/2.2">
  <Document>
    <name>河池市</name>
    <Placemark>
      <name>河池市</name>
      <Polygon><outerBoundaryIs><LinearRing><coordinates>106.571158000000,25.083504000000,0 106.578389000000,25.070639000000,0 106.603584000000,25.048164000000,0 106.620483000000,25.053159000000,0 106.620939000000,25.063582000000,0 106.640806000000,25.061194000000,0 106.654888000000,25.064668000000,0 106.667600000000,25.058262000000,0 106.683737000000,25.070694000000,0 106.684802000000,25.076068000000,0 106.700787000000,25.082907000000,0 106.701472000000,25.092188000000,0 106.721187000000,25.099298000000,0 106.743718000000,25.098267000000,0 106.755516000000,25.084264000000,0 106.739759000000,25.072919000000,0 106.742728000000,25.062822000000,0 106.759246000000,25.046480000000,0 106.763813000000,25.031331000000,0 106.748285000000,25.027096000000,0 106.733670000000,25.029919000000,0 106.726515000000,25.022588000000,0 106.726363000000,25.006078000000,0 106.733366000000,24.988642000000,0 106.759855000000,24.956861000000,0 106.770359000000,24.940505000000,0 106.780330000000,24.930342000000,0 106.802481000000,24.920125000000,0 106.803090000000,24.909798000000,0 106.809407000000,24.904253000000,0 106.827676000000,24.897241000000,0 106.840159000000,24.880823000000,0 106.843660000000,24.868970000000,0 106.850892000000,24.860379000000,0 106.851196000000,24.849231000000,0 106.839246000000,24.852548000000,0 106.836962000000,24.859617000000,0 106.824022000000,24.852874000000,0 106.818694000000,24.842868000000,0 106.811843000000,24.845043000000,0 106.805830000000,24.836831000000,0 106.793423000000,24.828999000000,0 106.800806000000,24.823342000000,0 106.790758000000,24.809525000000,0 106.791444000000,24.796686000000,0 106.782538000000,24.788253000000,0 106.760159000000,24.794565000000,0 106.730549000000,24.814258000000,0 106.719208000000,24.817250000000,0 106.683356000000,24.809580000000,0 106.670340000000,24.801692000000,0 106.662728000000,24.785587000000,0 106.672471000000,24.771168000000,0 106.686249000000,24.759195000000,0 106.739836000000,24.731220000000,0 106.764193000000,24.726048000000,0 106.775687000000,24.713799000000,0 106.784136000000,24.697248000000,0 106.814660000000,24.675684000000,0 106.811310000000,24.665664000000,0 106.797685000000,24.658202000000,0 106.767695000000,24.655207000000,0 106.738922000000,24.648507000000,0 106.728646000000,24.642842000000,0 106.718751000000,24.646165000000,0 106.700787000000,24.620670000000,0 106.691501000000,24.619144000000,0 106.686020000000,24.599638000000,0 106.701624000000,24.600945000000,0 106.729179000000,24.609609000000,0 106.725297000000,24.617727000000,0 106.755135000000,24.619743000000,0 106.773632000000,24.602471000000,0 106.776220000000,24.587322000000,0 106.775230000000,24.555001000000,0 106.767086000000,24.541100000000,0 106.771957000000,24.523054000000,0 106.782462000000,24.512366000000,0 106.797761000000,24.514275000000,0 106.811463000000,24.496334000000,0 106.815345000000,24.475445000000,0 106.808418000000,24.462189000000,0 106.809103000000,24.453952000000,0 106.835364000000,24.437475000000,0 106.847010000000,24.421106000000,0 106.851348000000,24.402496000000,0 106.863299000000,24.395074000000,0 106.885678000000,24.399713000000,0 106.891919000000,24.397584000000,0 106.903870000000,24.378753000000,0 106.883394000000,24.364669000000,0 106.883394000000,24.359865000000,0 106.899988000000,24.340973000000,0 106.890854000000,24.329342000000,0 106.885221000000,24.316126000000,0 106.897856000000,24.293132000000,0 106.901206000000,24.276361000000,0 106.924117000000,24.254889000000,0 106.918865000000,24.227456000000,0 106.902424000000,24.211989000000,0 106.885069000000,24.206632000000,0 106.861320000000,24.192146000000,0 106.859797000000,24.181431000000,0 106.866953000000,24.164153000000,0 106.893974000000,24.122535000000,0 106.890625000000,24.115425000000,0 106.904250000000,24.109079000000,0 106.914070000000,24.098083000000,0 106.935002000000,24.104593000000,0 106.942309000000,24.104101000000,0 106.946876000000,24.112854000000,0 106.958751000000,24.109407000000,0 106.964384000000,24.101038000000,0 106.943070000000,24.093269000000,0 106.943908000000,24.085445000000,0 106.953346000000,24.081342000000,0 106.956543000000,24.073189000000,0 106.965982000000,24.074831000000,0 106.975877000000,24.062956000000,0 106.987371000000,24.061096000000,0 106.997343000000,24.043473000000,0 107.003280000000,24.042653000000,0 107.017666000000,24.024371000000,0 107.039131000000,24.031815000000,0 107.060444000000,24.060220000000,0 107.078028000000,24.052285000000,0 107.107029000000,24.048563000000,0 107.111976000000,24.052723000000,0 107.123622000000,24.050041000000,0 107.135801000000,24.021360000000,0 107.144935000000,24.006853000000,0 107.149122000000,23.991249000000,0 107.177818000000,23.982653000000,0 107.200273000000,23.972961000000,0 107.237266000000,23.966718000000,0 107.250283000000,23.975151000000,0 107.268170000000,24.000283000000,0 107.275021000000,24.003842000000,0 107.280882000000,23.998696000000,0 107.277076000000,23.985938000000,0 107.279816000000,23.977232000000,0 107.294355000000,23.955436000000,0 107.305316000000,23.923776000000,0 107.325715000000,23.921365000000,0 107.330891000000,23.913476000000,0 107.359283000000,23.908491000000,0 107.363318000000,23.920872000000,0 107.374050000000,23.921091000000,0 107.383261000000,23.903888000000,0 107.388665000000,23.900985000000,0 107.385849000000,23.879998000000,0 107.393460000000,23.873038000000,0 107.406172000000,23.874846000000,0 107.421396000000,23.854403000000,0 107.432128000000,23.835328000000,0 107.440806000000,23.833683000000,0 107.455344000000,23.841686000000,0 107.466534000000,23.858843000000,0 107.479321000000,23.871065000000,0 107.495611000000,23.877203000000,0 107.503755000000,23.885916000000,0 107.518979000000,23.891779000000,0 107.542652000000,23.883834000000,0 107.544859000000,23.871449000000,0 107.531386000000,23.862351000000,0 107.529559000000,23.851334000000,0 107.535573000000,23.841248000000,0 107.558484000000,23.837904000000,0 107.569673000000,23.833244000000,0 107.567618000000,23.814001000000,0 107.570130000000,23.804790000000,0 107.582766000000,23.795577000000,0 107.606438000000,23.784500000000,0 107.636429000000,23.777974000000,0 107.655230000000,23.785981000000,0 107.680349000000,23.803145000000,0 107.714374000000,23.795687000000,0 107.724345000000,23.799142000000,0 107.746343000000,23.797442000000,0 107.738808000000,23.787352000000,0 107.738046000000,23.778797000000,0 107.753422000000,23.757296000000,0 107.765677000000,23.759051000000,0 107.779911000000,23.766785000000,0 107.792623000000,23.768102000000,0 107.803356000000,23.764098000000,0 107.812033000000,23.754224000000,0 107.815458000000,23.739962000000,0 107.828551000000,23.723832000000,0 107.830530000000,23.710499000000,0 107.823070000000,23.670381000000,0 107.808379000000,23.663136000000,0 107.797114000000,23.663410000000,0 107.780216000000,23.669283000000,0 107.764231000000,23.667033000000,0 107.757609000000,23.656000000000,0 107.731424000000,23.642385000000,0 107.710644000000,23.628000000000,0 107.705316000000,23.601862000000,0 107.706229000000,23.588791000000,0 107.716277000000,23.554075000000,0 107.722290000000,23.553965000000,0 107.737894000000,23.566655000000,0 107.742918000000,23.563139000000,0 107.754488000000,23.571983000000,0 107.767808000000,23.572423000000,0 107.778846000000,23.567040000000,0 107.793993000000,23.566710000000,0 107.793917000000,23.580772000000,0 107.799093000000,23.589066000000,0 107.810967000000,23.595601000000,0 107.818046000000,23.606804000000,0 107.824669000000,23.599995000000,0 107.839968000000,23.610209000000,0 107.846210000000,23.606695000000,0 107.846591000000,23.597414000000,0 107.860063000000,23.601752000000,0 107.874450000000,23.601093000000,0 107.891424000000,23.612955000000,0 107.893251000000,23.620697000000,0 107.906952000000,23.625584000000,0 107.905506000000,23.636950000000,0 107.924688000000,23.639420000000,0 107.942195000000,23.657043000000,0 107.959930000000,23.644032000000,0 107.966020000000,23.627890000000,0 107.983070000000,23.626792000000,0 107.996543000000,23.637059000000,0 107.993727000000,23.649247000000,0 108.000729000000,23.673510000000,0 108.011690000000,23.672741000000,0 108.019911000000,23.677571000000,0 108.020901000000,23.690414000000,0 108.038712000000,23.707755000000,0 108.042823000000,23.720650000000,0 108.024174000000,23.734146000000,0 108.021814000000,23.753127000000,0 108.016790000000,23.760039000000,0 108.021890000000,23.776219000000,0 108.058351000000,23.800677000000,0 108.069159000000,23.796071000000,0 108.088950000000,23.793165000000,0 108.096181000000,23.796784000000,0 108.104174000000,23.809724000000,0 108.112242000000,23.814166000000,0 108.118256000000,23.834889000000,0 108.129521000000,23.851279000000,0 108.136219000000,23.853033000000,0 108.154107000000,23.840864000000,0 108.162785000000,23.825679000000,0 108.180368000000,23.823267000000,0 108.183413000000,23.831326000000,0 108.176181000000,23.844427000000,0 108.186914000000,23.860816000000,0 108.203051000000,23.871613000000,0 108.209064000000,23.854951000000,0 108.221319000000,23.854842000000,0 108.225049000000,23.841796000000,0 108.223070000000,23.825624000000,0 108.232737000000,23.822664000000,0 108.232585000000,23.806873000000,0 108.243698000000,23.805064000000,0 108.252223000000,23.814166000000,0 108.249635000000,23.804570000000,0 108.264021000000,23.817675000000,0 108.277114000000,23.798429000000,0 108.282823000000,23.800403000000,0 108.282899000000,23.814385000000,0 108.291500000000,23.823541000000,0 108.303451000000,23.829133000000,0 108.309159000000,23.839494000000,0 108.290663000000,23.847223000000,0 108.292718000000,23.856760000000,0 108.317532000000,23.881806000000,0 108.313117000000,23.893368000000,0 108.321719000000,23.903505000000,0 108.330472000000,23.905806000000,0 108.329407000000,23.911997000000,0 108.348817000000,23.910847000000,0 108.365943000000,23.916106000000,0 108.365334000000,23.931774000000,0 108.368379000000,23.954833000000,0 108.362137000000,23.968525000000,0 108.354602000000,23.965403000000,0 108.357723000000,23.980791000000,0 108.367922000000,23.981832000000,0 108.372261000000,23.998696000000,0 108.364040000000,24.002528000000,0 108.377437000000,24.014408000000,0 108.410092000000,24.030939000000,0 108.432547000000,24.032910000000,0 108.451728000000,24.023824000000,0 108.458274000000,24.010193000000,0 108.472585000000,24.018952000000,0 108.479892000000,24.019061000000,0 108.487808000000,24.028859000000,0 108.501509000000,24.024809000000,0 108.505544000000,24.011780000000,0 108.537742000000,24.003678000000,0 108.562099000000,24.008331000000,0 108.564535000000,24.020320000000,0 108.554411000000,24.034826000000,0 108.555553000000,24.041722000000,0 108.581662000000,24.035811000000,0 108.597342000000,24.046867000000,0 108.593308000000,24.068976000000,0 108.588284000000,24.071547000000,0 108.584859000000,24.095731000000,0 108.589350000000,24.102624000000,0 108.589045000000,24.122535000000,0 108.597190000000,24.146655000000,0 108.611576000000,24.133584000000,0 108.642328000000,24.137248000000,0 108.664097000000,24.143537000000,0 108.677342000000,24.154365000000,0 108.674449000000,24.171535000000,0 108.682822000000,24.189139000000,0 108.684421000000,24.206140000000,0 108.701471000000,24.231501000000,0 108.687466000000,24.235873000000,0 108.683736000000,24.248878000000,0 108.693783000000,24.258550000000,0 108.689369000000,24.269095000000,0 108.681681000000,24.270242000000,0 108.670948000000,24.288106000000,0 108.686552000000,24.295207000000,0 108.691500000000,24.290728000000,0 108.708474000000,24.291493000000,0 108.729407000000,24.303018000000,0 108.740139000000,24.311866000000,0 108.740748000000,24.324482000000,0 108.728189000000,24.332619000000,0 108.727275000000,24.337915000000,0 108.739226000000,24.350365000000,0 108.738997000000,24.361284000000,0 108.753917000000,24.377880000000,0 108.760919000000,24.368163000000,0 108.777133000000,24.362267000000,0 108.801186000000,24.363686000000,0 108.817856000000,24.361229000000,0 108.835896000000,24.351238000000,0 108.839854000000,24.341683000000,0 108.857437000000,24.319294000000,0 108.848303000000,24.303728000000,0 108.862156000000,24.267237000000,0 108.871823000000,24.271335000000,0 108.894430000000,24.258878000000,0 108.916885000000,24.254998000000,0 108.916581000000,24.270570000000,0 108.920386000000,24.288816000000,0 108.920539000000,24.315416000000,0 108.928531000000,24.340427000000,0 108.920539000000,24.361830000000,0 108.932565000000,24.375150000000,0 108.953117000000,24.381646000000,0 108.970548000000,24.378644000000,0 108.977779000000,24.389015000000,0 108.985391000000,24.387378000000,0 108.990491000000,24.378589000000,0 108.999245000000,24.374386000000,0 109.005410000000,24.398567000000,0 109.000843000000,24.420505000000,0 109.009216000000,24.429400000000,0 109.042404000000,24.437039000000,0 109.046286000000,24.443532000000,0 109.046666000000,24.460989000000,0 109.032965000000,24.484390000000,0 109.022765000000,24.481172000000,0 108.983108000000,24.485699000000,0 108.961033000000,24.474681000000,0 108.937056000000,24.474899000000,0 108.912546000000,24.498515000000,0 108.892223000000,24.501351000000,0 108.884078000000,24.528015000000,0 108.875325000000,24.529433000000,0 108.864211000000,24.521909000000,0 108.862232000000,24.513730000000,0 108.849521000000,24.530360000000,0 108.838027000000,24.538211000000,0 108.845563000000,24.549823000000,0 108.846248000000,24.563396000000,0 108.852109000000,24.571299000000,0 108.876010000000,24.571517000000,0 108.908817000000,24.586613000000,0 108.912927000000,24.595442000000,0 108.903945000000,24.601708000000,0 108.899911000000,24.614023000000,0 108.910263000000,24.625682000000,0 108.927161000000,24.636632000000,0 108.951519000000,24.640554000000,0 108.970168000000,24.666208000000,0 108.952813000000,24.683799000000,0 108.950986000000,24.697085000000,0 108.931652000000,24.715705000000,0 108.935838000000,24.730294000000,0 108.964687000000,24.731601000000,0 108.956086000000,24.740364000000,0 108.963013000000,24.747875000000,0 108.980444000000,24.749617000000,0 108.991100000000,24.759468000000,0 108.997570000000,24.777534000000,0 109.013783000000,24.786403000000,0 109.015838000000,24.795435000000,0 109.027256000000,24.813932000000,0 109.038065000000,24.822309000000,0 109.064097000000,24.823342000000,0 109.077570000000,24.830467000000,0 109.094164000000,24.824811000000,0 109.097513000000,24.806751000000,0 109.117836000000,24.801855000000,0 109.131842000000,24.791300000000,0 109.150110000000,24.807893000000,0 109.158027000000,24.824648000000,0 109.151176000000,24.836559000000,0 109.137247000000,24.835798000000,0 109.139073000000,24.852820000000,0 109.146076000000,24.861684000000,0 109.138160000000,24.867611000000,0 109.136638000000,24.886966000000,0 109.139378000000,24.893055000000,0 109.152622000000,24.896262000000,0 109.157875000000,24.909417000000,0 109.139835000000,24.923766000000,0 109.128721000000,24.940396000000,0 109.118445000000,24.947569000000,0 109.100329000000,24.944689000000,0 109.100634000000,24.928169000000,0 109.076657000000,24.917842000000,0 109.032204000000,24.912787000000,0 109.004497000000,24.916048000000,0 108.994221000000,24.921103000000,0 108.986457000000,24.941157000000,0 108.990643000000,24.957567000000,0 109.017132000000,24.976094000000,0 109.033041000000,24.989729000000,0 109.066761000000,25.010423000000,0 109.074754000000,25.026933000000,0 109.083203000000,25.034644000000,0 109.083888000000,25.051693000000,0 109.098350000000,25.072648000000,0 109.105049000000,25.103748000000,0 109.102385000000,25.122090000000,0 109.093783000000,25.144010000000,0 109.092261000000,25.158223000000,0 109.076885000000,25.178401000000,0 109.071709000000,25.181221000000,0 109.061966000000,25.198955000000,0 109.052223000000,25.202425000000,0 109.032660000000,25.182035000000,0 109.013403000000,25.168746000000,0 108.995210000000,25.173194000000,0 108.985924000000,25.170211000000,0 108.979911000000,25.145475000000,0 108.975724000000,25.138042000000,0 108.960272000000,25.124858000000,0 108.948170000000,25.121168000000,0 108.930739000000,25.130663000000,0 108.915363000000,25.128059000000,0 108.902879000000,25.129849000000,0 108.908132000000,25.144878000000,0 108.899073000000,25.152744000000,0 108.878902000000,25.142274000000,0 108.862994000000,25.140809000000,0 108.855686000000,25.150086000000,0 108.845182000000,25.155402000000,0 108.835287000000,25.139453000000,0 108.823032000000,25.127462000000,0 108.820824000000,25.114385000000,0 108.802099000000,25.112811000000,0 108.797837000000,25.126920000000,0 108.781015000000,25.126160000000,0 108.762290000000,25.121331000000,0 108.753764000000,25.128276000000,0 108.747142000000,25.124749000000,0 108.748664000000,25.111509000000,0 108.731157000000,25.096042000000,0 108.725981000000,25.102934000000,0 108.699873000000,25.101740000000,0 108.690130000000,25.112051000000,0 108.679016000000,25.106353000000,0 108.674754000000,25.116501000000,0 108.677418000000,25.128981000000,0 108.686704000000,25.128385000000,0 108.685258000000,25.140538000000,0 108.694545000000,25.163648000000,0 108.706876000000,25.162075000000,0 108.713498000000,25.154914000000,0 108.718141000000,25.177370000000,0 108.702765000000,25.188217000000,0 108.685791000000,25.194834000000,0 108.683355000000,25.202751000000,0 108.665696000000,25.203727000000,0 108.655115000000,25.214951000000,0 108.653441000000,25.233927000000,0 108.656333000000,25.237667000000,0 108.647960000000,25.251219000000,0 108.651081000000,25.260325000000,0 108.645144000000,25.293599000000,0 108.631899000000,25.306278000000,0 108.625201000000,25.308120000000,0 108.613860000000,25.309854000000,0 108.589045000000,25.335315000000,0 108.594373000000,25.347556000000,0 108.585848000000,25.365969000000,0 108.562480000000,25.374092000000,0 108.564078000000,25.384326000000,0 108.543983000000,25.403654000000,0 108.544364000000,25.407984000000,0 108.524193000000,25.418324000000,0 108.511253000000,25.414426000000,0 108.513841000000,25.428716000000,0 108.507370000000,25.432992000000,0 108.500368000000,25.447821000000,0 108.488341000000,25.456371000000,0 108.471823000000,25.458860000000,0 108.463298000000,25.454314000000,0 108.438027000000,25.447333000000,0 108.433460000000,25.436401000000,0 108.421738000000,25.440406000000,0 108.415039000000,25.461673000000,0 108.400349000000,25.491376000000,0 108.392509000000,25.498571000000,0 108.381395000000,25.500680000000,0 108.359549000000,25.513500000000,0 108.351785000000,25.524695000000,0 108.352470000000,25.533077000000,0 108.344706000000,25.537349000000,0 108.316695000000,25.531509000000,0 108.317076000000,25.522640000000,0 108.308246000000,25.525777000000,0 108.299264000000,25.501113000000,0 108.281072000000,25.480015000000,0 108.260901000000,25.473739000000,0 108.240729000000,25.461890000000,0 108.236086000000,25.449390000000,0 108.252375000000,25.438458000000,0 108.252071000000,25.430502000000,0 108.225886000000,25.426984000000,0 108.226267000000,25.437213000000,0 108.221395000000,25.450093000000,0 108.203051000000,25.451663000000,0 108.192623000000,25.459076000000,0 108.162480000000,25.444736000000,0 108.157609000000,25.438999000000,0 108.165068000000,25.427363000000,0 108.170625000000,25.431801000000,0 108.179987000000,25.427904000000,0 108.190339000000,25.417025000000,0 108.186457000000,25.410204000000,0 108.193308000000,25.405494000000,0 108.181357000000,25.390823000000,0 108.153803000000,25.394721000000,0 108.142766000000,25.390660000000,0 108.155249000000,25.377936000000,0 108.152128000000,25.353730000000,0 108.136600000000,25.343114000000,0 108.137818000000,25.336506000000,0 108.152128000000,25.324427000000,0 108.149464000000,25.310341000000,0 108.135915000000,25.297880000000,0 108.137057000000,25.278101000000,0 108.143298000000,25.269755000000,0 108.134773000000,25.259675000000,0 108.133784000000,25.234415000000,0 108.121757000000,25.231053000000,0 108.115896000000,25.210993000000,0 108.098237000000,25.200799000000,0 108.080653000000,25.193749000000,0 108.053631000000,25.199606000000,0 108.010777000000,25.195267000000,0 108.001947000000,25.196569000000,0 107.989083000000,25.186862000000,0 107.969140000000,25.177913000000,0 107.950492000000,25.174170000000,0 107.928646000000,25.155782000000,0 107.915401000000,25.156813000000,0 107.898046000000,25.148893000000,0 107.896828000000,25.144227000000,0 107.872395000000,25.141569000000,0 107.867904000000,25.129415000000,0 107.839055000000,25.116121000000,0 107.832509000000,25.123338000000,0 107.819493000000,25.129198000000,0 107.806857000000,25.124803000000,0 107.794450000000,25.116121000000,0 107.777171000000,25.124532000000,0 107.769026000000,25.117532000000,0 107.762861000000,25.123989000000,0 107.768189000000,25.131097000000,0 107.778769000000,25.134895000000,0 107.789502000000,25.154751000000,0 107.782651000000,25.170428000000,0 107.759968000000,25.188651000000,0 107.756391000000,25.199931000000,0 107.762176000000,25.228939000000,0 107.752965000000,25.240866000000,0 107.742081000000,25.240215000000,0 107.710416000000,25.203456000000,0 107.700672000000,25.194129000000,0 107.694583000000,25.197870000000,0 107.696258000000,25.219885000000,0 107.690549000000,25.228180000000,0 107.669997000000,25.244443000000,0 107.661852000000,25.258970000000,0 107.658351000000,25.293383000000,0 107.668931000000,25.307470000000,0 107.659721000000,25.316301000000,0 107.643432000000,25.314838000000,0 107.631938000000,25.310179000000,0 107.614355000000,25.276963000000,0 107.615040000000,25.268130000000,0 107.608494000000,25.265311000000,0 107.606134000000,25.255338000000,0 107.593727000000,25.262818000000,0 107.599359000000,25.250948000000,0 107.591900000000,25.248671000000,0 107.583527000000,25.256043000000,0 107.558941000000,25.246883000000,0 107.554069000000,25.239565000000,0 107.543337000000,25.234848000000,0 107.541510000000,25.224602000000,0 107.521491000000,25.221457000000,0 107.517533000000,25.207197000000,0 107.513118000000,25.216578000000,0 107.504440000000,25.217608000000,0 107.504593000000,25.210667000000,0 107.479245000000,25.211210000000,0 107.472242000000,25.213758000000,0 107.474602000000,25.226011000000,0 107.470035000000,25.232083000000,0 107.490054000000,25.276692000000,0 107.481529000000,25.300210000000,0 107.470948000000,25.300806000000,0 107.449103000000,25.287530000000,0 107.432661000000,25.289102000000,0 107.428703000000,25.313484000000,0 107.409141000000,25.347122000000,0 107.408532000000,25.360229000000,0 107.413023000000,25.372738000000,0 107.423831000000,25.383892000000,0 107.420863000000,25.393097000000,0 107.402442000000,25.393746000000,0 107.386381000000,25.410637000000,0 107.375801000000,25.412099000000,0 107.367276000000,25.403924000000,0 107.364688000000,25.394992000000,0 107.354336000000,25.395100000000,0 107.344364000000,25.403654000000,0 107.314831000000,25.402625000000,0 107.309046000000,25.409175000000,0 107.308361000000,25.433100000000,0 107.315135000000,25.429690000000,0 107.325715000000,25.434724000000,0 107.325335000000,25.442517000000,0 107.332718000000,25.446738000000,0 107.330130000000,25.473198000000,0 107.321224000000,25.484560000000,0 107.322214000000,25.493432000000,0 107.328684000000,25.494568000000,0 107.313460000000,25.504954000000,0 107.307752000000,25.500248000000,0 107.296106000000,25.520477000000,0 107.291234000000,25.519503000000,0 107.275782000000,25.535511000000,0 107.263908000000,25.543135000000,0 107.237647000000,25.551625000000,0 107.230187000000,25.564763000000,0 107.235972000000,25.585359000000,0 107.228589000000,25.604871000000,0 107.211158000000,25.609195000000,0 107.199740000000,25.603790000000,0 107.187333000000,25.590927000000,0 107.185202000000,25.578332000000,0 107.134507000000,25.566439000000,0 107.113727000000,25.565303000000,0 107.093480000000,25.569791000000,0 107.064555000000,25.559518000000,0 107.064098000000,25.542432000000,0 107.074602000000,25.521288000000,0 107.070111000000,25.511715000000,0 107.055649000000,25.503980000000,0 107.039740000000,25.503331000000,0 107.013556000000,25.494081000000,0 107.015002000000,25.488671000000,0 107.007238000000,25.479096000000,0 107.003889000000,25.462106000000,0 106.996505000000,25.442734000000,0 106.981206000000,25.448037000000,0 106.963698000000,25.437322000000,0 106.968874000000,25.425956000000,0 106.967504000000,25.410366000000,0 106.974127000000,25.407010000000,0 106.979759000000,25.388116000000,0 106.979531000000,25.374092000000,0 106.986914000000,25.359741000000,0 107.010968000000,25.354976000000,0 107.014317000000,25.344794000000,0 107.007390000000,25.308066000000,0 107.013403000000,25.295496000000,0 107.009902000000,25.290294000000,0 107.013708000000,25.275337000000,0 106.991329000000,25.263089000000,0 106.988361000000,25.253929000000,0 106.997799000000,25.244931000000,0 106.976030000000,25.232951000000,0 106.955325000000,25.246286000000,0 106.933251000000,25.250460000000,0 106.913004000000,25.243034000000,0 106.904098000000,25.231541000000,0 106.900216000000,25.212728000000,0 106.900216000000,25.194508000000,0 106.888342000000,25.182197000000,0 106.852718000000,25.186970000000,0 106.836353000000,25.179486000000,0 106.798066000000,25.170482000000,0 106.787562000000,25.170862000000,0 106.764650000000,25.183119000000,0 106.732148000000,25.162292000000,0 106.722405000000,25.161858000000,0 106.705506000000,25.176177000000,0 106.691120000000,25.179214000000,0 106.667524000000,25.170591000000,0 106.644993000000,25.164841000000,0 106.638446000000,25.154209000000,0 106.639664000000,25.132779000000,0 106.629312000000,25.121439000000,0 106.614317000000,25.116338000000,0 106.597114000000,25.104888000000,0 106.594755000000,25.093925000000,0 106.587676000000,25.085892000000,0 106.571158000000,25.083504000000,0</coordinates></LinearRing></outerBoundaryIs></Polygon>
    </Placemark>
  </Document>
</kml>
