<?xml version="1.0" encoding="UTF-8"?>
<kml xmlns="http://www.opengis.net/kml/2.2">
  <Document>
    <name>百色市</name>
    <Placemark>
      <name>百色市</name>
      <Polygon><outerBoundaryIs><LinearRing><coordinates>105.132529000000,24.961370000000,0 105.145469000000,24.964630000000,0 105.157267000000,24.958871000000,0 105.178504000000,24.985437000000,0 105.196011000000,24.994672000000,0 105.212681000000,24.995378000000,0 105.215269000000,24.981255000000,0 105.232167000000,24.980711000000,0 105.234831000000,24.965554000000,0 105.251501000000,24.967455000000,0 105.263985000000,24.956209000000,0 105.257591000000,24.942081000000,0 105.265507000000,24.930179000000,0 105.280046000000,24.929419000000,0 105.308818000000,24.923929000000,0 105.334013000000,24.926375000000,0 105.338961000000,24.933386000000,0 105.365602000000,24.943494000000,0 105.391863000000,24.941646000000,0 105.428171000000,24.930723000000,0 105.443166000000,24.921864000000,0 105.447277000000,24.914907000000,0 105.456639000000,24.877887000000,0 105.470949000000,24.852657000000,0 105.484498000000,24.846892000000,0 105.492795000000,24.833350000000,0 105.493252000000,24.816652000000,0 105.497515000000,24.809308000000,0 105.523395000000,24.801583000000,0 105.544327000000,24.798536000000,0 105.572871000000,24.797285000000,0 105.590607000000,24.807567000000,0 105.607657000000,24.803704000000,0 105.614356000000,24.785587000000,0 105.626078000000,24.777208000000,0 105.650359000000,24.772202000000,0 105.678295000000,24.775575000000,0 105.705697000000,24.768501000000,0 105.725107000000,24.755440000000,0 105.737743000000,24.742432000000,0 105.758980000000,24.734921000000,0 105.766287000000,24.720332000000,0 105.795212000000,24.704816000000,0 105.805488000000,24.701549000000,0 105.827562000000,24.702965000000,0 105.856106000000,24.716903000000,0 105.864099000000,24.729478000000,0 105.882062000000,24.729804000000,0 105.892262000000,24.722782000000,0 105.904898000000,24.725232000000,0 105.941967000000,24.724796000000,0 105.946458000000,24.703945000000,0 105.953080000000,24.688100000000,0 105.961834000000,24.677591000000,0 105.977743000000,24.668605000000,0 105.988247000000,24.658638000000,0 105.989084000000,24.650849000000,0 106.014355000000,24.634235000000,0 106.023185000000,24.632383000000,0 106.039246000000,24.655588000000,0 106.046173000000,24.673125000000,0 106.047086000000,24.684071000000,0 106.065811000000,24.697248000000,0 106.084156000000,24.705197000000,0 106.097248000000,24.705905000000,0 106.113613000000,24.714072000000,0 106.120159000000,24.726103000000,0 106.133556000000,24.729804000000,0 106.138884000000,24.737098000000,0 106.143223000000,24.756692000000,0 106.149921000000,24.762842000000,0 106.164079000000,24.757563000000,0 106.172833000000,24.760229000000,0 106.187828000000,24.791627000000,0 106.186154000000,24.802072000000,0 106.192471000000,24.804466000000,0 106.198485000000,24.817032000000,0 106.201073000000,24.841835000000,0 106.206097000000,24.851080000000,0 106.204041000000,24.861412000000,0 106.196506000000,24.872069000000,0 106.197495000000,24.885770000000,0 106.192167000000,24.896969000000,0 106.182348000000,24.903764000000,0 106.167657000000,24.924690000000,0 106.164308000000,24.934418000000,0 106.149921000000,24.944417000000,0 106.145354000000,24.954035000000,0 106.153042000000,24.960990000000,0 106.175345000000,24.956752000000,0 106.183261000000,24.951699000000,0 106.191634000000,24.953383000000,0 106.196886000000,24.963109000000,0 106.215383000000,24.981852000000,0 106.228171000000,24.980222000000,0 106.242176000000,24.972073000000,0 106.253746000000,24.971204000000,0 106.261434000000,24.977343000000,0 106.278561000000,24.979299000000,0 106.304974000000,24.974029000000,0 106.316391000000,24.983102000000,0 106.332528000000,24.988479000000,0 106.353689000000,24.990218000000,0 106.369902000000,24.998854000000,0 106.388703000000,25.005372000000,0 106.406058000000,25.005589000000,0 106.411615000000,25.012161000000,0 106.435744000000,25.017755000000,0 106.445259000000,25.022317000000,0 106.449978000000,25.033232000000,0 106.463527000000,25.040291000000,0 106.515973000000,25.051856000000,0 106.531881000000,25.073299000000,0 106.551291000000,25.082799000000,0 106.571158000000,25.083504000000,0 106.578389000000,25.070639000000,0 106.603584000000,25.048164000000,0 106.620483000000,25.053159000000,0 106.620939000000,25.063582000000,0 106.640806000000,25.061194000000,0 106.654888000000,25.064668000000,0 106.667600000000,25.058262000000,0 106.683737000000,25.070694000000,0 106.684802000000,25.076068000000,0 106.700787000000,25.082907000000,0 106.701472000000,25.092188000000,0 106.721187000000,25.099298000000,0 106.743718000000,25.098267000000,0 106.755516000000,25.084264000000,0 106.739759000000,25.072919000000,0 106.742728000000,25.062822000000,0 106.759246000000,25.046480000000,0 106.763813000000,25.031331000000,0 106.748285000000,25.027096000000,0 106.733670000000,25.029919000000,0 106.726515000000,25.022588000000,0 106.726363000000,25.006078000000,0 106.733366000000,24.988642000000,0 106.759855000000,24.956861000000,0 106.770359000000,24.940505000000,0 106.780330000000,24.930342000000,0 106.802481000000,24.920125000000,0 106.803090000000,24.909798000000,0 106.809407000000,24.904253000000,0 106.827676000000,24.897241000000,0 106.840159000000,24.880823000000,0 106.843660000000,24.868970000000,0 106.850892000000,24.860379000000,0 106.851196000000,24.849231000000,0 106.839246000000,24.852548000000,0 106.836962000000,24.859617000000,0 106.824022000000,24.852874000000,0 106.818694000000,24.842868000000,0 106.811843000000,24.845043000000,0 106.805830000000,24.836831000000,0 106.793423000000,24.828999000000,0 106.800806000000,24.823342000000,0 106.790758000000,24.809525000000,0 106.791444000000,24.796686000000,0 106.782538000000,24.788253000000,0 106.760159000000,24.794565000000,0 106.730549000000,24.814258000000,0 106.719208000000,24.817250000000,0 106.683356000000,24.809580000000,0 106.670340000000,24.801692000000,0 106.662728000000,24.785587000000,0 106.672471000000,24.771168000000,0 106.686249000000,24.759195000000,0 106.739836000000,24.731220000000,0 106.764193000000,24.726048000000,0 106.775687000000,24.713799000000,0 106.784136000000,24.697248000000,0 106.814660000000,24.675684000000,0 106.811310000000,24.665664000000,0 106.797685000000,24.658202000000,0 106.767695000000,24.655207000000,0 106.738922000000,24.648507000000,0 106.728646000000,24.642842000000,0 106.718751000000,24.646165000000,0 106.700787000000,24.620670000000,0 106.691501000000,24.619144000000,0 106.686020000000,24.599638000000,0 106.701624000000,24.600945000000,0 106.729179000000,24.609609000000,0 106.725297000000,24.617727000000,0 106.755135000000,24.619743000000,0 106.773632000000,24.602471000000,0 106.776220000000,24.587322000000,0 106.775230000000,24.555001000000,0 106.767086000000,24.541100000000,0 106.771957000000,24.523054000000,0 106.782462000000,24.512366000000,0 106.797761000000,24.514275000000,0 106.811463000000,24.496334000000,0 106.815345000000,24.475445000000,0 106.808418000000,24.462189000000,0 106.809103000000,24.453952000000,0 106.835364000000,24.437475000000,0 106.847010000000,24.421106000000,0 106.851348000000,24.402496000000,0 106.863299000000,24.395074000000,0 106.885678000000,24.399713000000,0 106.891919000000,24.397584000000,0 106.903870000000,24.378753000000,0 106.883394000000,24.364669000000,0 106.883394000000,24.359865000000,0 106.899988000000,24.340973000000,0 106.890854000000,24.329342000000,0 106.885221000000,24.316126000000,0 106.897856000000,24.293132000000,0 106.901206000000,24.276361000000,0 106.924117000000,24.254889000000,0 106.918865000000,24.227456000000,0 106.902424000000,24.211989000000,0 106.885069000000,24.206632000000,0 106.861320000000,24.192146000000,0 106.859797000000,24.181431000000,0 106.866953000000,24.164153000000,0 106.893974000000,24.122535000000,0 106.890625000000,24.115425000000,0 106.904250000000,24.109079000000,0 106.914070000000,24.098083000000,0 106.935002000000,24.104593000000,0 106.942309000000,24.104101000000,0 106.946876000000,24.112854000000,0 106.958751000000,24.109407000000,0 106.964384000000,24.101038000000,0 106.943070000000,24.093269000000,0 106.943908000000,24.085445000000,0 106.953346000000,24.081342000000,0 106.956543000000,24.073189000000,0 106.965982000000,24.074831000000,0 106.975877000000,24.062956000000,0 106.987371000000,24.061096000000,0 106.997343000000,24.043473000000,0 107.003280000000,24.042653000000,0 107.017666000000,24.024371000000,0 107.039131000000,24.031815000000,0 107.060444000000,24.060220000000,0 107.078028000000,24.052285000000,0 107.107029000000,24.048563000000,0 107.111976000000,24.052723000000,0 107.123622000000,24.050041000000,0 107.135801000000,24.021360000000,0 107.144935000000,24.006853000000,0 107.149122000000,23.991249000000,0 107.177818000000,23.982653000000,0 107.200273000000,23.972961000000,0 107.237266000000,23.966718000000,0 107.250283000000,23.975151000000,0 107.268170000000,24.000283000000,0 107.275021000000,24.003842000000,0 107.280882000000,23.998696000000,0 107.277076000000,23.985938000000,0 107.279816000000,23.977232000000,0 107.294355000000,23.955436000000,0 107.305316000000,23.923776000000,0 107.325715000000,23.921365000000,0 107.330891000000,23.913476000000,0 107.359283000000,23.908491000000,0 107.363318000000,23.920872000000,0 107.374050000000,23.921091000000,0 107.383261000000,23.903888000000,0 107.388665000000,23.900985000000,0 107.385849000000,23.879998000000,0 107.393460000000,23.873038000000,0 107.406172000000,23.874846000000,0 107.421396000000,23.854403000000,0 107.432128000000,23.835328000000,0 107.440806000000,23.833683000000,0 107.455344000000,23.841686000000,0 107.466534000000,23.858843000000,0 107.479321000000,23.871065000000,0 107.495611000000,23.877203000000,0 107.503755000000,23.885916000000,0 107.518979000000,23.891779000000,0 107.542652000000,23.883834000000,0 107.544859000000,23.871449000000,0 107.531386000000,23.862351000000,0 107.529559000000,23.851334000000,0 107.535573000000,23.841248000000,0 107.558484000000,23.837904000000,0 107.569673000000,23.833244000000,0 107.567618000000,23.814001000000,0 107.570130000000,23.804790000000,0 107.582766000000,23.795577000000,0 107.606438000000,23.784500000000,0 107.636429000000,23.777974000000,0 107.655230000000,23.785981000000,0 107.680349000000,23.803145000000,0 107.714374000000,23.795687000000,0 107.724345000000,23.799142000000,0 107.746343000000,23.797442000000,0 107.738808000000,23.787352000000,0 107.738046000000,23.778797000000,0 107.753422000000,23.757296000000,0 107.765677000000,23.759051000000,0 107.779911000000,23.766785000000,0 107.792623000000,23.768102000000,0 107.803356000000,23.764098000000,0 107.812033000000,23.754224000000,0 107.815458000000,23.739962000000,0 107.828551000000,23.723832000000,0 107.830530000000,23.710499000000,0 107.823070000000,23.670381000000,0 107.808379000000,23.663136000000,0 107.797114000000,23.663410000000,0 107.780216000000,23.669283000000,0 107.764231000000,23.667033000000,0 107.757609000000,23.656000000000,0 107.731424000000,23.642385000000,0 107.710644000000,23.628000000000,0 107.705316000000,23.601862000000,0 107.706229000000,23.588791000000,0 107.716277000000,23.554075000000,0 107.721300000000,23.543087000000,0 107.734849000000,23.533252000000,0 107.738122000000,23.521053000000,0 107.729750000000,23.496433000000,0 107.735839000000,23.491101000000,0 107.733099000000,23.478294000000,0 107.741548000000,23.461363000000,0 107.736828000000,23.450917000000,0 107.749236000000,23.442669000000,0 107.769026000000,23.449817000000,0 107.775725000000,23.440195000000,0 107.794298000000,23.430627000000,0 107.805791000000,23.435136000000,0 107.821015000000,23.430187000000,0 107.827104000000,23.433542000000,0 107.835325000000,23.427658000000,0 107.843698000000,23.436181000000,0 107.853365000000,23.433102000000,0 107.870720000000,23.446133000000,0 107.883660000000,23.438875000000,0 107.864098000000,23.414680000000,0 107.866914000000,23.401315000000,0 107.859150000000,23.395485000000,0 107.848113000000,23.379423000000,0 107.832433000000,23.374912000000,0 107.827333000000,23.367595000000,0 107.832128000000,23.351584000000,0 107.821396000000,23.343276000000,0 107.836924000000,23.342065000000,0 107.829236000000,23.333591000000,0 107.817970000000,23.333371000000,0 107.818503000000,23.340910000000,0 107.800768000000,23.343496000000,0 107.782347000000,23.349659000000,0 107.764383000000,23.344872000000,0 107.748018000000,23.333866000000,0 107.750834000000,23.314054000000,0 107.743679000000,23.307670000000,0 107.716124000000,23.298092000000,0 107.702423000000,23.280037000000,0 107.671748000000,23.282239000000,0 107.656067000000,23.274642000000,0 107.649673000000,23.282074000000,0 107.611919000000,23.292368000000,0 107.584897000000,23.291047000000,0 107.579188000000,23.276954000000,0 107.581167000000,23.265062000000,0 107.576220000000,23.258675000000,0 107.585506000000,23.247442000000,0 107.584821000000,23.230426000000,0 107.569445000000,23.221780000000,0 107.561681000000,23.204485000000,0 107.530320000000,23.204099000000,0 107.519740000000,23.219356000000,0 107.499949000000,23.224038000000,0 107.498503000000,23.230977000000,0 107.490511000000,23.225855000000,0 107.485106000000,23.230151000000,0 107.471253000000,23.223322000000,0 107.463261000000,23.228113000000,0 107.477571000000,23.242872000000,0 107.469883000000,23.250526000000,0 107.462043000000,23.246561000000,0 107.438979000000,23.250030000000,0 107.429540000000,23.260217000000,0 107.413556000000,23.253940000000,0 107.398256000000,23.238466000000,0 107.385696000000,23.244359000000,0 107.378008000000,23.250581000000,0 107.382728000000,23.268475000000,0 107.367124000000,23.270347000000,0 107.366667000000,23.281853000000,0 107.352890000000,23.295175000000,0 107.350758000000,23.320493000000,0 107.343299000000,23.333371000000,0 107.314374000000,23.340470000000,0 107.303413000000,23.351474000000,0 107.274412000000,23.343716000000,0 107.247771000000,23.323080000000,0 107.222880000000,23.315045000000,0 107.210701000000,23.318292000000,0 107.198751000000,23.333481000000,0 107.180330000000,23.325061000000,0 107.158941000000,23.311578000000,0 107.148741000000,23.302386000000,0 107.116391000000,23.283615000000,0 107.057704000000,23.276954000000,0 107.041187000000,23.273375000000,0 107.044231000000,23.286092000000,0 107.034336000000,23.291652000000,0 107.042024000000,23.304973000000,0 107.026039000000,23.303211000000,0 107.005868000000,23.310202000000,0 106.994298000000,23.299854000000,0 106.962937000000,23.298918000000,0 106.944669000000,23.291762000000,0 106.923051000000,23.268971000000,0 106.918561000000,23.259556000000,0 106.916810000000,23.242817000000,0 106.899683000000,23.223487000000,0 106.857666000000,23.208340000000,0 106.838561000000,23.198260000000,0 106.805525000000,23.191870000000,0 106.779493000000,23.180577000000,0 106.776753000000,23.175067000000,0 106.785506000000,23.153028000000,0 106.783756000000,23.146580000000,0 106.770663000000,23.131425000000,0 106.765487000000,23.118583000000,0 106.772414000000,23.108221000000,0 106.771957000000,23.099952000000,0 106.761834000000,23.087107000000,0 106.768532000000,23.075639000000,0 106.776296000000,23.074040000000,0 106.794640000000,23.084847000000,0 106.802785000000,23.081153000000,0 106.809560000000,23.066211000000,0 106.795935000000,23.048565000000,0 106.797761000000,23.023747000000,0 106.786115000000,23.014315000000,0 106.765259000000,23.004220000000,0 106.747904000000,22.974538000000,0 106.727352000000,22.965764000000,0 106.711976000000,22.941593000000,0 106.681453000000,22.921502000000,0 106.667295000000,22.907426000000,0 106.670720000000,22.889097000000,0 106.670188000000,22.875072000000,0 106.656867000000,22.863255000000,0 106.631139000000,22.880925000000,0 106.633956000000,22.887993000000,0 106.621624000000,22.895336000000,0 106.605792000000,22.925587000000,0 106.596962000000,22.929892000000,0 106.575116000000,22.921944000000,0 106.562329000000,22.923434000000,0 106.526172000000,22.946615000000,0 106.511253000000,22.938558000000,0 106.506230000000,22.926967000000,0 106.504555000000,22.910462000000,0 106.489864000000,22.901353000000,0 106.479588000000,22.902568000000,0 106.468856000000,22.896771000000,0 106.458199000000,22.900525000000,0 106.446629000000,22.886281000000,0 106.422880000000,22.888655000000,0 106.413670000000,22.877336000000,0 106.374393000000,22.880097000000,0 106.371196000000,22.878275000000,0 106.366325000000,22.858064000000,0 106.353994000000,22.855524000000,0 106.336563000000,22.865519000000,0 106.319056000000,22.860439000000,0 106.305583000000,22.866734000000,0 106.287162000000,22.866955000000,0 106.270645000000,22.874962000000,0 106.258085000000,22.890035000000,0 106.268437000000,22.898814000000,0 106.270036000000,22.907260000000,0 106.240197000000,22.942311000000,0 106.206858000000,22.978400000000,0 106.176334000000,22.980662000000,0 106.158903000000,22.987669000000,0 106.138275000000,22.988111000000,0 106.116049000000,22.985297000000,0 106.106534000000,22.980938000000,0 106.085982000000,22.996441000000,0 106.069617000000,22.987283000000,0 106.056905000000,22.984745000000,0 106.019912000000,22.990483000000,0 106.004688000000,22.979007000000,0 106.010854000000,22.969958000000,0 106.012224000000,22.952410000000,0 105.995326000000,22.937675000000,0 105.981853000000,22.945291000000,0 105.959322000000,22.948933000000,0 105.958713000000,22.939110000000,0 105.936563000000,22.935577000000,0 105.925374000000,22.944187000000,0 105.912890000000,22.937730000000,0 105.894165000000,22.936516000000,0 105.889674000000,22.925697000000,0 105.896753000000,22.916479000000,0 105.878942000000,22.916921000000,0 105.867524000000,22.940103000000,0 105.857629000000,22.943470000000,0 105.856487000000,22.957046000000,0 105.842633000000,22.970344000000,0 105.839132000000,22.987614000000,0 105.828019000000,22.991697000000,0 105.805868000000,22.994731000000,0 105.779912000000,23.022368000000,0 105.762100000000,23.031634000000,0 105.748171000000,23.030145000000,0 105.736297000000,23.034612000000,0 105.733556000000,23.051488000000,0 105.724422000000,23.062186000000,0 105.714451000000,23.058105000000,0 105.690778000000,23.061028000000,0 105.677229000000,23.065108000000,0 105.649065000000,23.078562000000,0 105.641834000000,23.078341000000,0 105.625545000000,23.064336000000,0 105.602862000000,23.072056000000,0 105.575079000000,23.066211000000,0 105.564803000000,23.072827000000,0 105.559246000000,23.084957000000,0 105.567924000000,23.109213000000,0 105.563585000000,23.120237000000,0 105.566782000000,23.139692000000,0 105.562824000000,23.170605000000,0 105.552852000000,23.183827000000,0 105.542652000000,23.184213000000,0 105.550036000000,23.197875000000,0 105.532072000000,23.218750000000,0 105.526439000000,23.234556000000,0 105.531844000000,23.248158000000,0 105.560312000000,23.257354000000,0 105.569674000000,23.282404000000,0 105.593271000000,23.312568000000,0 105.615726000000,23.314274000000,0 105.614127000000,23.322089000000,0 105.623185000000,23.324236000000,0 105.631787000000,23.332601000000,0 105.648837000000,23.340029000000,0 105.649294000000,23.345917000000,0 105.667029000000,23.346797000000,0 105.674869000000,23.337388000000,0 105.671672000000,23.326437000000,0 105.681035000000,23.321539000000,0 105.685221000000,23.326822000000,0 105.700597000000,23.328418000000,0 105.697248000000,23.336122000000,0 105.682405000000,23.348888000000,0 105.674184000000,23.348393000000,0 105.673119000000,23.357747000000,0 105.682938000000,23.355491000000,0 105.694279000000,23.363304000000,0 105.688647000000,23.371446000000,0 105.675022000000,23.374637000000,0 105.668856000000,23.387949000000,0 105.647467000000,23.398070000000,0 105.630873000000,23.400545000000,0 105.648456000000,23.404395000000,0 105.665126000000,23.400655000000,0 105.671901000000,23.408630000000,0 105.690626000000,23.400875000000,0 105.699836000000,23.401425000000,0 105.715212000000,23.414900000000,0 105.738047000000,23.430682000000,0 105.758675000000,23.459548000000,0 105.778770000000,23.465926000000,0 105.806173000000,23.467465000000,0 105.811577000000,23.473897000000,0 105.813785000000,23.502149000000,0 105.826116000000,23.515558000000,0 105.852376000000,23.526933000000,0 105.880768000000,23.529186000000,0 105.892034000000,23.524845000000,0 105.902158000000,23.505666000000,0 105.912966000000,23.499291000000,0 105.925602000000,23.508579000000,0 105.935802000000,23.508909000000,0 105.959931000000,23.494179000000,0 105.986192000000,23.489617000000,0 105.996772000000,23.480493000000,0 105.997381000000,23.474116000000,0 105.986953000000,23.457239000000,0 105.991824000000,23.448333000000,0 105.999817000000,23.447948000000,0 106.010473000000,23.455865000000,0 106.022348000000,23.472742000000,0 106.036049000000,23.482692000000,0 106.062995000000,23.488408000000,0 106.072205000000,23.495608000000,0 106.086211000000,23.524186000000,0 106.107295000000,23.533692000000,0 106.120616000000,23.559239000000,0 106.141472000000,23.569676000000,0 106.135383000000,23.579948000000,0 106.124879000000,23.585880000000,0 106.120768000000,23.605377000000,0 106.137286000000,23.632063000000,0 106.149541000000,23.665386000000,0 106.152966000000,23.699798000000,0 106.158142000000,23.709456000000,0 106.157305000000,23.724161000000,0 106.144974000000,23.744296000000,0 106.136905000000,23.795413000000,0 106.144517000000,23.806489000000,0 106.155706000000,23.813837000000,0 106.176639000000,23.816194000000,0 106.192319000000,23.824747000000,0 106.191482000000,23.835547000000,0 106.172833000000,23.861638000000,0 106.192015000000,23.862351000000,0 106.197724000000,23.871120000000,0 106.192471000000,23.878902000000,0 106.169179000000,23.883395000000,0 106.155478000000,23.893916000000,0 106.154489000000,23.908546000000,0 106.139113000000,23.921037000000,0 106.136144000000,23.935553000000,0 106.127771000000,23.956860000000,0 106.119703000000,23.960967000000,0 106.096258000000,23.989607000000,0 106.081644000000,23.993221000000,0 106.091843000000,23.999845000000,0 106.096563000000,24.017912000000,0 106.088647000000,24.030775000000,0 106.075554000000,24.028422000000,0 106.069617000000,24.037179000000,0 106.053784000000,24.051136000000,0 106.053784000000,24.076198000000,0 106.049979000000,24.089822000000,0 106.034983000000,24.095512000000,0 106.024251000000,24.103335000000,0 106.011843000000,24.099506000000,0 105.997990000000,24.120676000000,0 105.998294000000,24.124231000000,0 105.963813000000,24.111048000000,0 105.953842000000,24.112854000000,0 105.933290000000,24.123793000000,0 105.919436000000,24.122207000000,0 105.910150000000,24.114878000000,0 105.902158000000,24.099287000000,0 105.904974000000,24.074393000000,0 105.907866000000,24.069468000000,0 105.901625000000,24.046921000000,0 105.892262000000,24.040299000000,0 105.859227000000,24.056718000000,0 105.849864000000,24.056006000000,0 105.850702000000,24.048071000000,0 105.841492000000,24.030830000000,0 105.825126000000,24.030939000000,0 105.796506000000,24.023659000000,0 105.787981000000,24.031979000000,0 105.789427000000,24.039478000000,0 105.804422000000,24.057265000000,0 105.790416000000,24.069851000000,0 105.765374000000,24.073736000000,0 105.739341000000,24.059509000000,0 105.704479000000,24.066513000000,0 105.695193000000,24.061698000000,0 105.690169000000,24.051136000000,0 105.675326000000,24.038110000000,0 105.649446000000,24.033074000000,0 105.641606000000,24.044678000000,0 105.643433000000,24.063722000000,0 105.638180000000,24.076144000000,0 105.634298000000,24.101639000000,0 105.628209000000,24.103445000000,0 105.628437000000,24.126583000000,0 105.613062000000,24.134349000000,0 105.594641000000,24.137522000000,0 105.587638000000,24.129755000000,0 105.568609000000,24.131451000000,0 105.546230000000,24.123575000000,0 105.533823000000,24.129810000000,0 105.527581000000,24.123082000000,0 105.531083000000,24.114057000000,0 105.517762000000,24.096716000000,0 105.518066000000,24.075870000000,0 105.509237000000,24.061205000000,0 105.504746000000,24.044404000000,0 105.510226000000,24.034278000000,0 105.509237000000,24.024864000000,0 105.500103000000,24.024645000000,0 105.493024000000,24.017255000000,0 105.481834000000,24.019225000000,0 105.460978000000,24.029626000000,0 105.427790000000,24.034224000000,0 105.413024000000,24.038985000000,0 105.402976000000,24.049056000000,0 105.396734000000,24.064598000000,0 105.381587000000,24.068155000000,0 105.376639000000,24.077019000000,0 105.364536000000,24.077676000000,0 105.359437000000,24.084077000000,0 105.345964000000,24.086157000000,0 105.339341000000,24.095731000000,0 105.332795000000,24.094965000000,0 105.328913000000,24.106235000000,0 105.320236000000,24.116354000000,0 105.306002000000,24.112307000000,0 105.293518000000,24.113182000000,0 105.283851000000,24.099013000000,0 105.272967000000,24.101256000000,0 105.273119000000,24.092831000000,0 105.293062000000,24.079208000000,0 105.284460000000,24.065090000000,0 105.265431000000,24.064598000000,0 105.260179000000,24.061260000000,0 105.251882000000,24.069578000000,0 105.234908000000,24.075049000000,0 105.228057000000,24.085500000000,0 105.200654000000,24.105359000000,0 105.195022000000,24.121770000000,0 105.181853000000,24.132873000000,0 105.183300000000,24.149772000000,0 105.178504000000,24.150319000000,0 105.182843000000,24.167051000000,0 105.208799000000,24.166614000000,0 105.209332000000,24.157209000000,0 105.229579000000,24.165739000000,0 105.235212000000,24.178205000000,0 105.243052000000,24.206741000000,0 105.232548000000,24.211934000000,0 105.231635000000,24.219532000000,0 105.215269000000,24.214940000000,0 105.204841000000,24.232594000000,0 105.197153000000,24.252157000000,0 105.178504000000,24.253468000000,0 105.181625000000,24.261773000000,0 105.168380000000,24.277672000000,0 105.160236000000,24.278928000000,0 105.166478000000,24.289035000000,0 105.176373000000,24.287341000000,0 105.171654000000,24.299577000000,0 105.180559000000,24.313341000000,0 105.196772000000,24.326994000000,0 105.196240000000,24.337042000000,0 105.187867000000,24.347089000000,0 105.170055000000,24.356916000000,0 105.144632000000,24.375587000000,0 105.138542000000,24.376733000000,0 105.116773000000,24.371602000000,0 105.102919000000,24.382247000000,0 105.109008000000,24.412320000000,0 105.095612000000,24.419250000000,0 105.085031000000,24.420560000000,0 105.075060000000,24.427545000000,0 105.059456000000,24.429345000000,0 105.054584000000,24.439330000000,0 105.042862000000,24.441840000000,0 105.019418000000,24.438676000000,0 105.003281000000,24.431910000000,0 104.997572000000,24.423834000000,0 104.979989000000,24.412866000000,0 104.943528000000,24.408227000000,0 104.929903000000,24.410846000000,0 104.913918000000,24.426290000000,0 104.888951000000,24.433219000000,0 104.873652000000,24.434965000000,0 104.836658000000,24.446641000000,0 104.822881000000,24.443804000000,0 104.784974000000,24.443804000000,0 104.765260000000,24.459462000000,0 104.754375000000,24.456952000000,0 104.752853000000,24.435948000000,0 104.744936000000,24.436930000000,0 104.728647000000,24.445932000000,0 104.717306000000,24.442768000000,0 104.703757000000,24.421379000000,0 104.704365000000,24.409482000000,0 104.719208000000,24.357135000000,0 104.721111000000,24.339990000000,0 104.717229000000,24.328960000000,0 104.709009000000,24.321314000000,0 104.695155000000,24.322789000000,0 104.683737000000,24.330653000000,0 104.660826000000,24.355661000000,0 104.641644000000,24.367835000000,0 104.610969000000,24.377116000000,0 104.620103000000,24.393109000000,0 104.629846000000,24.397857000000,0 104.623376000000,24.414339000000,0 104.616297000000,24.421761000000,0 104.590950000000,24.422415000000,0 104.583642000000,24.418159000000,0 104.576411000000,24.423561000000,0 104.570246000000,24.443095000000,0 104.573595000000,24.447296000000,0 104.566516000000,24.463117000000,0 104.566592000000,24.473154000000,0 104.556468000000,24.476154000000,0 104.547258000000,24.488917000000,0 104.542539000000,24.508877000000,0 104.549922000000,24.518910000000,0 104.542615000000,24.522999000000,0 104.534775000000,24.534994000000,0 104.530131000000,24.530578000000,0 104.520921000000,24.535103000000,0 104.515517000000,24.564213000000,0 104.508666000000,24.572825000000,0 104.502729000000,24.590755000000,0 104.505545000000,24.626662000000,0 104.489104000000,24.636850000000,0 104.486059000000,24.644966000000,0 104.475327000000,24.645130000000,0 104.471749000000,24.635052000000,0 104.461854000000,24.632546000000,0 104.450893000000,24.638266000000,0 104.450893000000,24.643768000000,0 104.465583000000,24.640391000000,0 104.479132000000,24.652102000000,0 104.489789000000,24.653409000000,0 104.497781000000,24.665664000000,0 104.504784000000,24.691422000000,0 104.514223000000,24.704272000000,0 104.520236000000,24.727137000000,0 104.529446000000,24.731383000000,0 104.558523000000,24.727790000000,0 104.574356000000,24.714072000000,0 104.593994000000,24.710261000000,0 104.599779000000,24.695996000000,0 104.628780000000,24.661198000000,0 104.632967000000,24.659237000000,0 104.666078000000,24.656895000000,0 104.697972000000,24.649433000000,0 104.703604000000,24.645838000000,0 104.698961000000,24.632764000000,0 104.708933000000,24.624156000000,0 104.729484000000,24.618218000000,0 104.743338000000,24.622249000000,0 104.751330000000,24.647145000000,0 104.764270000000,24.657058000000,0 104.803167000000,24.665718000000,0 104.810550000000,24.671709000000,0 104.822957000000,24.670402000000,0 104.841911000000,24.676175000000,0 104.860483000000,24.701495000000,0 104.866268000000,24.730621000000,0 104.875707000000,24.739874000000,0 104.899380000000,24.752937000000,0 104.982500000000,24.770460000000,0 105.017058000000,24.785261000000,0 105.033347000000,24.787818000000,0 105.034108000000,24.795435000000,0 105.026801000000,24.815564000000,0 105.037762000000,24.834057000000,0 105.041720000000,24.854016000000,0 105.036925000000,24.865653000000,0 105.038828000000,24.872994000000,0 105.070417000000,24.895012000000,0 105.077952000000,24.918331000000,0 105.095916000000,24.928658000000,0 105.118067000000,24.944852000000,0 105.125222000000,24.946211000000,0 105.132529000000,24.961370000000,0</coordinates></LinearRing></outerBoundaryIs><innerBoundaryIs><LinearRing><coordinates>105.081987000000,24.915614000000,0 105.088304000000,24.914581000000,0 105.100255000000,24.924908000000,0 105.096221000000,24.928114000000,0 105.081987000000,24.915614000000,0</coordinates></LinearRing></innerBoundaryIs></Polygon>
    </Placemark>
  </Document>
</kml>
