<?xml version="1.0" encoding="UTF-8"?>
<kml xmlns="http://www.opengis.net/kml/2.2">
  <Document>
    <name>贺州市</name>
    <Placemark>
      <name>贺州市</name>
      <Polygon><outerBoundaryIs><LinearRing><coordinates>111.654848000000,23.833299000000,0 111.664439000000,23.834889000000,0 111.690547000000,23.816194000000,0 111.696028000000,23.823541000000,0 111.698387000000,23.837466000000,0 111.714600000000,23.837246000000,0 111.719700000000,23.825843000000,0 111.737816000000,23.819265000000,0 111.745961000000,23.820745000000,0 111.752355000000,23.812740000000,0 111.765828000000,23.814988000000,0 111.774962000000,23.808189000000,0 111.791632000000,23.809176000000,0 111.796199000000,23.815701000000,0 111.810585000000,23.806983000000,0 111.815304000000,23.829078000000,0 111.824743000000,23.832367000000,0 111.820100000000,23.855390000000,0 111.823830000000,23.871777000000,0 111.816903000000,23.875066000000,0 111.812640000000,23.887505000000,0 111.822612000000,23.903615000000,0 111.822916000000,23.911230000000,0 111.838901000000,23.911340000000,0 111.845904000000,23.904382000000,0 111.857626000000,23.918298000000,0 111.851308000000,23.934184000000,0 111.854429000000,23.947439000000,0 111.866075000000,23.946344000000,0 111.878939000000,23.936211000000,0 111.886703000000,23.944317000000,0 111.897512000000,23.946618000000,0 111.911974000000,23.943934000000,0 111.910147000000,23.952204000000,0 111.917607000000,23.952259000000,0 111.940366000000,23.987745000000,0 111.921489000000,24.011999000000,0 111.921032000000,24.037398000000,0 111.905809000000,24.046812000000,0 111.896979000000,24.069578000000,0 111.887921000000,24.079153000000,0 111.888758000000,24.092065000000,0 111.883506000000,24.095622000000,0 111.878635000000,24.110064000000,0 111.878787000000,24.126856000000,0 111.887845000000,24.154748000000,0 111.886779000000,24.163880000000,0 111.871175000000,24.176565000000,0 111.877873000000,24.228932000000,0 111.893478000000,24.224177000000,0 111.915932000000,24.222647000000,0 111.920804000000,24.233523000000,0 111.932526000000,24.235709000000,0 111.939301000000,24.230517000000,0 111.940747000000,24.245163000000,0 111.952621000000,24.251556000000,0 111.956046000000,24.260353000000,0 111.968987000000,24.263686000000,0 111.974086000000,24.256419000000,0 111.986189000000,24.256965000000,0 111.990452000000,24.265489000000,0 111.990376000000,24.279803000000,0 112.000804000000,24.280513000000,0 112.015951000000,24.294006000000,0 112.026151000000,24.295098000000,0 112.033230000000,24.313395000000,0 112.045181000000,24.320768000000,0 112.050585000000,24.332564000000,0 112.059643000000,24.341082000000,0 112.061850000000,24.368163000000,0 112.057740000000,24.387050000000,0 112.043582000000,24.392727000000,0 112.042136000000,24.410301000000,0 112.023183000000,24.441513000000,0 111.999738000000,24.450460000000,0 111.996541000000,24.459298000000,0 111.986570000000,24.464481000000,0 111.987559000000,24.482263000000,0 111.996389000000,24.494916000000,0 112.009710000000,24.502878000000,0 112.005219000000,24.512094000000,0 112.007350000000,24.534558000000,0 111.997835000000,24.551185000000,0 111.989843000000,24.550749000000,0 111.972031000000,24.574951000000,0 111.972031000000,24.578602000000,0 111.954220000000,24.586722000000,0 111.952012000000,24.594897000000,0 111.937169000000,24.595823000000,0 111.938463000000,24.609500000000,0 111.927426000000,24.629386000000,0 111.934277000000,24.641916000000,0 111.953535000000,24.647200000000,0 111.940290000000,24.667189000000,0 111.944096000000,24.674486000000,0 111.939605000000,24.686630000000,0 111.952773000000,24.696322000000,0 111.961299000000,24.721203000000,0 111.972716000000,24.727409000000,0 111.981242000000,24.726756000000,0 111.999129000000,24.733125000000,0 112.009710000000,24.730185000000,0 112.024096000000,24.740146000000,0 111.997683000000,24.758923000000,0 111.970128000000,24.763712000000,0 111.963582000000,24.770079000000,0 111.950947000000,24.769590000000,0 111.938235000000,24.757019000000,0 111.924610000000,24.757019000000,0 111.903677000000,24.763495000000,0 111.875209000000,24.756638000000,0 111.869957000000,24.758488000000,0 111.868739000000,24.771821000000,0 111.856408000000,24.772038000000,0 111.835247000000,24.776936000000,0 111.814087000000,24.770351000000,0 111.794220000000,24.774269000000,0 111.783411000000,24.785750000000,0 111.761870000000,24.782105000000,0 111.733249000000,24.780255000000,0 111.708435000000,24.788852000000,0 111.704020000000,24.778187000000,0 111.689558000000,24.778568000000,0 111.666418000000,24.760828000000,0 111.642364000000,24.730022000000,0 111.637797000000,24.715542000000,0 111.643354000000,24.701332000000,0 111.641679000000,24.684670000000,0 111.636656000000,24.681402000000,0 111.619301000000,24.683744000000,0 111.597683000000,24.693872000000,0 111.589158000000,24.690660000000,0 111.583145000000,24.681675000000,0 111.570661000000,24.644694000000,0 111.560081000000,24.638920000000,0 111.549881000000,24.648561000000,0 111.529862000000,24.636577000000,0 111.521565000000,24.642188000000,0 111.514334000000,24.655098000000,0 111.504134000000,24.664901000000,0 111.485333000000,24.672962000000,0 111.471556000000,24.674704000000,0 111.468054000000,24.666699000000,0 111.451841000000,24.665773000000,0 111.446741000000,24.682546000000,0 111.435476000000,24.681021000000,0 111.431137000000,24.685813000000,0 111.437303000000,24.697411000000,0 111.464172000000,24.733887000000,0 111.461280000000,24.750107000000,0 111.467217000000,24.758053000000,0 111.470414000000,24.773453000000,0 111.479472000000,24.797557000000,0 111.471099000000,24.820622000000,0 111.452983000000,24.844173000000,0 111.449405000000,24.857062000000,0 111.460443000000,24.872232000000,0 111.459453000000,24.882345000000,0 111.447122000000,24.893109000000,0 111.453135000000,24.904579000000,0 111.463944000000,24.908982000000,0 111.470186000000,24.928929000000,0 111.459681000000,24.931918000000,0 111.440195000000,24.944580000000,0 111.431365000000,24.959740000000,0 111.431061000000,24.972562000000,0 111.438368000000,24.984297000000,0 111.460519000000,24.992771000000,0 111.467369000000,25.002439000000,0 111.468359000000,25.019438000000,0 111.465314000000,25.023783000000,0 111.439358000000,25.027476000000,0 111.423449000000,25.035512000000,0 111.416599000000,25.047675000000,0 111.418806000000,25.065591000000,0 111.435476000000,25.093383000000,0 111.429082000000,25.103477000000,0 111.412717000000,25.100709000000,0 111.402821000000,25.107602000000,0 111.399776000000,25.124586000000,0 111.387065000000,25.130284000000,0 111.375114000000,25.128493000000,0 111.367883000000,25.108850000000,0 111.354715000000,25.100981000000,0 111.321756000000,25.104942000000,0 111.310947000000,25.116176000000,0 111.296713000000,25.122036000000,0 111.289101000000,25.142491000000,0 111.274791000000,25.151171000000,0 111.263221000000,25.143847000000,0 111.263754000000,25.133593000000,0 111.249520000000,25.128656000000,0 111.222041000000,25.106408000000,0 111.219301000000,25.093545000000,0 111.206665000000,25.084970000000,0 111.200804000000,25.074656000000,0 111.167160000000,25.060596000000,0 111.139986000000,25.042408000000,0 111.123012000000,25.042571000000,0 111.101851000000,25.035187000000,0 111.107940000000,25.009717000000,0 111.102079000000,24.982287000000,0 111.096979000000,24.974898000000,0 111.100405000000,24.945722000000,0 111.097436000000,24.940885000000,0 111.097740000000,24.931973000000,0 111.105961000000,24.908113000000,0 111.117151000000,24.895501000000,0 111.127503000000,24.890065000000,0 111.138311000000,24.891479000000,0 111.151936000000,24.900448000000,0 111.164496000000,24.898437000000,0 111.169139000000,24.883976000000,0 111.169444000000,24.862608000000,0 111.161527000000,24.837320000000,0 111.163050000000,24.815020000000,0 111.169215000000,24.801964000000,0 111.170053000000,24.776718000000,0 111.165790000000,24.771875000000,0 111.147369000000,24.767903000000,0 111.132450000000,24.735737000000,0 111.118825000000,24.728770000000,0 111.108016000000,24.732199000000,0 111.100709000000,24.719516000000,0 111.106570000000,24.707593000000,0 111.090509000000,24.701332000000,0 111.079396000000,24.703782000000,0 111.072545000000,24.695941000000,0 111.069120000000,24.682818000000,0 111.058768000000,24.672907000000,0 111.029691000000,24.675902000000,0 111.020633000000,24.669639000000,0 111.012641000000,24.649596000000,0 111.009748000000,24.634616000000,0 110.994829000000,24.631075000000,0 110.989272000000,24.621160000000,0 111.002517000000,24.606776000000,0 111.001071000000,24.600346000000,0 110.983411000000,24.585960000000,0 110.982726000000,24.569664000000,0 110.991175000000,24.556855000000,0 111.011423000000,24.542790000000,0 111.020176000000,24.519237000000,0 111.044001000000,24.498952000000,0 111.042022000000,24.489298000000,0 111.025885000000,24.483244000000,0 111.040652000000,24.462680000000,0 111.026113000000,24.446696000000,0 111.018882000000,24.419578000000,0 110.995819000000,24.395074000000,0 110.992469000000,24.376570000000,0 110.981432000000,24.371002000000,0 110.968264000000,24.376024000000,0 110.962327000000,24.370674000000,0 110.975038000000,24.361120000000,0 110.992545000000,24.354896000000,0 111.017817000000,24.353313000000,0 111.024363000000,24.347853000000,0 111.026190000000,24.332073000000,0 111.014391000000,24.331963000000,0 111.004115000000,24.310009000000,0 110.993611000000,24.309081000000,0 110.977322000000,24.294825000000,0 110.960424000000,24.298048000000,0 110.958445000000,24.318420000000,0 110.950224000000,24.333547000000,0 110.943221000000,24.336004000000,0 110.934011000000,24.324373000000,0 110.932260000000,24.309627000000,0 110.918026000000,24.309190000000,0 110.923430000000,24.299795000000,0 110.911404000000,24.297611000000,0 110.910034000000,24.287013000000,0 110.888873000000,24.261828000000,0 110.883240000000,24.259151000000,0 110.879967000000,24.271007000000,0 110.880043000000,24.289636000000,0 110.875248000000,24.297010000000,0 110.876770000000,24.310665000000,0 110.855000000000,24.328960000000,0 110.856751000000,24.361885000000,0 110.843735000000,24.386341000000,0 110.832926000000,24.388360000000,0 110.811156000000,24.382520000000,0 110.796998000000,24.365215000000,0 110.790833000000,24.346816000000,0 110.797988000000,24.332619000000,0 110.791290000000,24.316290000000,0 110.771194000000,24.319403000000,0 110.754068000000,24.329178000000,0 110.727122000000,24.328032000000,0 110.713193000000,24.337806000000,0 110.682669000000,24.346270000000,0 110.670262000000,24.355333000000,0 110.656409000000,24.360684000000,0 110.647731000000,24.368436000000,0 110.640348000000,24.382793000000,0 110.621547000000,24.394146000000,0 110.598178000000,24.396438000000,0 110.587902000000,24.390434000000,0 110.581052000000,24.372476000000,0 110.567503000000,24.362649000000,0 110.576865000000,24.351511000000,0 110.570776000000,24.333001000000,0 110.573212000000,24.327158000000,0 110.586380000000,24.320550000000,0 110.601984000000,24.324536000000,0 110.619263000000,24.319075000000,0 110.610205000000,24.314542000000,0 110.607236000000,24.306404000000,0 110.613478000000,24.298539000000,0 110.603735000000,24.275760000000,0 110.605638000000,24.263467000000,0 110.617436000000,24.254015000000,0 110.626646000000,24.230845000000,0 110.652603000000,24.217345000000,0 110.673383000000,24.211934000000,0 110.689368000000,24.187773000000,0 110.712584000000,24.181157000000,0 110.720119000000,24.167707000000,0 110.709387000000,24.152123000000,0 110.701318000000,24.147694000000,0 110.686399000000,24.120840000000,0 110.689900000000,24.099561000000,0 110.684572000000,24.078223000000,0 110.676960000000,24.059016000000,0 110.690053000000,24.038657000000,0 110.728949000000,24.028367000000,0 110.745390000000,24.022017000000,0 110.749577000000,24.011945000000,0 110.741965000000,24.010959000000,0 110.731385000000,24.002035000000,0 110.732222000000,23.989552000000,0 110.726818000000,23.971482000000,0 110.717760000000,23.955545000000,0 110.725752000000,23.945194000000,0 110.734962000000,23.951164000000,0 110.752393000000,23.947604000000,0 110.779796000000,23.948699000000,0 110.792888000000,23.941031000000,0 110.818311000000,23.908272000000,0 110.835971000000,23.899396000000,0 110.856903000000,23.894409000000,0 110.872736000000,23.873202000000,0 110.866799000000,23.854020000000,0 110.843963000000,23.842289000000,0 110.840233000000,23.837027000000,0 110.850357000000,23.824583000000,0 110.858197000000,23.807970000000,0 110.880728000000,23.820197000000,0 110.889938000000,23.816688000000,0 110.888797000000,23.802925000000,0 110.895952000000,23.785926000000,0 110.884077000000,23.770625000000,0 110.884762000000,23.762836000000,0 110.897170000000,23.752469000000,0 110.897550000000,23.745118000000,0 110.892070000000,23.703914000000,0 110.900823000000,23.687176000000,0 110.914068000000,23.684871000000,0 110.922593000000,23.672522000000,0 110.922821000000,23.663959000000,0 110.930509000000,23.659952000000,0 110.943297000000,23.669668000000,0 110.952051000000,23.667582000000,0 110.953801000000,23.651773000000,0 110.968112000000,23.663026000000,0 110.968416000000,23.671314000000,0 110.957074000000,23.688274000000,0 110.960348000000,23.698701000000,0 110.955019000000,23.707645000000,0 110.957379000000,23.721089000000,0 110.965447000000,23.726301000000,0 110.982346000000,23.721967000000,0 110.976104000000,23.731787000000,0 110.978996000000,23.740785000000,0 110.979301000000,23.763001000000,0 110.988968000000,23.768870000000,0 111.005333000000,23.757241000000,0 111.014315000000,23.759161000000,0 111.025733000000,23.778084000000,0 111.015761000000,23.791410000000,0 111.013250000000,23.811314000000,0 111.017817000000,23.814878000000,0 111.037303000000,23.805448000000,0 111.051232000000,23.813453000000,0 111.059605000000,23.828639000000,0 111.081299000000,23.828311000000,0 111.092869000000,23.836863000000,0 111.101546000000,23.854403000000,0 111.105276000000,23.878025000000,0 111.132907000000,23.888546000000,0 111.139225000000,23.899231000000,0 111.151404000000,23.937854000000,0 111.161223000000,23.944153000000,0 111.194867000000,23.939662000000,0 111.207655000000,23.941633000000,0 111.227598000000,23.919338000000,0 111.232926000000,23.902190000000,0 111.233535000000,23.888437000000,0 111.246170000000,23.883012000000,0 111.272279000000,23.886902000000,0 111.286970000000,23.884053000000,0 111.304096000000,23.869256000000,0 111.323582000000,23.867009000000,0 111.348777000000,23.872325000000,0 111.358901000000,23.864707000000,0 111.366437000000,23.865530000000,0 111.365143000000,23.882518000000,0 111.403202000000,23.923666000000,0 111.412564000000,23.950397000000,0 111.412869000000,23.973782000000,0 111.407160000000,23.997436000000,0 111.397569000000,24.005923000000,0 111.390871000000,24.019171000000,0 111.394905000000,24.031104000000,0 111.403126000000,24.041722000000,0 111.404267000000,24.055350000000,0 111.396580000000,24.075378000000,0 111.403735000000,24.081178000000,0 111.424819000000,24.074885000000,0 111.448111000000,24.090698000000,0 111.468130000000,24.084296000000,0 111.486399000000,24.096552000000,0 111.480081000000,24.113565000000,0 111.487845000000,24.132052000000,0 111.501622000000,24.130412000000,0 111.501698000000,24.137740000000,0 111.490737000000,24.140365000000,0 111.493021000000,24.151959000000,0 111.500861000000,24.163114000000,0 111.512736000000,24.167379000000,0 111.525447000000,24.160162000000,0 111.529634000000,24.150975000000,0 111.540899000000,24.150155000000,0 111.552545000000,24.140147000000,0 111.575228000000,24.143373000000,0 111.573097000000,24.123958000000,0 111.578501000000,24.115917000000,0 111.573325000000,24.107657000000,0 111.585048000000,24.093926000000,0 111.584210000000,24.088673000000,0 111.539681000000,24.056991000000,0 111.535343000000,24.043419000000,0 111.538463000000,24.026725000000,0 111.548511000000,24.006251000000,0 111.545010000000,23.999188000000,0 111.561070000000,23.993440000000,0 111.564952000000,23.998805000000,0 111.576979000000,24.000667000000,0 111.591137000000,23.993549000000,0 111.606132000000,23.973399000000,0 111.623335000000,23.972084000000,0 111.638254000000,23.961351000000,0 111.649291000000,23.945194000000,0 111.652031000000,23.929144000000,0 111.649900000000,23.903012000000,0 111.658197000000,23.885532000000,0 111.659034000000,23.872654000000,0 111.651422000000,23.860926000000,0 111.654848000000,23.833299000000,0</coordinates></LinearRing></outerBoundaryIs></Polygon>
    </Placemark>
  </Document>
</kml>
