<?xml version="1.0" encoding="UTF-8"?>
<kml xmlns="http://www.opengis.net/kml/2.2">
  <Document>
    <name>钦州市</name>
    <Placemark>
      <name>钦州市</name>
      <MultiGeometry><Polygon><outerBoundaryIs><LinearRing><coordinates>109.607655000000,21.908869000000,0 109.607123000000,21.928439000000,0 109.594792000000,21.918766000000,0 109.595324000000,21.933943000000,0 109.600500000000,21.940447000000,0 109.597075000000,21.947896000000,0 109.587560000000,21.950342000000,0 109.576143000000,21.959569000000,0 109.574316000000,21.970574000000,0 109.593421000000,21.961904000000,0 109.601947000000,21.968462000000,0 109.594487000000,22.011363000000,0 109.590529000000,22.023753000000,0 109.579416000000,22.038641000000,0 109.575914000000,22.048529000000,0 109.579416000000,22.059083000000,0 109.576219000000,22.065470000000,0 109.555743000000,22.081076000000,0 109.550263000000,22.098791000000,0 109.550034000000,22.121278000000,0 109.558559000000,22.165520000000,0 109.569673000000,22.184112000000,0 109.589083000000,22.203367000000,0 109.586951000000,22.221510000000,0 109.578198000000,22.231607000000,0 109.578502000000,22.249247000000,0 109.593269000000,22.289900000000,0 109.608036000000,22.302764000000,0 109.626533000000,22.308531000000,0 109.641909000000,22.318178000000,0 109.648226000000,22.317623000000,0 109.674183000000,22.297164000000,0 109.679815000000,22.300158000000,0 109.662308000000,22.318178000000,0 109.674411000000,22.339854000000,0 109.683317000000,22.332093000000,0 109.687579000000,22.346062000000,0 109.696713000000,22.343679000000,0 109.710034000000,22.358312000000,0 109.728074000000,22.357203000000,0 109.727161000000,22.374218000000,0 109.733555000000,22.380480000000,0 109.739872000000,22.369119000000,0 109.748245000000,22.363466000000,0 109.742460000000,22.356981000000,0 109.747332000000,22.349388000000,0 109.756771000000,22.347115000000,0 109.765220000000,22.335807000000,0 109.786989000000,22.329099000000,0 109.805258000000,22.313243000000,0 109.815077000000,22.309584000000,0 109.840500000000,22.317291000000,0 109.845220000000,22.324387000000,0 109.844763000000,22.347559000000,0 109.850472000000,22.363189000000,0 109.858845000000,22.371170000000,0 109.857398000000,22.384969000000,0 109.846742000000,22.396661000000,0 109.841870000000,22.410236000000,0 109.828778000000,22.424474000000,0 109.813707000000,22.432119000000,0 109.810738000000,22.440816000000,0 109.818883000000,22.453666000000,0 109.838141000000,22.471112000000,0 109.849025000000,22.490549000000,0 109.857322000000,22.497692000000,0 109.857551000000,22.506329000000,0 109.868436000000,22.507215000000,0 109.870947000000,22.515797000000,0 109.863488000000,22.517236000000,0 109.864097000000,22.528917000000,0 109.855115000000,22.540874000000,0 109.857627000000,22.556039000000,0 109.844915000000,22.563345000000,0 109.840044000000,22.571978000000,0 109.821090000000,22.575686000000,0 109.793459000000,22.584595000000,0 109.777322000000,22.586975000000,0 109.762784000000,22.584042000000,0 109.762784000000,22.557146000000,0 109.752812000000,22.564563000000,0 109.742384000000,22.555652000000,0 109.726323000000,22.561408000000,0 109.717874000000,22.560744000000,0 109.720691000000,22.578121000000,0 109.707827000000,22.589354000000,0 109.677303000000,22.603961000000,0 109.662917000000,22.625316000000,0 109.659796000000,22.660107000000,0 109.662232000000,22.662374000000,0 109.651576000000,22.668015000000,0 109.646552000000,22.659443000000,0 109.635058000000,22.658558000000,0 109.625772000000,22.652751000000,0 109.613973000000,22.662872000000,0 109.611233000000,22.672439000000,0 109.584135000000,22.681287000000,0 109.569064000000,22.665637000000,0 109.563507000000,22.656014000000,0 109.556504000000,22.659664000000,0 109.554601000000,22.652640000000,0 109.534278000000,22.647718000000,0 109.517608000000,22.635605000000,0 109.491652000000,22.652143000000,0 109.478559000000,22.643404000000,0 109.472242000000,22.633115000000,0 109.464173000000,22.629465000000,0 109.450320000000,22.630681000000,0 109.446133000000,22.625537000000,0 109.448341000000,22.614860000000,0 109.438902000000,22.613422000000,0 109.440729000000,22.630737000000,0 109.427865000000,22.634166000000,0 109.417208000000,22.630073000000,0 109.408607000000,22.633834000000,0 109.401833000000,22.627639000000,0 109.386913000000,22.639034000000,0 109.374278000000,22.636379000000,0 109.367047000000,22.626699000000,0 109.351671000000,22.628082000000,0 109.331500000000,22.609383000000,0 109.324649000000,22.607834000000,0 109.321528000000,22.596824000000,0 109.306837000000,22.586200000000,0 109.302879000000,22.575409000000,0 109.294354000000,22.571148000000,0 109.289787000000,22.559582000000,0 109.292223000000,22.543254000000,0 109.321376000000,22.522551000000,0 109.317037000000,22.511146000000,0 109.298464000000,22.509928000000,0 109.265581000000,22.484569000000,0 109.263602000000,22.494868000000,0 109.250206000000,22.509928000000,0 109.228740000000,22.506440000000,0 109.229654000000,22.520392000000,0 109.221129000000,22.513859000000,0 109.216029000000,22.520281000000,0 109.198217000000,22.516074000000,0 109.182689000000,22.517458000000,0 109.197380000000,22.531630000000,0 109.197532000000,22.538327000000,0 109.185810000000,22.546077000000,0 109.167237000000,22.543475000000,0 109.163736000000,22.553438000000,0 109.153231000000,22.544693000000,0 109.153840000000,22.536833000000,0 109.163051000000,22.537774000000,0 109.173403000000,22.520060000000,0 109.152013000000,22.515852000000,0 109.145087000000,22.511257000000,0 109.134506000000,22.516350000000,0 109.096295000000,22.510648000000,0 109.079169000000,22.522274000000,0 109.045829000000,22.518399000000,0 109.041262000000,22.507271000000,0 109.014621000000,22.510371000000,0 109.008683000000,22.514247000000,0 109.008683000000,22.528142000000,0 109.001528000000,22.527921000000,0 108.995591000000,22.538826000000,0 108.977932000000,22.542590000000,0 108.963013000000,22.518454000000,0 108.945962000000,22.525429000000,0 108.931424000000,22.524488000000,0 108.918560000000,22.512253000000,0 108.909273000000,22.515907000000,0 108.896409000000,22.510869000000,0 108.873117000000,22.512198000000,0 108.872356000000,22.518509000000,0 108.857818000000,22.524378000000,0 108.842213000000,22.541593000000,0 108.827218000000,22.530024000000,0 108.820748000000,22.533844000000,0 108.811538000000,22.524156000000,0 108.782765000000,22.527146000000,0 108.782689000000,22.520890000000,0 108.767313000000,22.507049000000,0 108.749121000000,22.504668000000,0 108.733974000000,22.486396000000,0 108.713650000000,22.488611000000,0 108.710605000000,22.484569000000,0 108.716162000000,22.460922000000,0 108.720881000000,22.450897000000,0 108.699873000000,22.450177000000,0 108.698503000000,22.461309000000,0 108.688836000000,22.462583000000,0 108.682366000000,22.446355000000,0 108.676276000000,22.442422000000,0 108.673917000000,22.431011000000,0 108.661890000000,22.429847000000,0 108.653136000000,22.446632000000,0 108.633574000000,22.460035000000,0 108.628855000000,22.452281000000,0 108.633193000000,22.445302000000,0 108.617894000000,22.438378000000,0 108.615306000000,22.428684000000,0 108.603660000000,22.414003000000,0 108.594221000000,22.415887000000,0 108.583869000000,22.430734000000,0 108.573289000000,22.423310000000,0 108.558446000000,22.419876000000,0 108.558674000000,22.408629000000,0 108.547332000000,22.396217000000,0 108.563850000000,22.385855000000,0 108.568569000000,22.372112000000,0 108.547789000000,22.359198000000,0 108.545810000000,22.346284000000,0 108.540558000000,22.346339000000,0 108.541776000000,22.330430000000,0 108.551519000000,22.326716000000,0 108.543907000000,22.314740000000,0 108.546343000000,22.309640000000,0 108.538959000000,22.302043000000,0 108.528151000000,22.274927000000,0 108.521148000000,22.271932000000,0 108.507066000000,22.275038000000,0 108.505011000000,22.264223000000,0 108.498236000000,22.259509000000,0 108.501814000000,22.250190000000,0 108.496181000000,22.238264000000,0 108.468246000000,22.239207000000,0 108.436048000000,22.249303000000,0 108.423184000000,22.267218000000,0 108.409863000000,22.265887000000,0 108.406362000000,22.258566000000,0 108.399435000000,22.261006000000,0 108.382918000000,22.252631000000,0 108.371804000000,22.242868000000,0 108.354373000000,22.246363000000,0 108.335648000000,22.243090000000,0 108.321719000000,22.237432000000,0 108.308703000000,22.224617000000,0 108.301700000000,22.224506000000,0 108.296904000000,22.212078000000,0 108.279854000000,22.206974000000,0 108.276581000000,22.210414000000,0 108.256105000000,22.200482000000,0 108.253669000000,22.195710000000,0 108.238979000000,22.195210000000,0 108.225734000000,22.182558000000,0 108.210663000000,22.178618000000,0 108.212337000000,22.170682000000,0 108.193079000000,22.163522000000,0 108.185011000000,22.141375000000,0 108.196809000000,22.131660000000,0 108.197494000000,22.115615000000,0 108.216219000000,22.110562000000,0 108.207770000000,22.093960000000,0 108.199093000000,22.094960000000,0 108.202214000000,22.080799000000,0 108.196809000000,22.069080000000,0 108.202899000000,22.060916000000,0 108.220101000000,22.053362000000,0 108.199397000000,22.028586000000,0 108.205334000000,22.016530000000,0 108.195744000000,21.994415000000,0 108.205563000000,21.979577000000,0 108.215687000000,21.972075000000,0 108.234640000000,21.971074000000,0 108.243393000000,21.962682000000,0 108.243774000000,21.947785000000,0 108.262347000000,21.939447000000,0 108.258236000000,21.928439000000,0 108.263032000000,21.922046000000,0 108.290739000000,21.910370000000,0 108.319359000000,21.916208000000,0 108.337551000000,21.924381000000,0 108.359549000000,21.918210000000,0 108.390301000000,21.928106000000,0 108.404764000000,21.916319000000,0 108.415877000000,21.913873000000,0 108.430111000000,21.917209000000,0 108.457285000000,21.906811000000,0 108.469159000000,21.887738000000,0 108.462689000000,21.861154000000,0 108.467180000000,21.851753000000,0 108.513993000000,21.808137000000,0 108.516961000000,21.779645000000,0 108.528075000000,21.771965000000,0 108.506838000000,21.759052000000,0 108.506990000000,21.725708000000,0 108.516733000000,21.716688000000,0 108.527694000000,21.716076000000,0 108.533251000000,21.725040000000,0 108.544592000000,21.729271000000,0 108.553346000000,21.722256000000,0 108.585239000000,21.708002000000,0 108.597037000000,21.691464000000,0 108.591709000000,21.677208000000,0 108.610434000000,21.681663000000,0 108.626571000000,21.679992000000,0 108.638065000000,21.671304000000,0 108.659226000000,21.643956000000,0 108.672927000000,21.638608000000,0 108.678103000000,21.659162000000,0 108.685867000000,21.660778000000,0 108.693707000000,21.652088000000,0 108.704059000000,21.626686000000,0 108.703679000000,21.617549000000,0 108.694392000000,21.607965000000,0 108.674602000000,21.596375000000,0 108.676200000000,21.588574000000,0 108.694392000000,21.592642000000,0 108.704897000000,21.601669000000,0 108.711443000000,21.614484000000,0 108.711671000000,21.623733000000,0 108.705125000000,21.642451000000,0 108.710073000000,21.646741000000,0 108.726742000000,21.638886000000,0 108.735877000000,21.629249000000,0 108.734659000000,21.615599000000,0 108.746000000000,21.602449000000,0 108.753764000000,21.601335000000,0 108.756428000000,21.609080000000,0 108.774316000000,21.610361000000,0 108.780253000000,21.618942000000,0 108.795781000000,21.625850000000,0 108.816257000000,21.624847000000,0 108.833308000000,21.610696000000,0 108.868017000000,21.620780000000,0 108.881414000000,21.627243000000,0 108.858350000000,21.660555000000,0 108.850282000000,21.686898000000,0 108.850739000000,21.703715000000,0 108.854697000000,21.724539000000,0 108.859873000000,21.737287000000,0 108.866799000000,21.742966000000,0 108.879435000000,21.744357000000,0 108.886895000000,21.740349000000,0 108.898617000000,21.742687000000,0 108.910111000000,21.752150000000,0 108.918560000000,21.751427000000,0 108.938655000000,21.763338000000,0 108.944744000000,21.760444000000,0 108.952584000000,21.787214000000,0 108.968189000000,21.807080000000,0 108.965448000000,21.812699000000,0 108.956314000000,21.810696000000,0 108.956162000000,21.824050000000,0 108.975648000000,21.831505000000,0 108.967732000000,21.821935000000,0 108.972223000000,21.813924000000,0 108.980215000000,21.831171000000,0 108.998864000000,21.837958000000,0 109.022156000000,21.836344000000,0 109.035934000000,21.843187000000,0 109.061205000000,21.837068000000,0 109.084573000000,21.851865000000,0 109.094620000000,21.871666000000,0 109.104211000000,21.874447000000,0 109.113878000000,21.871276000000,0 109.133136000000,21.847693000000,0 109.141509000000,21.844967000000,0 109.154069000000,21.850697000000,0 109.231557000000,21.852198000000,0 109.254925000000,21.865826000000,0 109.261319000000,21.873890000000,0 109.259492000000,21.891297000000,0 109.278445000000,21.890574000000,0 109.267789000000,21.903086000000,0 109.267256000000,21.910982000000,0 109.281414000000,21.908090000000,0 109.290548000000,21.914929000000,0 109.299606000000,21.898693000000,0 109.303260000000,21.905644000000,0 109.312546000000,21.901140000000,0 109.306761000000,21.889128000000,0 109.310643000000,21.883845000000,0 109.324268000000,21.888906000000,0 109.325410000000,21.898971000000,0 109.339949000000,21.908424000000,0 109.360653000000,21.892632000000,0 109.373669000000,21.898081000000,0 109.389806000000,21.889907000000,0 109.390872000000,21.907367000000,0 109.398179000000,21.910036000000,0 109.418502000000,21.906088000000,0 109.426647000000,21.918321000000,0 109.442403000000,21.914762000000,0 109.444687000000,21.896024000000,0 109.461509000000,21.885625000000,0 109.468436000000,21.885847000000,0 109.473307000000,21.900528000000,0 109.483659000000,21.901306000000,0 109.487846000000,21.885847000000,0 109.493859000000,21.880842000000,0 109.523697000000,21.873112000000,0 109.540291000000,21.902085000000,0 109.558864000000,21.893911000000,0 109.576752000000,21.897358000000,0 109.587256000000,21.910648000000,0 109.594183000000,21.913372000000,0 109.607655000000,21.908869000000,0</coordinates></LinearRing></outerBoundaryIs></Polygon><Polygon><outerBoundaryIs><LinearRing><coordinates>108.842746000000,21.607185000000,0 108.836276000000,21.604288000000,0 108.841909000000,21.588685000000,0 108.859416000000,21.581886000000,0 108.865049000000,21.587905000000,0 108.842746000000,21.607185000000,0</coordinates></LinearRing></outerBoundaryIs></Polygon></MultiGeometry>
    </Placemark>
  </Document>
</kml>
