<?xml version="1.0" encoding="UTF-8"?>
<kml xmlns="http://www.opengis.net/kml/2.2">
  <Document>
    <name>防城港市</name>
    <Placemark>
      <name>防城港市</name>
      <Polygon><outerBoundaryIs><LinearRing><coordinates>108.095877000000,22.371668000000,0 108.083013000000,22.368787000000,0 108.074640000000,22.355041000000,0 108.066267000000,22.350829000000,0 108.046629000000,22.354709000000,0 108.030492000000,22.333146000000,0 108.021586000000,22.330984000000,0 108.006743000000,22.335419000000,0 107.994259000000,22.327935000000,0 107.979569000000,22.310360000000,0 107.985506000000,22.296887000000,0 107.961072000000,22.285963000000,0 107.959245000000,22.279696000000,0 107.946457000000,22.269936000000,0 107.952014000000,22.249968000000,0 107.944250000000,22.246918000000,0 107.930929000000,22.254905000000,0 107.921415000000,22.249136000000,0 107.918370000000,22.233271000000,0 107.910606000000,22.228223000000,0 107.911595000000,22.210192000000,0 107.898275000000,22.204421000000,0 107.895991000000,22.215629000000,0 107.883356000000,22.219235000000,0 107.874145000000,22.211024000000,0 107.859911000000,22.209637000000,0 107.837837000000,22.212189000000,0 107.821167000000,22.217238000000,0 107.801148000000,22.209526000000,0 107.776486000000,22.207418000000,0 107.739416000000,22.199760000000,0 107.727999000000,22.186720000000,0 107.706001000000,22.191603000000,0 107.675782000000,22.182724000000,0 107.659721000000,22.180005000000,0 107.632547000000,22.189439000000,0 107.628284000000,22.181670000000,0 107.642747000000,22.141208000000,0 107.648379000000,22.132048000000,0 107.660939000000,22.123999000000,0 107.657666000000,22.098069000000,0 107.664440000000,22.096126000000,0 107.663222000000,22.087852000000,0 107.678598000000,22.081909000000,0 107.667790000000,22.065748000000,0 107.657133000000,22.064470000000,0 107.653099000000,22.053528000000,0 107.646324000000,22.051473000000,0 107.653479000000,22.041308000000,0 107.632471000000,22.036864000000,0 107.636657000000,22.028253000000,0 107.625468000000,22.026586000000,0 107.616105000000,22.004806000000,0 107.602480000000,21.998638000000,0 107.602480000000,21.990914000000,0 107.579797000000,21.975298000000,0 107.585278000000,21.969462000000,0 107.575154000000,21.964961000000,0 107.580178000000,21.959736000000,0 107.572338000000,21.952121000000,0 107.582614000000,21.938780000000,0 107.566020000000,21.929551000000,0 107.558408000000,21.931664000000,0 107.554374000000,21.917542000000,0 107.559626000000,21.910870000000,0 107.550644000000,21.901974000000,0 107.542956000000,21.888072000000,0 107.554450000000,21.879841000000,0 107.568379000000,21.862767000000,0 107.571576000000,21.846413000000,0 107.557799000000,21.815593000000,0 107.558484000000,21.800458000000,0 107.567542000000,21.784098000000,0 107.560387000000,21.776306000000,0 107.553232000000,21.759164000000,0 107.552851000000,21.741630000000,0 107.557266000000,21.724539000000,0 107.541586000000,21.719138000000,0 107.541129000000,21.713682000000,0 107.519588000000,21.694137000000,0 107.515249000000,21.685116000000,0 107.498427000000,21.673978000000,0 107.506115000000,21.664231000000,0 107.481529000000,21.655542000000,0 107.486705000000,21.649470000000,0 107.490130000000,21.627132000000,0 107.501015000000,21.613537000000,0 107.497894000000,21.602895000000,0 107.486477000000,21.595818000000,0 107.508399000000,21.594425000000,0 107.532528000000,21.587682000000,0 107.541662000000,21.590914000000,0 107.547371000000,21.586735000000,0 107.563889000000,21.610250000000,0 107.584516000000,21.614763000000,0 107.603318000000,21.597713000000,0 107.620368000000,21.602115000000,0 107.654926000000,21.606350000000,0 107.665125000000,21.612590000000,0 107.680044000000,21.608523000000,0 107.692604000000,21.609024000000,0 107.716962000000,21.618552000000,0 107.727009000000,21.626686000000,0 107.739112000000,21.630084000000,0 107.746800000000,21.636992000000,0 107.775192000000,21.641783000000,0 107.789122000000,21.652645000000,0 107.800083000000,21.651086000000,0 107.809902000000,21.655096000000,0 107.831291000000,21.650362000000,0 107.837228000000,21.641115000000,0 107.848570000000,21.639388000000,0 107.848798000000,21.645348000000,0 107.861129000000,21.652033000000,0 107.881909000000,21.637104000000,0 107.881757000000,21.628469000000,0 107.891881000000,21.622897000000,0 107.894469000000,21.613426000000,0 107.887238000000,21.609247000000,0 107.895915000000,21.603341000000,0 107.894317000000,21.597100000000,0 107.903298000000,21.589465000000,0 107.920197000000,21.583447000000,0 107.928950000000,21.585899000000,0 107.934278000000,21.574474000000,0 107.945924000000,21.562714000000,0 107.956124000000,21.536014000000,0 107.972033000000,21.534397000000,0 107.983527000000,21.542035000000,0 108.010929000000,21.545658000000,0 108.030644000000,21.545992000000,0 108.048988000000,21.540139000000,0 108.060025000000,21.526091000000,0 108.108284000000,21.508305000000,0 108.133631000000,21.505016000000,0 108.162632000000,21.508249000000,0 108.186153000000,21.515554000000,0 108.196429000000,21.523415000000,0 108.195287000000,21.532279000000,0 108.179987000000,21.542202000000,0 108.156162000000,21.550842000000,0 108.151215000000,21.558255000000,0 108.157000000000,21.564386000000,0 108.179607000000,21.571130000000,0 108.188893000000,21.577094000000,0 108.194526000000,21.588518000000,0 108.205334000000,21.597768000000,0 108.223679000000,21.603954000000,0 108.235477000000,21.602783000000,0 108.246667000000,21.593645000000,0 108.252071000000,21.577205000000,0 108.250168000000,21.561377000000,0 108.234488000000,21.532558000000,0 108.210510000000,21.505740000000,0 108.208379000000,21.496261000000,0 108.213631000000,21.490071000000,0 108.229997000000,21.491019000000,0 108.269121000000,21.512877000000,0 108.281300000000,21.522969000000,0 108.321567000000,21.537686000000,0 108.338541000000,21.541198000000,0 108.371500000000,21.534732000000,0 108.397532000000,21.533115000000,0 108.453251000000,21.539972000000,0 108.479283000000,21.546940000000,0 108.492604000000,21.554800000000,0 108.497247000000,21.571465000000,0 108.519930000000,21.583001000000,0 108.533631000000,21.600499000000,0 108.537361000000,21.616546000000,0 108.554792000000,21.633817000000,0 108.567960000000,21.654428000000,0 108.591709000000,21.677208000000,0 108.597037000000,21.691464000000,0 108.585239000000,21.708002000000,0 108.553346000000,21.722256000000,0 108.544592000000,21.729271000000,0 108.533251000000,21.725040000000,0 108.527694000000,21.716076000000,0 108.516733000000,21.716688000000,0 108.506990000000,21.725708000000,0 108.506838000000,21.759052000000,0 108.528075000000,21.771965000000,0 108.516961000000,21.779645000000,0 108.513993000000,21.808137000000,0 108.467180000000,21.851753000000,0 108.462689000000,21.861154000000,0 108.469159000000,21.887738000000,0 108.457285000000,21.906811000000,0 108.430111000000,21.917209000000,0 108.415877000000,21.913873000000,0 108.404764000000,21.916319000000,0 108.390301000000,21.928106000000,0 108.359549000000,21.918210000000,0 108.337551000000,21.924381000000,0 108.319359000000,21.916208000000,0 108.290739000000,21.910370000000,0 108.263032000000,21.922046000000,0 108.258236000000,21.928439000000,0 108.262347000000,21.939447000000,0 108.243774000000,21.947785000000,0 108.243393000000,21.962682000000,0 108.234640000000,21.971074000000,0 108.215687000000,21.972075000000,0 108.205563000000,21.979577000000,0 108.195744000000,21.994415000000,0 108.205334000000,22.016530000000,0 108.199397000000,22.028586000000,0 108.220101000000,22.053362000000,0 108.202899000000,22.060916000000,0 108.196809000000,22.069080000000,0 108.202214000000,22.080799000000,0 108.199093000000,22.094960000000,0 108.207770000000,22.093960000000,0 108.216219000000,22.110562000000,0 108.197494000000,22.115615000000,0 108.196809000000,22.131660000000,0 108.185011000000,22.141375000000,0 108.193079000000,22.163522000000,0 108.212337000000,22.170682000000,0 108.210663000000,22.178618000000,0 108.225734000000,22.182558000000,0 108.238979000000,22.195210000000,0 108.253669000000,22.195710000000,0 108.256105000000,22.200482000000,0 108.276581000000,22.210414000000,0 108.279854000000,22.206974000000,0 108.280691000000,22.223341000000,0 108.267675000000,22.230664000000,0 108.260672000000,22.229665000000,0 108.246667000000,22.239207000000,0 108.243926000000,22.257956000000,0 108.234640000000,22.263003000000,0 108.236238000000,22.282524000000,0 108.218883000000,22.291952000000,0 108.213175000000,22.285907000000,0 108.206705000000,22.292173000000,0 108.189197000000,22.273651000000,0 108.173365000000,22.280972000000,0 108.163698000000,22.289900000000,0 108.150530000000,22.288791000000,0 108.143831000000,22.303707000000,0 108.136828000000,22.305093000000,0 108.133175000000,22.328046000000,0 108.135230000000,22.341461000000,0 108.123888000000,22.346450000000,0 108.113460000000,22.356205000000,0 108.104935000000,22.355540000000,0 108.095877000000,22.371668000000,0</coordinates></LinearRing></outerBoundaryIs></Polygon>
    </Placemark>
  </Document>
</kml>
