<?xml version="1.0" encoding="UTF-8"?>
<kml xmlns="http://www.opengis.net/kml/2.2">
<Document>
<name>延安市</name>
<Placemark><name>延安市</name><MultiGeometry><Polygon><outerBoundaryIs><LinearRing><coordinates>110.549369999999996,35.854073999999997,0 110.551212000000007,35.875410000000002,0 110.511668,35.879739000000001,0 110.516675000000006,35.921683999999999,0 110.503206000000006,35.943237000000003,0 110.515063999999995,35.958100999999999,0 110.514257999999998,35.975714000000004,0 110.492959999999997,35.995916000000001,0 110.499695000000003,36.008097999999997,0 110.492211999999995,36.034655999999998,0 110.467978000000002,36.074634000000003,0 110.470453000000006,36.094653999999998,0 110.450479999999999,36.132247,0 110.447083000000006,36.164332000000002,0 110.459517000000005,36.194600999999999,0 110.454164000000006,36.223681999999997,0 110.473906999999997,36.248130000000003,0 110.476037000000005,36.279541000000002,0 110.468209000000002,36.291365999999996,0 110.473562000000001,36.310547999999997,0 110.459976999999995,36.327846999999998,0 110.469245000000001,36.369943999999997,0 110.487031000000002,36.393877000000003,0 110.492153999999999,36.423119,0 110.473158999999995,36.453209000000001,0 110.495780999999994,36.472976000000003,0 110.503378999999995,36.488208999999998,0 110.502170000000007,36.530999000000001,0 110.489908999999997,36.550745999999997,0 110.498255999999998,36.578055999999997,0 110.471490000000003,36.595764000000003,0 110.447429,36.621108999999997,0 110.422388999999995,36.661799000000002,0 110.394471999999993,36.676839000000001,0 110.393206000000006,36.692498000000001,0 110.408574999999999,36.696626999999999,0 110.433268999999996,36.679799000000003,0 110.436722000000003,36.711269999999999,0 110.451802999999998,36.726533000000003,0 110.439946000000006,36.737121999999999,0 110.421238000000002,36.721549000000003,0 110.414503999999994,36.728869000000003,0 110.432001999999997,36.748019999999997,0 110.420145000000005,36.760786000000003,0 110.388486,36.764910999999998,0 110.384111000000004,36.775261,0 110.406099999999995,36.774482999999996,0 110.419568999999996,36.798290999999999,0 110.422908000000007,36.819214000000002,0 110.407251000000002,36.824891000000001,0 110.419511,36.835000000000001,0 110.424519000000004,36.855524000000003,0 110.414043000000007,36.865707,0 110.382902000000001,36.870448000000003,0 110.376052000000001,36.882260000000002,0 110.408747000000005,36.892361000000001,0 110.415655000000001,36.934227999999997,0 110.425728000000007,36.957211000000001,0 110.418706,36.973588999999997,0 110.388312999999997,36.958607999999998,0 110.375648999999996,36.962024,0 110.362238000000005,36.943857000000001,0 110.352221999999998,36.975141000000001,0 110.324247,36.984920000000002,0 110.294718000000003,36.965594000000003,0 110.278600999999995,36.968544000000001,0 110.269621000000001,36.988954999999997,0 110.242855000000006,37.003619999999998,0 110.191107000000002,37.013393999999998,0 110.170557000000002,36.988567000000003,0 110.115815999999995,36.973201000000003,0 110.087553999999997,36.985308000000003,0 110.066141000000002,37.01099,0 110.032466999999997,37.029604999999997,0 110.031546000000006,37.053179,0 110.011111999999997,37.095345000000002,0 110.025098999999997,37.132221000000001,0 110.013643999999999,37.146315999999999,0 109.990677000000005,37.130206999999999,0 109.978071,37.151659000000002,0 109.982101,37.179375,0 109.954528999999994,37.206305999999998,0 109.968919,37.213424000000003,0 109.988375000000005,37.199652,0 110.013126,37.204912999999998,0 110.030221999999995,37.245294000000001,0 110.028323,37.265244000000003,0 110.011227000000005,37.274211999999999,0 109.987857000000005,37.269649999999999,0 109.926783999999998,37.292839999999998,0 109.919128000000001,37.314090999999998,0 109.898176000000007,37.294927000000001,0 109.905601000000004,37.277921999999997,0 109.879352999999995,37.270887000000002,0 109.841016999999994,37.279546000000003,0 109.811948000000001,37.257821,0 109.797787999999997,37.265476,0 109.762043000000006,37.270733,0 109.783800999999997,37.310690999999998,0 109.812351000000007,37.305050999999999,0 109.803659999999994,37.347307999999998,0 109.784434000000005,37.343369000000003,0 109.773439999999994,37.363756000000002,0 109.772807,37.393245999999998,0 109.734757999999999,37.400500999999998,0 109.738673000000006,37.424807999999999,0 109.717777999999996,37.435377000000003,0 109.669599000000005,37.422339000000001,0 109.634658999999999,37.419407,0 109.576290999999998,37.438000000000002,0 109.564087999999998,37.460135000000001,0 109.536516000000006,37.477868999999998,0 109.509001999999995,37.481647000000002,0 109.492538999999994,37.498451000000003,0 109.468650999999994,37.487350999999997,0 109.453396999999995,37.460211999999999,0 109.434573999999998,37.459671999999998,0 109.417421000000004,37.446947000000002,0 109.385876999999994,37.438153999999997,0 109.362967999999995,37.408912999999998,0 109.349785999999995,37.379815000000001,0 109.329812000000004,37.373252999999998,0 109.342994000000004,37.347385000000003,0 109.307651000000007,37.354644,0 109.300743999999995,37.344450000000002,0 109.282612,37.346071999999999,0 109.248649999999998,37.337035,0 109.243470000000002,37.318649999999998,0 109.231497000000005,37.329310999999997,0 109.205248999999995,37.320889999999999,0 109.178713000000002,37.327148000000001,0 109.173935,37.304510000000001,0 109.142736999999997,37.318572000000003,0 109.117869999999996,37.322434999999999,0 109.111193,37.307214000000002,0 109.078497999999996,37.312004999999999,0 109.056567000000001,37.285420000000002,0 109.049026999999995,37.295468,0 109.013683999999998,37.303891,0 109.014489999999995,37.283023999999997,0 109.002459000000002,37.285806999999998,0 108.984673000000001,37.267099000000002,0 108.963778000000005,37.263233,0 108.950884000000002,37.233383000000003,0 108.920721999999998,37.238332999999997,0 108.894645999999995,37.234929999999999,0 108.889639000000003,37.222321000000001,0 108.876227,37.252716999999997,0 108.862353999999996,37.263542999999999,0 108.868801000000005,37.242122999999999,0 108.859994,37.236553999999998,0 108.853489999999994,37.205378000000003,0 108.862239000000002,37.180149,0 108.882903999999996,37.177284999999998,0 108.883019000000004,37.150962,0 108.853201999999996,37.154601,0 108.834436999999994,37.136868,0 108.819528000000005,37.139733999999997,0 108.797539999999998,37.111694,0 108.778313999999995,37.121918999999998,0 108.773249000000007,37.113087999999998,0 108.750915000000006,37.114404999999998,0 108.757706999999996,37.099606999999999,0 108.741245000000006,37.081240999999999,0 108.770600999999999,37.069071999999998,0 108.782630999999995,37.050620000000002,0 108.809051999999994,37.043408999999997,0 108.815844999999996,37.029916,0 108.803987000000006,37.023789000000001,0 108.804850000000002,37.002999000000003,0 108.768241000000003,36.974831000000002,0 108.758455999999995,36.989109999999997,0 108.736639999999994,36.982591999999997,0 108.688173000000006,36.996637,0 108.672400999999994,37.020297999999997,0 108.651218,37.039610000000003,0 108.621459000000002,37.026269999999997,0 108.611328,37.029837999999998,0 108.598607000000001,37.004783000000003,0 108.558486000000002,36.986548999999997,0 108.536268000000007,36.988954999999997,0 108.517503000000005,37.003309000000002,0 108.501213000000007,37.001291999999999,0 108.487742999999995,37.026890999999999,0 108.510135000000005,37.023246,0 108.542254,37.039842,0 108.536727999999997,37.060544,0 108.552097000000003,37.088293,0 108.536325000000005,37.117117,0 108.547837999999999,37.163583000000003,0 108.540526999999997,37.178832999999997,0 108.512725000000003,37.204217,0 108.515258000000003,37.231293999999998,0 108.486649999999997,37.233074000000002,0 108.452687999999995,37.253799999999998,0 108.474273999999994,37.261609999999997,0 108.486418999999998,37.285420000000002,0 108.438700999999995,37.314399999999999,0 108.428742999999997,37.356960999999998,0 108.431736000000001,37.388306,0 108.418841999999998,37.407215000000001,0 108.406581000000003,37.406675,0 108.407444999999996,37.381126999999999,0 108.361395000000002,37.388461,0 108.362200999999999,37.405363000000001,0 108.343435999999997,37.373871000000001,0 108.319547999999998,37.358814000000002,0 108.263253000000006,37.341746999999998,0 108.236659000000003,37.340279000000002,0 108.216570000000004,37.325139,0 108.249437999999998,37.298017999999999,0 108.245524000000003,37.283642,0 108.261296000000002,37.268490999999997,0 108.282247999999996,37.261609999999997,0 108.275570999999999,37.235239,0 108.251970999999998,37.234774999999999,0 108.260086999999999,37.216982999999999,0 108.24915,37.201740999999998,0 108.230672999999996,37.194234999999999,0 108.213346999999999,37.171866000000001,0 108.174723,37.164665999999997,0 108.173744999999997,37.195704999999997,0 108.136617000000001,37.191139,0 108.123953999999998,37.204140000000002,0 108.115549999999999,37.149645999999997,0 108.102194999999995,37.130051999999999,0 108.032315999999994,37.127186999999999,0 107.982524999999995,37.110298999999998,0 107.959097,37.081783000000001,0 107.942520000000002,37.081861000000004,0 107.930835000000002,37.094028000000002,0 107.888583999999994,37.083953000000001,0 107.887145000000004,37.132299000000003,0 107.866940999999997,37.163969999999999,0 107.858652000000006,37.212341000000002,0 107.850594000000001,37.221392999999999,0 107.820086000000003,37.220697000000001,0 107.82141,37.243282999999998,0 107.797694000000007,37.246144000000001,0 107.783879999999996,37.230521000000003,0 107.771158999999997,37.230521000000003,0 107.747615999999994,37.207698999999998,0 107.749342999999996,37.176510999999998,0 107.724131,37.16366,0 107.744737999999998,37.153905000000002,0 107.734376999999995,37.136946000000002,0 107.704098999999999,37.142676000000002,0 107.675779000000006,37.121687000000001,0 107.692471999999995,37.123856000000004,0 107.700473000000002,37.091470999999999,0 107.720217000000005,37.07349,0 107.696961999999999,37.050077999999999,0 107.670137999999994,37.064653,0 107.659949999999995,37.058529,0 107.674858,37.029916,0 107.685910000000007,37.022934999999997,0 107.695120000000003,36.996637,0 107.702141999999995,37.018126000000002,0 107.725282000000007,37.016264999999997,0 107.752739000000005,37.001137,0 107.748306999999997,36.986317,0 107.723957999999996,36.985928999999999,0 107.693335000000005,36.974209999999999,0 107.706287000000003,36.963033000000003,0 107.723267000000007,36.920093999999999,0 107.727124000000003,36.892828000000002,0 107.723095000000001,36.859099999999998,0 107.694946999999999,36.849772000000002,0 107.672094999999999,36.832900000000002,0 107.720792000000003,36.802335999999997,0 107.744910000000004,36.811202999999999,0 107.768223000000006,36.792923000000002,0 107.819970999999995,36.776817000000001,0 107.826706000000001,36.785454000000001,0 107.866249999999994,36.767090000000003,0 107.881906999999998,36.747163999999998,0 107.906659000000005,36.752380000000002,0 107.905507,36.740625000000001,0 107.940965000000006,36.694834999999998,0 107.937454000000002,36.658214999999998,0 107.974408999999994,36.666086,0 107.980797999999993,36.653382999999998,0 107.985979,36.674891000000002,0 108.004744000000002,36.683149999999998,0 108.023336,36.669670000000004,0 108.023162999999997,36.648082000000002,0 108.002095999999995,36.637402999999999,0 108.046188000000001,36.596232000000001,0 108.062190000000001,36.592565999999998,0 108.079977,36.613076999999997,0 108.094943000000001,36.604498999999997,0 108.092870000000005,36.587339999999998,0 108.115606999999997,36.586638000000001,0 108.139092000000005,36.576729999999998,0 108.141452999999998,36.562607999999997,0 108.163613999999995,36.563699999999997,0 108.182321000000002,36.590069999999997,0 108.197862999999998,36.629919000000001,0 108.222902000000005,36.630932999999999,0 108.204712999999998,36.606371000000003,0 108.216628,36.571347000000003,0 108.245465999999993,36.571035000000002,0 108.262446999999995,36.549340999999998,0 108.270218,36.567445999999997,0 108.287429000000003,36.553322000000001,0 108.306424000000007,36.561202999999999,0 108.340615999999997,36.558861999999998,0 108.359611000000001,36.547311999999998,0 108.365425000000002,36.519678999999996,0 108.391615000000002,36.505389999999998,0 108.408019999999993,36.459615999999997,0 108.401401000000007,36.447035999999997,0 108.418957000000006,36.448599000000002,0 108.460573999999994,36.423119,0 108.485556000000003,36.429451,0 108.496837999999997,36.422727999999999,0 108.514681999999993,36.445551000000002,0 108.510653000000005,36.474460999999998,0 108.533044000000004,36.454616000000001,0 108.562630999999996,36.438594999999999,0 108.593598999999998,36.431483,0 108.618926000000002,36.433906,0 108.651275999999996,36.384726999999998,0 108.641604999999998,36.359147999999998,0 108.642180999999994,36.311174999999999,0 108.655074999999997,36.273980999999999,0 108.646095000000003,36.254162999999998,0 108.664918,36.214826000000002,0 108.702850999999995,36.160803000000001,0 108.712349000000003,36.138759,0 108.697670000000002,36.117337999999997,0 108.707455999999993,36.109802999999999,0 108.690877999999998,36.088766,0 108.682531999999995,36.055000999999997,0 108.688632999999996,36.021064000000003,0 108.661752000000007,35.993873000000001,0 108.656514000000001,35.952989000000002,0 108.633776999999995,35.944732000000002,0 108.588763999999998,35.950394000000003,0 108.569308000000007,35.939619,0 108.563034000000002,35.921289999999999,0 108.518653999999998,35.905475000000003,0 108.499543000000003,35.872261000000002,0 108.518941999999996,35.849113000000003,0 108.527863999999994,35.824226000000003,0 108.523258999999996,35.759371000000002,0 108.533907999999997,35.746205000000003,0 108.517042000000004,35.716000999999999,0 108.530338999999998,35.680498,0 108.523258999999996,35.661161999999997,0 108.539721,35.605575000000002,0 108.563839999999999,35.597991,0 108.567639,35.585509000000002,0 108.618465999999998,35.556983000000002,0 108.622898000000006,35.540779000000001,0 108.659161999999995,35.537775000000003,0 108.690303,35.505436000000003,0 108.702562999999998,35.511288,0 108.727084000000005,35.505831000000001,0 108.741992999999994,35.491594999999997,0 108.767377999999994,35.486769000000002,0 108.775493999999995,35.459316000000001,0 108.791955999999999,35.437631000000003,0 108.791611000000003,35.421956999999999,0 108.808245999999997,35.392898000000002,0 108.803584000000001,35.379195000000003,0 108.835875999999999,35.380304000000002,0 108.846467000000004,35.349803000000001,0 108.868628999999999,35.344653000000001,0 108.897869999999998,35.350436999999999,0 108.923139000000006,35.363114000000003,0 108.943689000000006,35.393372999999997,0 108.987148000000005,35.436444000000002,0 108.979203999999996,35.448315999999998,0 108.992559,35.473004000000003,0 109.014893000000001,35.497447999999999,0 109.014546999999993,35.509310999999997,0 109.035844999999995,35.518642,0 109.032852000000005,35.529789999999998,0 109.051558999999997,35.548763000000001,0 109.091622000000001,35.543624999999999,0 109.116085999999996,35.565596999999997,0 109.179922000000005,35.580768999999997,0 109.203580000000002,35.580137000000001,0 109.243758,35.523702,0 109.266493999999994,35.519511999999999,0 109.342187999999993,35.522595000000003,0 109.405908999999994,35.520777000000002,0 109.406024000000002,35.511761999999997,0 109.431292999999997,35.500849000000002,0 109.448389000000006,35.511603999999998,0 109.466694000000004,35.509073999999998,0 109.468248000000003,35.483763000000003,0 109.478379000000004,35.473795000000003,0 109.458519999999993,35.454568000000002,0 109.473601000000002,35.453142999999997,0 109.477400000000003,35.438977000000001,0 109.467096999999995,35.421878,0 109.493575000000007,35.395986000000001,0 109.495647000000005,35.357250999999998,0 109.513204000000002,35.385770000000001,0 109.521146999999999,35.425440999999999,0 109.546935000000005,35.443804999999998,0 109.616180999999997,35.442776000000002,0 109.698034000000007,35.409052000000003,0 109.721058999999997,35.411189999999998,0 109.752775,35.434544000000002,0 109.813789999999997,35.443409000000003,0 109.821504000000004,35.429636000000002,0 109.840384,35.432248000000001,0 109.852990000000005,35.422195000000002,0 109.875726999999998,35.435414999999999,0 109.882403999999994,35.421165999999999,0 109.901859999999999,35.411822999999998,0 109.953608000000003,35.414831999999997,0 109.983711999999997,35.410080999999998,0 109.996606,35.434702000000001,0 110.014105000000001,35.408656000000001,0 110.05198,35.416732000000003,0 110.087380999999993,35.406677000000002,0 110.102404000000007,35.423302999999997,0 110.116506999999999,35.425044999999997,0 110.138610999999997,35.456071000000001,0 110.184487000000004,35.469285999999997,0 110.2059,35.485582999999998,0 110.213153000000005,35.502904999999998,0 110.230421000000007,35.510497000000001,0 110.222477999999995,35.546629000000003,0 110.273764999999997,35.538803000000001,0 110.283033000000003,35.567019999999999,0 110.251316000000003,35.586457000000003,0 110.257130000000004,35.597912000000001,0 110.234739000000005,35.616553000000003,0 110.229557999999997,35.634715,0 110.211656000000005,35.639294999999997,0 110.193927000000002,35.656346999999997,0 110.172686999999996,35.657688999999998,0 110.133200000000002,35.675131999999998,0 110.162786999999994,35.710006,0 110.222016999999994,35.721049000000001,0 110.232896999999994,35.715133000000002,0 110.282227000000006,35.711741000000004,0 110.299149999999997,35.731222000000002,0 110.328967000000006,35.752591000000002,0 110.370295999999996,35.757401000000002,0 110.385838000000007,35.784672999999998,0 110.411107000000001,35.809967,0 110.486627999999996,35.828400999999999,0 110.510113000000004,35.845962999999998,0 110.549369999999996,35.854073999999997,0</coordinates></LinearRing></outerBoundaryIs></Polygon></MultiGeometry></Placemark>
</Document>
</kml>