<?xml version="1.0" encoding="UTF-8"?>
<kml xmlns="http://www.opengis.net/kml/2.2">
  <Document>
    <name><![CDATA[乌兰察布市]]></name>
    <Placemark>
      <name><![CDATA[乌兰察布市]]></name>
      <description><![CDATA[省级目录：内蒙古自治区]]></description>
      <ExtendedData>
        <Data name="adcode"><value>150900</value></Data>
      </ExtendedData>
      <MultiGeometry>
      <Polygon>
        <outerBoundaryIs><LinearRing><coordinates>112.31019,40.256389,0 112.345451,40.256389,0 112.418287,40.295358,0 112.45615,40.300074,0 112.509043,40.270372,0 112.629858,40.23576,0 112.677837,40.201132,0 112.750673,40.16806,0 112.848655,40.207079,0 112.892876,40.326446,0 113.039704,40.370086,0 113.11543,40.381078,0 113.251275,40.413348,0 113.316018,40.32016,0 113.387698,40.319112,0 113.55996,40.348619,0 113.680486,40.444034,0 113.763438,40.474008,0 113.794942,40.5179,0 113.851014,40.460591,0 113.890034,40.466516,0 113.948707,40.517378,0 114.011427,40.515811,0 114.062007,40.528869,0 114.076748,40.575856,0 114.041775,40.608728,0 114.070389,40.660351,0 114.06403,40.707073,0 114.093223,40.731897,0 114.134554,40.737798,0 114.044665,40.8311,0 114.073568,40.857263,0 114.055359,40.867829,0 114.041486,40.917348,0 114.057383,40.925136,0 113.991195,40.94019,0 113.975587,40.976513,0 113.868356,41.068961,0 113.820377,41.10159,0 113.877894,41.115568,0 113.920382,41.17197,0 113.961135,41.17128,0 113.996686,41.192483,0 114.01634,41.232113,0 113.992351,41.269824,0 113.97154,41.239519,0 113.951308,41.282907,0 113.899572,41.316288,0 113.926741,41.326265,0 113.948707,41.392109,0 113.871247,41.413412,0 113.92096,41.456512,0 113.92992,41.484486,0 114.032237,41.529597,0 114.101315,41.537826,0 114.23109,41.513648,0 114.221552,41.582214,0 114.228778,41.620922,0 114.259415,41.623319,0 114.215194,41.684756,0 114.237449,41.69861,0 114.206812,41.738444,0 114.203054,41.793453,0 114.346703,41.928043,0 114.352483,41.953939,0 114.421562,41.942185,0 114.509427,41.972502,0 114.466073,42.038028,0 114.502491,42.06711,0 114.510872,42.110963,0 114.565788,42.133728,0 114.624751,42.112153,0 114.67562,42.120478,0 114.755393,42.115891,0 114.807129,42.149522,0 114.789787,42.187887,0 114.809153,42.200275,0 114.757127,42.21741,0 114.676487,42.197899,0 114.687181,42.220972,0 114.666949,42.248274,0 114.686603,42.262345,0 114.599027,42.280988,0 114.575326,42.297762,0 114.525613,42.235218,0 114.498444,42.220972,0 114.405665,42.199596,0 114.437748,42.171424,0 114.465495,42.170914,0 114.479079,42.114192,0 114.447864,42.098898,0 114.377051,42.109774,0 114.375895,42.149692,0 114.291209,42.191451,0 114.238316,42.165312,0 114.226755,42.134917,0 114.132242,42.11708,0 114.100159,42.125914,0 114.093801,42.06541,0 114.065186,42.043982,0 114.10594,41.9834,0 114.075592,41.992082,0 114.062296,41.966202,0 114.006802,41.977951,0 113.955066,41.950702,0 113.913156,41.985954,0 113.916046,42.050105,0 113.795231,42.0649,0 113.743206,42.083431,0 113.709678,42.129821,0 113.644646,42.109434,0 113.572677,42.131859,0 113.372379,42.143748,0 113.282779,42.075611,0 113.250986,42.031224,0 113.149536,41.976078,0 113.17208,41.950191,0 113.127281,41.954109,0 113.086527,41.932814,0 113.042305,41.985954,0 112.964845,41.99821,0 112.939699,42.018293,0 112.856169,42.11708,0 112.788536,42.138993,0 112.737956,42.144597,0 112.689976,42.254547,0 112.637084,42.28048,0 112.654715,42.316056,0 112.589683,42.347042,0 112.397766,42.387656,0 112.254696,42.482826,0 112.178391,42.511029,0 112.180704,42.53483,0 112.028962,42.584598,0 112.026361,42.602809,0 111.935027,42.707583,0 111.858434,42.818397,0 111.854966,42.841745,0 111.752649,42.987681,0 111.658424,43.02386,0 111.619116,43.054328,0 111.503504,43.178719,0 111.379798,43.18256,0 111.215629,43.276849,0 111.150886,43.380315,0 111.069668,43.358003,0 111.020533,43.33002,0 110.820234,43.148981,0 110.769943,43.099331,0 110.736415,43.089631,0 110.68728,43.036417,0 110.689303,43.021516,0 110.631497,42.936056,0 110.46964,42.839058,0 110.437268,42.781425,0 110.339865,42.738543,0 110.434956,42.692434,0 110.554326,42.596739,0 110.639301,42.491778,0 110.704333,42.47117,0 110.730057,42.442781,0 110.72312,42.394253,0 110.743352,42.323508,0 110.790464,42.218427,0 110.795667,42.1738,0 110.924285,42.022546,0 110.994231,41.915772,0 111.021689,41.854386,0 111.062153,41.798234,0 111.121116,41.771592,0 111.161002,41.724257,0 111.243665,41.669702,0 111.303783,41.645744,0 111.349161,41.646771,0 111.437316,41.530454,0 111.443385,41.46149,0 111.430668,41.416847,0 111.385001,41.379908,0 111.420552,41.350513,0 111.425754,41.318869,0 111.541367,41.328501,0 111.582409,41.306826,0 111.673454,41.301837,0 111.730971,41.310955,0 111.791668,41.264315,0 111.840514,41.252263,0 111.828086,41.222983,0 111.853809,41.224533,0 111.883869,41.129199,0 111.930403,41.094858,0 112.034454,41.047373,0 112.017979,41.013508,0 112.04168,40.969423,0 112.094861,40.948321,0 112.12521,40.961468,0 112.15498,40.880645,0 112.18764,40.85016,0 112.181571,40.81082,0 112.151222,40.762957,0 112.093416,40.740748,0 112.130412,40.697696,0 112.115383,40.658961,0 112.080121,40.667127,0 112.047171,40.644017,0 112.086769,40.620377,0 112.098619,40.583511,0 112.056131,40.581597,0 112.053819,40.558109,0 112.111914,40.510064,0 112.134748,40.511109,0 112.184172,40.463902,0 112.225214,40.448565,0 112.2177,40.42939,0 112.264523,40.388406,0 112.235909,40.355077,0 112.270014,40.357869,0 112.266257,40.329589,0 112.292559,40.30741,0 112.31019,40.256389,0</coordinates></LinearRing></outerBoundaryIs>
      </Polygon>
    </MultiGeometry>
    </Placemark>
  </Document>
</kml>
