<?xml version="1.0" encoding="UTF-8"?>
<kml xmlns="http://www.opengis.net/kml/2.2">
  <Document>
    <name><![CDATA[兴安盟]]></name>
    <Placemark>
      <name><![CDATA[兴安盟]]></name>
      <description><![CDATA[省级目录：内蒙古自治区]]></description>
      <ExtendedData>
        <Data name="adcode"><value>152200</value></Data>
      </ExtendedData>
      <MultiGeometry>
      <Polygon>
        <outerBoundaryIs><LinearRing><coordinates>122.271358,44.25569,0 122.29159,44.310292,0 122.29448,44.411,0 122.286098,44.477717,0 122.228003,44.480168,0 122.223957,44.526234,0 122.195921,44.559862,0 122.131756,44.577485,0 122.103142,44.673987,0 122.117304,44.702158,0 122.161526,44.728199,0 122.152566,44.743819,0 122.102853,44.736335,0 122.110656,44.76789,0 122.142739,44.753741,0 122.169041,44.770167,0 122.114992,44.776671,0 122.049671,44.912758,0 122.079152,44.914217,0 122.086667,44.95297,0 122.074528,45.006597,0 122.098806,45.021493,0 122.119327,45.068585,0 122.109789,45.141978,0 122.143317,45.182999,0 122.192741,45.180738,0 122.230026,45.206887,0 122.238986,45.276234,0 122.147363,45.295571,0 122.146785,45.374465,0 122.179735,45.409368,0 122.163549,45.443768,0 122.023369,45.49019,0 122.002559,45.50785,0 121.99331,45.552936,0 121.96643,45.596064,0 121.9962,45.598948,0 122.003426,45.623302,0 121.970187,45.692779,0 121.934058,45.710535,0 121.867003,45.71981,0 121.812376,45.704777,0 121.81122,45.687019,0 121.714106,45.701738,0 121.644449,45.752422,0 121.656878,45.770159,0 121.690116,45.76281,0 121.754281,45.794917,0 121.784918,45.860194,0 121.81729,45.875664,0 121.821336,45.918224,0 121.809197,45.961548,0 121.761796,45.998951,0 121.845037,46.023448,0 121.863824,46.002611,0 121.923653,46.004838,0 122.040133,45.959001,0 122.083488,45.917268,0 122.09158,45.882042,0 122.200834,45.856844,0 122.262687,45.794917,0 122.320782,45.830518,0 122.337546,45.860035,0 122.373097,45.856047,0 122.362114,45.917428,0 122.445933,45.91695,0 122.495935,45.85828,0 122.505762,45.786293,0 122.554897,45.82142,0 122.603454,45.778147,0 122.640739,45.771118,0 122.671377,45.700618,0 122.7419,45.705097,0 122.751149,45.736119,0 122.792481,45.766165,0 122.752305,45.834827,0 122.800285,45.856685,0 122.82861,45.912328,0 122.793059,46.073205,0 123.045672,46.100052,0 123.069951,46.123552,0 123.112438,46.13006,0 123.1029,46.171949,0 123.127757,46.174645,0 123.128624,46.210478,0 123.178626,46.248029,0 123.140474,46.300274,0 123.094807,46.342191,0 123.011566,46.434928,0 123.007231,46.576966,0 123.052898,46.580114,0 123.045672,46.617255,0 123.077755,46.622132,0 123.098565,46.603094,0 123.181517,46.613636,0 123.22834,46.5883,0 123.279209,46.61694,0 123.277475,46.661601,0 123.366497,46.67779,0 123.482109,46.686903,0 123.604658,46.690046,0 123.631827,46.729466,0 123.629226,46.81355,0 123.580091,46.827969,0 123.625758,46.84771,0 123.599167,46.864939,0 123.605525,46.891241,0 123.576911,46.890615,0 123.562749,46.825931,0 123.514192,46.826088,0 123.483843,46.844734,0 123.522284,46.922224,0 123.527776,46.958035,0 123.48789,46.959599,0 123.427482,46.934425,0 123.336437,46.989136,0 123.301754,46.999759,0 123.304066,46.964913,0 123.360427,46.971009,0 123.404649,46.935519,0 123.406672,46.906422,0 123.374589,46.837684,0 123.34164,46.826872,0 123.308979,46.86212,0 123.230941,46.859928,0 123.18643,46.786739,0 123.171112,46.743907,0 123.103478,46.734803,0 123.077176,46.745006,0 123.026596,46.718789,0 122.996537,46.76164,0 122.907226,46.807906,0 122.893642,46.895154,0 122.895376,46.960224,0 122.839304,46.936927,0 122.797394,46.938178,0 122.77485,46.973979,0 122.778318,47.002883,0 122.845952,47.046756,0 122.852021,47.072346,0 122.821962,47.065637,0 122.698835,47.09839,0 122.679759,47.09418,0 122.610969,47.129876,0 122.600275,47.151688,0 122.556342,47.172556,0 122.509808,47.242886,0 122.462696,47.278482,0 122.460095,47.298523,0 122.420787,47.330201,0 122.418186,47.350378,0 122.299394,47.300077,0 122.246501,47.253458,0 122.193319,47.230289,0 122.125686,47.213645,0 122.079441,47.182519,0 122.048515,47.201352,0 121.927122,47.241486,0 121.856309,47.256567,0 121.795323,47.280347,0 121.760062,47.280968,0 121.673352,47.250349,0 121.640114,47.204776,0 121.648496,47.177693,0 121.588088,47.170376,0 121.551959,47.195905,0 121.436058,47.183453,0 121.380275,47.142341,0 121.255124,47.113356,0 121.173329,47.14125,0 121.099048,47.152155,0 121.055115,47.145924,0 120.976787,47.096207,0 120.932855,47.107433,0 120.876494,47.149818,0 120.823023,47.145612,0 120.773888,47.177226,0 120.738048,47.218312,0 120.626482,47.241953,0 120.617522,47.287649,0 120.633129,47.307687,0 120.703364,47.334082,0 120.736314,47.379389,0 120.72533,47.397532,0 120.650471,47.44046,0 120.578503,47.50734,0 120.60307,47.533172,0 120.590064,47.548324,0 120.53457,47.543995,0 120.473295,47.555126,0 120.377915,47.593756,0 120.323866,47.607964,0 120.264904,47.658127,0 120.233688,47.630505,0 120.205363,47.635135,0 120.179929,47.612133,0 120.118943,47.602559,0 120.07501,47.573054,0 120.013158,47.554817,0 119.959109,47.582015,0 119.907661,47.569963,0 119.868064,47.538893,0 119.868064,47.538893,0 119.854191,47.525903,0 119.854191,47.525903,0 119.836271,47.508733,0 119.836271,47.508733,0 119.814593,47.499294,0 119.814593,47.499294,0 119.811125,47.494033,0 119.811125,47.494033,0 119.811703,47.490474,0 119.811703,47.490474,0 119.813148,47.471434,0 119.770372,47.438601,0 119.770372,47.438601,0 119.763724,47.436277,0 119.763724,47.436277,0 119.671812,47.412103,0 119.671812,47.412103,0 119.661696,47.408848,0 119.661696,47.408848,0 119.652447,47.402338,0 119.652447,47.402338,0 119.616318,47.36093,0 119.483364,47.338118,0 119.561113,47.301164,0 119.565159,47.249727,0 119.62181,47.248483,0 119.716034,47.195594,0 119.762857,47.130967,0 119.8065,47.054871,0 119.794939,47.013035,0 119.844942,46.96507,0 119.859682,46.917062,0 119.928761,46.903762,0 119.920379,46.853193,0 119.936275,46.790189,0 119.91691,46.758345,0 119.935119,46.712822,0 119.911708,46.669775,0 119.910263,46.653112,0 119.952172,46.604196,0 119.907372,46.537277,0 119.948993,46.493617,0 119.909685,46.428929,0 119.984544,46.418825,0 119.96171,46.395609,0 119.901014,46.403665,0 119.837716,46.375544,0 119.874134,46.34567,0 119.838005,46.320683,0 119.835693,46.235357,0 119.889163,46.210161,0 119.858237,46.184795,0 119.879336,46.144344,0 119.855347,46.108151,0 119.833958,46.00452,0 119.807946,45.991313,0 119.829912,45.974602,0 119.807946,45.820941,0 119.751295,45.762969,0 119.700426,45.736598,0 119.708808,45.703017,0 119.681639,45.669576,0 119.596375,45.670057,0 119.565448,45.65581,0 119.655626,45.623622,0 119.791182,45.564162,0 119.819796,45.572821,0 119.876157,45.548125,0 119.918934,45.558229,0 119.906794,45.505763,0 119.998706,45.482322,0 120.031078,45.498379,0 120.029054,45.526146,0 119.99466,45.551974,0 119.994949,45.578753,0 120.02732,45.595102,0 120.165766,45.594942,0 120.269239,45.552134,0 120.327624,45.55037,0 120.344965,45.519727,0 120.420113,45.499021,0 120.435143,45.464494,0 120.497285,45.46337,0 120.559426,45.416925,0 120.554513,45.357568,0 120.581104,45.352901,0 120.660298,45.297827,0 120.74325,45.260114,0 120.82678,45.253665,0 120.835162,45.216084,0 120.881696,45.217697,0 120.967827,45.18429,0 120.97303,45.157163,0 120.947017,45.121296,0 120.973897,45.118548,0 120.977654,45.073276,0 121.033437,44.998337,0 121.240095,44.934002,0 121.401663,44.851412,0 121.42045,44.818278,0 121.409178,44.790977,0 121.530282,44.720388,0 121.548491,44.667635,0 121.595892,44.659327,0 121.585487,44.640099,0 121.651097,44.563289,0 121.697631,44.534724,0 121.760062,44.478207,0 121.77856,44.446657,0 121.829429,44.411491,0 121.882611,44.402165,0 121.934347,44.343553,0 121.983194,44.330284,0 122.019034,44.3039,0 122.163838,44.255361,0 122.226269,44.263727,0 122.271358,44.25569,0</coordinates></LinearRing></outerBoundaryIs>
      </Polygon>
    </MultiGeometry>
    </Placemark>
  </Document>
</kml>
