<?xml version="1.0" encoding="UTF-8"?>
<kml xmlns="http://www.opengis.net/kml/2.2">
  <Document>
    <name><![CDATA[呼伦贝尔市]]></name>
    <Placemark>
      <name><![CDATA[呼伦贝尔市]]></name>
      <description><![CDATA[省级目录：内蒙古自治区]]></description>
      <ExtendedData>
        <Data name="adcode"><value>150700</value></Data>
      </ExtendedData>
      <MultiGeometry>
      <Polygon>
        <outerBoundaryIs><LinearRing><coordinates>122.418186,47.350378,0 122.299394,47.300077,0 122.246501,47.253458,0 122.193319,47.230289,0 122.125686,47.213645,0 122.079441,47.182519,0 122.048515,47.201352,0 121.927122,47.241486,0 121.856309,47.256567,0 121.795323,47.280347,0 121.760062,47.280968,0 121.673352,47.250349,0 121.640114,47.204776,0 121.648496,47.177693,0 121.588088,47.170376,0 121.551959,47.195905,0 121.436058,47.183453,0 121.380275,47.142341,0 121.255124,47.113356,0 121.173329,47.14125,0 121.099048,47.152155,0 121.055115,47.145924,0 120.976787,47.096207,0 120.932855,47.107433,0 120.876494,47.149818,0 120.823023,47.145612,0 120.773888,47.177226,0 120.738048,47.218312,0 120.626482,47.241953,0 120.617522,47.287649,0 120.633129,47.307687,0 120.703364,47.334082,0 120.736314,47.379389,0 120.72533,47.397532,0 120.650471,47.44046,0 120.578503,47.50734,0 120.60307,47.533172,0 120.590064,47.548324,0 120.53457,47.543995,0 120.473295,47.555126,0 120.377915,47.593756,0 120.323866,47.607964,0 120.264904,47.658127,0 120.233688,47.630505,0 120.205363,47.635135,0 120.179929,47.612133,0 120.118943,47.602559,0 120.07501,47.573054,0 120.013158,47.554817,0 119.959109,47.582015,0 119.907661,47.569963,0 119.868064,47.538893,0 119.854191,47.525903,0 119.836271,47.508733,0 119.814593,47.499294,0 119.811125,47.494033,0 119.811703,47.490474,0 119.813148,47.471434,0 119.770372,47.438601,0 119.763724,47.436277,0 119.671812,47.412103,0 119.661696,47.408848,0 119.652447,47.402338,0 119.616318,47.36093,0 119.483364,47.338118,0 119.444633,47.371013,0 119.386827,47.397532,0 119.354745,47.43008,0 119.322084,47.427136,0 119.365728,47.477472,0 119.205316,47.520335,0 119.152134,47.540594,0 119.134214,47.664451,0 118.773214,47.771085,0 118.568002,47.99213,0 118.441985,47.995808,0 118.424354,48.01481,0 118.350651,48.006076,0 118.27637,48.009294,0 118.240241,48.040544,0 118.107576,48.031049,0 118.015375,48.011286,0 117.926353,48.015883,0 117.886756,48.025228,0 117.813342,48.016189,0 117.528935,47.782937,0 117.493674,47.758461,0 117.384131,47.641154,0 117.094811,47.824013,0 116.879193,47.893936,0 116.791328,47.897621,0 116.669935,47.890557,0 116.452872,47.837544,0 116.265869,47.876733,0 116.110949,47.811709,0 115.968167,47.689897,0 115.938975,47.683113,0 115.580577,47.921725,0 115.529418,48.15527,0 115.822785,48.259371,0 115.799373,48.515059,0 115.830299,48.5601,0 116.078288,48.822421,0 116.048518,48.873516,0 116.350845,49.317592,0 116.717914,49.847283,0 116.736701,49.847579,0 117.069087,49.695514,0 117.278056,49.636364,0 117.485003,49.6331,0 117.638189,49.574914,0 117.809585,49.521268,0 117.849471,49.551442,0 117.866524,49.59214,0 117.950921,49.596,0 117.980691,49.621231,0 118.082719,49.616631,0 118.118848,49.666466,0 118.154688,49.66024,0 118.185325,49.687809,0 118.205846,49.684697,0 118.220876,49.730022,0 118.282439,49.74364,0 118.315967,49.767168,0 118.388514,49.785952,0 118.402387,49.811381,0 118.385334,49.826898,0 118.469732,49.825715,0 118.496033,49.846249,0 118.485917,49.866922,0 118.523202,49.881093,0 118.572916,49.930952,0 118.617715,49.927856,0 118.651243,49.950852,0 118.741999,49.946578,0 118.763098,49.959694,0 118.824662,49.963525,0 118.96542,49.98886,0 119.050395,49.980613,0 119.092016,49.985915,0 119.123809,50.018156,0 119.188263,50.054493,0 119.191731,50.088745,0 119.234797,50.074782,0 119.290291,50.121651,0 119.309656,50.161285,0 119.334224,50.162899,0 119.359658,50.197074,0 119.318616,50.220381,0 119.350987,50.303548,0 119.386827,50.321685,0 119.358502,50.358961,0 119.277284,50.365974,0 119.237109,50.346539,0 119.23393,50.365098,0 119.195489,50.349316,0 119.155602,50.364659,0 119.176702,50.378683,0 119.146064,50.411098,0 119.190864,50.422774,0 119.206761,50.410368,0 119.239999,50.459095,0 119.264567,50.469447,0 119.238265,50.505587,0 119.262544,50.510831,0 119.26659,50.56091,0 119.299251,50.583893,0 119.282487,50.60483,0 119.361393,50.632732,0 119.394053,50.667296,0 119.387405,50.682827,0 119.433072,50.684568,0 119.496659,50.745478,0 119.515735,50.814124,0 119.498971,50.827726,0 119.491457,50.878913,0 119.569784,50.933797,0 119.598687,50.984723,0 119.629902,51.008508,0 119.683084,51.018883,0 119.725572,51.049562,0 119.722681,51.076192,0 119.764302,51.092594,0 119.785112,51.163603,0 119.760255,51.213272,0 119.786268,51.225466,0 119.82153,51.21442,0 119.797251,51.24712,0 119.827889,51.263749,0 119.810836,51.278508,0 119.879336,51.2967,0 119.883961,51.336926,0 119.922402,51.345225,0 119.945813,51.365965,0 119.912864,51.375259,0 119.922113,51.396557,0 119.971248,51.400415,0 119.982809,51.444976,0 120.002464,51.459392,0 119.985989,51.505748,0 120.046685,51.545364,0 120.035124,51.585799,0 120.06605,51.639135,0 120.102179,51.650221,0 120.094375,51.682043,0 120.172414,51.679912,0 120.226174,51.717674,0 120.293518,51.750724,0 120.311149,51.781767,0 120.363463,51.789984,0 120.406818,51.816469,0 120.400459,51.833457,0 120.459422,51.845061,0 120.496996,51.88735,0 120.533414,51.87915,0 120.547865,51.907137,0 120.660876,51.929457,0 120.662611,51.957978,0 120.701341,51.980555,0 120.71955,52.010171,0 120.686022,52.034976,0 120.769552,52.114093,0 120.763193,52.142777,0 120.785738,52.165542,0 120.747008,52.20402,0 120.758569,52.256346,0 120.717526,52.260832,0 120.696138,52.289842,0 120.628505,52.322753,0 120.624169,52.361514,0 120.649315,52.363752,0 120.648448,52.389619,0 120.688045,52.427623,0 120.683132,52.466571,0 120.706543,52.490147,0 120.692959,52.518309,0 120.73429,52.536842,0 120.629372,52.570265,0 120.596711,52.592811,0 120.561161,52.595593,0 120.4837,52.630084,0 120.437166,52.639675,0 120.396702,52.616319,0 120.286292,52.622993,0 120.185998,52.579312,0 120.080502,52.585436,0 120.049287,52.598515,0 120.035124,52.646346,0 120.070675,52.707587,0 120.031367,52.772762,0 120.099,52.787309,0 120.141198,52.812927,0 120.187732,52.807943,0 120.222416,52.842819,0 120.296986,52.869926,0 120.294963,52.890659,0 120.344676,52.900884,0 120.363174,52.941345,0 120.408263,52.956387,0 120.453063,53.010028,0 120.529078,53.045981,0 120.541507,53.070346,0 120.611163,53.100336,0 120.642089,53.105149,0 120.660009,53.137038,0 120.686889,53.142396,0 120.690936,53.172611,0 120.748164,53.210348,0 120.814063,53.239692,0 120.840076,53.241063,0 120.822734,53.270112,0 120.93112,53.286957,0 120.954821,53.298594,0 121.047022,53.288874,0 121.096735,53.307354,0 121.129396,53.277371,0 121.153674,53.285314,0 121.234603,53.280932,0 121.285473,53.291338,0 121.329405,53.322816,0 121.416115,53.319395,0 121.499356,53.337178,0 121.511495,53.31748,0 121.579706,53.289285,0 121.615257,53.259016,0 121.648207,53.260797,0 121.678844,53.241337,0 121.679133,53.199511,0 121.665259,53.170551,0 121.719597,53.146243,0 121.753125,53.147342,0 121.784629,53.104599,0 121.775669,53.089746,0 121.814978,53.069108,0 121.785496,53.018571,0 121.715551,52.998037,0 121.677399,52.948108,0 121.662369,52.912487,0 121.610344,52.892317,0 121.620171,52.851119,0 121.591268,52.824693,0 121.482014,52.774286,0 121.454845,52.735333,0 121.373049,52.683157,0 121.321023,52.678852,0 121.292698,52.651765,0 121.182289,52.596289,0 121.232002,52.577642,0 121.277091,52.587662,0 121.325648,52.572631,0 121.353106,52.535727,0 121.409756,52.523466,0 121.416404,52.49935,0 121.49502,52.484847,0 121.518721,52.456663,0 121.565255,52.460292,0 121.5904,52.443123,0 121.640114,52.444379,0 121.678844,52.419801,0 121.658612,52.390318,0 121.715551,52.343047,0 121.714106,52.318133,0 121.769311,52.308191,0 121.841279,52.282697,0 121.90082,52.280595,0 121.947643,52.298387,0 121.976835,52.343747,0 122.035508,52.377596,0 122.040422,52.413096,0 122.091291,52.427204,0 122.16933,52.51357,0 122.207771,52.469222,0 122.310377,52.475222,0 122.34217,52.414074,0 122.367027,52.413794,0 122.416451,52.37424,0 122.439863,52.393672,0 122.484085,52.341508,0 122.478304,52.296286,0 122.560678,52.282556,0 122.585824,52.26644,0 122.678892,52.276671,0 122.710685,52.256206,0 122.760976,52.26686,0 122.787278,52.252701,0 122.766179,52.232646,0 122.769358,52.179729,0 122.738143,52.153458,0 122.690742,52.140387,0 122.629178,52.136592,0 122.643919,52.111702,0 122.625132,52.067513,0 122.650567,52.059064,0 122.665018,51.99875,0 122.683805,51.974489,0 122.726293,51.978862,0 122.729472,51.919287,0 122.706061,51.890177,0 122.725715,51.87816,0 122.732651,51.832608,0 122.77196,51.779499,0 122.749993,51.747746,0 122.77485,51.703907,0 122.816181,51.655195,0 122.820806,51.633164,0 122.856357,51.606714,0 122.832656,51.581672,0 122.873988,51.561172,0 122.880057,51.511023,0 122.854623,51.477655,0 122.900289,51.445261,0 122.898555,51.422558,0 122.965899,51.386981,0 122.960119,51.361675,0 122.978039,51.331489,0 123.014457,51.310017,0 123.059257,51.321899,0 123.15377,51.300853,0 123.231519,51.268621,0 123.294239,51.254145,0 123.339617,51.27249,0 123.376613,51.266901,0 123.463033,51.286817,0 123.582692,51.294695,0 123.582403,51.306867,0 123.661886,51.31918,0 123.660441,51.342793,0 123.711022,51.398272,0 123.794552,51.361246,0 123.842531,51.367538,0 123.88762,51.320897,0 123.926061,51.30071,0 123.994561,51.322758,0 124.071733,51.320754,0 124.090231,51.341362,0 124.128094,51.347514,0 124.192548,51.339359,0 124.239371,51.344653,0 124.271453,51.308299,0 124.297466,51.298562,0 124.406431,51.27206,0 124.430131,51.301283,0 124.426663,51.331918,0 124.443716,51.358099,0 124.49025,51.380406,0 124.55586,51.375402,0 124.587075,51.363677,0 124.624649,51.328626,0 124.693438,51.332777,0 124.751245,51.356955,0 124.783616,51.392269,0 124.864545,51.379691,0 124.885066,51.408131,0 124.942583,51.447403,0 124.917727,51.474231,0 124.92871,51.498477,0 124.983626,51.508315,0 125.004436,51.529265,0 125.047502,51.529693,0 125.072936,51.553482,0 125.05993,51.596756,0 125.098949,51.658321,0 125.12843,51.659031,0 125.130453,51.635439,0 125.17612,51.639277,0 125.289132,51.633875,0 125.316011,51.609986,0 125.351562,51.623923,0 125.379598,51.586795,0 125.424687,51.563023,0 125.524114,51.49149,0 125.568914,51.439408,0 125.622384,51.399701,0 125.625853,51.379262,0 125.673254,51.341505,0 125.695509,51.337785,0 125.711117,51.302715,0 125.764299,51.261169,0 125.75794,51.227331,0 125.817769,51.227044,0 125.851875,51.212555,0 125.868928,51.140328,0 125.908814,51.139179,0 125.946388,51.108127,0 125.990032,51.119199,0 125.976158,51.084538,0 126.009108,51.057193,0 126.057087,51.045242,0 126.033676,51.010525,0 126.042347,50.981839,0 126.068359,50.96785,0 126.044081,50.928022,0 126.021247,50.927878,0 125.995524,50.897118,0 125.996391,50.871542,0 125.958817,50.900296,0 125.945521,50.855495,0 125.906791,50.855206,0 125.920375,50.831343,0 125.878466,50.816585,0 125.889449,50.804862,0 125.831932,50.784882,0 125.840025,50.756202,0 125.805341,50.772717,0 125.758518,50.747217,0 125.794647,50.73997,0 125.782219,50.724024,0 125.825284,50.70488,0 125.787421,50.678037,0 125.814301,50.624596,0 125.808231,50.603667,0 125.829331,50.561637,0 125.752737,50.506898,0 125.740598,50.523356,0 125.654467,50.471196,0 125.632211,50.443928,0 125.59088,50.452242,0 125.561977,50.438239,0 125.574694,50.401318,0 125.536542,50.420001,0 125.513131,50.409346,0 125.537409,50.379852,0 125.522669,50.367143,0 125.530473,50.331043,0 125.466308,50.297403,0 125.466019,50.266961,0 125.442896,50.26169,0 125.464573,50.229905,0 125.388558,50.178449,0 125.33422,50.164953,0 125.375841,50.137362,0 125.313121,50.139417,0 125.27757,50.12635,0 125.257627,50.100794,0 125.289132,50.091243,0 125.278726,50.071842,0 125.337689,50.059639,0 125.316011,50.045668,0 125.285663,50.058757,0 125.256182,50.039049,0 125.286819,50.034489,0 125.296646,50.009472,0 125.242019,49.987829,0 125.231614,49.957631,0 125.189994,49.959841,0 125.225545,49.924612,0 125.212827,49.907209,0 125.24173,49.866775,0 125.2241,49.835762,0 125.177855,49.829409,0 125.222943,49.798964,0 125.228146,49.774564,0 125.205313,49.733575,0 125.224967,49.726468,0 125.219764,49.669135,0 125.189994,49.64986,0 125.164559,49.669431,0 125.127274,49.65505,0 125.154154,49.616779,0 125.168317,49.629985,0 125.205313,49.59407,0 125.226412,49.596,0 125.235661,49.54089,0 125.212538,49.541336,0 125.228435,49.486909,0 125.263986,49.46146,0 125.257049,49.393976,0 125.277281,49.380409,0 125.257049,49.359528,0 125.258205,49.314008,0 125.214851,49.280251,0 125.227568,49.248864,0 125.219475,49.189023,0 125.185369,49.18528,0 125.160224,49.146341,0 125.117447,49.125961,0 125.039409,49.151885,0 125.039987,49.176297,0 124.982759,49.16252,0 124.906454,49.183933,0 124.860787,49.166563,0 124.847492,49.129708,0 124.80934,49.115918,0 124.828994,49.071974,0 124.808184,49.020481,0 124.765407,48.981262,0 124.744308,48.920496,0 124.711936,48.921248,0 124.714827,48.886771,0 124.697196,48.84187,0 124.65413,48.834333,0 124.653552,48.777161,0 124.613955,48.751193,0 124.624938,48.700275,0 124.601816,48.632356,0 124.578982,48.596468,0 124.518575,48.554188,0 124.548923,48.53129,0 124.534471,48.51779,0 124.555571,48.467851,0 124.508748,48.448257,0 124.526378,48.421664,0 124.52002,48.374521,0 124.54372,48.362805,0 124.541119,48.335253,0 124.57956,48.297479,0 124.55875,48.268215,0 124.578982,48.262116,0 124.547189,48.200935,0 124.512505,48.164589,0 124.531003,48.148699,0 124.488515,48.126383,0 124.463948,48.097633,0 124.416258,48.087995,0 124.430131,48.121032,0 124.472619,48.134485,0 124.476954,48.164131,0 124.410477,48.190401,0 124.428397,48.230085,0 124.404985,48.264251,0 124.365099,48.284678,0 124.35585,48.314846,0 124.318854,48.347128,0 124.331571,48.379846,0 124.306715,48.399618,0 124.330126,48.435646,0 124.302668,48.456764,0 124.31423,48.50383,0 124.259025,48.536447,0 124.24255,48.522189,0 124.083294,48.438533,0 123.979821,48.363718,0 123.866231,48.27477,0 123.746283,48.197577,0 123.705241,48.152061,0 123.61911,48.077896,0 123.537603,48.021858,0 123.429505,47.991516,0 123.289036,47.943209,0 123.254642,47.874736,0 123.215044,47.82555,0 123.161863,47.782014,0 123.075442,47.757691,0 122.980929,47.717179,0 122.857513,47.678332,0 122.763289,47.613523,0 122.593049,47.547087,0 122.543336,47.495426,0 122.505762,47.400477,0 122.418186,47.350378,0</coordinates></LinearRing></outerBoundaryIs>
        <innerBoundaryIs><LinearRing><coordinates>124.342555,50.188129,0 124.344289,50.219062,0 124.368567,50.258175,0 124.348624,50.292428,0 124.374059,50.310862,0 124.347757,50.316566,0 124.364232,50.36086,0 124.403829,50.362468,0 124.439958,50.385548,0 124.416547,50.449616,0 124.444872,50.476298,0 124.43331,50.546649,0 124.393135,50.547522,0 124.315964,50.532674,0 124.266539,50.556254,0 124.183009,50.557709,0 124.143123,50.566148,0 124.084161,50.568621,0 124.087051,50.539953,0 124.026355,50.538352,0 124.023464,50.51855,0 123.983578,50.510248,0 124.003521,50.478922,0 124.005255,50.434592,0 123.969994,50.399274,0 123.939934,50.397376,0 123.92028,50.372987,0 123.879527,50.402485,0 123.840508,50.411536,0 123.825767,50.449471,0 123.780389,50.437072,0 123.787326,50.373717,0 123.777788,50.344492,0 123.870278,50.273987,0 123.862763,50.226389,0 123.954097,50.186956,0 124.007568,50.219355,0 124.061905,50.19898,0 124.103526,50.222139,0 124.102659,50.238696,0 124.189368,50.216863,0 124.283014,50.230785,0 124.286483,50.189595,0 124.342555,50.188129,0</coordinates></LinearRing></innerBoundaryIs>
      </Polygon>
    </MultiGeometry>
    </Placemark>
  </Document>
</kml>
