<?xml version="1.0" encoding="UTF-8"?>
<kml xmlns="http://www.opengis.net/kml/2.2">
  <Document>
    <name><![CDATA[呼和浩特市]]></name>
    <Placemark>
      <name><![CDATA[呼和浩特市]]></name>
      <description><![CDATA[省级目录：内蒙古自治区]]></description>
      <ExtendedData>
        <Data name="adcode"><value>150100</value></Data>
      </ExtendedData>
      <MultiGeometry>
      <Polygon>
        <outerBoundaryIs><LinearRing><coordinates>111.033539,40.288195,0 111.052326,40.265653,0 111.114757,40.256564,0 111.178055,40.222995,0 111.237306,40.16911,0 111.315634,40.151256,0 111.361879,40.10222,0 111.420263,40.021758,0 111.427778,39.946822,0 111.443096,39.894299,0 111.415349,39.865122,0 111.417373,39.831184,0 111.370549,39.789134,0 111.363613,39.721694,0 111.442807,39.669176,0 111.438183,39.643078,0 111.502059,39.663181,0 111.616515,39.633377,0 111.646574,39.644313,0 111.722589,39.60603,0 111.787621,39.589617,0 111.842537,39.620146,0 111.878955,39.605854,0 111.92838,39.610265,0 111.925489,39.667413,0 111.956416,39.687685,0 111.970578,39.796349,0 112.035032,39.854398,0 112.042547,39.886215,0 112.076363,39.919424,0 112.174923,40.051219,0 112.183594,40.083997,0 112.223191,40.128844,0 112.233018,40.170336,0 112.300074,40.211452,0 112.31019,40.256389,0 112.292559,40.30741,0 112.266257,40.329589,0 112.270014,40.357869,0 112.235909,40.355077,0 112.264523,40.388406,0 112.2177,40.42939,0 112.225214,40.448565,0 112.184172,40.463902,0 112.134748,40.511109,0 112.111914,40.510064,0 112.053819,40.558109,0 112.056131,40.581597,0 112.098619,40.583511,0 112.086769,40.620377,0 112.047171,40.644017,0 112.080121,40.667127,0 112.115383,40.658961,0 112.130412,40.697696,0 112.093416,40.740748,0 112.151222,40.762957,0 112.181571,40.81082,0 112.18764,40.85016,0 112.15498,40.880645,0 112.12521,40.961468,0 112.094861,40.948321,0 112.04168,40.969423,0 112.017979,41.013508,0 112.034454,41.047373,0 111.930403,41.094858,0 111.883869,41.129199,0 111.853809,41.224533,0 111.828086,41.222983,0 111.840514,41.252263,0 111.791668,41.264315,0 111.730971,41.310955,0 111.673454,41.301837,0 111.582409,41.306826,0 111.541367,41.328501,0 111.425754,41.318869,0 111.35552,41.313192,0 111.279505,41.290307,0 111.23615,41.24038,0 111.162736,41.283423,0 111.102618,41.308375,0 111.093947,41.287209,0 111.034984,41.299772,0 111.011284,41.335381,0 110.966195,41.348106,0 110.950587,41.318697,0 110.887,41.334865,0 110.875728,41.357046,0 110.823703,41.357734,0 110.828905,41.383173,0 110.762139,41.374236,0 110.742196,41.385579,0 110.647683,41.333317,0 110.633809,41.317321,0 110.582073,41.331769,0 110.552302,41.288758,0 110.519353,41.285144,0 110.56502,41.261905,0 110.557794,41.234007,0 110.601438,41.220571,0 110.627161,41.16628,0 110.654619,41.166625,0 110.64537,41.101935,0 110.677742,41.053764,0 110.660689,41.008496,0 110.628607,40.989135,0 110.645659,40.919944,0 110.712426,40.939325,0 110.745086,40.918905,0 110.713004,40.810127,0 110.73497,40.785852,0 110.783816,40.793829,0 110.797401,40.760702,0 110.788441,40.68884,0 110.807806,40.615162,0 110.830928,40.586989,0 110.880064,40.586468,0 110.843068,40.53531,0 110.889024,40.511806,0 110.908678,40.481848,0 110.959547,40.496306,0 110.965906,40.471569,0 111.020533,40.459197,0 111.035851,40.423113,0 111.083542,40.425729,0 111.106664,40.381078,0 111.115046,40.331335,0 111.034117,40.315445,0 111.033539,40.288195,0</coordinates></LinearRing></outerBoundaryIs>
      </Polygon>
    </MultiGeometry>
    </Placemark>
  </Document>
</kml>
