<?xml version="1.0" encoding="UTF-8"?>
<kml xmlns="http://www.opengis.net/kml/2.2">
  <Document>
    <name><![CDATA[巴彦淖尔市]]></name>
    <Placemark>
      <name><![CDATA[巴彦淖尔市]]></name>
      <description><![CDATA[省级目录：内蒙古自治区]]></description>
      <ExtendedData>
        <Data name="adcode"><value>150800</value></Data>
      </ExtendedData>
      <MultiGeometry>
      <Polygon>
        <outerBoundaryIs><LinearRing><coordinates>106.866867,40.16806,0 106.972363,40.218798,0 107.022655,40.258312,0 107.044332,40.328891,0 107.089132,40.359964,0 107.171795,40.39015,0 107.155031,40.451877,0 107.203299,40.506059,0 107.1611,40.525387,0 107.164858,40.574291,0 107.226999,40.559502,0 107.2507,40.582641,0 107.285673,40.649404,0 107.38481,40.643669,0 107.454467,40.680155,0 107.487127,40.712108,0 107.529904,40.702385,0 107.584531,40.73988,0 107.613145,40.778221,0 107.664015,40.757405,0 107.696386,40.768508,0 107.698409,40.8129,0 107.735983,40.814981,0 107.728179,40.84219,0 107.758528,40.861767,0 107.820669,40.836472,0 107.855353,40.874238,0 107.914605,40.848774,0 107.968942,40.867656,0 108.000736,40.845309,0 108.03224,40.855011,0 108.16664,40.852759,0 108.171553,40.86731,0 108.223579,40.853625,0 108.234562,40.820354,0 108.302195,40.818447,0 108.344394,40.805273,0 108.436595,40.794003,0 108.48573,40.754282,0 108.481105,40.735889,0 108.562034,40.728078,0 108.611748,40.673555,0 108.604522,40.656181,0 108.658282,40.635327,0 108.690075,40.640715,0 108.731406,40.609424,0 108.776206,40.612554,0 108.761466,40.578466,0 108.774472,40.550104,0 108.826209,40.566984,0 108.880257,40.559502,0 108.97795,40.527476,0 109.000494,40.542098,0 109.079111,40.54906,0 109.084313,40.529739,0 109.156282,40.535832,0 109.172179,40.516333,0 109.223915,40.519119,0 109.227673,40.485855,0 109.257732,40.502924,0 109.319296,40.501009,0 109.333458,40.479235,0 109.402826,40.476447,0 109.410051,40.456583,0 109.435775,40.50902,0 109.421902,40.585772,0 109.438955,40.608554,0 109.405427,40.630112,0 109.41352,40.704989,0 109.481731,40.748557,0 109.528554,40.732417,0 109.708332,40.743177,0 109.780878,40.754803,0 109.816718,40.807526,0 109.900826,40.882377,0 109.875681,40.919598,0 109.836083,40.945207,0 109.812961,41.002101,0 109.746195,41.00936,0 109.736946,41.03148,0 109.691857,41.041327,0 109.677694,41.104351,0 109.717581,41.115913,0 109.721916,41.138514,0 109.686365,41.173694,0 109.61931,41.280325,0 109.627981,41.310095,0 109.695614,41.322653,0 109.698794,41.379736,0 109.662376,41.39606,0 109.626247,41.433849,0 109.66093,41.473504,0 109.66411,41.49924,0 109.58347,41.494437,0 109.449071,41.506445,0 109.425948,41.537312,0 109.441556,41.564394,0 109.4193,41.651563,0 109.399068,41.691598,0 109.34184,41.742545,0 109.364963,41.766296,0 109.317272,41.80882,0 109.277386,41.869909,0 109.283745,41.88611,0 109.338083,41.902988,0 109.37479,41.932984,0 109.48809,42.077651,0 109.515548,42.139672,0 109.539248,42.147314,0 109.507166,42.265905,0 109.459765,42.361937,0 109.441556,42.378689,0 109.433752,42.427567,0 109.383172,42.447683,0 109.291549,42.435851,0 109.02564,42.458498,0 108.983153,42.448866,0 108.845574,42.395776,0 108.798751,42.415225,0 108.704816,42.413364,0 108.532842,42.44295,0 108.298438,42.438386,0 108.23803,42.460357,0 108.089179,42.436358,0 108.022413,42.433315,0 107.939172,42.403725,0 107.736561,42.415055,0 107.574415,42.413026,0 107.501868,42.456808,0 107.466317,42.458836,0 107.304171,42.412688,0 107.271799,42.364137,0 107.051269,42.319274,0 106.785938,42.291494,0 106.613097,42.241831,0 106.344877,42.149522,0 106.013069,42.032074,0 105.741669,41.94934,0 105.589638,41.888497,0 105.385293,41.797209,0 105.291647,41.749894,0 105.233841,41.75109,0 105.226326,41.679795,0 105.201469,41.542798,0 105.222858,41.396748,0 105.248003,41.319557,0 105.317082,41.201273,0 105.334135,41.131614,0 105.317949,41.113325,0 105.379224,41.059636,0 105.398589,40.983949,0 105.504663,40.926866,0 105.558712,40.890342,0 105.63675,40.854491,0 105.704384,40.810127,0 105.781266,40.785506,0 105.835604,40.782037,0 105.944279,40.739533,0 106.115386,40.71801,0 106.155561,40.69266,0 106.18273,40.704642,0 106.211344,40.673207,0 106.241981,40.668517,0 106.247184,40.626288,0 106.299788,40.592033,0 106.319442,40.598816,0 106.479565,40.555151,0 106.498352,40.483416,0 106.48101,40.493868,0 106.374069,40.491952,0 106.344588,40.519815,0 106.281001,40.539661,0 106.279266,40.509368,0 106.209321,40.516333,0 106.229264,40.465296,0 106.328402,40.346698,0 106.432742,40.348619,0 106.468004,40.325573,0 106.521186,40.37375,0 106.60327,40.386836,0 106.673794,40.384742,0 106.813685,40.369911,0 106.820044,40.355251,0 106.765706,40.294834,0 106.705587,40.262332,0 106.740271,40.196408,0 106.810795,40.182411,0 106.866289,40.185385,0 106.866867,40.16806,0</coordinates></LinearRing></outerBoundaryIs>
      </Polygon>
    </MultiGeometry>
    </Placemark>
  </Document>
</kml>
