<?xml version="1.0" encoding="UTF-8"?>
<kml xmlns="http://www.opengis.net/kml/2.2">
  <Document>
    <name><![CDATA[宁德市]]></name>
    <Placemark>
      <name><![CDATA[宁德市]]></name>
      <description><![CDATA[省级目录：福建省]]></description>
      <ExtendedData>
        <Data name="adcode"><value>350900</value></Data>
      </ExtendedData>
      <MultiGeometry>
      <Polygon>
        <outerBoundaryIs><LinearRing><coordinates>119.799983,26.546836,0 119.799349,26.556167,0 119.789746,26.566925,0 119.793256,26.573969,0 119.788381,26.58325,0 119.769514,26.591769,0 119.752597,26.596194,0 119.740069,26.610707,0 119.72793,26.614133,0 119.699264,26.610184,0 119.689611,26.610993,0 119.679033,26.617654,0 119.67016,26.617987,0 119.660995,26.609994,0 119.636327,26.601809,0 119.620678,26.592149,0 119.607954,26.594053,0 119.577923,26.622269,0 119.584115,26.633829,0 119.591866,26.63264,0 119.619508,26.649099,0 119.628234,26.67635,0 119.634572,26.676017,0 119.640958,26.685195,0 119.633207,26.698793,0 119.637741,26.703025,0 119.65768,26.7006,0 119.66431,26.72185,0 119.656851,26.728124,0 119.65339,26.744664,0 119.657533,26.744284,0 119.6647,26.726128,0 119.695072,26.696701,0 119.711062,26.686621,0 119.741531,26.684386,0 119.787552,26.690996,0 119.810416,26.684196,0 119.830452,26.690948,0 119.852488,26.682104,0 119.862433,26.673877,0 119.858338,26.659895,0 119.861409,26.645436,0 119.873938,26.642915,0 119.90821,26.661417,0 119.901141,26.671547,0 119.9047,26.676588,0 119.899191,26.693183,0 119.905041,26.69751,0 119.913134,26.713056,0 119.929758,26.725462,0 119.93824,26.74205,0 119.938338,26.749274,0 119.924688,26.770182,0 119.932293,26.780112,0 119.943067,26.784768,0 119.95896,26.78282,0 119.968905,26.786098,0 119.967442,26.777879,0 119.979581,26.774934,0 119.99562,26.781395,0 120.028966,26.78206,0 120.056364,26.785956,0 120.063091,26.774363,0 120.059484,26.766191,0 120.041153,26.748656,0 120.032427,26.747706,0 120.020581,26.739104,0 120.019557,26.728409,0 119.993963,26.720566,0 119.989185,26.710298,0 119.970562,26.691566,0 119.977046,26.677301,0 119.971245,26.66779,0 119.970172,26.652904,0 119.957985,26.648671,0 119.961153,26.637492,0 119.949209,26.624457,0 119.946431,26.61204,0 119.940337,26.623078,0 119.918496,26.621317,0 119.901921,26.624553,0 119.892366,26.61675,0 119.851952,26.595385,0 119.84576,26.589009,0 119.844444,26.568924,0 119.834986,26.561165,0 119.836595,26.549502,0 119.830209,26.541075,0 119.828551,26.52422,0 119.83913,26.51422,0 119.867016,26.508887,0 119.884663,26.510077,0 119.893731,26.51403,0 119.902165,26.530506,0 119.911818,26.53998,0 119.933609,26.545122,0 119.93902,26.555881,0 119.947649,26.560641,0 119.937997,26.576539,0 119.946918,26.589722,0 119.967735,26.59767,0 119.983871,26.593482,0 120.00771,26.595623,0 120.030769,26.607948,0 120.059971,26.625932,0 120.068064,26.627455,0 120.079228,26.616274,0 120.093902,26.613705,0 120.103798,26.620509,0 120.13807,26.638016,0 120.144603,26.649432,0 120.127832,26.648576,0 120.130952,26.661893,0 120.120763,26.658849,0 120.11545,26.663843,0 120.110623,26.692803,0 120.12793,26.705354,0 120.150306,26.709538,0 120.15991,26.715908,0 120.16576,26.731499,0 120.150453,26.734493,0 120.158545,26.746708,0 120.148454,26.749987,0 120.126467,26.741242,0 120.11428,26.743429,0 120.106821,26.752838,0 120.124127,26.781015,0 120.137046,26.788189,0 120.13651,26.797785,0 120.128515,26.794317,0 120.121787,26.798165,0 120.102336,26.795695,0 120.094243,26.814647,0 120.104773,26.823671,0 120.102433,26.826805,0 120.082592,26.822294,0 120.063676,26.824288,0 120.050172,26.840244,0 120.049441,26.853492,0 120.054462,26.863699,0 120.070599,26.863699,0 120.083469,26.871533,0 120.103701,26.872957,0 120.11818,26.882878,0 120.12169,26.895551,0 120.117887,26.90585,0 120.118765,26.9189,0 120.12676,26.920418,0 120.138411,26.915293,0 120.146894,26.922648,0 120.156157,26.917856,0 120.180581,26.920418,0 120.190038,26.914629,0 120.208369,26.915958,0 120.226114,26.91311,0 120.231915,26.907226,0 120.237522,26.917856,0 120.247223,26.924831,0 120.248734,26.938211,0 120.243615,26.939492,0 120.250928,26.973172,0 120.261312,26.982657,0 120.27857,26.985787,0 120.279399,27.009828,0 120.274426,27.027939,0 120.256534,27.031874,0 120.263896,27.035239,0 120.295681,27.035713,0 120.299776,27.039553,0 120.286857,27.062493,0 120.290806,27.074387,0 120.282762,27.089787,0 120.28754,27.093909,0 120.306601,27.087986,0 120.319862,27.094382,0 120.326833,27.08737,0 120.358911,27.085712,0 120.392062,27.081258,0 120.40186,27.089266,0 120.403274,27.100636,0 120.426041,27.111816,0 120.461678,27.142555,0 120.445297,27.160881,0 120.438375,27.161023,0 120.426138,27.173476,0 120.4257,27.183323,0 120.404396,27.204009,0 120.400934,27.211534,0 120.413951,27.230937,0 120.398545,27.242483,0 120.401763,27.250857,0 120.415364,27.256392,0 120.422385,27.25081,0 120.430038,27.258852,0 120.408783,27.276639,0 120.401373,27.298584,0 120.383433,27.312676,0 120.374804,27.329272,0 120.358326,27.337545,0 120.351452,27.346764,0 120.355255,27.353901,0 120.343262,27.366237,0 120.351598,27.383581,0 120.340727,27.399647,0 120.331757,27.396056,0 120.319813,27.399694,0 120.315572,27.4056,0 120.315279,27.393268,0 120.302701,27.392229,0 120.289539,27.395914,0 120.273353,27.389393,0 120.258192,27.412687,0 120.263798,27.418025,0 120.262433,27.432905,0 120.248978,27.439895,0 120.24693,27.434558,0 120.221629,27.420292,0 120.213195,27.420292,0 120.202372,27.42837,0 120.176876,27.419962,0 120.165614,27.424827,0 120.134511,27.41982,0 120.130514,27.413395,0 120.137192,27.40234,0 120.128856,27.391614,0 120.121592,27.397426,0 120.107162,27.395583,0 120.096242,27.390339,0 120.096876,27.379612,0 120.077034,27.369215,0 120.061141,27.347425,0 120.052269,27.33868,0 120.027552,27.342273,0 120.026626,27.350781,0 120.015949,27.364772,0 120.009612,27.363921,0 120.005224,27.376682,0 119.994206,27.379186,0 119.988356,27.371389,0 119.960276,27.366096,0 119.96403,27.360471,0 119.960178,27.351869,0 119.951306,27.346764,0 119.938874,27.323788,0 119.944042,27.314142,0 119.933512,27.316553,0 119.903286,27.317594,0 119.899045,27.311494,0 119.887637,27.313338,0 119.87896,27.309602,0 119.878131,27.301847,0 119.865602,27.306198,0 119.871306,27.315419,0 119.856729,27.314804,0 119.846199,27.324071,0 119.83484,27.312534,0 119.844834,27.306623,0 119.840154,27.298915,0 119.822311,27.301422,0 119.819532,27.29603,0 119.80988,27.304495,0 119.795742,27.310454,0 119.790477,27.302604,0 119.770587,27.305678,0 119.769758,27.323267,0 119.784968,27.323598,0 119.781458,27.330501,0 119.768393,27.335749,0 119.769124,27.34544,0 119.750647,27.350403,0 119.746991,27.360235,0 119.740507,27.36222,0 119.750452,27.373232,0 119.741434,27.375453,0 119.739581,27.386795,0 119.732512,27.389819,0 119.724907,27.401253,0 119.709551,27.404702,0 119.704675,27.424686,0 119.689514,27.430826,0 119.685468,27.438431,0 119.693902,27.438667,0 119.703408,27.44731,0 119.703993,27.45855,0 119.709941,27.462469,0 119.706723,27.483339,0 119.709989,27.495849,0 119.703018,27.499295,0 119.708576,27.514259,0 119.684639,27.541159,0 119.682591,27.536959,0 119.667186,27.533561,0 119.659337,27.539696,0 119.668844,27.556494,0 119.672012,27.556399,0 119.675084,27.574374,0 119.645443,27.578195,0 119.630867,27.582676,0 119.626479,27.620499,0 119.641104,27.625403,0 119.64754,27.640538,0 119.639642,27.652653,0 119.644029,27.663495,0 119.635157,27.66868,0 119.606248,27.67476,0 119.594986,27.666889,0 119.583968,27.665145,0 119.578947,27.669858,0 119.566516,27.663731,0 119.550135,27.663825,0 119.549307,27.670141,0 119.539167,27.675372,0 119.541897,27.663919,0 119.53707,27.658923,0 119.525906,27.66029,0 119.520446,27.650108,0 119.511476,27.653455,0 119.50119,27.649872,0 119.497972,27.625875,0 119.500946,27.608239,0 119.488709,27.598807,0 119.481836,27.585648,0 119.484809,27.570411,0 119.477497,27.553851,0 119.474669,27.539318,0 119.466528,27.526435,0 119.451708,27.513551,0 119.438496,27.508783,0 119.432841,27.513031,0 119.426893,27.53106,0 119.416656,27.539649,0 119.394962,27.539271,0 119.376826,27.534977,0 119.360056,27.524406,0 119.341872,27.506801,0 119.347673,27.492781,0 119.334706,27.480034,0 119.285029,27.457652,0 119.276449,27.435502,0 119.267868,27.421473,0 119.262116,27.420623,0 119.259971,27.410655,0 119.263578,27.397899,0 119.273718,27.387173,0 119.275327,27.379234,0 119.267917,27.369404,0 119.253877,27.365009,0 119.254949,27.348513,0 119.247393,27.345345,0 119.242762,27.333101,0 119.245882,27.3201,0 119.235985,27.320998,0 119.22877,27.312534,0 119.217314,27.311588,0 119.210684,27.297355,0 119.208441,27.274983,0 119.211805,27.263347,0 119.204931,27.260887,0 119.216631,27.252891,0 119.233402,27.235338,0 119.245492,27.238697,0 119.271768,27.212575,0 119.26353,27.197619,0 119.255876,27.204624,0 119.247198,27.201453,0 119.234718,27.211676,0 119.23501,27.224123,0 119.207027,27.232025,0 119.20147,27.209262,0 119.178557,27.199559,0 119.178118,27.176884,0 119.175339,27.169073,0 119.188307,27.169783,0 119.191768,27.161828,0 119.186016,27.133226,0 119.205029,27.126311,0 119.205077,27.115227,0 119.195717,27.109211,0 119.18548,27.116411,0 119.161348,27.107553,0 119.160373,27.092061,0 119.143895,27.087891,0 119.127661,27.087418,0 119.134437,27.070975,0 119.136436,27.056332,0 119.11991,27.053109,0 119.120446,27.058512,0 119.107917,27.073866,0 119.093779,27.082916,0 119.093389,27.097272,0 119.077058,27.10111,0 119.059605,27.098078,0 119.046394,27.106653,0 119.042883,27.102484,0 119.021969,27.102579,0 119.013877,27.09642,0 119.001445,27.097225,0 118.991159,27.107695,0 118.99969,27.121953,0 118.9915,27.12669,0 118.987893,27.158751,0 118.964443,27.168552,0 118.943773,27.171535,0 118.937387,27.175511,0 118.929733,27.168978,0 118.933974,27.159887,0 118.940214,27.162349,0 118.931878,27.144876,0 118.9349,27.137867,0 118.947771,27.141324,0 118.946357,27.127163,0 118.956595,27.127353,0 118.958106,27.117216,0 118.946406,27.104995,0 118.93178,27.113616,0 118.924078,27.112385,0 118.916034,27.096893,0 118.902432,27.090403,0 118.898289,27.072586,0 118.880202,27.054151,0 118.874157,27.035287,0 118.860263,27.022155,0 118.847685,27.023625,0 118.841835,27.013527,0 118.845053,27.000677,0 118.837691,26.988585,0 118.824675,26.981377,0 118.803858,26.976349,0 118.792889,26.965393,0 118.792207,26.95306,0 118.782652,26.947083,0 118.74721,26.949597,0 118.734876,26.956428,0 118.712109,26.944378,0 118.699775,26.950308,0 118.696558,26.960412,0 118.681348,26.963543,0 118.671792,26.94732,0 118.69334,26.928057,0 118.703237,26.906182,0 118.698313,26.888146,0 118.692317,26.882213,0 118.696022,26.872102,0 118.690415,26.864601,0 118.672572,26.859522,0 118.663261,26.86313,0 118.650927,26.860756,0 118.649221,26.854631,0 118.631817,26.852257,0 118.625772,26.839817,0 118.641274,26.818684,0 118.637472,26.794744,0 118.625284,26.787286,0 118.624114,26.771228,0 118.613584,26.7507,0 118.61334,26.736395,0 118.605248,26.727269,0 118.602566,26.707921,0 118.587892,26.709395,0 118.581067,26.701218,0 118.58175,26.692898,0 118.572292,26.683435,0 118.578435,26.675019,0 118.589355,26.674733,0 118.598764,26.669122,0 118.600616,26.6598,0 118.595644,26.653284,0 118.594084,26.638158,0 118.586625,26.627788,0 118.584772,26.613324,0 118.588721,26.605236,0 118.580823,26.565068,0 118.590866,26.553168,0 118.604565,26.550787,0 118.618947,26.554025,0 118.615095,26.540314,0 118.615193,26.523554,0 118.605394,26.505886,0 118.608611,26.48955,0 118.601738,26.477546,0 118.587502,26.474688,0 118.567076,26.464874,0 118.556692,26.444482,0 118.566442,26.434237,0 118.566247,26.428709,0 118.549623,26.412981,0 118.550891,26.391436,0 118.562103,26.387002,0 118.563127,26.367168,0 118.584139,26.371698,0 118.594327,26.360779,0 118.592524,26.350764,0 118.59813,26.351003,0 118.609489,26.361971,0 118.623919,26.366167,0 118.629038,26.359348,0 118.640641,26.355152,0 118.662237,26.34218,0 118.663359,26.329207,0 118.652,26.319572,0 118.665991,26.29381,0 118.666479,26.275344,0 118.683395,26.286987,0 118.681494,26.291806,0 118.696607,26.291472,0 118.690708,26.297913,0 118.691829,26.311033,0 118.711476,26.326679,0 118.720543,26.340368,0 118.751988,26.338651,0 118.75345,26.334263,0 118.773487,26.328635,0 118.794157,26.340463,0 118.798935,26.36054,0 118.779922,26.373271,0 118.766271,26.392675,0 118.753304,26.398539,0 118.762274,26.420941,0 118.731171,26.43843,0 118.73551,26.448151,0 118.735656,26.470544,0 118.754913,26.48512,0 118.746917,26.50241,0 118.748185,26.510792,0 118.762274,26.511554,0 118.782847,26.505648,0 118.783822,26.493218,0 118.796838,26.490026,0 118.805321,26.4825,0 118.804736,26.468305,0 118.797521,26.460348,0 118.811122,26.448056,0 118.810342,26.432378,0 118.817021,26.436143,0 118.82526,26.432998,0 118.827551,26.426374,0 118.854803,26.439526,0 118.860214,26.453392,0 118.868599,26.456299,0 118.872109,26.466494,0 118.906528,26.477975,0 118.926272,26.477594,0 118.938313,26.465637,0 118.950257,26.469496,0 118.954206,26.482881,0 118.950988,26.491646,0 118.939824,26.493456,0 118.940702,26.503219,0 118.948307,26.510506,0 118.953816,26.525554,0 118.968197,26.532458,0 118.983944,26.5336,0 118.995108,26.528791,0 119.00164,26.54536,0 118.99384,26.553644,0 119.006125,26.555738,0 119.013974,26.573493,0 119.015729,26.58977,0 119.026259,26.587724,0 119.028453,26.598431,0 119.051317,26.597194,0 119.057801,26.603665,0 119.074084,26.59272,0 119.07696,26.586296,0 119.065406,26.579395,0 119.063213,26.570875,0 119.072134,26.56721,0 119.090415,26.565973,0 119.100312,26.575016,0 119.101628,26.559213,0 119.1125,26.55074,0 119.115912,26.538885,0 119.135022,26.542409,0 119.141311,26.537933,0 119.14838,26.543694,0 119.159398,26.541266,0 119.167247,26.549407,0 119.182311,26.55431,0 119.196107,26.568876,0 119.204492,26.563402,0 119.21512,26.545884,0 119.215461,26.536743,0 119.229111,26.52403,0 119.246662,26.532886,0 119.253682,26.54855,0 119.279179,26.535076,0 119.285126,26.570352,0 119.29902,26.591436,0 119.316083,26.591293,0 119.320275,26.585249,0 119.31501,26.575492,0 119.332268,26.578919,0 119.335486,26.585249,0 119.348307,26.590198,0 119.344212,26.597955,0 119.351476,26.602999,0 119.360641,26.598954,0 119.371513,26.601524,0 119.379556,26.611516,0 119.380434,26.621508,0 119.388039,26.622935,0 119.406418,26.617464,0 119.414559,26.623506,0 119.401592,26.628121,0 119.408466,26.6344,0 119.424505,26.624695,0 119.449075,26.630642,0 119.466625,26.627264,0 119.473889,26.631356,0 119.500556,26.621222,0 119.50665,26.607234,0 119.530781,26.578348,0 119.524444,26.573588,0 119.534779,26.56107,0 119.556229,26.554786,0 119.557643,26.544932,0 119.565492,26.546455,0 119.585382,26.537219,0 119.59562,26.540742,0 119.605029,26.536124,0 119.610391,26.527363,0 119.622579,26.521125,0 119.637936,26.52822,0 119.659337,26.526077,0 119.665529,26.535743,0 119.675084,26.537647,0 119.681909,26.559118,0 119.699362,26.569257,0 119.72871,26.559547,0 119.744066,26.5684,0 119.743676,26.575825,0 119.763664,26.577063,0 119.782628,26.566734,0 119.794279,26.556833,0 119.799983,26.546836,0</coordinates></LinearRing></outerBoundaryIs>
      </Polygon>
      <Polygon>
        <outerBoundaryIs><LinearRing><coordinates>118.82526,26.432998,0 118.817021,26.436143,0 118.810342,26.432378,0 118.827551,26.426374,0 118.82526,26.432998,0</coordinates></LinearRing></outerBoundaryIs>
      </Polygon>
      <Polygon>
        <outerBoundaryIs><LinearRing><coordinates>120.713329,26.988253,0 120.712744,26.974642,0 120.720544,26.974737,0 120.725566,26.990529,0 120.713329,26.988253,0</coordinates></LinearRing></outerBoundaryIs>
      </Polygon>
      <Polygon>
        <outerBoundaryIs><LinearRing><coordinates>120.694414,27.002858,0 120.695048,26.993327,0 120.706358,26.998022,0 120.708113,27.006983,0 120.696218,27.008596,0 120.694414,27.002858,0</coordinates></LinearRing></outerBoundaryIs>
      </Polygon>
      <Polygon>
        <outerBoundaryIs><LinearRing><coordinates>120.249466,26.934131,0 120.247662,26.914059,0 120.265163,26.916764,0 120.267845,26.925543,0 120.258338,26.924451,0 120.269843,26.935459,0 120.257899,26.930287,0 120.249466,26.934131,0</coordinates></LinearRing></outerBoundaryIs>
      </Polygon>
      <Polygon>
        <outerBoundaryIs><LinearRing><coordinates>120.318155,26.930667,0 120.324103,26.934415,0 120.308893,26.939112,0 120.283932,26.930098,0 120.293634,26.923977,0 120.314597,26.922696,0 120.318155,26.930667,0</coordinates></LinearRing></outerBoundaryIs>
      </Polygon>
      <Polygon>
        <outerBoundaryIs><LinearRing><coordinates>119.807588,26.673497,0 119.81339,26.665317,0 119.827284,26.674448,0 119.80949,26.682342,0 119.797594,26.683721,0 119.807588,26.673497,0</coordinates></LinearRing></outerBoundaryIs>
      </Polygon>
      <Polygon>
        <outerBoundaryIs><LinearRing><coordinates>120.350867,26.640679,0 120.369051,26.634828,0 120.35545,26.647291,0 120.350867,26.640679,0</coordinates></LinearRing></outerBoundaryIs>
      </Polygon>
      <Polygon>
        <outerBoundaryIs><LinearRing><coordinates>119.906796,26.68976,0 119.904651,26.682294,0 119.916839,26.674686,0 119.925565,26.675019,0 119.926784,26.664604,0 119.934048,26.666554,0 119.946723,26.659753,0 119.939167,26.670644,0 119.943652,26.684101,0 119.950818,26.69247,0 119.919618,26.692232,0 119.906796,26.68976,0</coordinates></LinearRing></outerBoundaryIs>
      </Polygon>
      <Polygon>
        <outerBoundaryIs><LinearRing><coordinates>119.801251,26.567496,0 119.814023,26.560403,0 119.816949,26.572684,0 119.801251,26.567496,0</coordinates></LinearRing></outerBoundaryIs>
      </Polygon>
      <Polygon>
        <outerBoundaryIs><LinearRing><coordinates>120.348625,26.701456,0 120.344481,26.696226,0 120.350331,26.690283,0 120.372025,26.699316,0 120.359252,26.708872,0 120.348625,26.701456,0</coordinates></LinearRing></outerBoundaryIs>
      </Polygon>
      <Polygon>
        <outerBoundaryIs><LinearRing><coordinates>120.034377,26.488788,0 120.048125,26.494599,0 120.06197,26.494504,0 120.071281,26.508887,0 120.071574,26.521316,0 120.060264,26.522411,0 120.057485,26.516268,0 120.049197,26.52022,0 120.036132,26.515935,0 120.032817,26.500886,0 120.026431,26.497504,0 120.034377,26.488788,0</coordinates></LinearRing></outerBoundaryIs>
      </Polygon>
      <Polygon>
        <outerBoundaryIs><LinearRing><coordinates>120.150063,26.555643,0 120.148356,26.551597,0 120.164737,26.554786,0 120.157034,26.562355,0 120.150063,26.555643,0</coordinates></LinearRing></outerBoundaryIs>
      </Polygon>
      <Polygon>
        <outerBoundaryIs><LinearRing><coordinates>120.137387,26.684244,0 120.14002,26.691852,0 120.125054,26.696511,0 120.124712,26.688856,0 120.137387,26.684244,0</coordinates></LinearRing></outerBoundaryIs>
      </Polygon>
      <Polygon>
        <outerBoundaryIs><LinearRing><coordinates>120.132659,26.53041,0 120.146991,26.527982,0 120.153621,26.533077,0 120.147089,26.544408,0 120.137972,26.54198,0 120.140117,26.536124,0 120.132659,26.53041,0</coordinates></LinearRing></outerBoundaryIs>
      </Polygon>
      <Polygon>
        <outerBoundaryIs><LinearRing><coordinates>120.373634,26.959559,0 120.377193,26.952538,0 120.392062,26.958847,0 120.373634,26.959559,0</coordinates></LinearRing></outerBoundaryIs>
      </Polygon>
      <Polygon>
        <outerBoundaryIs><LinearRing><coordinates>120.002982,26.544313,0 119.997668,26.533743,0 120.002933,26.533172,0 120.011269,26.542599,0 120.001909,26.551978,0 120.002982,26.544313,0</coordinates></LinearRing></outerBoundaryIs>
      </Polygon>
      <Polygon>
        <outerBoundaryIs><LinearRing><coordinates>119.760885,26.613277,0 119.766979,26.604331,0 119.776485,26.599811,0 119.792134,26.605473,0 119.797789,26.611421,0 119.811488,26.608804,0 119.818752,26.621032,0 119.798862,26.631213,0 119.7603,26.620889,0 119.760885,26.613277,0</coordinates></LinearRing></outerBoundaryIs>
      </Polygon>
      <Polygon>
        <outerBoundaryIs><LinearRing><coordinates>119.796766,26.600192,0 119.80793,26.600382,0 119.8013,26.60614,0 119.796766,26.600192,0</coordinates></LinearRing></outerBoundaryIs>
      </Polygon>
      <Polygon>
        <outerBoundaryIs><LinearRing><coordinates>120.403908,27.096135,0 120.421263,27.097415,0 120.425163,27.104474,0 120.413171,27.103242,0 120.403908,27.096135,0</coordinates></LinearRing></outerBoundaryIs>
      </Polygon>
      <Polygon>
        <outerBoundaryIs><LinearRing><coordinates>120.135925,26.550978,0 120.150404,26.560213,0 120.150745,26.568733,0 120.166979,26.571494,0 120.171074,26.598907,0 120.162933,26.605569,0 120.150843,26.602571,0 120.136802,26.588057,0 120.134609,26.581394,0 120.117936,26.569114,0 120.126419,26.554691,0 120.135925,26.550978,0</coordinates></LinearRing></outerBoundaryIs>
      </Polygon>
      <Polygon>
        <outerBoundaryIs><LinearRing><coordinates>120.219581,26.872245,0 120.228941,26.87647,0 120.224651,26.887102,0 120.214755,26.878273,0 120.219581,26.872245,0</coordinates></LinearRing></outerBoundaryIs>
      </Polygon>
      <Polygon>
        <outerBoundaryIs><LinearRing><coordinates>120.133682,26.48955,0 120.134901,26.483263,0 120.146114,26.489883,0 120.14392,26.497933,0 120.133682,26.48955,0</coordinates></LinearRing></outerBoundaryIs>
      </Polygon>
      <Polygon>
        <outerBoundaryIs><LinearRing><coordinates>120.360617,26.916859,0 120.380166,26.927393,0 120.39562,26.926444,0 120.394402,26.933893,0 120.380508,26.940251,0 120.370514,26.961883,0 120.354231,26.970942,0 120.339021,26.970373,0 120.320934,26.956143,0 120.322348,26.940203,0 120.343116,26.922221,0 120.360617,26.916859,0</coordinates></LinearRing></outerBoundaryIs>
      </Polygon>
      <Polygon>
        <outerBoundaryIs><LinearRing><coordinates>120.141531,26.798877,0 120.144603,26.791752,0 120.16108,26.787856,0 120.161812,26.803437,0 120.150501,26.804245,0 120.141531,26.798877,0</coordinates></LinearRing></outerBoundaryIs>
      </Polygon>
      <Polygon>
        <outerBoundaryIs><LinearRing><coordinates>119.66821,26.628454,0 119.694487,26.630071,0 119.720666,26.636065,0 119.758789,26.659515,0 119.762835,26.674971,0 119.74899,26.681105,0 119.712866,26.668504,0 119.691708,26.671024,0 119.673962,26.68082,0 119.666162,26.679536,0 119.656851,26.669883,0 119.651927,26.648909,0 119.658606,26.634353,0 119.66821,26.628454,0</coordinates></LinearRing></outerBoundaryIs>
      </Polygon>
      <Polygon>
        <outerBoundaryIs><LinearRing><coordinates>119.778045,26.676065,0 119.788673,26.680392,0 119.791452,26.688476,0 119.777802,26.685147,0 119.778045,26.676065,0</coordinates></LinearRing></outerBoundaryIs>
      </Polygon>
    </MultiGeometry>
    </Placemark>
  </Document>
</kml>
