<?xml version="1.0" encoding="UTF-8"?>
<kml xmlns="http://www.opengis.net/kml/2.2">
  <Document>
    <name><![CDATA[泉州市]]></name>
    <Placemark>
      <name><![CDATA[泉州市]]></name>
      <description><![CDATA[省级目录：福建省]]></description>
      <ExtendedData>
        <Data name="adcode"><value>350500</value></Data>
      </ExtendedData>
      <MultiGeometry>
      <Polygon>
        <outerBoundaryIs><LinearRing><coordinates>118.899849,25.241366,0 118.875473,25.241366,0 118.869623,25.237659,0 118.869477,25.227646,0 118.850123,25.216573,0 118.848709,25.224902,0 118.827697,25.218258,0 118.800982,25.217103,0 118.801323,25.220714,0 118.781872,25.213829,0 118.776753,25.203717,0 118.778508,25.195387,0 118.765101,25.195001,0 118.74487,25.185851,0 118.741019,25.1872,0 118.725711,25.168754,0 118.717521,25.169428,0 118.70465,25.157579,0 118.691585,25.15493,0 118.692024,25.169332,0 118.677789,25.177761,0 118.677838,25.191679,0 118.673645,25.200684,0 118.682225,25.201213,0 118.691537,25.212192,0 118.682371,25.212384,0 118.683444,25.230679,0 118.688075,25.23453,0 118.68476,25.244687,0 118.695778,25.258502,0 118.680421,25.271111,0 118.672767,25.264807,0 118.662042,25.265721,0 118.659605,25.25778,0 118.646442,25.268416,0 118.650098,25.27448,0 118.662579,25.280062,0 118.66643,25.289782,0 118.655705,25.301955,0 118.632694,25.301378,0 118.625577,25.293487,0 118.61568,25.293102,0 118.59618,25.302388,0 118.578288,25.301282,0 118.571853,25.286703,0 118.563517,25.290263,0 118.533389,25.291274,0 118.530171,25.308739,0 118.535729,25.320766,0 118.528221,25.325817,0 118.520519,25.312395,0 118.512865,25.317591,0 118.522371,25.333994,0 118.522518,25.347269,0 118.52983,25.35809,0 118.520714,25.362899,0 118.517984,25.372084,0 118.503261,25.384633,0 118.494388,25.385691,0 118.497411,25.400835,0 118.487661,25.40396,0 118.482152,25.425494,0 118.469818,25.424052,0 118.460068,25.443613,0 118.471329,25.46663,0 118.477326,25.468888,0 118.479373,25.480899,0 118.466552,25.482917,0 118.473572,25.491324,0 118.465674,25.494975,0 118.464748,25.516253,0 118.474059,25.524465,0 118.491463,25.546794,0 118.490098,25.549963,0 118.509989,25.56187,0 118.511549,25.578576,0 118.531293,25.601711,0 118.533096,25.60795,0 118.545187,25.617836,0 118.550062,25.632279,0 118.531293,25.642403,0 118.544845,25.656555,0 118.540068,25.661592,0 118.523736,25.659097,0 118.510232,25.674974,0 118.492438,25.688739,0 118.479958,25.707106,0 118.46855,25.71075,0 118.454364,25.720723,0 118.448514,25.718134,0 118.430915,25.730552,0 118.425016,25.761374,0 118.417996,25.769186,0 118.414632,25.789744,0 118.397959,25.801005,0 118.391914,25.809964,0 118.382115,25.814132,0 118.392743,25.82539,0 118.397131,25.845843,0 118.405028,25.843161,0 118.421213,25.854607,0 118.41239,25.875582,0 118.406247,25.878455,0 118.409806,25.889419,0 118.396107,25.899904,0 118.369635,25.896361,0 118.366564,25.914217,0 118.36125,25.91795,0 118.36008,25.929533,0 118.350281,25.936999,0 118.344675,25.935468,0 118.336533,25.916754,0 118.318008,25.913547,0 118.308745,25.929533,0 118.295924,25.922593,0 118.285345,25.930825,0 118.275497,25.929773,0 118.266332,25.916514,0 118.272718,25.903877,0 118.267746,25.898707,0 118.248148,25.896169,0 118.246832,25.890855,0 118.232938,25.883769,0 118.215534,25.897893,0 118.209001,25.898324,0 118.19696,25.88511,0 118.18019,25.884152,0 118.177508,25.900143,0 118.156399,25.907898,0 118.148014,25.900239,0 118.129781,25.899999,0 118.104431,25.891765,0 118.096631,25.886498,0 118.078057,25.8842,0 118.076935,25.876922,0 118.085272,25.865143,0 118.063773,25.848237,0 118.049489,25.858343,0 118.038812,25.856235,0 118.031402,25.864041,0 118.015412,25.857002,0 118.018971,25.845076,0 118.033303,25.835066,0 118.030086,25.823378,0 118.02643,25.831378,0 118.011512,25.813701,0 118.007368,25.797076,0 118.011073,25.795638,0 118.006198,25.769617,0 117.998739,25.766694,0 117.987673,25.771055,0 117.983236,25.759553,0 117.976362,25.760463,0 117.98972,25.731271,0 118.002932,25.715018,0 118.009464,25.724223,0 118.015168,25.718949,0 118.006003,25.691857,0 118.000104,25.685814,0 117.968904,25.68097,0 117.959738,25.672145,0 117.946722,25.674639,0 117.949745,25.668259,0 117.937411,25.658426,0 117.942042,25.65147,0 117.953352,25.655739,0 117.956472,25.640627,0 117.967734,25.644418,0 117.976655,25.629448,0 117.985625,25.625897,0 117.990646,25.613565,0 117.993328,25.620283,0 118.003565,25.616876,0 118.019458,25.621387,0 118.025552,25.628584,0 118.038032,25.628249,0 118.042907,25.619851,0 118.043249,25.604783,0 118.039495,25.59216,0 118.033693,25.588128,0 118.035058,25.5792,0 118.030086,25.568639,0 118.002152,25.549723,0 117.994303,25.537431,0 117.980214,25.531044,0 117.980945,25.516349,0 117.962566,25.528835,0 117.941993,25.524129,0 117.93195,25.511018,0 117.892901,25.497424,0 117.882517,25.498865,0 117.864187,25.495743,0 117.85312,25.488393,0 117.840494,25.491852,0 117.829135,25.50924,0 117.820165,25.517069,0 117.804516,25.508952,0 117.789159,25.510057,0 117.789111,25.493341,0 117.798032,25.478017,0 117.786478,25.481956,0 117.769562,25.499442,0 117.762444,25.497665,0 117.752694,25.507703,0 117.742944,25.505206,0 117.731682,25.509385,0 117.733779,25.514139,0 117.71813,25.511978,0 117.715156,25.491468,0 117.722371,25.48138,0 117.713157,25.477921,0 117.704041,25.457597,0 117.697557,25.455675,0 117.691414,25.440874,0 117.699019,25.422226,0 117.684101,25.396508,0 117.691658,25.390595,0 117.691512,25.368285,0 117.678349,25.355349,0 117.68025,25.347269,0 117.661627,25.336351,0 117.655192,25.320622,0 117.619409,25.299598,0 117.599811,25.293728,0 117.604638,25.284152,0 117.603468,25.260042,0 117.621067,25.247479,0 117.622285,25.240788,0 117.6139,25.222254,0 117.595765,25.221821,0 117.578654,25.231257,0 117.570707,25.220232,0 117.555399,25.21171,0 117.555692,25.194231,0 117.562176,25.187489,0 117.573193,25.188934,0 117.582066,25.174871,0 117.59674,25.171355,0 117.604004,25.164323,0 117.621603,25.160951,0 117.620579,25.147993,0 117.626624,25.138358,0 117.653047,25.13407,0 117.671524,25.124385,0 117.671378,25.098797,0 117.677471,25.08805,0 117.699019,25.078699,0 117.707551,25.067901,0 117.721883,25.07788,0 117.72671,25.071179,0 117.731585,25.051077,0 117.726222,25.043652,0 117.73841,25.037287,0 117.737142,25.026534,0 117.718032,25.015009,0 117.715497,25.00353,0 117.701505,25.004495,0 117.69507,24.992196,0 117.685076,24.98853,0 117.670841,24.999913,0 117.654461,24.996971,0 117.654802,24.981342,0 117.637057,24.970922,0 117.618239,24.964457,0 117.604345,24.947908,0 117.607026,24.930294,0 117.630183,24.92571,0 117.631451,24.912871,0 117.614875,24.898004,0 117.616728,24.877101,0 117.624772,24.86672,0 117.636618,24.866865,0 117.644857,24.858946,0 117.657581,24.85349,0 117.668404,24.853972,0 117.683419,24.848999,0 117.711597,24.86363,0 117.717788,24.874252,0 117.729976,24.88077,0 117.750403,24.877197,0 117.76259,24.86841,0 117.770244,24.868555,0 117.770585,24.855952,0 117.775753,24.85093,0 117.789988,24.85716,0 117.797545,24.865416,0 117.802663,24.852669,0 117.81256,24.849964,0 117.822115,24.85798,0 117.824991,24.866527,0 117.821189,24.87459,0 117.833864,24.881543,0 117.849757,24.873866,0 117.863992,24.878308,0 117.871695,24.87179,0 117.882566,24.895687,0 117.893632,24.887191,0 117.898605,24.874639,0 117.913035,24.870293,0 117.917715,24.879515,0 117.930195,24.875508,0 117.936436,24.86643,0 117.947404,24.871114,0 117.957788,24.868169,0 117.971146,24.848081,0 117.999032,24.859912,0 117.991475,24.866913,0 117.996984,24.877246,0 118.011707,24.87517,0 118.014486,24.879708,0 118.004638,24.88777,0 117.990305,24.892839,0 117.996984,24.899839,0 118.009074,24.892791,0 118.015802,24.901818,0 118.036765,24.899694,0 118.042127,24.883087,0 118.059141,24.86643,0 118.06582,24.875411,0 118.071865,24.874397,0 118.072548,24.86194,0 118.077764,24.854262,0 118.085564,24.863727,0 118.109696,24.875218,0 118.113547,24.874735,0 118.12554,24.888494,0 118.137923,24.89477,0 118.150695,24.891681,0 118.161567,24.897618,0 118.176923,24.893225,0 118.194961,24.892646,0 118.204077,24.882122,0 118.197252,24.879998,0 118.197106,24.86643,0 118.22582,24.850834,0 118.224163,24.838422,0 118.231817,24.825961,0 118.243224,24.824947,0 118.252097,24.831371,0 118.263748,24.825285,0 118.28437,24.832482,0 118.301238,24.826106,0 118.312012,24.804901,0 118.325564,24.798234,0 118.322591,24.783837,0 118.334876,24.774559,0 118.338045,24.780358,0 118.344772,24.771708,0 118.337021,24.771032,0 118.33512,24.752475,0 118.316887,24.74885,0 118.322249,24.733239,0 118.332389,24.72942,0 118.336533,24.718399,0 118.322006,24.69819,0 118.322493,24.692388,0 118.338825,24.68204,0 118.338727,24.673771,0 118.352134,24.66434,0 118.350817,24.649105,0 118.34331,24.64214,0 118.346966,24.630578,0 118.34448,24.620951,0 118.337021,24.617274,0 118.329611,24.605324,0 118.331512,24.598259,0 118.341213,24.607259,0 118.34175,24.592404,0 118.353109,24.585097,0 118.355546,24.575805,0 118.373828,24.575611,0 118.385674,24.582048,0 118.391817,24.574062,0 118.402981,24.578079,0 118.401567,24.590855,0 118.422091,24.598549,0 118.444663,24.614952,0 118.478642,24.615,0 118.518569,24.605904,0 118.557326,24.572901,0 118.556497,24.562591,0 118.547185,24.559203,0 118.54621,24.549764,0 118.563712,24.539308,0 118.566442,24.52062,0 118.558106,24.512582,0 118.579946,24.507207,0 118.590817,24.513792,0 118.614267,24.521733,0 118.620604,24.534805,0 118.625382,24.535144,0 118.639666,24.548748,0 118.65746,24.55446,0 118.655997,24.565883,0 118.664285,24.573772,0 118.673255,24.575079,0 118.680324,24.582241,0 118.689099,24.608952,0 118.686856,24.633626,0 118.672475,24.631449,0 118.667015,24.621387,0 118.661262,24.622257,0 118.654973,24.633674,0 118.652438,24.6537,0 118.656095,24.669805,0 118.670184,24.679767,0 118.677496,24.667194,0 118.68593,24.662599,0 118.703432,24.665453,0 118.716789,24.676576,0 118.724053,24.677688,0 118.731463,24.691372,0 118.742237,24.698964,0 118.7398,24.706264,0 118.750525,24.716465,0 118.742384,24.717142,0 118.747259,24.723619,0 118.752329,24.718785,0 118.765979,24.728695,0 118.765784,24.734592,0 118.776509,24.740972,0 118.784651,24.760062,0 118.785431,24.77683,0 118.744821,24.779488,0 118.736095,24.783981,0 118.731415,24.800939,0 118.732243,24.815625,0 118.72108,24.815866,0 118.713036,24.809248,0 118.710598,24.796736,0 118.690903,24.799925,0 118.673694,24.794466,0 118.650391,24.808765,0 118.645711,24.829053,0 118.647905,24.843638,0 118.672865,24.849578,0 118.687734,24.85658,0 118.696997,24.867879,0 118.702408,24.865513,0 118.698557,24.85262,0 118.705187,24.844314,0 118.731415,24.840692,0 118.734925,24.826106,0 118.745894,24.824512,0 118.751207,24.845377,0 118.765979,24.847984,0 118.787234,24.855663,0 118.80576,24.869859,0 118.819654,24.86899,0 118.834474,24.854262,0 118.845784,24.863775,0 118.835693,24.86812,0 118.838325,24.875701,0 118.847685,24.875701,0 118.864748,24.887384,0 118.876156,24.888205,0 118.895851,24.884005,0 118.906966,24.876135,0 118.931439,24.870438,0 118.948892,24.876232,0 118.958008,24.871211,0 118.991841,24.880336,0 118.988185,24.896846,0 118.972292,24.902252,0 118.955522,24.896991,0 118.942116,24.908189,0 118.93295,24.906548,0 118.928124,24.918711,0 118.918276,24.923876,0 118.918374,24.932466,0 118.93334,24.949355,0 118.945626,24.954036,0 118.983456,24.938305,0 118.982774,24.934396,0 119.013926,24.94149,0 119.032743,24.957654,0 119.032451,24.961369,0 119.017143,24.963444,0 119.009392,24.958619,0 119.006125,24.97015,0 118.997886,24.968558,0 118.989696,24.974058,0 118.988575,24.995524,0 119.005882,24.999334,0 119.011927,25.0261,0 119.024066,25.043507,0 119.024456,25.051655,0 119.016363,25.058501,0 118.998959,25.055608,0 118.991646,25.044037,0 118.983603,25.044037,0 118.97629,25.026775,0 118.960348,25.02176,0 118.945284,25.028511,0 118.946259,25.043121,0 118.920519,25.054934,0 118.889172,25.084194,0 118.892097,25.092725,0 118.910866,25.093014,0 118.916521,25.09899,0 118.937777,25.098026,0 118.955181,25.107905,0 118.974779,25.115182,0 118.973804,25.121687,0 118.953913,25.127132,0 118.951476,25.14939,0 118.966588,25.153918,0 118.985504,25.166105,0 118.984431,25.195483,0 118.973999,25.198806,0 118.971074,25.20834,0 118.950403,25.206173,0 118.941921,25.211036,0 118.945674,25.219606,0 118.919739,25.233086,0 118.917789,25.238285,0 118.899849,25.241366,0</coordinates></LinearRing></outerBoundaryIs>
      </Polygon>
      <Polygon>
        <outerBoundaryIs><LinearRing><coordinates>118.412536,24.514325,0 118.395034,24.508902,0 118.399909,24.490693,0 118.383675,24.480716,0 118.390403,24.474904,0 118.389525,24.465507,0 118.374608,24.458774,0 118.34526,24.468559,0 118.318739,24.486625,0 118.295729,24.47534,0 118.294023,24.466766,0 118.304797,24.454608,0 118.311963,24.424617,0 118.290123,24.423067,0 118.290659,24.415023,0 118.281932,24.410419,0 118.294315,24.401453,0 118.299483,24.39239,0 118.318788,24.383617,0 118.333072,24.383714,0 118.339848,24.390161,0 118.350671,24.412309,0 118.372268,24.42641,0 118.405272,24.428058,0 118.416095,24.42171,0 118.432377,24.418899,0 118.437009,24.411,0 118.43072,24.403586,0 118.457728,24.41226,0 118.459532,24.420062,0 118.469818,24.425296,0 118.465625,24.434211,0 118.477033,24.437506,0 118.478983,24.447971,0 118.467527,24.459307,0 118.467917,24.470448,0 118.473474,24.477277,0 118.462944,24.478537,0 118.4549,24.504447,0 118.43852,24.50774,0 118.430525,24.521346,0 118.414583,24.526672,0 118.412536,24.514325,0</coordinates></LinearRing></outerBoundaryIs>
      </Polygon>
      <Polygon>
        <outerBoundaryIs><LinearRing><coordinates>118.230403,24.401308,0 118.238203,24.40819,0 118.246734,24.407317,0 118.252779,24.4173,0 118.269988,24.421419,0 118.27345,24.441139,0 118.255656,24.451943,0 118.233864,24.445791,0 118.229087,24.427961,0 118.220701,24.42578,0 118.217923,24.405621,0 118.230403,24.401308,0</coordinates></LinearRing></outerBoundaryIs>
      </Polygon>
      <Polygon>
        <outerBoundaryIs><LinearRing><coordinates>119.004419,25.181951,0 119.000958,25.185851,0 118.994181,25.172559,0 119.004419,25.181951,0</coordinates></LinearRing></outerBoundaryIs>
      </Polygon>
      <Polygon>
        <outerBoundaryIs><LinearRing><coordinates>119.028307,25.029669,0 119.03679,25.031549,0 119.027039,25.04047,0 119.028307,25.029669,0</coordinates></LinearRing></outerBoundaryIs>
      </Polygon>
    </MultiGeometry>
    </Placemark>
  </Document>
</kml>
