<?xml version="1.0" encoding="UTF-8"?>
<kml xmlns="http://www.opengis.net/kml/2.2">
  <Document>
    <name><![CDATA[莆田市]]></name>
    <Placemark>
      <name><![CDATA[莆田市]]></name>
      <description><![CDATA[省级目录：福建省]]></description>
      <ExtendedData>
        <Data name="adcode"><value>350300</value></Data>
      </ExtendedData>
      <MultiGeometry>
      <Polygon>
        <outerBoundaryIs><LinearRing><coordinates>118.899849,25.241366,0 118.918081,25.245843,0 118.915546,25.256913,0 118.930074,25.255854,0 118.949282,25.265288,0 118.954547,25.2714,0 118.9837,25.269667,0 118.994669,25.27679,0 119.014364,25.274432,0 119.023627,25.267887,0 119.017484,25.255469,0 119.006369,25.255132,0 118.996863,25.266298,0 118.988575,25.25417,0 118.983505,25.237804,0 118.975071,25.237611,0 118.978435,25.222832,0 118.989989,25.211662,0 118.989989,25.201839,0 119.012463,25.204391,0 119.019629,25.210603,0 119.055217,25.219462,0 119.064675,25.206654,0 119.074425,25.211373,0 119.072231,25.191293,0 119.062823,25.173907,0 119.054291,25.168561,0 119.037765,25.174871,0 119.028453,25.164515,0 119.029136,25.13961,0 119.035717,25.125783,0 119.052049,25.116676,0 119.052341,25.112532,0 119.075644,25.099809,0 119.08281,25.108532,0 119.134291,25.106074,0 119.142384,25.096725,0 119.128929,25.095231,0 119.107283,25.075325,0 119.118008,25.058115,0 119.113377,25.052234,0 119.096948,25.056139,0 119.089928,25.052185,0 119.106064,25.04452,0 119.106698,25.032996,0 119.119227,25.026582,0 119.119422,25.012646,0 119.127807,25.012597,0 119.12576,25.021085,0 119.147015,25.05585,0 119.140531,25.056283,0 119.141799,25.0827,0 119.15813,25.092243,0 119.164273,25.119133,0 119.165784,25.145439,0 119.160909,25.150931,0 119.146333,25.146692,0 119.138289,25.151895,0 119.143993,25.157868,0 119.141896,25.169525,0 119.118788,25.175738,0 119.108063,25.194086,0 119.11913,25.212384,0 119.131756,25.223217,0 119.138533,25.224661,0 119.146723,25.204199,0 119.182457,25.178242,0 119.198984,25.176412,0 119.220385,25.187248,0 119.231744,25.188982,0 119.261043,25.175641,0 119.269331,25.159987,0 119.29356,25.178387,0 119.30097,25.17805,0 119.31345,25.189415,0 119.31345,25.19452,0 119.301653,25.204536,0 119.293365,25.235108,0 119.313158,25.237371,0 119.332073,25.23092,0 119.340946,25.240933,0 119.356254,25.240211,0 119.378289,25.248923,0 119.385065,25.275683,0 119.369709,25.271544,0 119.353914,25.280591,0 119.335681,25.285452,0 119.313499,25.30643,0 119.29902,25.328848,0 119.292634,25.331156,0 119.267381,25.329521,0 119.253584,25.33587,0 119.247491,25.33361,0 119.248319,25.316196,0 119.24047,25.316869,0 119.235839,25.331156,0 119.227064,25.344865,0 119.228234,25.350732,0 119.218776,25.367948,0 119.195278,25.368333,0 119.171049,25.37593,0 119.162664,25.387037,0 119.151744,25.382999,0 119.14487,25.387999,0 119.145845,25.405114,0 119.151646,25.426504,0 119.168709,25.438711,0 119.184797,25.427225,0 119.197033,25.424629,0 119.232232,25.442267,0 119.236034,25.448323,0 119.219751,25.468648,0 119.212682,25.472011,0 119.209416,25.492621,0 119.223798,25.48969,0 119.230818,25.503861,0 119.243005,25.513659,0 119.24437,25.527923,0 119.23501,25.542713,0 119.227746,25.564607,0 119.203907,25.54497,0 119.20186,25.5515,0 119.180702,25.555101,0 119.168807,25.566335,0 119.166662,25.574304,0 119.157009,25.584192,0 119.163639,25.587216,0 119.170708,25.581888,0 119.169099,25.593216,0 119.161689,25.591392,0 119.162372,25.600703,0 119.155205,25.603055,0 119.151451,25.6187,0 119.133999,25.633383,0 119.133316,25.646337,0 119.144236,25.668451,0 119.145553,25.676269,0 119.154718,25.675598,0 119.144285,25.684855,0 119.141604,25.697132,0 119.151646,25.700297,0 119.144139,25.709887,0 119.124346,25.713723,0 119.146771,25.731558,0 119.152231,25.744741,0 119.132877,25.752794,0 119.105772,25.754472,0 119.090562,25.749631,0 119.088368,25.754999,0 119.076717,25.748576,0 119.071061,25.752698,0 119.048782,25.747138,0 119.041226,25.741769,0 119.025869,25.74268,0 119.014803,25.735489,0 118.975461,25.732086,0 118.951524,25.712716,0 118.955035,25.732709,0 118.951037,25.751979,0 118.952597,25.760032,0 118.942359,25.748528,0 118.93451,25.747282,0 118.921055,25.732086,0 118.920324,25.726333,0 118.905162,25.722257,0 118.882786,25.702407,0 118.874449,25.698331,0 118.877862,25.708832,0 118.853682,25.703845,0 118.83891,25.70888,0 118.82643,25.719812,0 118.811902,25.720819,0 118.801226,25.711709,0 118.806491,25.709551,0 118.798983,25.699961,0 118.772414,25.686389,0 118.760421,25.689123,0 118.753596,25.696221,0 118.744724,25.679147,0 118.73785,25.678188,0 118.729952,25.668163,0 118.723322,25.669794,0 118.727612,25.687157,0 118.726296,25.694734,0 118.707186,25.682888,0 118.691634,25.689794,0 118.691098,25.695022,0 118.674425,25.694926,0 118.676521,25.7014,0 118.668234,25.708544,0 118.653657,25.711757,0 118.634937,25.708496,0 118.631866,25.697995,0 118.625479,25.697419,0 118.610123,25.708496,0 118.611975,25.699098,0 118.605053,25.697084,0 118.604906,25.685142,0 118.598569,25.683368,0 118.587746,25.689986,0 118.583846,25.677804,0 118.576241,25.687013,0 118.577801,25.677325,0 118.571853,25.674015,0 118.566491,25.681114,0 118.54348,25.671521,0 118.540068,25.661592,0 118.544845,25.656555,0 118.531293,25.642403,0 118.550062,25.632279,0 118.545187,25.617836,0 118.533096,25.60795,0 118.531293,25.601711,0 118.511549,25.578576,0 118.509989,25.56187,0 118.490098,25.549963,0 118.491463,25.546794,0 118.474059,25.524465,0 118.464748,25.516253,0 118.465674,25.494975,0 118.473572,25.491324,0 118.466552,25.482917,0 118.479373,25.480899,0 118.477326,25.468888,0 118.471329,25.46663,0 118.460068,25.443613,0 118.469818,25.424052,0 118.482152,25.425494,0 118.487661,25.40396,0 118.497411,25.400835,0 118.494388,25.385691,0 118.503261,25.384633,0 118.517984,25.372084,0 118.520714,25.362899,0 118.52983,25.35809,0 118.522518,25.347269,0 118.522371,25.333994,0 118.512865,25.317591,0 118.520519,25.312395,0 118.528221,25.325817,0 118.535729,25.320766,0 118.530171,25.308739,0 118.533389,25.291274,0 118.563517,25.290263,0 118.571853,25.286703,0 118.578288,25.301282,0 118.59618,25.302388,0 118.61568,25.293102,0 118.625577,25.293487,0 118.632694,25.301378,0 118.655705,25.301955,0 118.66643,25.289782,0 118.662579,25.280062,0 118.650098,25.27448,0 118.646442,25.268416,0 118.659605,25.25778,0 118.662042,25.265721,0 118.672767,25.264807,0 118.680421,25.271111,0 118.695778,25.258502,0 118.68476,25.244687,0 118.688075,25.23453,0 118.683444,25.230679,0 118.682371,25.212384,0 118.691537,25.212192,0 118.682225,25.201213,0 118.673645,25.200684,0 118.677838,25.191679,0 118.677789,25.177761,0 118.692024,25.169332,0 118.691585,25.15493,0 118.70465,25.157579,0 118.717521,25.169428,0 118.725711,25.168754,0 118.741019,25.1872,0 118.74487,25.185851,0 118.765101,25.195001,0 118.778508,25.195387,0 118.776753,25.203717,0 118.781872,25.213829,0 118.801323,25.220714,0 118.800982,25.217103,0 118.827697,25.218258,0 118.848709,25.224902,0 118.850123,25.216573,0 118.869477,25.227646,0 118.869623,25.237659,0 118.875473,25.241366,0 118.899849,25.241366,0</coordinates></LinearRing></outerBoundaryIs>
      </Polygon>
      <Polygon>
        <outerBoundaryIs><LinearRing><coordinates>119.471013,25.197072,0 119.508454,25.181902,0 119.509429,25.170921,0 119.521226,25.166635,0 119.523566,25.158061,0 119.554474,25.164419,0 119.547747,25.18118,0 119.555742,25.183155,0 119.554572,25.193075,0 119.570903,25.193364,0 119.578411,25.204776,0 119.566613,25.209977,0 119.555059,25.203525,0 119.545065,25.210266,0 119.540483,25.20208,0 119.518155,25.208003,0 119.514791,25.214599,0 119.506162,25.214743,0 119.49924,25.221773,0 119.499435,25.240307,0 119.488466,25.247046,0 119.479008,25.243532,0 119.479008,25.257732,0 119.471452,25.25956,0 119.467698,25.246324,0 119.451708,25.242329,0 119.453901,25.236552,0 119.439179,25.236841,0 119.446589,25.222495,0 119.440982,25.211614,0 119.444102,25.20208,0 119.471013,25.197072,0</coordinates></LinearRing></outerBoundaryIs>
      </Polygon>
      <Polygon>
        <outerBoundaryIs><LinearRing><coordinates>119.58002,25.263892,0 119.577533,25.26986,0 119.570903,25.259272,0 119.58002,25.263892,0</coordinates></LinearRing></outerBoundaryIs>
      </Polygon>
      <Polygon>
        <outerBoundaryIs><LinearRing><coordinates>119.371805,25.114893,0 119.377899,25.120241,0 119.369563,25.128866,0 119.366784,25.118073,0 119.371805,25.114893,0</coordinates></LinearRing></outerBoundaryIs>
      </Polygon>
      <Polygon>
        <outerBoundaryIs><LinearRing><coordinates>119.517131,25.264758,0 119.530489,25.265769,0 119.525419,25.278522,0 119.518642,25.279244,0 119.512305,25.266924,0 119.517131,25.264758,0</coordinates></LinearRing></outerBoundaryIs>
      </Polygon>
      <Polygon>
        <outerBoundaryIs><LinearRing><coordinates>119.048344,25.101496,0 119.049611,25.094749,0 119.05824,25.102604,0 119.048344,25.101496,0</coordinates></LinearRing></outerBoundaryIs>
      </Polygon>
      <Polygon>
        <outerBoundaryIs><LinearRing><coordinates>119.59211,25.187344,0 119.602201,25.187633,0 119.595181,25.194761,0 119.59211,25.187344,0</coordinates></LinearRing></outerBoundaryIs>
      </Polygon>
      <Polygon>
        <outerBoundaryIs><LinearRing><coordinates>119.342165,25.311962,0 119.34938,25.318698,0 119.345236,25.323845,0 119.338021,25.316437,0 119.342165,25.311962,0</coordinates></LinearRing></outerBoundaryIs>
      </Polygon>
      <Polygon>
        <outerBoundaryIs><LinearRing><coordinates>119.57885,25.248538,0 119.587527,25.241318,0 119.584895,25.250945,0 119.57885,25.248538,0</coordinates></LinearRing></outerBoundaryIs>
      </Polygon>
      <Polygon>
        <outerBoundaryIs><LinearRing><coordinates>119.018118,25.17333,0 119.027039,25.171451,0 119.036205,25.184262,0 119.032597,25.189415,0 119.015486,25.182336,0 119.018118,25.17333,0</coordinates></LinearRing></outerBoundaryIs>
      </Polygon>
      <Polygon>
        <outerBoundaryIs><LinearRing><coordinates>119.368149,25.326539,0 119.37707,25.327453,0 119.362835,25.334283,0 119.368149,25.326539,0</coordinates></LinearRing></outerBoundaryIs>
      </Polygon>
      <Polygon>
        <outerBoundaryIs><LinearRing><coordinates>119.461116,24.982307,0 119.459508,24.992196,0 119.449855,24.994752,0 119.461116,24.982307,0</coordinates></LinearRing></outerBoundaryIs>
      </Polygon>
    </MultiGeometry>
    </Placemark>
  </Document>
</kml>
