<?xml version="1.0" encoding="UTF-8"?>
<kml xmlns="http://www.opengis.net/kml/2.2">
<Document>
<name>唐山市</name>
<Placemark><name>唐山市</name><MultiGeometry><Polygon><outerBoundaryIs><LinearRing><coordinates>118.640005000000002,39.042306000000004,0 118.630521999999999,39.054726000000002,0 118.620846999999998,39.068268000000003,0 118.638852,39.076061000000003,0 118.653651999999994,39.056972999999999,0 118.640005000000002,39.042306000000004,0</coordinates></LinearRing></outerBoundaryIs></Polygon><Polygon><outerBoundaryIs><LinearRing><coordinates>118.842663999999999,39.117787999999997,0 118.869445999999996,39.142733,0 118.871752999999998,39.115082000000001,0 118.857465000000005,39.098841999999998,0 118.820494999999994,39.093693000000002,0 118.820239000000001,39.108744999999999,0 118.842663999999999,39.117787999999997,0</coordinates></LinearRing></outerBoundaryIs></Polygon><Polygon><outerBoundaryIs><LinearRing><coordinates>118.834969411960088,39.1500848258178,0 118.839310159060119,39.152500653529877,0 118.841510999999997,39.135475,0 118.825749000000002,39.122672000000001,0 118.815177000000006,39.132373000000001,0 118.834969411960088,39.1500848258178,0</coordinates></LinearRing></outerBoundaryIs></Polygon><Polygon><outerBoundaryIs><LinearRing><coordinates>118.814408999999998,39.138641999999997,0 118.760716000000002,39.133495000000003,0 118.719645999999997,39.136991999999999,0 118.692992000000004,39.148077000000001,0 118.637314000000003,39.157378999999999,0 118.59272,39.142600999999999,0 118.578751999999994,39.130921000000001,0 118.588618999999994,39.107622999999997,0 118.560107000000002,39.099040000000002,0 118.551394000000002,39.088278000000003,0 118.532876999999999,39.091051,0 118.570487,38.999212,0 118.604444999999998,38.971505000000001,0 118.539732000000001,38.909835000000001,0 118.525251999999995,38.904870000000003,0 118.491038000000003,38.909041000000002,0 118.406463000000002,38.960524999999997,0 118.378015000000005,38.971769999999999,0 118.371031000000002,38.984136999999997,0 118.373593999999997,39.012036999999999,0 118.309906999999995,39.011772999999998,0 118.290813,39.022216,0 118.267106999999996,39.021554999999999,0 118.225010999999995,39.034838999999998,0 118.182596000000004,39.094155000000001,0 118.162989999999994,39.136595999999997,0 118.125315999999998,39.182771000000002,0 118.077709999999996,39.202024000000002,0 118.07047,39.214021000000002,0 118.050864000000004,39.200111999999997,0 118.026195999999999,39.20176,0 118.037088999999995,39.230497,0 118.064768000000001,39.231222000000002,0 118.064768000000001,39.256061000000003,0 118.036512000000002,39.265151000000003,0 118.024787000000003,39.292414000000001,0 118.016841999999997,39.284117000000002,0 117.977630000000005,39.300643000000001,0 117.972247999999993,39.314400999999997,0 117.891773999999998,39.323219999999999,0 117.888313999999994,39.332037999999997,0 117.849549999999994,39.327365999999998,0 117.842054000000005,39.336511999999999,0 117.862876999999997,39.362169000000002,0 117.837056000000004,39.350788999999999,0 117.803353999999999,39.362037000000001,0 117.805277000000004,39.373283999999998,0 117.852368999999996,39.380780000000001,0 117.859352999999999,39.403264999999998,0 117.871847000000002,39.411546999999999,0 117.870310000000003,39.454979999999999,0 117.878062,39.467196000000001,0 117.898180999999994,39.472515999999999,0 117.898565000000005,39.509675000000001,0 117.912277000000003,39.516171999999997,0 117.905293,39.530149999999999,0 117.933997000000005,39.574164000000003,0 117.892606999999998,39.591538999999997,0 117.868258999999995,39.596848999999999,0 117.851408000000006,39.589244000000001,0 117.826548000000003,39.590817999999999,0 117.801945000000003,39.601765,0 117.76773,39.599012000000002,0 117.747867999999997,39.589374999999997,0 117.753122000000005,39.576000000000001,0 117.737745000000004,39.574033,0 117.744856999999996,39.548585000000003,0 117.715959999999995,39.530084000000002,0 117.710194000000001,39.550421999999998,0 117.689563000000007,39.559539000000001,0 117.688794000000001,39.569246,0 117.708912999999995,39.572918000000001,0 117.684950000000001,39.588915999999998,0 117.660794999999993,39.575409999999998,0 117.636190999999997,39.603731000000003,0 117.621966999999998,39.591670000000001,0 117.619084000000001,39.603206999999998,0 117.641188999999997,39.612645000000001,0 117.641957000000005,39.628438000000003,0 117.662012000000004,39.636364999999998,0 117.668355000000005,39.667085,0 117.657014000000004,39.668657000000003,0 117.643944000000005,39.688692000000003,0 117.644777000000005,39.701849000000003,0 117.602424999999997,39.705384000000002,0 117.577629000000002,39.726913000000003,0 117.596081999999996,39.735222,0 117.595889999999997,39.746147000000001,0 117.559304999999995,39.756087999999998,0 117.546105999999995,39.776164000000001,0 117.561419000000001,39.800024000000001,0 117.537263999999993,39.835177999999999,0 117.548091999999997,39.839882000000003,0 117.521373999999994,39.870640999999999,0 117.518810999999999,39.891271000000003,0 117.507406000000003,39.909022999999998,0 117.525538999999995,39.929639999999999,0 117.514966999999999,39.946665000000003,0 117.532906999999994,39.952469000000001,0 117.547323000000006,39.976855,0 117.537777000000006,39.997452000000003,0 117.589225999999996,39.996865999999997,0 117.634589000000005,39.968901000000002,0 117.674698000000006,39.974834000000001,0 117.706670000000003,39.986046000000002,0 117.72775,39.972422000000002,0 117.756326000000001,39.965119999999999,0 117.782019000000005,39.968314999999997,0 117.797075000000007,40.010224999999998,0 117.782466999999997,40.023516000000001,0 117.744152,40.018433999999999,0 117.747932000000006,40.047421,0 117.758312000000004,40.044359999999998,0 117.776188000000005,40.059272,0 117.758184,40.065978000000001,0 117.751648000000003,40.081992999999997,0 117.721982999999994,40.079909999999998,0 117.708271999999994,40.093643,0 117.674890000000005,40.082123000000003,0 117.668098999999998,40.100931000000003,0 117.644841,40.096181000000001,0 117.653170000000003,40.110757,0 117.650159000000002,40.128191000000001,0 117.635998999999998,40.132094000000002,0 117.630232000000007,40.147832999999999,0 117.601208,40.171239,0 117.576412000000005,40.178584000000001,0 117.575451000000001,40.192816999999998,0 117.609408999999999,40.194896999999997,0 117.619532000000007,40.206398,0 117.646249999999995,40.205162999999999,0 117.677069000000003,40.220950000000002,0 117.694112000000004,40.238160999999998,0 117.714551,40.241667999999997,0 117.751519999999999,40.229717999999998,0 117.807775000000007,40.261926000000003,0 117.844104000000002,40.261406000000001,0 117.867553999999998,40.269649999999999,0 117.897988999999995,40.270429,0 117.909457000000003,40.285876000000002,0 118.000888000000003,40.292560000000002,0 118.031643000000003,40.302357999999998,0 118.061564000000004,40.319094999999997,0 118.079312000000002,40.353527999999997,0 118.121855999999994,40.354695,0 118.133837,40.375112999999999,0 118.165232000000003,40.400449000000002,0 118.153122999999994,40.409519000000003,0 118.156966999999995,40.423768000000003,0 118.173817999999997,40.423056000000003,0 118.239683999999997,40.464686,0 118.262941999999995,40.452063000000003,0 118.277934999999999,40.425711,0 118.306574999999995,40.419558000000002,0 118.356295000000003,40.435295000000004,0 118.360011,40.428818999999997,0 118.387304999999998,40.436718999999997,0 118.402682999999996,40.416837999999998,0 118.430745999999999,40.411850999999999,0 118.45599,40.414053000000003,0 118.503210999999993,40.403365000000001,0 118.523458000000005,40.406280000000002,0 118.548062000000002,40.422666999999997,0 118.571511999999998,40.414636000000002,0 118.550881000000004,40.385482000000003,0 118.558376999999993,40.369280000000003,0 118.539989000000006,40.361047999999997,0 118.532364000000001,40.319419000000003,0 118.533325000000005,40.298853999999999,0 118.568949000000003,40.287564000000003,0 118.571383999999995,40.269844999999997,0 118.628472000000002,40.249915000000001,0 118.665633999999997,40.242576999999997,0 118.708562000000001,40.216078000000003,0 118.746108000000007,40.208086999999999,0 118.743609000000006,40.191777000000002,0 118.775581000000003,40.194181999999998,0 118.794482000000002,40.204838000000002,0 118.849135000000004,40.178973999999997,0 118.867652000000007,40.180599000000001,0 118.888924000000003,40.168768,0 118.906735999999995,40.169679000000002,0 118.92474,40.149653000000001,0 118.918268999999995,40.092210999999999,0 118.900520999999998,40.086548999999998,0 118.866307000000006,40.061942000000002,0 118.865601999999996,40.023777000000003,0 118.885080000000002,40.005403000000001,0 118.884247000000002,39.961793999999998,0 118.875148999999993,39.941121000000003,0 118.859643000000005,39.933619999999998,0 118.853555999999998,39.88409,0 118.835232000000005,39.859017999999999,0 118.838178999999997,39.847980999999997,0 118.816843000000006,39.825836000000002,0 118.825429,39.799436,0 118.797942000000006,39.790415000000003,0 118.800184999999999,39.775706,0 118.774428,39.764198,0 118.787242000000006,39.715919999999997,0 118.804157000000004,39.679985000000002,0 118.822225000000003,39.668984000000002,0 118.824596,39.648681000000003,0 118.850097000000005,39.622737000000001,0 118.844586000000007,39.615003999999999,0 118.861309000000006,39.574753999999999,0 118.882261,39.566557000000003,0 118.895139,39.547010999999998,0 118.938451999999998,39.557572,0 118.945243000000005,39.544781,0 118.983301999999995,39.538941999999999,0 118.966066999999995,39.529494,0 118.961453000000006,39.515909999999998,0 119.008098000000004,39.509346999999998,0 119.015658000000002,39.482103000000002,0 119.004893999999993,39.467458999999998,0 119.048399000000003,39.459052,0 119.064544999999995,39.473762999999998,0 119.185768999999993,39.458986000000003,0 119.212294999999997,39.463453000000001,0 119.257401000000002,39.429752000000001,0 119.280403000000007,39.422851999999999,0 119.319039000000004,39.429554000000003,0 119.317052000000004,39.410758999999999,0 119.272779,39.363616,0 119.239268999999993,39.352367999999998,0 119.185576999999995,39.342039,0 119.121504999999999,39.281548999999998,0 119.096068000000002,39.241962999999998,0 119.038275999999996,39.211779999999997,0 119.023988000000003,39.186925000000002,0 118.977984000000006,39.163381000000001,0 118.926277999999996,39.123463999999998,0 118.890012999999996,39.118844000000003,0 118.896548999999993,39.139698000000003,0 118.951074000000006,39.178485000000002,0 118.920446999999996,39.171757999999997,0 118.897253000000006,39.151508,0 118.876366000000004,39.149990000000003,0 118.857912999999996,39.162854000000003,0 118.839310159060119,39.152500653529877,0 118.83914,39.153816999999997,0 118.834969411960088,39.1500848258178,0 118.814408999999998,39.138641999999997,0</coordinates></LinearRing></outerBoundaryIs></Polygon><Polygon><outerBoundaryIs><LinearRing><coordinates>117.650799000000006,39.315190999999999,0 117.637535999999997,39.335985999999998,0 117.595248999999995,39.349144000000003,0 117.536238999999995,39.338025999999999,0 117.520861999999994,39.357236,0 117.535342,39.374006999999999,0 117.557895000000002,39.385579999999997,0 117.571157999999997,39.404646,0 117.590636000000003,39.405434999999997,0 117.601399999999998,39.419499999999999,0 117.614149999999995,39.407077999999998,0 117.643495000000001,39.405828999999997,0 117.669123999999996,39.412008,0 117.673224000000005,39.386698000000003,0 117.702313000000004,39.388933999999999,0 117.699749999999995,39.407603999999999,0 117.737296000000001,39.410561999999999,0 117.782146999999995,39.394784999999999,0 117.784581000000003,39.377032,0 117.744601000000003,39.354604000000002,0 117.706220999999999,39.351512999999997,0 117.670981999999995,39.357827999999998,0 117.669315999999995,39.324140999999997,0 117.650799000000006,39.315190999999999,0</coordinates></LinearRing></outerBoundaryIs></Polygon></MultiGeometry></Placemark>
</Document>
</kml>