<?xml version="1.0" encoding="UTF-8"?>
<kml xmlns="http://www.opengis.net/kml/2.2">
  <Document>
    <name>石家庄市</name>
    <Placemark>
      <name>石家庄市</name>
      <Polygon><outerBoundaryIs><LinearRing><coordinates>113.839548000000,38.758413000000,0 113.802899000000,38.763321000000,0 113.780410000000,38.728355000000,0 113.775669000000,38.709836000000,0 113.745363000000,38.701538000000,0 113.729024000000,38.711960000000,0 113.709995000000,38.698284000000,0 113.713839000000,38.663684000000,0 113.702114000000,38.651660000000,0 113.667067000000,38.646943000000,0 113.632596000000,38.653122000000,0 113.612862000000,38.646013000000,0 113.604212000000,38.616107000000,0 113.602803000000,38.586854000000,0 113.562053000000,38.558321000000,0 113.557248000000,38.504016000000,0 113.546548000000,38.493031000000,0 113.583517000000,38.465992000000,0 113.573202000000,38.449205000000,0 113.538026000000,38.418017000000,0 113.525468000000,38.383016000000,0 113.534310000000,38.365208000000,0 113.557248000000,38.343460000000,0 113.546035000000,38.293067000000,0 113.544818000000,38.270495000000,0 113.566282000000,38.252393000000,0 113.570318000000,38.237427000000,0 113.598894000000,38.227136000000,0 113.636761000000,38.232682000000,0 113.657072000000,38.225599000000,0 113.679112000000,38.205413000000,0 113.711725000000,38.213702000000,0 113.715057000000,38.193713000000,0 113.738507000000,38.189501000000,0 113.720631000000,38.174656000000,0 113.731139000000,38.168369000000,0 113.756575000000,38.171713000000,0 113.796876000000,38.162884000000,0 113.828848000000,38.168971000000,0 113.833590000000,38.147431000000,0 113.822505000000,38.150442000000,0 113.810075000000,38.112566000000,0 113.824235000000,38.106676000000,0 113.854733000000,38.077082000000,0 113.856015000000,38.065898000000,0 113.876261000000,38.055047000000,0 113.878376000000,38.032402000000,0 113.872353000000,37.990375000000,0 113.901250000000,37.984810000000,0 113.922842000000,37.952082000000,0 113.929185000000,37.932022000000,0 113.956864000000,37.911419000000,0 113.971536000000,37.868786000000,0 113.970191000000,37.833923000000,0 113.982557000000,37.812823000000,0 114.006648000000,37.813495000000,0 114.018821000000,37.794876000000,0 114.043873000000,37.777463000000,0 114.041182000000,37.756817000000,0 114.000817000000,37.735358000000,0 113.993769000000,37.706893000000,0 114.068029000000,37.721564000000,0 114.088275000000,37.708845000000,0 114.128256000000,37.698210000000,0 114.139725000000,37.675927000000,0 114.131139000000,37.648315000000,0 114.115378000000,37.619884000000,0 114.118325000000,37.590634000000,0 114.059635000000,37.515906000000,0 114.036762000000,37.494175000000,0 114.028304000000,37.474598000000,0 114.022666000000,37.435496000000,0 114.068990000000,37.447384000000,0 114.096477000000,37.490935000000,0 114.113263000000,37.493837000000,0 114.126526000000,37.481957000000,0 114.133766000000,37.498899000000,0 114.156191000000,37.505244000000,0 114.166123000000,37.528186000000,0 114.184575000000,37.530817000000,0 114.215009000000,37.511250000000,0 114.255439000000,37.504096000000,0 114.272930000000,37.494445000000,0 114.303621000000,37.507808000000,0 114.310861000000,37.499979000000,0 114.334632000000,37.502949000000,0 114.358274000000,37.519212000000,0 114.370192000000,37.513612000000,0 114.372690000000,37.529670000000,0 114.412095000000,37.549907000000,0 114.433495000000,37.552537000000,0 114.483471000000,37.576814000000,0 114.519927000000,37.574656000000,0 114.585217000000,37.553010000000,0 114.646790000000,37.556247000000,0 114.680171000000,37.565283000000,0 114.698816000000,37.589353000000,0 114.707338000000,37.615774000000,0 114.725983000000,37.630665000000,0 114.764618000000,37.624399000000,0 114.797423000000,37.628239000000,0 114.808571000000,37.659832000000,0 114.841504000000,37.676129000000,0 114.847783000000,37.696730000000,0 114.871041000000,37.702114000000,0 114.881357000000,37.716113000000,0 114.895965000000,37.712547000000,0 114.904038000000,37.729302000000,0 114.931846000000,37.728899000000,0 114.960165000000,37.720084000000,0 114.987524000000,37.742691000000,0 115.001748000000,37.734685000000,0 115.012512000000,37.751570000000,0 115.041024000000,37.733541000000,0 115.070049000000,37.745651000000,0 115.068703000000,37.773428000000,0 115.085298000000,37.779211000000,0 115.072291000000,37.794136000000,0 115.097215000000,37.797498000000,0 115.097471000000,37.807849000000,0 115.122972000000,37.811479000000,0 115.131173000000,37.799783000000,0 115.150523000000,37.808521000000,0 115.160262000000,37.780287000000,0 115.152765000000,37.759507000000,0 115.172564000000,37.749351000000,0 115.227281000000,37.732599000000,0 115.243235000000,37.722641000000,0 115.261431000000,37.688180000000,0 115.253807000000,37.671415000000,0 115.255088000000,37.645621000000,0 115.258356000000,37.639625000000,0 115.297376000000,37.629587000000,0 115.301412000000,37.660169000000,0 115.316853000000,37.660102000000,0 115.325567000000,37.682458000000,0 115.317046000000,37.695383000000,0 115.333768000000,37.713220000000,0 115.380989000000,37.707432000000,0 115.394316000000,37.712143000000,0 115.386179000000,37.727082000000,0 115.360294000000,37.731994000000,0 115.344468000000,37.748140000000,0 115.371635000000,37.770335000000,0 115.352349000000,37.784052000000,0 115.349722000000,37.805765000000,0 115.360166000000,37.820215000000,0 115.363049000000,37.849845000000,0 115.388614000000,37.853003000000,0 115.389831000000,37.874629000000,0 115.360294000000,37.880068000000,0 115.365484000000,37.906318000000,0 115.385795000000,37.917191000000,0 115.408668000000,37.918936000000,0 115.412769000000,37.943293000000,0 115.448585000000,37.936584000000,0 115.457555000000,37.950740000000,0 115.456017000000,37.974551000000,0 115.444997000000,37.989168000000,0 115.464219000000,37.992990000000,0 115.438205000000,38.001102000000,0 115.451340000000,38.017323000000,0 115.466782000000,38.063554000000,0 115.482992000000,38.083980000000,0 115.468063000000,38.095161000000,0 115.439871000000,38.082038000000,0 115.420522000000,38.089671000000,0 115.383232000000,38.088600000000,0 115.364843000000,38.137930000000,0 115.346903000000,38.139670000000,0 115.342418000000,38.196254000000,0 115.350940000000,38.210493000000,0 115.323645000000,38.220586000000,0 115.324734000000,38.248184000000,0 115.302758000000,38.235289000000,0 115.273605000000,38.240300000000,0 115.263994000000,38.260543000000,0 115.265788000000,38.287658000000,0 115.252205000000,38.290930000000,0 115.225871000000,38.269894000000,0 115.210174000000,38.236491000000,0 115.194220000000,38.236759000000,0 115.168591000000,38.259608000000,0 115.152317000000,38.256802000000,0 115.108107000000,38.264551000000,0 115.085874000000,38.276773000000,0 115.073765000000,38.293134000000,0 115.056722000000,38.288326000000,0 115.066204000000,38.264684000000,0 115.056465000000,38.258472000000,0 115.031862000000,38.267089000000,0 114.989062000000,38.258138000000,0 114.990087000000,38.272165000000,0 114.970096000000,38.281114000000,0 114.927681000000,38.283385000000,0 114.915059000000,38.263348000000,0 114.886162000000,38.265286000000,0 114.883343000000,38.284854000000,0 114.902565000000,38.294936000000,0 114.906986000000,38.309624000000,0 114.922875000000,38.315631000000,0 114.942994000000,38.343193000000,0 114.932871000000,38.344194000000,0 114.923388000000,38.388217000000,0 114.910381000000,38.393751000000,0 114.882254000000,38.424149000000,0 114.853998000000,38.435879000000,0 114.858163000000,38.448605000000,0 114.840992000000,38.460797000000,0 114.837852000000,38.435745000000,0 114.819143000000,38.449871000000,0 114.830868000000,38.460330000000,0 114.810750000000,38.492365000000,0 114.765259000000,38.496626000000,0 114.731237000000,38.481910000000,0 114.702084000000,38.489102000000,0 114.673700000000,38.473452000000,0 114.651851000000,38.504682000000,0 114.635257000000,38.514801000000,0 114.595724000000,38.568897000000,0 114.584320000000,38.596429000000,0 114.563240000000,38.590644000000,0 114.527616000000,38.590644000000,0 114.552284000000,38.612983000000,0 114.536907000000,38.632324000000,0 114.536330000000,38.649268000000,0 114.522106000000,38.653720000000,0 114.498463000000,38.678297000000,0 114.452652000000,38.699413000000,0 114.437787000000,38.692773000000,0 114.413504000000,38.703928000000,0 114.366411000000,38.686200000000,0 114.341167000000,38.690184000000,0 114.311502000000,38.706517000000,0 114.212831000000,38.688192000000,0 114.182205000000,38.676570000000,0 114.129153000000,38.669596000000,0 114.125053000000,38.659632000000,0 114.086097000000,38.658370000000,0 114.052139000000,38.686399000000,0 114.028624000000,38.688524000000,0 113.991655000000,38.676769000000,0 113.964617000000,38.699811000000,0 113.929697000000,38.702467000000,0 113.932324000000,38.713620000000,0 113.883245000000,38.746670000000,0 113.864664000000,38.746006000000,0 113.839548000000,38.758413000000,0</coordinates></LinearRing></outerBoundaryIs></Polygon>
    </Placemark>
  </Document>
</kml>
