<?xml version="1.0" encoding="UTF-8"?>
<kml xmlns="http://www.opengis.net/kml/2.2">
<Document>
<name>秦皇岛市</name>
<Placemark><name>秦皇岛市</name><MultiGeometry><Polygon><outerBoundaryIs><LinearRing><coordinates>119.319039000000004,39.429554000000003,0 119.304237999999998,39.459972,0 119.270024000000006,39.498581999999999,0 119.312759999999997,39.605893999999999,0 119.334928000000005,39.656148000000002,0 119.358121999999995,39.721744000000001,0 119.373500000000007,39.739671000000001,0 119.395925000000005,39.744250000000001,0 119.396885999999995,39.761124000000002,0 119.464737999999997,39.809238999999998,0 119.506641000000002,39.816493000000001,0 119.537779999999998,39.810153999999997,0 119.537651999999994,39.831259000000003,0 119.520352000000003,39.838183000000001,0 119.541048000000004,39.888137999999998,0 119.559563999999995,39.901518000000003,0 119.587947999999997,39.909936000000002,0 119.612936000000005,39.898907000000001,0 119.637027000000003,39.923181999999997,0 119.666436000000004,39.920180000000002,0 119.674317000000002,39.933424000000002,0 119.683543,39.921942000000001,0 119.726279000000005,39.941056000000003,0 119.787211999999997,39.950381999999998,0 119.816877000000005,39.978223999999997,0 119.836738999999994,39.985785999999997,0 119.835521999999997,39.964467999999997,0 119.862431999999998,39.951555999999997,0 119.872363000000007,39.960621000000003,0 119.841031999999998,40.011789,0 119.854230999999999,40.032310000000003,0 119.835008999999999,40.050286,0 119.817069000000004,40.052826000000003,0 119.795285000000007,40.040387000000003,0 119.770872999999995,40.048788000000002,0 119.760429999999999,40.065652999999998,0 119.771578000000005,40.082253000000001,0 119.736722999999998,40.104835999999999,0 119.762479999999996,40.144776,0 119.755495999999994,40.153165000000001,0 119.745948999999996,40.207957,0 119.716797,40.196066000000002,0 119.676238999999995,40.224522,0 119.671561999999994,40.23959,0 119.625174000000001,40.224131999999997,0 119.633503000000005,40.249395,0 119.651892000000004,40.272376999999999,0 119.642152999999993,40.291327000000003,0 119.621458000000004,40.30359,0 119.598135999999997,40.334206000000002,0 119.599800999999999,40.356574999999999,0 119.586667000000006,40.375436999999998,0 119.600442000000001,40.406863000000001,0 119.593457999999998,40.435682999999997,0 119.604927000000004,40.454976000000002,0 119.553541999999993,40.501761999999999,0 119.555464000000001,40.516832999999998,0 119.568854999999999,40.520778,0 119.571033,40.540886999999998,0 119.534255999999999,40.554203000000001,0 119.520287999999994,40.547415999999998,0 119.503885999999994,40.553944999999999,0 119.491006999999996,40.536166999999999,0 119.477808999999993,40.533321999999998,0 119.441863999999995,40.539852000000003,0 119.361839000000003,40.537331000000002,0 119.338068000000007,40.531253,0 119.302188000000001,40.530282999999997,0 119.256119999999996,40.543278999999998,0 119.220624000000001,40.569133000000001,0 119.232861999999997,40.589421000000002,0 119.230812,40.603890999999997,0 119.178208999999995,40.609316,0 119.162575000000004,40.600014999999999,0 119.158473999999998,40.614418000000001,0 119.105486999999997,40.603631999999998,0 119.086393999999999,40.588774999999998,0 119.063391999999993,40.606150999999997,0 119.013095000000007,40.577081,0 118.998358999999994,40.578955000000001,0 118.983366000000004,40.563639999999999,0 118.952675999999997,40.558469000000002,0 118.966003000000001,40.536102,0 118.919038,40.530929999999998,0 118.886938000000001,40.542437999999997,0 118.864000000000004,40.527244000000003,0 118.821327999999994,40.531964000000002,0 118.794866999999996,40.510753000000001,0 118.792112000000003,40.492381999999999,0 118.772953999999999,40.479765,0 118.723490999999996,40.473745999999998,0 118.702794999999995,40.491410999999999,0 118.657176000000007,40.450574000000003,0 118.624178999999998,40.437626000000002,0 118.618348999999995,40.425193,0 118.643784999999994,40.380946000000002,0 118.640197000000001,40.354565999999998,0 118.608225000000004,40.328305,0 118.596948999999995,40.308456,0 118.580098000000007,40.305861,0 118.568949000000003,40.287564000000003,0 118.571383999999995,40.269844999999997,0 118.628472000000002,40.249915000000001,0 118.665633999999997,40.242576999999997,0 118.708562000000001,40.216078000000003,0 118.746108000000007,40.208086999999999,0 118.743609000000006,40.191777000000002,0 118.775581000000003,40.194181999999998,0 118.794482000000002,40.204838000000002,0 118.849135000000004,40.178973999999997,0 118.867652000000007,40.180599000000001,0 118.888924000000003,40.168768,0 118.906735999999995,40.169679000000002,0 118.92474,40.149653000000001,0 118.918268999999995,40.092210999999999,0 118.900520999999998,40.086548999999998,0 118.866307000000006,40.061942000000002,0 118.865601999999996,40.023777000000003,0 118.885080000000002,40.005403000000001,0 118.884247000000002,39.961793999999998,0 118.875148999999993,39.941121000000003,0 118.859643000000005,39.933619999999998,0 118.853555999999998,39.88409,0 118.835232000000005,39.859017999999999,0 118.838178999999997,39.847980999999997,0 118.816843000000006,39.825836000000002,0 118.825429,39.799436,0 118.797942000000006,39.790415000000003,0 118.800184999999999,39.775706,0 118.774428,39.764198,0 118.787242000000006,39.715919999999997,0 118.804157000000004,39.679985000000002,0 118.822225000000003,39.668984000000002,0 118.824596,39.648681000000003,0 118.850097000000005,39.622737000000001,0 118.844586000000007,39.615003999999999,0 118.861309000000006,39.574753999999999,0 118.882261,39.566557000000003,0 118.895139,39.547010999999998,0 118.938451999999998,39.557572,0 118.945243000000005,39.544781,0 118.983301999999995,39.538941999999999,0 118.966066999999995,39.529494,0 118.961453000000006,39.515909999999998,0 119.008098000000004,39.509346999999998,0 119.015658000000002,39.482103000000002,0 119.004893999999993,39.467458999999998,0 119.048399000000003,39.459052,0 119.064544999999995,39.473762999999998,0 119.185768999999993,39.458986000000003,0 119.212294999999997,39.463453000000001,0 119.257401000000002,39.429752000000001,0 119.280403000000007,39.422851999999999,0 119.319039000000004,39.429554000000003,0</coordinates></LinearRing></outerBoundaryIs></Polygon></MultiGeometry></Placemark>
</Document>
</kml>