<?xml version="1.0" encoding="UTF-8"?>
<kml xmlns="http://www.opengis.net/kml/2.2">
  <Document>
    <name>邯郸市</name>
    <Placemark>
      <name>邯郸市</name>
      <Polygon><outerBoundaryIs><LinearRing><coordinates>115.478314000000,36.754699000000,0 115.463386000000,36.752177000000,0 115.423661000000,36.766081000000,0 115.390664000000,36.763150000000,0 115.362921000000,36.771056000000,0 115.349786000000,36.786796000000,0 115.335691000000,36.775826000000,0 115.323004000000,36.815474000000,0 115.307499000000,36.837129000000,0 115.325567000000,36.869667000000,0 115.283344000000,36.862589000000,0 115.200563000000,36.868374000000,0 115.176856000000,36.854353000000,0 115.158916000000,36.852038000000,0 115.170449000000,36.881509000000,0 115.166220000000,36.901512000000,0 115.143219000000,36.899131000000,0 115.125086000000,36.906070000000,0 115.106505000000,36.923958000000,0 115.125022000000,36.936471000000,0 115.111631000000,36.958431000000,0 115.096702000000,36.964549000000,0 115.058900000000,36.957004000000,0 115.021610000000,36.961422000000,0 114.985602000000,36.950477000000,0 114.949593000000,36.948778000000,0 114.892441000000,36.969647000000,0 114.862712000000,36.969715000000,0 114.836314000000,36.958024000000,0 114.838172000000,36.950885000000,0 114.787492000000,36.913960000000,0 114.772691000000,36.928447000000,0 114.743410000000,36.932323000000,0 114.734568000000,36.942931000000,0 114.718166000000,36.938103000000,0 114.707145000000,36.918041000000,0 114.671073000000,36.917429000000,0 114.648840000000,36.898450000000,0 114.567020000000,36.891307000000,0 114.551707000000,36.884094000000,0 114.555231000000,36.845979000000,0 114.507754000000,36.827936000000,0 114.478921000000,36.833248000000,0 114.462327000000,36.847681000000,0 114.421193000000,36.839444000000,0 114.353533000000,36.852038000000,0 114.336105000000,36.846728000000,0 114.304518000000,36.857007000000,0 114.299969000000,36.845435000000,0 114.252684000000,36.856531000000,0 114.225902000000,36.843052000000,0 114.182653000000,36.843937000000,0 114.100449000000,36.839035000000,0 114.081548000000,36.845094000000,0 114.090005000000,36.861023000000,0 114.063672000000,36.879331000000,0 114.028176000000,36.881236000000,0 113.991078000000,36.914913000000,0 113.984415000000,36.941503000000,0 113.941743000000,36.983376000000,0 113.901185000000,36.996830000000,0 113.883886000000,37.010893000000,0 113.859475000000,37.015037000000,0 113.828784000000,37.012048000000,0 113.794954000000,36.994995000000,0 113.777463000000,36.968560000000,0 113.761701000000,36.956052000000,0 113.792840000000,36.894709000000,0 113.786945000000,36.870076000000,0 113.772337000000,36.871165000000,0 113.742095000000,36.851085000000,0 113.731908000000,36.859118000000,0 113.731587000000,36.878650000000,0 113.710508000000,36.887360000000,0 113.696924000000,36.882257000000,0 113.676293000000,36.855646000000,0 113.684110000000,36.824804000000,0 113.673923000000,36.807505000000,0 113.680970000000,36.790134000000,0 113.655790000000,36.785706000000,0 113.599984000000,36.752927000000,0 113.569165000000,36.758107000000,0 113.549303000000,36.752313000000,0 113.536232000000,36.732339000000,0 113.499391000000,36.740589000000,0 113.477670000000,36.726407000000,0 113.465369000000,36.707790000000,0 113.477542000000,36.697287000000,0 113.507015000000,36.704858000000,0 113.502018000000,36.681528000000,0 113.477030000000,36.655189000000,0 113.486833000000,36.635189000000,0 113.535463000000,36.629250000000,0 113.545266000000,36.616892000000,0 113.539756000000,36.594082000000,0 113.569678000000,36.585885000000,0 113.588130000000,36.562725000000,0 113.588707000000,36.548101000000,0 113.547317000000,36.534362000000,0 113.559939000000,36.528620000000,0 113.554428000000,36.494706000000,0 113.582108000000,36.482942000000,0 113.587233000000,36.460982000000,0 113.629200000000,36.454687000000,0 113.670206000000,36.425122000000,0 113.708329000000,36.423342000000,0 113.729601000000,36.381642000000,0 113.732420000000,36.357599000000,0 113.755166000000,36.365956000000,0 113.764392000000,36.355612000000,0 113.797581000000,36.347184000000,0 113.818212000000,36.331149000000,0 113.855951000000,36.329367000000,0 113.853580000000,36.350130000000,0 113.881515000000,36.353899000000,0 113.901121000000,36.336974000000,0 113.911181000000,36.314767000000,0 113.931620000000,36.319497000000,0 113.934439000000,36.336151000000,0 113.957248000000,36.336220000000,0 113.952763000000,36.358147000000,0 113.964232000000,36.352597000000,0 113.983005000000,36.317166000000,0 113.993833000000,36.314561000000,0 113.994474000000,36.344169000000,0 113.979802000000,36.344101000000,0 113.985824000000,36.357599000000,0 114.010684000000,36.342456000000,0 114.023691000000,36.354995000000,0 114.032276000000,36.347527000000,0 114.026254000000,36.325117000000,0 114.055727000000,36.329983000000,0 114.061557000000,36.317989000000,0 114.042720000000,36.297011000000,0 114.060532000000,36.276507000000,0 114.085328000000,36.270129000000,0 114.092632000000,36.277810000000,0 114.121080000000,36.272735000000,0 114.130627000000,36.279662000000,0 114.176630000000,36.263132000000,0 114.168878000000,36.243443000000,0 114.203028000000,36.245570000000,0 114.211037000000,36.273009000000,0 114.223723000000,36.270883000000,0 114.235577000000,36.252774000000,0 114.256464000000,36.264024000000,0 114.290102000000,36.247148000000,0 114.328353000000,36.248177000000,0 114.345139000000,36.255792000000,0 114.356096000000,36.230337000000,0 114.392360000000,36.221141000000,0 114.408442000000,36.224573000000,0 114.417541000000,36.205904000000,0 114.466171000000,36.197735000000,0 114.480267000000,36.177823000000,0 114.532870000000,36.171505000000,0 114.558050000000,36.150763000000,0 114.586883000000,36.140939000000,0 114.582590000000,36.121356000000,0 114.610845000000,36.128297000000,0 114.630387000000,36.124243000000,0 114.655183000000,36.140252000000,0 114.691128000000,36.138397000000,0 114.692409000000,36.146229000000,0 114.720665000000,36.140046000000,0 114.734440000000,36.155777000000,0 114.771345000000,36.124517000000,0 114.778650000000,36.133175000000,0 114.825166000000,36.123693000000,0 114.857458000000,36.127747000000,0 114.858675000000,36.144305000000,0 114.879435000000,36.147809000000,0 114.912432000000,36.140458000000,0 114.907050000000,36.117233000000,0 114.926463000000,36.089464000000,0 114.914674000000,36.051988000000,0 114.920184000000,36.048205000000,0 114.954591000000,36.067806000000,0 114.998416000000,36.069732000000,0 115.045893000000,36.112216000000,0 115.048456000000,36.162027000000,0 115.062680000000,36.178235000000,0 115.104583000000,36.172192000000,0 115.110414000000,36.199382000000,0 115.142834000000,36.209679000000,0 115.170705000000,36.191006000000,0 115.189222000000,36.195538000000,0 115.201780000000,36.212768000000,0 115.242146000000,36.191212000000,0 115.260406000000,36.171574000000,0 115.279307000000,36.137847000000,0 115.302181000000,36.127678000000,0 115.297247000000,36.109123000000,0 115.313073000000,36.088227000000,0 115.341393000000,36.087608000000,0 115.369264000000,36.102731000000,0 115.377914000000,36.128503000000,0 115.392650000000,36.129190000000,0 115.404632000000,36.155640000000,0 115.415716000000,36.137572000000,0 115.431286000000,36.149183000000,0 115.449674000000,36.150144000000,0 115.451276000000,36.169720000000,0 115.463898000000,36.171299000000,0 115.469985000000,36.152892000000,0 115.483568000000,36.148976000000,0 115.475944000000,36.193066000000,0 115.476520000000,36.246531000000,0 115.465372000000,36.250373000000,0 115.462681000000,36.276096000000,0 115.436347000000,36.276370000000,0 115.417062000000,36.292760000000,0 115.422956000000,36.322170000000,0 115.394637000000,36.322581000000,0 115.366637000000,36.308940000000,0 115.359782000000,36.318743000000,0 115.368688000000,36.342593000000,0 115.349594000000,36.363079000000,0 115.339983000000,36.398078000000,0 115.297440000000,36.413484000000,0 115.312048000000,36.433541000000,0 115.317046000000,36.454003000000,0 115.300259000000,36.465908000000,0 115.291417000000,36.460572000000,0 115.272836000000,36.497373000000,0 115.296479000000,36.508862000000,0 115.288341000000,36.528484000000,0 115.307435000000,36.527458000000,0 115.331270000000,36.550219000000,0 115.334281000000,36.582470000000,0 115.355104000000,36.627407000000,0 115.366061000000,36.621945000000,0 115.388229000000,36.647203000000,0 115.386756000000,36.656827000000,0 115.406426000000,36.663242000000,0 115.420586000000,36.686781000000,0 115.446663000000,36.694626000000,0 115.450507000000,36.713656000000,0 115.478314000000,36.754699000000,0</coordinates></LinearRing></outerBoundaryIs></Polygon>
    </Placemark>
  </Document>
</kml>
