<?xml version="1.0" encoding="UTF-8"?>
<kml xmlns="http://www.opengis.net/kml/2.2">
  <Document>
    <name><![CDATA[常德市]]></name>
    <Placemark>
      <name><![CDATA[常德市]]></name>
      <description><![CDATA[省级目录：湖南省]]></description>
      <ExtendedData>
        <Data name="adcode"><value>430700</value></Data>
      </ExtendedData>
      <MultiGeometry>
      <Polygon>
        <outerBoundaryIs><LinearRing><coordinates>112.283413,29.495225,0 112.278216,29.50987,0 112.281991,29.537109,0 112.291564,29.54276,0 112.302724,29.566008,0 112.303216,29.585485,0 112.295175,29.59533,0 112.282046,29.596244,0 112.251958,29.61152,0 112.241728,29.610122,0 112.234398,29.615823,0 112.228271,29.62959,0 112.2321,29.640559,0 112.24419,29.659592,0 112.236094,29.658463,0 112.218205,29.64513,0 112.220448,29.637226,0 112.206717,29.635075,0 112.199441,29.629859,0 112.198293,29.617436,0 112.18582,29.634322,0 112.184015,29.648033,0 112.178161,29.656635,0 112.16454,29.662333,0 112.150535,29.654538,0 112.144026,29.657441,0 112.124988,29.657011,0 112.118478,29.66271,0 112.111531,29.659646,0 112.107483,29.671149,0 112.091892,29.685661,0 112.087461,29.681738,0 112.065469,29.681792,0 112.059944,29.695765,0 112.064485,29.710327,0 112.074003,29.717097,0 112.073292,29.734718,0 112.07641,29.743474,0 112.065907,29.754646,0 112.06443,29.769844,0 112.054693,29.758835,0 112.064704,29.745945,0 112.050754,29.749168,0 112.045557,29.758406,0 112.031224,29.762272,0 112.00978,29.77806,0 111.99129,29.782785,0 111.987078,29.793953,0 111.977067,29.790517,0 111.954856,29.796744,0 111.951574,29.814244,0 111.96525,29.831151,0 111.960929,29.83743,0 111.936202,29.832492,0 111.919298,29.84242,0 111.914594,29.852669,0 111.880622,29.860019,0 111.86339,29.856532,0 111.849987,29.870964,0 111.839648,29.876811,0 111.828981,29.873968,0 111.830677,29.887914,0 111.810326,29.89376,0 111.809615,29.902288,0 111.794626,29.90572,0 111.757427,29.920091,0 111.736475,29.919608,0 111.724878,29.915533,0 111.718915,29.90084,0 111.705403,29.896764,0 111.705074,29.89006,0 111.68177,29.884535,0 111.66235,29.885822,0 111.651464,29.892956,0 111.621704,29.89494,0 111.597962,29.889362,0 111.584013,29.898051,0 111.577886,29.89435,0 111.56596,29.898534,0 111.551409,29.895208,0 111.546102,29.904218,0 111.538444,29.904647,0 111.527448,29.925667,0 111.514483,29.927704,0 111.483465,29.91816,0 111.474931,29.919072,0 111.463553,29.9269,0 111.445555,29.924702,0 111.437787,29.93001,0 111.419953,29.916391,0 111.405347,29.911136,0 111.39085,29.914836,0 111.382809,29.92363,0 111.390139,29.937515,0 111.378323,29.937247,0 111.383301,29.945878,0 111.37515,29.954401,0 111.351682,29.951399,0 111.347141,29.941965,0 111.342108,29.945342,0 111.335762,29.963352,0 111.322141,29.978304,0 111.318749,29.971873,0 111.29725,29.9902,0 111.297688,30.004612,0 111.286091,30.011309,0 111.266999,30.011416,0 111.25562,30.034555,0 111.242217,30.040393,0 111.199712,30.040982,0 111.179744,30.044249,0 111.178979,30.0405,0 111.106659,30.047729,0 111.078924,30.049122,0 111.031549,30.048854,0 111.005838,30.054476,0 110.998398,30.059349,0 110.970936,30.058974,0 110.929908,30.063418,0 110.923015,30.075732,0 110.925203,30.094521,0 110.924273,30.111327,0 110.897905,30.109828,0 110.873945,30.113414,0 110.858026,30.118551,0 110.853048,30.125721,0 110.836089,30.122671,0 110.814371,30.125989,0 110.802993,30.11443,0 110.788332,30.119996,0 110.769568,30.12021,0 110.746373,30.112611,0 110.753102,30.101319,0 110.748999,30.088312,0 110.756001,30.083013,0 110.75529,30.052816,0 110.742106,30.041785,0 110.722358,30.039643,0 110.712347,30.033163,0 110.694075,30.041517,0 110.68215,30.053834,0 110.686362,30.059135,0 110.659611,30.071235,0 110.650968,30.077606,0 110.62657,30.063793,0 110.597631,30.054423,0 110.576405,30.059081,0 110.564753,30.054369,0 110.531329,30.061116,0 110.508189,30.050407,0 110.501022,30.055226,0 110.495989,30.040232,0 110.499819,30.02695,0 110.491558,30.019719,0 110.504687,30.008791,0 110.520114,30.001773,0 110.547248,29.999576,0 110.557204,29.986931,0 110.551077,29.979697,0 110.535267,29.975089,0 110.517324,29.961369,0 110.508079,29.944109,0 110.506766,29.919018,0 110.498068,29.910063,0 110.50786,29.908937,0 110.515519,29.902502,0 110.526952,29.904647,0 110.537839,29.896764,0 110.535705,29.880351,0 110.547631,29.863399,0 110.549983,29.848001,0 110.575366,29.844835,0 110.579907,29.835873,0 110.597795,29.840005,0 110.606493,29.837,0 110.618419,29.826589,0 110.62925,29.805119,0 110.629688,29.798409,0 110.640027,29.782463,0 110.641723,29.770435,0 110.631821,29.757761,0 110.634666,29.749597,0 110.652992,29.744656,0 110.661088,29.735793,0 110.66076,29.719622,0 110.672576,29.706835,0 110.699327,29.699688,0 110.721428,29.687489,0 110.731876,29.690283,0 110.747686,29.70705,0 110.762839,29.715593,0 110.764973,29.709897,0 110.766559,29.680502,0 110.78133,29.683243,0 110.814481,29.680556,0 110.854415,29.696249,0 110.874984,29.684909,0 110.890356,29.686898,0 110.904689,29.684479,0 110.927391,29.676578,0 110.927938,29.671633,0 110.94249,29.668032,0 110.965083,29.677492,0 110.98609,29.675933,0 110.998562,29.667171,0 111.020444,29.669967,0 111.032096,29.669053,0 111.039208,29.653302,0 111.030729,29.645398,0 111.049711,29.636957,0 111.053322,29.619049,0 111.077009,29.619318,0 111.110652,29.613779,0 111.124383,29.607755,0 111.133847,29.608992,0 111.148234,29.604743,0 111.151298,29.596836,0 111.158957,29.59463,0 111.173453,29.600547,0 111.213278,29.599203,0 111.224821,29.60286,0 111.252283,29.600547,0 111.257316,29.596997,0 111.254581,29.587045,0 111.267108,29.579782,0 111.273782,29.580858,0 111.286911,29.555246,0 111.294679,29.55686,0 111.303213,29.549703,0 111.300916,29.5384,0 111.319242,29.533341,0 111.320445,29.520852,0 111.328377,29.511216,0 111.337513,29.493448,0 111.329417,29.486717,0 111.3176,29.464366,0 111.32969,29.443681,0 111.311255,29.419273,0 111.294843,29.412914,0 111.291725,29.407848,0 111.300697,29.395991,0 111.2862,29.389523,0 111.26946,29.386558,0 111.25923,29.380629,0 111.234723,29.33264,0 111.245554,29.321044,0 111.252009,29.302757,0 111.25097,29.29461,0 111.234887,29.273513,0 111.222141,29.265688,0 111.220171,29.25743,0 111.232753,29.239888,0 111.23144,29.231736,0 111.22318,29.223692,0 111.20644,29.217537,0 111.192928,29.218077,0 111.177884,29.223422,0 111.165685,29.236163,0 111.153869,29.237728,0 111.121812,29.218563,0 111.092819,29.204146,0 111.080783,29.188376,0 111.071867,29.16985,0 111.043475,29.139271,0 111.025805,29.137704,0 111.022304,29.120465,0 111.00168,29.117925,0 110.985324,29.111007,0 110.983792,29.118952,0 110.974711,29.119222,0 110.958464,29.133867,0 110.941615,29.138082,0 110.945772,29.130949,0 110.929744,29.130841,0 110.925367,29.118681,0 110.913113,29.111331,0 110.88959,29.109872,0 110.886636,29.100683,0 110.876297,29.09771,0 110.868693,29.108088,0 110.852555,29.09425,0 110.852172,29.08679,0 110.86098,29.073057,0 110.862676,29.064027,0 110.873179,29.066406,0 110.88215,29.054726,0 110.894568,29.049588,0 110.909722,29.048723,0 110.9147,29.035742,0 110.919076,29.022544,0 110.943529,29.011778,0 110.955291,29.002851,0 110.949,28.997007,0 110.962019,28.99836,0 110.970717,28.992733,0 110.98702,28.988404,0 110.982588,28.976823,0 110.974602,28.976769,0 110.965356,28.965186,0 110.954908,28.960748,0 110.956768,28.951059,0 110.950148,28.937308,0 110.96284,28.917924,0 110.9583,28.906389,0 110.972687,28.904223,0 110.9897,28.89729,0 110.992435,28.888245,0 111.002063,28.875732,0 111.013114,28.851297,0 111.031494,28.838075,0 111.040302,28.822683,0 111.048453,28.825393,0 111.064427,28.823442,0 111.072742,28.809837,0 111.079361,28.805717,0 111.078759,28.793682,0 111.086309,28.785387,0 111.102228,28.777959,0 111.098453,28.770747,0 111.115138,28.743358,0 111.102556,28.734028,0 111.105455,28.727085,0 111.09632,28.700499,0 111.081166,28.69187,0 111.06574,28.696592,0 111.051571,28.692088,0 111.046648,28.684707,0 111.06191,28.668587,0 111.064646,28.659739,0 111.051681,28.652301,0 111.015247,28.649858,0 110.995335,28.63786,0 110.991724,28.619995,0 110.9554,28.61918,0 110.946155,28.622004,0 110.934722,28.617551,0 110.945936,28.601421,0 110.943857,28.591644,0 110.950696,28.568229,0 110.956166,28.568827,0 110.978376,28.585505,0 110.989262,28.587841,0 111.005729,28.583604,0 111.010105,28.587352,0 111.008026,28.598162,0 111.015794,28.599302,0 111.020171,28.589742,0 111.036691,28.596858,0 111.049766,28.608156,0 111.057425,28.607938,0 111.055346,28.590177,0 111.064481,28.582789,0 111.054744,28.57062,0 111.079306,28.53769,0 111.075915,28.53019,0 111.067545,28.530135,0 111.049274,28.53682,0 111.041888,28.535027,0 111.029689,28.543668,0 111.013168,28.545787,0 111.002009,28.537146,0 110.993146,28.521765,0 110.981658,28.51198,0 110.969897,28.512524,0 110.959339,28.492245,0 110.943803,28.478434,0 110.929744,28.484796,0 110.923453,28.473268,0 110.905345,28.455103,0 110.889207,28.447325,0 110.88866,28.438948,0 110.862129,28.418818,0 110.860433,28.406032,0 110.88226,28.408099,0 110.889481,28.404889,0 110.944623,28.42649,0 110.96738,28.430353,0 110.978704,28.439492,0 111.001407,28.440145,0 111.007753,28.44553,0 111.020116,28.445639,0 111.034831,28.454886,0 111.050204,28.45891,0 111.061692,28.451676,0 111.09353,28.456952,0 111.096867,28.463642,0 111.109339,28.468156,0 111.11667,28.464403,0 111.126353,28.470549,0 111.144952,28.473703,0 111.147852,28.487841,0 111.154361,28.496541,0 111.152173,28.514318,0 111.168639,28.517471,0 111.175204,28.513883,0 111.192217,28.518829,0 111.198235,28.526548,0 111.215193,28.536222,0 111.228651,28.522471,0 111.252611,28.531548,0 111.281058,28.517905,0 111.309176,28.520949,0 111.315686,28.524428,0 111.324165,28.518829,0 111.333793,28.520134,0 111.339209,28.527852,0 111.34818,28.528722,0 111.363388,28.539538,0 111.373892,28.551819,0 111.383192,28.55057,0 111.396594,28.540788,0 111.412294,28.547852,0 111.431386,28.547418,0 111.443367,28.557308,0 111.46782,28.556927,0 111.491452,28.571652,0 111.494187,28.581268,0 111.509341,28.585668,0 111.518641,28.5955,0 111.53921,28.609731,0 111.567218,28.638783,0 111.574494,28.639326,0 111.605402,28.624936,0 111.624385,28.618311,0 111.636092,28.628466,0 111.644954,28.623742,0 111.662842,28.624665,0 111.663663,28.607884,0 111.67351,28.591426,0 111.688389,28.589199,0 111.702777,28.598976,0 111.708904,28.594251,0 111.723401,28.609839,0 111.719079,28.636448,0 111.728269,28.642529,0 111.722525,28.645027,0 111.730676,28.652193,0 111.74211,28.651596,0 111.751573,28.657622,0 111.759068,28.653442,0 111.768258,28.639054,0 111.776191,28.634113,0 111.787843,28.648718,0 111.791344,28.643126,0 111.8106,28.640955,0 111.81618,28.626403,0 111.828488,28.615759,0 111.844025,28.616682,0 111.850151,28.633353,0 111.854747,28.636991,0 111.873073,28.630964,0 111.888062,28.6371,0 111.901191,28.635959,0 111.9106,28.643452,0 111.918204,28.655396,0 111.910163,28.664136,0 111.910217,28.671464,0 111.923237,28.676946,0 111.951519,28.674395,0 111.984123,28.663864,0 111.979583,28.65621,0 111.992001,28.657513,0 111.998456,28.646764,0 112.014047,28.640737,0 112.034616,28.640032,0 112.040743,28.65773,0 112.025863,28.669292,0 112.033412,28.673418,0 112.070448,28.672332,0 112.07827,28.655124,0 112.086531,28.652681,0 112.094354,28.641986,0 112.107373,28.652301,0 112.139759,28.649316,0 112.149441,28.656427,0 112.142931,28.662236,0 112.158796,28.667447,0 112.161476,28.675697,0 112.169026,28.678303,0 112.182757,28.66837,0 112.199715,28.674069,0 112.207975,28.691002,0 112.215306,28.692576,0 112.232046,28.707064,0 112.231006,28.711839,0 112.264923,28.719164,0 112.283194,28.728441,0 112.283413,28.776874,0 112.299606,28.784845,0 112.306389,28.800242,0 112.304693,28.823009,0 112.276466,28.84073,0 112.256991,28.861483,0 112.258632,28.900811,0 112.26175,28.908122,0 112.259562,28.922743,0 112.257319,28.96773,0 112.246871,28.980828,0 112.247636,28.997062,0 112.254037,29.04975,0 112.241455,29.06792,0 112.245284,29.100683,0 112.235711,29.114412,0 112.222855,29.118627,0 112.211203,29.117276,0 112.208194,29.126356,0 112.187735,29.134516,0 112.189978,29.145268,0 112.201028,29.146025,0 112.195776,29.160018,0 112.20163,29.179248,0 112.223895,29.19907,0 112.236422,29.213163,0 112.22849,29.216079,0 112.22652,29.228443,0 112.228763,29.251763,0 112.223457,29.266659,0 112.222199,29.287327,0 112.213446,29.296121,0 112.22663,29.294071,0 112.234234,29.298657,0 112.245284,29.292992,0 112.258249,29.29229,0 112.263665,29.298711,0 112.251192,29.31894,0 112.249387,29.328541,0 112.252615,29.351946,0 112.261696,29.375615,0 112.28117,29.395129,0 112.284179,29.403483,0 112.2943,29.406124,0 112.294464,29.428541,0 112.300317,29.448206,0 112.293534,29.45634,0 112.291728,29.478262,0 112.283413,29.495225,0</coordinates></LinearRing></outerBoundaryIs>
      </Polygon>
    </MultiGeometry>
    </Placemark>
  </Document>
</kml>
