<?xml version="1.0" encoding="UTF-8"?>
<kml xmlns="http://www.opengis.net/kml/2.2">
  <Document>
    <name><![CDATA[怀化市]]></name>
    <Placemark>
      <name><![CDATA[怀化市]]></name>
      <description><![CDATA[省级目录：湖南省]]></description>
      <ExtendedData>
        <Data name="adcode"><value>431200</value></Data>
      </ExtendedData>
      <MultiGeometry>
      <Polygon>
        <outerBoundaryIs><LinearRing><coordinates>109.418415,27.721364,0 109.418251,27.714244,0 109.429957,27.703564,0 109.456872,27.69354,0 109.470439,27.680283,0 109.458185,27.67475,0 109.456161,27.669436,0 109.464476,27.651408,0 109.470056,27.628774,0 109.469181,27.620936,0 109.451238,27.585959,0 109.46196,27.565615,0 109.45917,27.560131,0 109.445986,27.562379,0 109.433623,27.548393,0 109.404957,27.550478,0 109.379137,27.535832,0 109.325909,27.494243,0 109.312342,27.486176,0 109.302988,27.475638,0 109.306926,27.434411,0 109.299869,27.423923,0 109.286467,27.424637,0 109.245548,27.418157,0 109.24325,27.429634,0 109.221915,27.438913,0 109.213709,27.450497,0 109.202112,27.450058,0 109.18953,27.436552,0 109.166992,27.417828,0 109.156215,27.41651,0 109.159442,27.442317,0 109.154081,27.448795,0 109.140405,27.447094,0 109.123337,27.42859,0 109.123282,27.418432,0 109.11453,27.424911,0 109.111959,27.413709,0 109.124541,27.415137,0 109.129245,27.42557,0 109.138655,27.430348,0 109.14221,27.418212,0 109.127659,27.405087,0 109.115897,27.400089,0 109.12476,27.387895,0 109.113819,27.367184,0 109.118468,27.36224,0 109.114092,27.352404,0 109.104519,27.355481,0 109.101072,27.349822,0 109.103753,27.337128,0 109.086357,27.331028,0 109.074376,27.331907,0 109.072188,27.323553,0 109.059551,27.326851,0 109.052112,27.336688,0 109.044398,27.331083,0 109.054136,27.306074,0 109.053917,27.294859,0 109.045602,27.288207,0 109.041389,27.276606,0 109.023884,27.282214,0 109.010591,27.270502,0 108.99954,27.267533,0 108.987177,27.270557,0 108.984661,27.256259,0 108.968523,27.245535,0 108.963435,27.235524,0 108.951455,27.236074,0 108.947078,27.228428,0 108.914256,27.21462,0 108.908676,27.204332,0 108.925744,27.1996,0 108.919179,27.193492,0 108.929792,27.180065,0 108.926017,27.175167,0 108.926783,27.160912,0 108.909989,27.147536,0 108.904901,27.134929,0 108.887614,27.121495,0 108.88477,27.108499,0 108.878752,27.106296,0 108.868522,27.116594,0 108.859934,27.114887,0 108.856542,27.098091,0 108.846969,27.098146,0 108.824376,27.089058,0 108.807472,27.098587,0 108.792209,27.083275,0 108.803807,27.078869,0 108.831432,27.057825,0 108.840951,27.063059,0 108.845656,27.058045,0 108.84396,27.047963,0 108.854737,27.031983,0 108.868522,27.031047,0 108.877658,27.015451,0 108.878424,27.006356,0 108.872899,26.999852,0 108.884113,27.002388,0 108.900634,27.016939,0 108.918468,27.019088,0 108.914912,27.025922,0 108.920984,27.029779,0 108.921367,27.009774,0 108.936794,27.011813,0 108.951947,27.018757,0 108.950962,27.036943,0 108.94314,27.037384,0 108.940404,27.044712,0 108.964256,27.054464,0 108.989639,27.074076,0 109.007582,27.080246,0 109.016116,27.086745,0 109.018851,27.095833,0 109.032527,27.103818,0 109.035864,27.098091,0 109.053753,27.098311,0 109.061958,27.110427,0 109.064748,27.103488,0 109.080394,27.116484,0 109.097188,27.116098,0 109.111357,27.123146,0 109.122954,27.123367,0 109.13395,27.11775,0 109.131051,27.110096,0 109.118961,27.10525,0 109.109169,27.092528,0 109.101127,27.068953,0 109.130558,27.065042,0 109.141062,27.073581,0 109.1543,27.071928,0 109.163545,27.065813,0 109.175252,27.087241,0 109.185482,27.082284,0 109.19593,27.091262,0 109.21825,27.116429,0 109.238928,27.149132,0 109.248119,27.153426,0 109.257419,27.150618,0 109.264257,27.131901,0 109.280559,27.127111,0 109.29894,27.135259,0 109.335045,27.139058,0 109.333677,27.148747,0 109.358732,27.152875,0 109.373994,27.147811,0 109.376894,27.154196,0 109.384552,27.143902,0 109.393196,27.143847,0 109.392813,27.156068,0 109.400855,27.159591,0 109.400253,27.15238,0 109.41464,27.154141,0 109.427933,27.12601,0 109.440898,27.118191,0 109.448338,27.120558,0 109.457583,27.133332,0 109.472682,27.134929,0 109.469345,27.115438,0 109.459607,27.108279,0 109.463437,27.10123,0 109.459717,27.09363,0 109.462069,27.081292,0 109.482419,27.081127,0 109.481653,27.071763,0 109.454575,27.069449,0 109.468251,27.064767,0 109.487069,27.053968,0 109.49615,27.062453,0 109.487999,27.066474,0 109.489804,27.078593,0 109.498503,27.079364,0 109.505067,27.072699,0 109.518524,27.072589,0 109.510483,27.067962,0 109.518853,27.060029,0 109.517923,27.043224,0 109.525034,27.037273,0 109.5258,27.026528,0 109.541336,27.01286,0 109.542376,26.996435,0 109.532091,26.993182,0 109.527605,26.977195,0 109.536796,26.974659,0 109.546697,26.984583,0 109.555013,26.946923,0 109.533623,26.938596,0 109.530231,26.92751,0 109.514093,26.930764,0 109.493251,26.921111,0 109.484225,26.913554,0 109.471807,26.911182,0 109.45824,26.901859,0 109.446588,26.899652,0 109.436413,26.892645,0 109.438546,26.877416,0 109.444837,26.871732,0 109.436631,26.862461,0 109.447901,26.859591,0 109.457474,26.864117,0 109.456763,26.873222,0 109.472955,26.884755,0 109.474214,26.8943,0 109.486796,26.895293,0 109.490844,26.883651,0 109.51382,26.874271,0 109.510373,26.865496,0 109.513109,26.840273,0 109.497354,26.823105,0 109.497463,26.815265,0 109.507693,26.801185,0 109.51754,26.779924,0 109.517485,26.756228,0 109.522244,26.749378,0 109.528645,26.744019,0 109.53417,26.744572,0 109.553918,26.73529,0 109.561522,26.742251,0 109.558076,26.754626,0 109.570439,26.747887,0 109.580341,26.755676,0 109.577113,26.77059,0 109.596424,26.760703,0 109.579083,26.740815,0 109.578153,26.733301,0 109.568251,26.726173,0 109.553371,26.723024,0 109.547299,26.717885,0 109.546041,26.731201,0 109.528535,26.743909,0 109.522135,26.749212,0 109.504629,26.744627,0 109.502332,26.757664,0 109.497682,26.76015,0 109.453973,26.7612,0 109.437671,26.755234,0 109.417758,26.739765,0 109.413984,26.72225,0 109.407091,26.719819,0 109.38127,26.727444,0 109.385975,26.712138,0 109.37301,26.705009,0 109.364968,26.696166,0 109.355012,26.693237,0 109.335592,26.699979,0 109.319126,26.701748,0 109.298447,26.696553,0 109.292922,26.701251,0 109.283732,26.698598,0 109.287014,26.689699,0 109.304191,26.66311,0 109.33406,26.646247,0 109.355121,26.659019,0 109.364366,26.633473,0 109.378699,26.622468,0 109.384717,26.604713,0 109.391281,26.60051,0 109.387178,26.588063,0 109.389859,26.581147,0 109.385482,26.571022,0 109.399049,26.570967,0 109.395165,26.56643,0 109.403973,26.560177,0 109.408732,26.5371,0 109.404301,26.529628,0 109.381708,26.518502,0 109.385537,26.493534,0 109.364038,26.475926,0 109.362452,26.466235,0 109.380997,26.461749,0 109.373557,26.449453,0 109.361029,26.44829,0 109.326784,26.42796,0 109.319563,26.418653,0 109.313546,26.397376,0 109.299049,26.368225,0 109.292594,26.345331,0 109.277331,26.340008,0 109.271423,26.327755,0 109.274486,26.31539,0 109.285865,26.295813,0 109.296861,26.297366,0 109.30534,26.29121,0 109.325745,26.289879,0 109.323393,26.282446,0 109.334771,26.276677,0 109.339804,26.264084,0 109.351456,26.264251,0 109.373229,26.278175,0 109.391172,26.277121,0 109.401511,26.283722,0 109.421041,26.288714,0 109.442649,26.289879,0 109.444454,26.303079,0 109.46103,26.314114,0 109.466555,26.314059,0 109.476894,26.299252,0 109.458842,26.284166,0 109.453426,26.264528,0 109.43964,26.238839,0 109.452386,26.209648,0 109.468306,26.20321,0 109.470439,26.196327,0 109.459334,26.194106,0 109.470001,26.177007,0 109.467485,26.162349,0 109.476183,26.148078,0 109.493196,26.144024,0 109.495166,26.152632,0 109.501128,26.139082,0 109.514093,26.128251,0 109.512726,26.115476,0 109.504082,26.09681,0 109.475964,26.099477,0 109.466555,26.091588,0 109.450417,26.101921,0 109.450964,26.075974,0 109.447572,26.071807,0 109.454793,26.053079,0 109.479137,26.047743,0 109.482638,26.029622,0 109.496424,26.023785,0 109.508896,26.009553,0 109.513163,25.998099,0 109.5287,25.995764,0 109.540297,26.000045,0 109.545385,26.013889,0 109.559772,26.02145,0 109.588273,26.019727,0 109.604466,26.026398,0 109.612726,26.037071,0 109.634991,26.047298,0 109.646041,26.041962,0 109.649269,26.01678,0 109.656709,26.013445,0 109.675472,26.015113,0 109.690133,26.007551,0 109.689149,25.998266,0 109.698066,25.998933,0 109.708241,26.013556,0 109.72323,26.003437,0 109.729685,25.991538,0 109.723558,25.974632,0 109.711468,25.961784,0 109.709991,25.954052,0 109.69347,25.95917,0 109.690297,25.937642,0 109.682584,25.933914,0 109.679302,25.923065,0 109.69254,25.909933,0 109.69254,25.898025,0 109.68521,25.901085,0 109.68056,25.895131,0 109.688711,25.888285,0 109.68521,25.880326,0 109.702114,25.882274,0 109.710648,25.886894,0 109.7194,25.883833,0 109.747245,25.889231,0 109.768361,25.890345,0 109.764751,25.876207,0 109.779521,25.865965,0 109.799379,25.871866,0 109.813219,25.879825,0 109.815845,25.890845,0 109.825965,25.911436,0 109.825035,25.922898,0 109.810429,25.945653,0 109.80649,25.973631,0 109.784663,25.985754,0 109.782475,25.997209,0 109.80195,26.034403,0 109.814587,26.040962,0 109.840189,26.029066,0 109.856272,26.026287,0 109.870878,26.033347,0 109.880451,26.057302,0 109.882475,26.075252,0 109.888165,26.087976,0 109.898996,26.095199,0 109.899051,26.108977,0 109.907202,26.144857,0 109.914478,26.154409,0 109.931217,26.161239,0 109.966228,26.195494,0 109.974379,26.218362,0 109.99276,26.238617,0 109.988821,26.245165,0 109.995331,26.258703,0 109.990408,26.27285,0 109.984281,26.279118,0 109.995933,26.294981,0 110.009281,26.304021,0 110.013001,26.335074,0 110.017706,26.347548,0 110.011524,26.364622,0 110.012235,26.372492,0 109.978646,26.388011,0 109.979412,26.40735,0 109.98729,26.432447,0 109.96683,26.428016,0 109.950583,26.43699,0 109.955014,26.446905,0 109.934883,26.456986,0 109.932585,26.475981,0 109.919018,26.474652,0 109.902826,26.461804,0 109.891392,26.459367,0 109.875418,26.468173,0 109.856272,26.465182,0 109.862344,26.486834,0 109.879357,26.497022,0 109.883187,26.509977,0 109.879685,26.517395,0 109.892541,26.525477,0 109.8723,26.538871,0 109.862672,26.539867,0 109.864368,26.561007,0 109.872081,26.571022,0 109.861688,26.583637,0 109.856819,26.580926,0 109.826841,26.60582,0 109.83067,26.621528,0 109.851458,26.621804,0 109.858241,26.643427,0 109.885429,26.653822,0 109.898942,26.655591,0 109.901075,26.66803,0 109.91404,26.676212,0 109.934062,26.673724,0 109.941939,26.67776,0 109.950036,26.68887,0 109.963603,26.691855,0 109.987618,26.685333,0 109.997738,26.674277,0 110.007476,26.673116,0 110.002005,26.666593,0 110.020331,26.662889,0 110.021863,26.668251,0 110.036907,26.681961,0 110.044183,26.6981,0 110.065189,26.695392,0 110.072082,26.700145,0 110.067323,26.718382,0 110.060813,26.717553,0 110.047465,26.724681,0 110.05031,26.735622,0 110.056546,26.740207,0 110.04927,26.747555,0 110.064095,26.750925,0 110.061688,26.760316,0 110.068253,26.759653,0 110.063493,26.769927,0 110.068581,26.784618,0 110.061634,26.793509,0 110.056546,26.80886,0 110.057421,26.822718,0 110.048723,26.825037,0 110.042104,26.835029,0 110.048668,26.86075,0 110.055944,26.876202,0 110.063548,26.882051,0 110.078209,26.881996,0 110.093253,26.891155,0 110.09741,26.906383,0 110.072137,26.932032,0 110.075911,26.941684,0 110.089697,26.948743,0 110.104796,26.951941,0 110.116284,26.978022,0 110.125529,26.984803,0 110.146262,26.986898,0 110.153647,26.998419,0 110.15031,27.022891,0 110.155069,27.037714,0 110.162619,27.04642,0 110.201404,27.061902,0 110.208352,27.081292,0 110.204413,27.092033,0 110.194183,27.102111,0 110.200474,27.118191,0 110.226514,27.130359,0 110.24949,27.151059,0 110.26705,27.153866,0 110.304632,27.166966,0 110.31437,27.157939,0 110.325803,27.158765,0 110.331766,27.151444,0 110.342707,27.150508,0 110.355891,27.175277,0 110.352116,27.19905,0 110.375584,27.223037,0 110.387127,27.218801,0 110.424053,27.19949,0 110.443035,27.201251,0 110.456274,27.2133,0 110.462127,27.247075,0 110.483517,27.262144,0 110.511635,27.273746,0 110.526405,27.289911,0 110.524272,27.293375,0 110.540847,27.305194,0 110.553922,27.308218,0 110.573998,27.281059,0 110.585104,27.278585,0 110.598725,27.281444,0 110.609064,27.288977,0 110.606384,27.301841,0 110.609994,27.309537,0 110.606548,27.32108,0 110.614863,27.324103,0 110.632204,27.343283,0 110.636526,27.353613,0 110.649218,27.365206,0 110.659666,27.396793,0 110.663113,27.420683,0 110.674108,27.434575,0 110.688222,27.443854,0 110.69331,27.455822,0 110.684666,27.468722,0 110.68401,27.487877,0 110.68029,27.497042,0 110.648233,27.529578,0 110.632642,27.536106,0 110.638112,27.555908,0 110.652773,27.565834,0 110.653047,27.57417,0 110.674053,27.60005,0 110.710542,27.606958,0 110.714426,27.616003,0 110.734174,27.616386,0 110.741067,27.62565,0 110.743693,27.617318,0 110.737949,27.600708,0 110.746647,27.603833,0 110.755837,27.596815,0 110.767052,27.581299,0 110.776898,27.574005,0 110.7868,27.560515,0 110.799437,27.559418,0 110.808682,27.563366,0 110.824328,27.578831,0 110.853485,27.592045,0 110.854579,27.601804,0 110.847632,27.608986,0 110.845662,27.62428,0 110.857314,27.621375,0 110.852336,27.627568,0 110.855564,27.647353,0 110.869185,27.655463,0 110.86831,27.672887,0 110.859995,27.677215,0 110.849163,27.675791,0 110.837511,27.681489,0 110.830345,27.714956,0 110.811472,27.757775,0 110.795717,27.758158,0 110.785706,27.782681,0 110.767763,27.795433,0 110.78587,27.832914,0 110.791614,27.85567,0 110.806548,27.864257,0 110.837183,27.849216,0 110.87668,27.846371,0 110.882096,27.850474,0 110.894514,27.849872,0 110.898507,27.855998,0 110.912785,27.864257,0 110.922358,27.863273,0 110.929689,27.879077,0 110.944787,27.896247,0 110.973945,27.910899,0 110.9804,27.919973,0 110.970772,27.925276,0 110.966669,27.949269,0 110.987402,27.972875,0 111.000532,27.992214,0 110.990958,27.992979,0 110.971155,28.002757,0 110.9804,28.029081,0 111.013223,28.028917,0 111.022031,28.041531,0 111.010488,28.044534,0 110.992162,28.054034,0 110.971319,28.054798,0 110.970936,28.065826,0 110.962676,28.058129,0 110.953485,28.057091,0 110.955728,28.050758,0 110.942982,28.038364,0 110.938059,28.018486,0 110.92575,28.021326,0 110.92203,28.000626,0 110.907698,27.998223,0 110.88959,28.000954,0 110.878157,28.01308,0 110.866177,28.013735,0 110.86645,28.025477,0 110.884065,28.050977,0 110.896155,28.058784,0 110.876352,28.081819,0 110.858846,28.076361,0 110.83319,28.087496,0 110.823452,28.087441,0 110.844349,28.116364,0 110.833026,28.118874,0 110.818638,28.13966,0 110.849163,28.172277,0 110.853266,28.188418,0 110.860487,28.198614,0 110.858518,28.205157,0 110.84889,28.204721,0 110.848069,28.213007,0 110.840082,28.214643,0 110.826789,28.209082,0 110.824601,28.203794,0 110.804579,28.213225,0 110.79982,28.223201,0 110.787839,28.231268,0 110.806275,28.253013,0 110.802719,28.264348,0 110.793036,28.275898,0 110.783354,28.278241,0 110.774601,28.27312,0 110.74971,28.280911,0 110.739535,28.281619,0 110.7211,28.300794,0 110.733189,28.311361,0 110.741067,28.325466,0 110.753266,28.338698,0 110.793966,28.354379,0 110.825914,28.37169,0 110.832752,28.380508,0 110.83587,28.393896,0 110.853923,28.398468,0 110.860433,28.406032,0 110.862129,28.418818,0 110.88866,28.438948,0 110.889207,28.447325,0 110.905345,28.455103,0 110.923453,28.473268,0 110.929744,28.484796,0 110.943803,28.478434,0 110.959339,28.492245,0 110.969897,28.512524,0 110.981658,28.51198,0 110.993146,28.521765,0 111.002009,28.537146,0 111.013168,28.545787,0 111.029689,28.543668,0 111.041888,28.535027,0 111.049274,28.53682,0 111.067545,28.530135,0 111.075915,28.53019,0 111.079306,28.53769,0 111.054744,28.57062,0 111.064481,28.582789,0 111.055346,28.590177,0 111.057425,28.607938,0 111.049766,28.608156,0 111.036691,28.596858,0 111.020171,28.589742,0 111.015794,28.599302,0 111.008026,28.598162,0 111.010105,28.587352,0 111.005729,28.583604,0 110.989262,28.587841,0 110.978376,28.585505,0 110.956166,28.568827,0 110.950696,28.568229,0 110.943857,28.591644,0 110.945936,28.601421,0 110.934722,28.617551,0 110.946155,28.622004,0 110.9554,28.61918,0 110.991724,28.619995,0 110.995335,28.63786,0 111.015247,28.649858,0 111.051681,28.652301,0 111.064646,28.659739,0 111.06191,28.668587,0 111.046648,28.684707,0 111.051571,28.692088,0 111.06574,28.696592,0 111.081166,28.69187,0 111.09632,28.700499,0 111.105455,28.727085,0 111.102556,28.734028,0 111.115138,28.743358,0 111.098453,28.770747,0 111.102228,28.777959,0 111.086309,28.785387,0 111.078759,28.793682,0 111.079361,28.805717,0 111.072742,28.809837,0 111.064427,28.823442,0 111.048453,28.825393,0 111.040302,28.822683,0 111.031494,28.838075,0 111.013114,28.851297,0 111.002063,28.875732,0 110.992435,28.888245,0 110.9897,28.89729,0 110.972687,28.904223,0 110.9583,28.906389,0 110.96284,28.917924,0 110.950148,28.937308,0 110.956768,28.951059,0 110.954908,28.960748,0 110.965356,28.965186,0 110.974602,28.976769,0 110.982588,28.976823,0 110.98702,28.988404,0 110.970717,28.992733,0 110.962019,28.99836,0 110.949,28.997007,0 110.955291,29.002851,0 110.943529,29.011778,0 110.919076,29.022544,0 110.9147,29.035742,0 110.903814,29.034769,0 110.903102,29.0213,0 110.915137,29.008532,0 110.905126,28.995709,0 110.898452,29.00112,0 110.889153,28.992462,0 110.860706,28.998955,0 110.840465,28.99257,0 110.839371,28.987754,0 110.850258,28.968542,0 110.851844,28.952033,0 110.849163,28.946511,0 110.8368,28.941855,0 110.811417,28.955281,0 110.798616,28.955227,0 110.798069,28.935738,0 110.788879,28.913808,0 110.775695,28.906172,0 110.76366,28.905847,0 110.739371,28.924476,0 110.730454,28.926154,0 110.716942,28.913429,0 110.690903,28.923988,0 110.690684,28.908122,0 110.678594,28.906172,0 110.670498,28.91083,0 110.666504,28.923501,0 110.656986,28.935034,0 110.635979,28.949705,0 110.620716,28.965186,0 110.593309,28.969354,0 110.572576,29.000579,0 110.558408,28.995438,0 110.541777,28.982289,0 110.553539,28.963346,0 110.551077,28.953278,0 110.533243,28.946132,0 110.521919,28.938499,0 110.521044,28.93276,0 110.538987,28.908447,0 110.543966,28.889328,0 110.530782,28.874107,0 110.524381,28.886132,0 110.490191,28.911263,0 110.4839,28.910776,0 110.476569,28.898807,0 110.481766,28.889437,0 110.472138,28.887487,0 110.468035,28.880228,0 110.450913,28.882828,0 110.449162,28.889816,0 110.432805,28.890791,0 110.423123,28.900594,0 110.400201,28.89572,0 110.390409,28.881149,0 110.396317,28.864192,0 110.377608,28.850268,0 110.365901,28.846095,0 110.344785,28.820732,0 110.340464,28.80176,0 110.342597,28.782025,0 110.340409,28.769825,0 110.33089,28.760063,0 110.310868,28.757135,0 110.288275,28.767439,0 110.283844,28.762721,0 110.28554,28.743521,0 110.271536,28.700716,0 110.273724,28.689428,0 110.270278,28.671409,0 110.257695,28.672386,0 110.251076,28.659956,0 110.244019,28.658164,0 110.243363,28.644755,0 110.228647,28.653116,0 110.218582,28.644158,0 110.212072,28.625697,0 110.230835,28.615922,0 110.224544,28.612066,0 110.229905,28.587569,0 110.236634,28.57339,0 110.224216,28.563285,0 110.211087,28.566545,0 110.207531,28.575129,0 110.188603,28.574966,0 110.185868,28.582735,0 110.172465,28.584256,0 110.167542,28.574749,0 110.165463,28.556982,0 110.167104,28.535027,0 110.150857,28.527798,0 110.148614,28.483654,0 110.163603,28.467558,0 110.15775,28.461412,0 110.141667,28.456517,0 110.138111,28.447706,0 110.126349,28.44863,0 110.127389,28.459944,0 110.109227,28.463642,0 110.10299,28.45271,0 110.114205,28.442538,0 110.110375,28.425239,0 110.111743,28.415935,0 110.125802,28.402495,0 110.141448,28.383338,0 110.152061,28.391719,0 110.170058,28.378058,0 110.179796,28.37648,0 110.190409,28.363252,0 110.205835,28.362599,0 110.211525,28.346974,0 110.203045,28.339787,0 110.185047,28.333144,0 110.1781,28.316426,0 110.178428,28.3027,0 110.185759,28.285705,0 110.175037,28.280529,0 110.186525,28.259389,0 110.205999,28.252523,0 110.208844,28.243803,0 110.226514,28.24086,0 110.240299,28.230832,0 110.24298,28.207229,0 110.235923,28.197688,0 110.223013,28.198069,0 110.216667,28.204394,0 110.191448,28.201231,0 110.202006,28.187873,0 110.194293,28.173477,0 110.174544,28.165733,0 110.169183,28.155588,0 110.182258,28.145715,0 110.177881,28.133987,0 110.154905,28.13044,0 110.151787,28.120893,0 110.166338,28.110635,0 110.166776,28.103104,0 110.147301,28.092189,0 110.123176,28.093663,0 110.111743,28.090934,0 110.116284,28.075542,0 110.124489,28.065771,0 110.137454,28.057801,0 110.137509,28.047264,0 110.130835,28.03962,0 110.122192,28.040002,0 110.128592,28.024821,0 110.117706,28.016411,0 110.111141,28.005542,0 110.110321,27.988554,0 110.09927,27.977082,0 110.06962,27.96834,0 110.062454,27.959269,0 110.047848,27.950034,0 110.053975,27.933146,0 110.044292,27.918661,0 110.02252,27.908001,0 110.016064,27.908603,0 110.000364,27.919755,0 110.001732,27.936153,0 109.984117,27.945935,0 109.974106,27.93812,0 109.970277,27.956865,0 109.958406,27.961182,0 109.957913,27.951673,0 109.951513,27.94834,0 109.947793,27.956865,0 109.933624,27.959269,0 109.914368,27.951236,0 109.909335,27.93741,0 109.882585,27.946919,0 109.876841,27.956318,0 109.857147,27.970908,0 109.837453,27.975005,0 109.842158,27.984402,0 109.833186,27.986205,0 109.816118,27.980906,0 109.797847,27.979322,0 109.792924,27.973913,0 109.77591,27.999097,0 109.784444,28.006744,0 109.784718,28.021436,0 109.790134,28.029736,0 109.752442,28.02149,0 109.732201,28.02362,0 109.736031,28.012424,0 109.730834,28.00516,0 109.733077,27.987407,0 109.719783,27.98178,0 109.713383,27.96752,0 109.719127,27.952657,0 109.711249,27.949815,0 109.696096,27.936972,0 109.681982,27.935934,0 109.670713,27.921668,0 109.661523,27.919536,0 109.649871,27.903956,0 109.63045,27.90997,0 109.622737,27.89324,0 109.622518,27.878859,0 109.63696,27.876015,0 109.643142,27.861905,0 109.640516,27.856053,0 109.647628,27.843308,0 109.647409,27.834993,0 109.636796,27.827334,0 109.623175,27.826623,0 109.626676,27.817103,0 109.613383,27.815625,0 109.603372,27.79817,0 109.59626,27.804627,0 109.585975,27.802766,0 109.573776,27.808895,0 109.559662,27.799209,0 109.549761,27.786184,0 109.540953,27.786513,0 109.533021,27.795871,0 109.532802,27.811522,0 109.52126,27.812507,0 109.51196,27.80014,0 109.507255,27.802821,0 109.492649,27.795762,0 109.485866,27.787881,0 109.47673,27.788702,0 109.479192,27.799428,0 109.475144,27.804736,0 109.461358,27.803423,0 109.454465,27.794886,0 109.461522,27.773322,0 109.451128,27.765056,0 109.442704,27.74918,0 109.426402,27.738941,0 109.418415,27.721364,0</coordinates></LinearRing></outerBoundaryIs>
      </Polygon>
      <Polygon>
        <outerBoundaryIs><LinearRing><coordinates>109.466938,26.831937,0 109.468634,26.826527,0 109.482146,26.835029,0 109.466938,26.831937,0</coordinates></LinearRing></outerBoundaryIs>
      </Polygon>
      <Polygon>
        <outerBoundaryIs><LinearRing><coordinates>109.528535,26.743909,0 109.528645,26.744019,0 109.522244,26.749378,0 109.522135,26.749212,0 109.528535,26.743909,0</coordinates></LinearRing></outerBoundaryIs>
      </Polygon>
    </MultiGeometry>
    </Placemark>
  </Document>
</kml>
