<?xml version="1.0" encoding="UTF-8"?>
<kml xmlns="http://www.opengis.net/kml/2.2">
  <Document>
    <name><![CDATA[湘西土家族苗族自治州]]></name>
    <Placemark>
      <name><![CDATA[湘西土家族苗族自治州]]></name>
      <description><![CDATA[省级目录：湖南省]]></description>
      <ExtendedData>
        <Data name="adcode"><value>433100</value></Data>
      </ExtendedData>
      <MultiGeometry>
      <Polygon>
        <outerBoundaryIs><LinearRing><coordinates>109.418415,27.721364,0 109.426402,27.738941,0 109.442704,27.74918,0 109.451128,27.765056,0 109.461522,27.773322,0 109.454465,27.794886,0 109.461358,27.803423,0 109.475144,27.804736,0 109.479192,27.799428,0 109.47673,27.788702,0 109.485866,27.787881,0 109.492649,27.795762,0 109.507255,27.802821,0 109.51196,27.80014,0 109.52126,27.812507,0 109.532802,27.811522,0 109.533021,27.795871,0 109.540953,27.786513,0 109.549761,27.786184,0 109.559662,27.799209,0 109.573776,27.808895,0 109.585975,27.802766,0 109.59626,27.804627,0 109.603372,27.79817,0 109.613383,27.815625,0 109.626676,27.817103,0 109.623175,27.826623,0 109.636796,27.827334,0 109.647409,27.834993,0 109.647628,27.843308,0 109.640516,27.856053,0 109.643142,27.861905,0 109.63696,27.876015,0 109.622518,27.878859,0 109.622737,27.89324,0 109.63045,27.90997,0 109.649871,27.903956,0 109.661523,27.919536,0 109.670713,27.921668,0 109.681982,27.935934,0 109.696096,27.936972,0 109.711249,27.949815,0 109.719127,27.952657,0 109.713383,27.96752,0 109.719783,27.98178,0 109.733077,27.987407,0 109.730834,28.00516,0 109.736031,28.012424,0 109.732201,28.02362,0 109.752442,28.02149,0 109.790134,28.029736,0 109.784718,28.021436,0 109.784444,28.006744,0 109.77591,27.999097,0 109.792924,27.973913,0 109.797847,27.979322,0 109.816118,27.980906,0 109.833186,27.986205,0 109.842158,27.984402,0 109.837453,27.975005,0 109.857147,27.970908,0 109.876841,27.956318,0 109.882585,27.946919,0 109.909335,27.93741,0 109.914368,27.951236,0 109.933624,27.959269,0 109.947793,27.956865,0 109.951513,27.94834,0 109.957913,27.951673,0 109.958406,27.961182,0 109.970277,27.956865,0 109.974106,27.93812,0 109.984117,27.945935,0 110.001732,27.936153,0 110.000364,27.919755,0 110.016064,27.908603,0 110.02252,27.908001,0 110.044292,27.918661,0 110.053975,27.933146,0 110.047848,27.950034,0 110.062454,27.959269,0 110.06962,27.96834,0 110.09927,27.977082,0 110.110321,27.988554,0 110.111141,28.005542,0 110.117706,28.016411,0 110.128592,28.024821,0 110.122192,28.040002,0 110.130835,28.03962,0 110.137509,28.047264,0 110.137454,28.057801,0 110.124489,28.065771,0 110.116284,28.075542,0 110.111743,28.090934,0 110.123176,28.093663,0 110.147301,28.092189,0 110.166776,28.103104,0 110.166338,28.110635,0 110.151787,28.120893,0 110.154905,28.13044,0 110.177881,28.133987,0 110.182258,28.145715,0 110.169183,28.155588,0 110.174544,28.165733,0 110.194293,28.173477,0 110.202006,28.187873,0 110.191448,28.201231,0 110.216667,28.204394,0 110.223013,28.198069,0 110.235923,28.197688,0 110.24298,28.207229,0 110.240299,28.230832,0 110.226514,28.24086,0 110.208844,28.243803,0 110.205999,28.252523,0 110.186525,28.259389,0 110.175037,28.280529,0 110.185759,28.285705,0 110.178428,28.3027,0 110.1781,28.316426,0 110.185047,28.333144,0 110.203045,28.339787,0 110.211525,28.346974,0 110.205835,28.362599,0 110.190409,28.363252,0 110.179796,28.37648,0 110.170058,28.378058,0 110.152061,28.391719,0 110.141448,28.383338,0 110.125802,28.402495,0 110.111743,28.415935,0 110.110375,28.425239,0 110.114205,28.442538,0 110.10299,28.45271,0 110.109227,28.463642,0 110.127389,28.459944,0 110.126349,28.44863,0 110.138111,28.447706,0 110.141667,28.456517,0 110.15775,28.461412,0 110.163603,28.467558,0 110.148614,28.483654,0 110.150857,28.527798,0 110.167104,28.535027,0 110.165463,28.556982,0 110.167542,28.574749,0 110.172465,28.584256,0 110.185868,28.582735,0 110.188603,28.574966,0 110.207531,28.575129,0 110.211087,28.566545,0 110.224216,28.563285,0 110.236634,28.57339,0 110.229905,28.587569,0 110.224544,28.612066,0 110.230835,28.615922,0 110.212072,28.625697,0 110.218582,28.644158,0 110.228647,28.653116,0 110.243363,28.644755,0 110.244019,28.658164,0 110.251076,28.659956,0 110.257695,28.672386,0 110.270278,28.671409,0 110.273724,28.689428,0 110.271536,28.700716,0 110.28554,28.743521,0 110.283844,28.762721,0 110.288275,28.767439,0 110.310868,28.757135,0 110.33089,28.760063,0 110.340409,28.769825,0 110.342597,28.782025,0 110.340464,28.80176,0 110.344785,28.820732,0 110.365901,28.846095,0 110.377608,28.850268,0 110.396317,28.864192,0 110.390409,28.881149,0 110.384665,28.885428,0 110.358735,28.891224,0 110.364807,28.907959,0 110.361087,28.927454,0 110.331,28.941152,0 110.314588,28.938336,0 110.308133,28.944292,0 110.306492,28.958258,0 110.319184,28.967297,0 110.318965,28.973143,0 110.33193,28.981315,0 110.327991,28.983858,0 110.346208,29.011129,0 110.347357,29.019406,0 110.341613,29.02725,0 110.340354,29.041313,0 110.323122,29.041746,0 110.313987,29.035905,0 110.305289,29.038609,0 110.299599,29.057159,0 110.304194,29.091331,0 110.284446,29.085438,0 110.273505,29.074409,0 110.261962,29.069542,0 110.249654,29.076896,0 110.250529,29.093655,0 110.264041,29.110142,0 110.261634,29.1196,0 110.238986,29.122248,0 110.216722,29.129112,0 110.223997,29.136461,0 110.215901,29.136083,0 110.205562,29.151968,0 110.203921,29.161044,0 110.189643,29.162827,0 110.179085,29.153967,0 110.164861,29.165528,0 110.158187,29.165204,0 110.140408,29.14543,0 110.128428,29.136407,0 110.119128,29.141216,0 110.099872,29.139595,0 110.089041,29.151266,0 110.090518,29.167311,0 110.084828,29.184434,0 110.070058,29.211867,0 110.073176,29.225636,0 110.080616,29.2326,0 110.082859,29.251223,0 110.103537,29.253436,0 110.113548,29.279017,0 110.112564,29.289701,0 110.097192,29.308853,0 110.068417,29.323795,0 110.049216,29.314571,0 110.016338,29.288298,0 110.001568,29.29542,0 109.975528,29.299142,0 109.951294,29.318077,0 109.936141,29.325143,0 109.952935,29.333827,0 109.960375,29.341269,0 109.954795,29.358147,0 109.945167,29.369901,0 109.952662,29.383486,0 109.945276,29.398417,0 109.935867,29.434414,0 109.925637,29.444435,0 109.908405,29.441741,0 109.828919,29.373297,0 109.821206,29.388661,0 109.79451,29.411675,0 109.795276,29.417117,0 109.808241,29.427086,0 109.801895,29.448852,0 109.788383,29.463935,0 109.779357,29.478046,0 109.778755,29.486878,0 109.769455,29.491779,0 109.76579,29.500017,0 109.752934,29.509062,0 109.740954,29.534256,0 109.734663,29.540984,0 109.738766,29.547604,0 109.74916,29.549487,0 109.760101,29.561649,0 109.782366,29.576608,0 109.768525,29.587314,0 109.764915,29.596136,0 109.769565,29.606518,0 109.761687,29.615177,0 109.745713,29.615339,0 109.72695,29.607863,0 109.715571,29.613133,0 109.701567,29.608239,0 109.678755,29.60797,0 109.663492,29.599687,0 109.650637,29.611574,0 109.652114,29.623782,0 109.634553,29.625234,0 109.609444,29.634483,0 109.575417,29.627869,0 109.575636,29.619856,0 109.558678,29.607056,0 109.550417,29.612811,0 109.531107,29.615607,0 109.529028,29.626041,0 109.5165,29.625987,0 109.514312,29.618028,0 109.520275,29.608454,0 109.514531,29.600278,0 109.501457,29.605442,0 109.495931,29.598718,0 109.503645,29.59775,0 109.504028,29.588605,0 109.497627,29.568107,0 109.488656,29.553201,0 109.479903,29.55277,0 109.467047,29.559981,0 109.46185,29.554277,0 109.458623,29.530542,0 109.465242,29.515577,0 109.458568,29.513208,0 109.447627,29.520745,0 109.446533,29.528766,0 109.430997,29.529035,0 109.431325,29.505294,0 109.440625,29.493179,0 109.434881,29.489032,0 109.418305,29.498025,0 109.40999,29.490594,0 109.412835,29.484724,0 109.405121,29.468729,0 109.417102,29.454778,0 109.403152,29.446159,0 109.404793,29.434414,0 109.394946,29.439694,0 109.3729,29.424985,0 109.368579,29.411351,0 109.385264,29.393566,0 109.382036,29.382893,0 109.391445,29.372219,0 109.376784,29.376532,0 109.368798,29.382893,0 109.347408,29.373782,0 109.343962,29.369415,0 109.340132,29.335984,0 109.344126,29.323201,0 109.344126,29.306425,0 109.352277,29.305239,0 109.352167,29.284629,0 109.326839,29.260669,0 109.315077,29.252087,0 109.286084,29.242047,0 109.261357,29.227795,0 109.257856,29.222612,0 109.276073,29.200312,0 109.27104,29.183245,0 109.273885,29.172551,0 109.261467,29.161044,0 109.264038,29.144026,0 109.277167,29.134083,0 109.274158,29.12214,0 109.255942,29.123221,0 109.245329,29.115114,0 109.232583,29.119438,0 109.225963,29.113277,0 109.234497,29.096845,0 109.235044,29.088844,0 109.256106,29.087168,0 109.266226,29.079545,0 109.287834,29.071002,0 109.301182,29.070678,0 109.312233,29.066352,0 109.319618,29.042557,0 109.312123,29.035147,0 109.304848,29.020813,0 109.29429,29.014537,0 109.29243,28.987646,0 109.284826,28.972601,0 109.272353,28.970924,0 109.26174,28.953007,0 109.255395,28.926154,0 109.256872,28.907743,0 109.240405,28.892741,0 109.235427,28.881691,0 109.23406,28.863813,0 109.242648,28.85108,0 109.239749,28.830108,0 109.245821,28.812981,0 109.246423,28.801652,0 109.241882,28.794279,0 109.241281,28.776495,0 109.261303,28.774922,0 109.256215,28.765595,0 109.279629,28.756592,0 109.28116,28.750572,0 109.292594,28.750247,0 109.299979,28.744931,0 109.299158,28.736741,0 109.288217,28.727302,0 109.294673,28.71911,0 109.284935,28.713847,0 109.271478,28.698979,0 109.265023,28.699468,0 109.252933,28.691545,0 109.266171,28.680202,0 109.270876,28.671789,0 109.240679,28.655776,0 109.22476,28.650673,0 109.202933,28.637968,0 109.19314,28.636231,0 109.181434,28.621733,0 109.186357,28.610654,0 109.201456,28.598433,0 109.235482,28.619615,0 109.249377,28.608644,0 109.258896,28.605603,0 109.278042,28.612337,0 109.287014,28.626837,0 109.300143,28.626457,0 109.306653,28.620646,0 109.30906,28.607612,0 109.304465,28.602779,0 109.32022,28.579801,0 109.304738,28.579041,0 109.29511,28.567305,0 109.288929,28.546331,0 109.274158,28.538886,0 109.274705,28.524809,0 109.28034,28.520406,0 109.27197,28.513992,0 109.273994,28.488113,0 109.266335,28.481805,0 109.26081,28.46473,0 109.26464,28.457659,0 109.260154,28.451296,0 109.258294,28.428993,0 109.264366,28.404399,0 109.264694,28.392481,0 109.276565,28.376861,0 109.288381,28.374303,0 109.28778,28.36445,0 109.268578,28.338099,0 109.275088,28.312668,0 109.297572,28.292787,0 109.294946,28.278568,0 109.306379,28.274209,0 109.314913,28.276389,0 109.340953,28.293713,0 109.363108,28.282981,0 109.352167,28.268543,0 109.359498,28.265873,0 109.365898,28.274209,0 109.376894,28.276934,0 109.399651,28.269306,0 109.387999,28.268107,0 109.367649,28.255248,0 109.372846,28.248381,0 109.367266,28.239062,0 109.356762,28.233503,0 109.359552,28.220421,0 109.345767,28.206683,0 109.34046,28.190381,0 109.34325,28.173586,0 109.341828,28.162133,0 109.335811,28.158206,0 109.338163,28.141788,0 109.328097,28.12684,0 109.325417,28.115218,0 109.314366,28.103923,0 109.312123,28.083511,0 109.304957,28.076416,0 109.298721,28.032521,0 109.305887,28.030009,0 109.311522,28.037982,0 109.325253,28.042787,0 109.334552,28.062223,0 109.347025,28.060367,0 109.370548,28.046063,0 109.379137,28.033067,0 109.364859,28.008819,0 109.344673,28.006198,0 109.321587,27.991777,0 109.320165,27.970962,0 109.307145,27.968012,0 109.301784,27.95834,0 109.313819,27.93331,0 109.314859,27.918115,0 109.311905,27.907783,0 109.320603,27.895591,0 109.317758,27.88553,0 109.321916,27.867976,0 109.337561,27.869507,0 109.326839,27.858624,0 109.345548,27.840737,0 109.340242,27.821425,0 109.342649,27.800742,0 109.331215,27.791602,0 109.341062,27.790234,0 109.333021,27.782791,0 109.338163,27.775894,0 109.34987,27.771077,0 109.364312,27.759801,0 109.362999,27.745019,0 109.377988,27.73801,0 109.365898,27.722185,0 109.392375,27.726347,0 109.400307,27.720268,0 109.412616,27.725361,0 109.418415,27.721364,0</coordinates></LinearRing></outerBoundaryIs>
      </Polygon>
    </MultiGeometry>
    </Placemark>
  </Document>
</kml>
