<?xml version="1.0" encoding="UTF-8"?>
<kml xmlns="http://www.opengis.net/kml/2.2">
  <Document>
    <name><![CDATA[益阳市]]></name>
    <Placemark>
      <name><![CDATA[益阳市]]></name>
      <description><![CDATA[省级目录：湖南省]]></description>
      <ExtendedData>
        <Data name="adcode"><value>430900</value></Data>
      </ExtendedData>
      <MultiGeometry>
      <Polygon>
        <outerBoundaryIs><LinearRing><coordinates>112.685384,28.525407,0 112.688283,28.54432,0 112.701741,28.552417,0 112.726522,28.557199,0 112.736095,28.568229,0 112.726194,28.581702,0 112.716456,28.579203,0 112.713229,28.587189,0 112.717496,28.596206,0 112.705351,28.599574,0 112.684016,28.596369,0 112.675154,28.581214,0 112.668371,28.584256,0 112.658688,28.580507,0 112.648841,28.564263,0 112.635439,28.559046,0 112.629366,28.5472,0 112.609727,28.540788,0 112.591948,28.542962,0 112.582539,28.556873,0 112.562462,28.563556,0 112.563721,28.570946,0 112.574388,28.585125,0 112.582813,28.590123,0 112.590143,28.601692,0 112.585001,28.620918,0 112.588721,28.62738,0 112.580515,28.629715,0 112.57406,28.623796,0 112.563666,28.629389,0 112.552561,28.644104,0 112.544136,28.639434,0 112.533797,28.640412,0 112.510602,28.654799,0 112.521106,28.665493,0 112.525318,28.678357,0 112.526412,28.702561,0 112.534563,28.70956,0 112.548239,28.712328,0 112.555843,28.719652,0 112.552233,28.72958,0 112.569082,28.731641,0 112.58057,28.73967,0 112.603764,28.746884,0 112.606117,28.758002,0 112.617495,28.770042,0 112.619137,28.778555,0 112.641784,28.789453,0 112.671708,28.791568,0 112.672966,28.811517,0 112.664924,28.821057,0 112.659837,28.840839,0 112.668371,28.85043,0 112.677452,28.871235,0 112.685165,28.879741,0 112.722911,28.883478,0 112.773185,28.90276,0 112.784181,28.911967,0 112.797474,28.9137,0 112.811588,28.921552,0 112.83812,28.929295,0 112.847967,28.935521,0 112.87242,28.962967,0 112.876085,28.984075,0 112.891402,28.999388,0 112.927945,29.023031,0 112.9344,29.037311,0 112.949389,29.060783,0 112.93905,29.065541,0 112.937737,29.078139,0 112.92707,29.109061,0 112.924663,29.149429,0 112.901085,29.154615,0 112.88161,29.162773,0 112.812901,29.1524,0 112.798513,29.159802,0 112.813448,29.178654,0 112.810384,29.185514,0 112.793864,29.190915,0 112.775592,29.176602,0 112.75661,29.169958,0 112.741949,29.168283,0 112.724553,29.177628,0 112.715855,29.18735,0 112.711259,29.185352,0 112.693207,29.192589,0 112.68243,29.192265,0 112.677561,29.205388,0 112.680953,29.214027,0 112.676358,29.224718,0 112.681664,29.230441,0 112.679093,29.2448,0 112.693699,29.253976,0 112.682813,29.269573,0 112.683305,29.27497,0 112.699881,29.287381,0 112.689268,29.295743,0 112.680789,29.294988,0 112.673622,29.306264,0 112.66476,29.300383,0 112.652561,29.321421,0 112.634454,29.335984,0 112.611806,29.333287,0 112.590417,29.317861,0 112.579421,29.303674,0 112.560219,29.304591,0 112.547364,29.301786,0 112.532429,29.308907,0 112.502068,29.312198,0 112.496981,29.317052,0 112.490963,29.337602,0 112.485766,29.342941,0 112.464267,29.35351,0 112.439924,29.360627,0 112.423075,29.371734,0 112.392057,29.396476,0 112.386641,29.406016,0 112.388829,29.420997,0 112.386149,29.426871,0 112.366783,29.442549,0 112.366182,29.458441,0 112.350974,29.453108,0 112.342002,29.444435,0 112.328271,29.450091,0 112.324442,29.480416,0 112.331116,29.51057,0 112.320066,29.516007,0 112.315744,29.524298,0 112.297691,29.516815,0 112.290744,29.516923,0 112.283413,29.495225,0 112.291728,29.478262,0 112.293534,29.45634,0 112.300317,29.448206,0 112.294464,29.428541,0 112.2943,29.406124,0 112.284179,29.403483,0 112.28117,29.395129,0 112.261696,29.375615,0 112.252615,29.351946,0 112.249387,29.328541,0 112.251192,29.31894,0 112.263665,29.298711,0 112.258249,29.29229,0 112.245284,29.292992,0 112.234234,29.298657,0 112.22663,29.294071,0 112.213446,29.296121,0 112.222199,29.287327,0 112.223457,29.266659,0 112.228763,29.251763,0 112.22652,29.228443,0 112.22849,29.216079,0 112.236422,29.213163,0 112.223895,29.19907,0 112.20163,29.179248,0 112.195776,29.160018,0 112.201028,29.146025,0 112.189978,29.145268,0 112.187735,29.134516,0 112.208194,29.126356,0 112.211203,29.117276,0 112.222855,29.118627,0 112.235711,29.114412,0 112.245284,29.100683,0 112.241455,29.06792,0 112.254037,29.04975,0 112.247636,28.997062,0 112.246871,28.980828,0 112.257319,28.96773,0 112.259562,28.922743,0 112.26175,28.908122,0 112.258632,28.900811,0 112.256991,28.861483,0 112.276466,28.84073,0 112.304693,28.823009,0 112.306389,28.800242,0 112.299606,28.784845,0 112.283413,28.776874,0 112.283194,28.728441,0 112.264923,28.719164,0 112.231006,28.711839,0 112.232046,28.707064,0 112.215306,28.692576,0 112.207975,28.691002,0 112.199715,28.674069,0 112.182757,28.66837,0 112.169026,28.678303,0 112.161476,28.675697,0 112.158796,28.667447,0 112.142931,28.662236,0 112.149441,28.656427,0 112.139759,28.649316,0 112.107373,28.652301,0 112.094354,28.641986,0 112.086531,28.652681,0 112.07827,28.655124,0 112.070448,28.672332,0 112.033412,28.673418,0 112.025863,28.669292,0 112.040743,28.65773,0 112.034616,28.640032,0 112.014047,28.640737,0 111.998456,28.646764,0 111.992001,28.657513,0 111.979583,28.65621,0 111.984123,28.663864,0 111.951519,28.674395,0 111.923237,28.676946,0 111.910217,28.671464,0 111.910163,28.664136,0 111.918204,28.655396,0 111.9106,28.643452,0 111.901191,28.635959,0 111.888062,28.6371,0 111.873073,28.630964,0 111.854747,28.636991,0 111.850151,28.633353,0 111.844025,28.616682,0 111.828488,28.615759,0 111.81618,28.626403,0 111.8106,28.640955,0 111.791344,28.643126,0 111.787843,28.648718,0 111.776191,28.634113,0 111.768258,28.639054,0 111.759068,28.653442,0 111.751573,28.657622,0 111.74211,28.651596,0 111.730676,28.652193,0 111.722525,28.645027,0 111.728269,28.642529,0 111.719079,28.636448,0 111.723401,28.609839,0 111.708904,28.594251,0 111.702777,28.598976,0 111.688389,28.589199,0 111.67351,28.591426,0 111.663663,28.607884,0 111.662842,28.624665,0 111.644954,28.623742,0 111.636092,28.628466,0 111.624385,28.618311,0 111.605402,28.624936,0 111.574494,28.639326,0 111.567218,28.638783,0 111.53921,28.609731,0 111.518641,28.5955,0 111.509341,28.585668,0 111.494187,28.581268,0 111.491452,28.571652,0 111.46782,28.556927,0 111.443367,28.557308,0 111.431386,28.547418,0 111.412294,28.547852,0 111.396594,28.540788,0 111.383192,28.55057,0 111.373892,28.551819,0 111.363388,28.539538,0 111.34818,28.528722,0 111.339209,28.527852,0 111.333793,28.520134,0 111.324165,28.518829,0 111.315686,28.524428,0 111.309176,28.520949,0 111.281058,28.517905,0 111.252611,28.531548,0 111.228651,28.522471,0 111.215193,28.536222,0 111.198235,28.526548,0 111.192217,28.518829,0 111.175204,28.513883,0 111.168639,28.517471,0 111.152173,28.514318,0 111.154361,28.496541,0 111.147852,28.487841,0 111.144952,28.473703,0 111.126353,28.470549,0 111.11667,28.464403,0 111.109339,28.468156,0 111.096867,28.463642,0 111.09353,28.456952,0 111.061692,28.451676,0 111.050204,28.45891,0 111.034831,28.454886,0 111.020116,28.445639,0 111.007753,28.44553,0 111.001407,28.440145,0 110.978704,28.439492,0 110.96738,28.430353,0 110.944623,28.42649,0 110.889481,28.404889,0 110.88226,28.408099,0 110.860433,28.406032,0 110.853923,28.398468,0 110.83587,28.393896,0 110.832752,28.380508,0 110.825914,28.37169,0 110.793966,28.354379,0 110.753266,28.338698,0 110.741067,28.325466,0 110.733189,28.311361,0 110.7211,28.300794,0 110.739535,28.281619,0 110.74971,28.280911,0 110.774601,28.27312,0 110.783354,28.278241,0 110.793036,28.275898,0 110.802719,28.264348,0 110.806275,28.253013,0 110.787839,28.231268,0 110.79982,28.223201,0 110.804579,28.213225,0 110.824601,28.203794,0 110.826789,28.209082,0 110.840082,28.214643,0 110.848069,28.213007,0 110.84889,28.204721,0 110.858518,28.205157,0 110.860487,28.198614,0 110.853266,28.188418,0 110.849163,28.172277,0 110.818638,28.13966,0 110.833026,28.118874,0 110.844349,28.116364,0 110.823452,28.087441,0 110.83319,28.087496,0 110.858846,28.076361,0 110.876352,28.081819,0 110.896155,28.058784,0 110.884065,28.050977,0 110.86645,28.025477,0 110.866177,28.013735,0 110.878157,28.01308,0 110.88959,28.000954,0 110.907698,27.998223,0 110.92203,28.000626,0 110.92575,28.021326,0 110.938059,28.018486,0 110.942982,28.038364,0 110.955728,28.050758,0 110.953485,28.057091,0 110.962676,28.058129,0 110.970936,28.065826,0 110.971319,28.054798,0 110.992162,28.054034,0 111.010488,28.044534,0 111.022031,28.041531,0 111.013223,28.028917,0 111.022031,28.027497,0 111.03505,28.033723,0 111.04156,28.022309,0 111.063223,28.007236,0 111.070608,27.995273,0 111.081987,27.995601,0 111.097906,28.006799,0 111.093803,28.02717,0 111.118475,28.050158,0 111.114208,28.064134,0 111.123289,28.068774,0 111.137895,28.085968,0 111.140959,28.103431,0 111.151571,28.122966,0 111.160926,28.122857,0 111.189537,28.154988,0 111.186528,28.160606,0 111.216014,28.159297,0 111.225149,28.161479,0 111.235653,28.154115,0 111.257753,28.167532,0 111.279034,28.191036,0 111.285215,28.214806,0 111.296047,28.225436,0 111.314373,28.234211,0 111.32597,28.226526,0 111.337732,28.20592,0 111.332097,28.195943,0 111.341835,28.193162,0 111.352064,28.199051,0 111.382918,28.196324,0 111.386911,28.17893,0 111.398016,28.180021,0 111.434833,28.208101,0 111.448454,28.202867,0 111.445336,28.189509,0 111.450095,28.187382,0 111.477448,28.199323,0 111.483137,28.204176,0 111.495719,28.189945,0 111.485763,28.159515,0 111.49096,28.153024,0 111.481387,28.138351,0 111.482645,28.120402,0 111.499877,28.101412,0 111.500424,28.092626,0 111.510982,28.090279,0 111.493312,28.074887,0 111.49189,28.066863,0 111.494789,28.037873,0 111.501956,28.04164,0 111.517875,28.030992,0 111.524439,28.031211,0 111.522032,28.044479,0 111.506879,28.053324,0 111.514702,28.06528,0 111.527886,28.049393,0 111.534013,28.054143,0 111.543914,28.047537,0 111.540687,28.035579,0 111.543859,28.020398,0 111.567547,28.032903,0 111.575807,28.018869,0 111.564264,28.018104,0 111.551409,27.991886,0 111.542054,27.994126,0 111.529527,27.986587,0 111.55026,27.974841,0 111.583794,27.994454,0 111.592766,28.006471,0 111.599768,28.009693,0 111.588991,28.018596,0 111.589811,28.027115,0 111.601682,28.034542,0 111.621704,28.016083,0 111.634286,28.015319,0 111.651518,28.026241,0 111.662788,28.024712,0 111.651573,28.021163,0 111.652284,28.015756,0 111.662952,28.014227,0 111.672853,28.036453,0 111.68549,28.040493,0 111.683466,28.0145,0 111.691289,28.009912,0 111.684888,28.002975,0 111.688499,27.99063,0 111.697689,27.994181,0 111.706114,27.99063,0 111.71514,27.993361,0 111.726792,27.983474,0 111.743368,27.994235,0 111.747963,28.003904,0 111.765633,28.006143,0 111.773893,28.010676,0 111.779418,28.007072,0 111.778871,27.996639,0 111.793094,27.989701,0 111.796103,28.00516,0 111.823401,28.022582,0 111.838335,28.019961,0 111.848346,28.028644,0 111.858193,28.030938,0 111.870173,28.026678,0 111.891837,28.026951,0 111.902613,28.021982,0 111.913117,28.027989,0 111.907537,28.041804,0 111.911038,28.052287,0 111.926246,28.065498,0 111.914101,28.079363,0 111.91525,28.082802,0 111.899167,28.09983,0 111.90885,28.116036,0 111.93188,28.133332,0 111.933248,28.168132,0 111.941782,28.172277,0 111.944736,28.186728,0 111.961147,28.198124,0 111.962132,28.208864,0 111.986585,28.224182,0 112.003489,28.224509,0 112.003981,28.235029,0 112.009671,28.244021,0 112.033139,28.252468,0 112.051684,28.25127,0 112.080677,28.260806,0 112.082264,28.267889,0 112.093424,28.265001,0 112.099058,28.270069,0 112.11629,28.271703,0 112.123128,28.266146,0 112.137297,28.266636,0 112.146214,28.254539,0 112.169518,28.245602,0 112.177997,28.235737,0 112.195503,28.23323,0 112.210109,28.239225,0 112.223293,28.233939,0 112.227286,28.221239,0 112.237954,28.210445,0 112.251685,28.2244,0 112.255733,28.233448,0 112.264431,28.235683,0 112.280678,28.252632,0 112.288282,28.254049,0 112.294135,28.247073,0 112.306444,28.261351,0 112.322473,28.263258,0 112.316674,28.282981,0 112.332921,28.284397,0 112.346761,28.274809,0 112.356937,28.277369,0 112.358632,28.283471,0 112.349168,28.281837,0 112.345284,28.289518,0 112.352779,28.291261,0 112.370339,28.284397,0 112.377998,28.290063,0 112.393753,28.290281,0 112.404803,28.29867,0 112.408468,28.294366,0 112.422692,28.305587,0 112.420066,28.312559,0 112.429311,28.311143,0 112.432976,28.317896,0 112.438337,28.310652,0 112.451248,28.317842,0 112.466018,28.312886,0 112.472965,28.317733,0 112.486915,28.309236,0 112.500974,28.311905,0 112.505296,28.320728,0 112.525974,28.325956,0 112.534563,28.332,0 112.535766,28.325466,0 112.553928,28.318931,0 112.560493,28.325411,0 112.571379,28.324976,0 112.564432,28.333144,0 112.562462,28.344742,0 112.575209,28.354596,0 112.575427,28.369077,0 112.580351,28.372887,0 112.578436,28.382358,0 112.584235,28.40244,0 112.594355,28.40761,0 112.594793,28.414629,0 112.612134,28.424531,0 112.624279,28.446074,0 112.627288,28.468265,0 112.639815,28.469352,0 112.654421,28.484524,0 112.651741,28.495671,0 112.663229,28.501053,0 112.672583,28.517525,0 112.685384,28.525407,0</coordinates></LinearRing></outerBoundaryIs>
      </Polygon>
    </MultiGeometry>
    </Placemark>
  </Document>
</kml>
