<?xml version="1.0" encoding="UTF-8"?>
<kml xmlns="http://www.opengis.net/kml/2.2">
  <Document>
    <name><![CDATA[衡阳市]]></name>
    <Placemark>
      <name><![CDATA[衡阳市]]></name>
      <description><![CDATA[省级目录：湖南省]]></description>
      <ExtendedData>
        <Data name="adcode"><value>430400</value></Data>
      </ExtendedData>
      <MultiGeometry>
      <Polygon>
        <outerBoundaryIs><LinearRing><coordinates>112.995396,27.438309,0 112.978109,27.439188,0 112.955954,27.430293,0 112.939597,27.426284,0 112.9251,27.418871,0 112.921818,27.409865,0 112.924936,27.367074,0 112.920177,27.356635,0 112.901906,27.360536,0 112.869958,27.356141,0 112.863886,27.351196,0 112.852999,27.355097,0 112.834947,27.354382,0 112.831118,27.338337,0 112.815691,27.343777,0 112.807868,27.338392,0 112.799826,27.344327,0 112.806282,27.348723,0 112.80382,27.36202,0 112.791566,27.36213,0 112.77417,27.376359,0 112.771818,27.392784,0 112.76033,27.403988,0 112.748404,27.39899,0 112.735822,27.401517,0 112.727507,27.394871,0 112.715308,27.404263,0 112.704093,27.407668,0 112.685658,27.405691,0 112.677397,27.419255,0 112.678491,27.42892,0 112.687244,27.437101,0 112.69069,27.454121,0 112.673075,27.456811,0 112.659727,27.452309,0 112.64627,27.464715,0 112.639596,27.45983,0 112.63046,27.466252,0 112.615143,27.465978,0 112.608305,27.455987,0 112.592605,27.454999,0 112.587244,27.437046,0 112.576576,27.434466,0 112.566893,27.441768,0 112.553327,27.432379,0 112.55453,27.424911,0 112.538885,27.416674,0 112.531007,27.430293,0 112.521981,27.429194,0 112.522418,27.420464,0 112.508359,27.417004,0 112.51279,27.403164,0 112.50453,27.403988,0 112.499005,27.397727,0 112.49988,27.374931,0 112.489596,27.371909,0 112.485712,27.359877,0 112.471871,27.372404,0 112.459891,27.355152,0 112.438118,27.344602,0 112.432374,27.354218,0 112.408523,27.36147,0 112.368151,27.356086,0 112.370503,27.363888,0 112.358742,27.362459,0 112.339267,27.365921,0 112.331061,27.370206,0 112.321543,27.363998,0 112.312133,27.367074,0 112.309125,27.360426,0 112.299715,27.358723,0 112.282593,27.337073,0 112.287844,27.328939,0 112.279857,27.31223,0 112.267275,27.305084,0 112.256116,27.310691,0 112.254912,27.295684,0 112.239048,27.287822,0 112.233085,27.265388,0 112.223785,27.261209,0 112.213938,27.268908,0 112.206225,27.285128,0 112.20535,27.296564,0 112.197691,27.295794,0 112.190634,27.311791,0 112.182374,27.309812,0 112.174824,27.319651,0 112.163883,27.324542,0 112.153654,27.305689,0 112.162844,27.284193,0 112.163063,27.277321,0 112.150535,27.265828,0 112.1507,27.254609,0 112.160054,27.247515,0 112.154091,27.239375,0 112.137899,27.237009,0 112.127942,27.227658,0 112.129529,27.220892,0 112.112625,27.222322,0 112.114211,27.210714,0 112.107209,27.214125,0 112.092165,27.205652,0 112.08861,27.195143,0 112.091235,27.185623,0 112.076739,27.185183,0 112.070666,27.191071,0 112.058139,27.175442,0 112.049003,27.150784,0 112.05245,27.142856,0 112.046596,27.132672,0 112.056006,27.116649,0 112.051684,27.102882,0 112.056224,27.085754,0 112.046925,27.077271,0 112.05059,27.071102,0 112.071815,27.064987,0 112.078052,27.041792,0 112.086859,27.033912,0 112.086804,27.013246,0 112.081006,27.008561,0 112.060108,27.013026,0 112.050152,27.006467,0 112.043205,26.995663,0 112.047143,26.975265,0 112.019846,26.9649,0 112.01629,26.955416,0 112.007045,26.952658,0 112.000644,26.943669,0 111.979474,26.942291,0 111.986366,26.950011,0 111.983795,26.958228,0 111.972526,26.958118,0 111.961804,26.951169,0 111.953598,26.955195,0 111.9356,26.952217,0 111.929802,26.93854,0 111.917821,26.935176,0 111.907427,26.924752,0 111.89851,26.926627,0 111.898237,26.96887,0 111.894353,26.978243,0 111.898401,26.986677,0 111.881278,26.999632,0 111.868696,27.013411,0 111.863171,27.009774,0 111.841946,27.008726,0 111.817438,27.020962,0 111.823237,27.036778,0 111.81607,27.045428,0 111.809178,27.046035,0 111.807865,27.033141,0 111.786913,27.039698,0 111.776683,27.046586,0 111.772525,27.058045,0 111.753543,27.057329,0 111.758029,27.062728,0 111.737897,27.061571,0 111.724768,27.069063,0 111.712842,27.052316,0 111.699276,27.046586,0 111.68828,27.031377,0 111.665796,27.031763,0 111.659615,27.012144,0 111.651518,27.008726,0 111.649768,27.00112,0 111.6577,26.986016,0 111.649713,26.962915,0 111.635271,26.963742,0 111.622033,26.954202,0 111.613663,26.959717,0 111.604472,26.958393,0 111.587569,26.96694,0 111.581442,26.962143,0 111.576463,26.945048,0 111.567109,26.934845,0 111.583137,26.925028,0 111.583028,26.909031,0 111.5891,26.896728,0 111.578597,26.8831,0 111.569078,26.884314,0 111.564483,26.86958,0 111.551026,26.860033,0 111.550752,26.846952,0 111.543586,26.840935,0 111.549111,26.832324,0 111.545938,26.821724,0 111.549986,26.812338,0 111.558083,26.808639,0 111.575369,26.809357,0 111.577229,26.79986,0 111.588006,26.797596,0 111.601245,26.785888,0 111.618477,26.7913,0 111.629637,26.789312,0 111.638006,26.802344,0 111.644516,26.803228,0 111.642437,26.817252,0 111.650862,26.840438,0 111.66596,26.843309,0 111.684615,26.833538,0 111.701464,26.836188,0 111.700589,26.843198,0 111.712678,26.84916,0 111.719243,26.847283,0 111.731278,26.8326,0 111.739046,26.832876,0 111.746759,26.841487,0 111.752285,26.831551,0 111.745009,26.825534,0 111.744735,26.812173,0 111.753707,26.807038,0 111.772142,26.80875,0 111.771705,26.79986,0 111.781278,26.789147,0 111.797307,26.79257,0 111.802504,26.801516,0 111.820556,26.804498,0 111.824057,26.798479,0 111.817055,26.784011,0 111.827504,26.780918,0 111.831825,26.786164,0 111.850206,26.789809,0 111.859178,26.799584,0 111.871486,26.796491,0 111.874769,26.785888,0 111.903325,26.751754,0 111.917985,26.748936,0 111.916399,26.733688,0 111.927066,26.711032,0 111.94036,26.699427,0 111.949003,26.681519,0 111.951902,26.664216,0 111.959342,26.65642,0 111.960983,26.645307,0 111.973565,26.630929,0 111.990196,26.624182,0 111.997526,26.605101,0 112.006005,26.596914,0 112.014922,26.605322,0 112.019736,26.619205,0 112.013992,26.627556,0 112.005513,26.624791,0 111.995666,26.63939,0 112.006498,26.648458,0 112.028489,26.651831,0 112.04583,26.643205,0 112.05617,26.647961,0 112.076903,26.64398,0 112.093478,26.634026,0 112.094189,26.645141,0 112.10978,26.654043,0 112.117822,26.650504,0 112.115743,26.643371,0 112.126356,26.63574,0 112.151082,26.625731,0 112.150317,26.617048,0 112.141454,26.603386,0 112.143916,26.593429,0 112.158577,26.591825,0 112.170557,26.585352,0 112.168205,26.574674,0 112.174715,26.571188,0 112.169518,26.557078,0 112.156389,26.555529,0 112.149113,26.547173,0 112.162735,26.539314,0 112.147363,26.527469,0 112.144737,26.504441,0 112.15245,26.502725,0 112.174223,26.524148,0 112.19047,26.536879,0 112.213118,26.548556,0 112.227833,26.546453,0 112.242713,26.535052,0 112.243205,26.514073,0 112.236695,26.505382,0 112.211258,26.502725,0 112.195339,26.486613,0 112.1757,26.500178,0 112.159999,26.493866,0 112.159562,26.486336,0 112.166509,26.477033,0 112.152177,26.469668,0 112.157975,26.465016,0 112.161914,26.450727,0 112.155295,26.444523,0 112.143205,26.441477,0 112.145612,26.431727,0 112.152724,26.430065,0 112.150098,26.416326,0 112.153271,26.403139,0 112.140634,26.407959,0 112.141728,26.387068,0 112.150152,26.38463,0 112.148183,26.35736,0 112.153161,26.349544,0 112.158741,26.353036,0 112.181498,26.34339,0 112.177724,26.325925,0 112.177942,26.305741,0 112.190415,26.312229,0 112.199004,26.30746,0 112.20896,26.31356,0 112.212461,26.30563,0 112.205021,26.285275,0 112.197308,26.277287,0 112.200809,26.262365,0 112.19605,26.229794,0 112.190306,26.22369,0 112.194901,26.206873,0 112.192877,26.19394,0 112.185929,26.185668,0 112.195448,26.172011,0 112.206115,26.165514,0 112.217221,26.165459,0 112.212571,26.151188,0 112.222636,26.150799,0 112.224332,26.138915,0 112.231389,26.134417,0 112.232428,26.117865,0 112.257702,26.123308,0 112.258523,26.130751,0 112.266947,26.13114,0 112.284453,26.143636,0 112.290689,26.144024,0 112.292385,26.134417,0 112.304256,26.132917,0 112.31186,26.148967,0 112.310437,26.158574,0 112.327068,26.161128,0 112.33779,26.167569,0 112.357046,26.161294,0 112.364322,26.181282,0 112.375044,26.190553,0 112.377287,26.201544,0 112.386641,26.205208,0 112.395066,26.186168,0 112.405788,26.184835,0 112.429256,26.189721,0 112.444574,26.175953,0 112.450919,26.180394,0 112.47953,26.175786,0 112.485055,26.167957,0 112.482046,26.160739,0 112.48872,26.150911,0 112.507812,26.159573,0 112.50825,26.143858,0 112.5129,26.135583,0 112.524443,26.137471,0 112.529092,26.147579,0 112.554804,26.147245,0 112.566565,26.158518,0 112.578381,26.153632,0 112.582047,26.15924,0 112.576248,26.168346,0 112.577451,26.182004,0 112.572309,26.193384,0 112.58057,26.208982,0 112.581062,26.219083,0 112.597802,26.220526,0 112.602834,26.217085,0 112.608961,26.198436,0 112.623403,26.192108,0 112.633688,26.163293,0 112.630132,26.154409,0 112.637299,26.138915,0 112.654257,26.129251,0 112.670668,26.127696,0 112.658196,26.114976,0 112.646161,26.112421,0 112.642277,26.105977,0 112.654913,26.101033,0 112.665307,26.10981,0 112.673787,26.111032,0 112.676139,26.125974,0 112.686423,26.123808,0 112.688557,26.114198,0 112.707704,26.122419,0 112.710275,26.131751,0 112.720395,26.125474,0 112.735056,26.134583,0 112.739979,26.144469,0 112.746216,26.143802,0 112.752507,26.129862,0 112.760384,26.133084,0 112.758743,26.149855,0 112.768371,26.145524,0 112.782157,26.146024,0 112.783634,26.164237,0 112.791402,26.166292,0 112.78812,26.175342,0 112.777179,26.177341,0 112.775975,26.183892,0 112.786041,26.196993,0 112.79173,26.193218,0 112.78987,26.179839,0 112.795614,26.180116,0 112.802616,26.19022,0 112.809728,26.192163,0 112.818535,26.186667,0 112.818754,26.161794,0 112.838557,26.155742,0 112.846435,26.158296,0 112.857923,26.154187,0 112.870067,26.155797,0 112.875866,26.1498,0 112.891074,26.156519,0 112.903601,26.148467,0 112.920997,26.157963,0 112.921052,26.174398,0 112.930133,26.176785,0 112.942606,26.170789,0 112.949882,26.160184,0 112.968645,26.154242,0 112.984564,26.156575,0 112.992989,26.162349,0 113.008635,26.155631,0 113.035659,26.172843,0 113.034948,26.206651,0 113.039926,26.213589,0 113.025867,26.245276,0 113.032103,26.25199,0 113.045287,26.254542,0 113.05207,26.248494,0 113.068153,26.252933,0 113.073514,26.24855,0 113.091676,26.250103,0 113.087136,26.273626,0 113.103547,26.290544,0 113.117059,26.287327,0 113.119193,26.29304,0 113.128821,26.29304,0 113.130626,26.306572,0 113.127344,26.31356,0 113.142059,26.32587,0 113.162683,26.324317,0 113.173788,26.329696,0 113.164762,26.344499,0 113.168865,26.3491,0 113.156556,26.36246,0 113.167114,26.374266,0 113.16044,26.387733,0 113.163558,26.409566,0 113.171874,26.412115,0 113.179095,26.404967,0 113.191239,26.406186,0 113.212191,26.425246,0 113.211699,26.433112,0 113.192278,26.44552,0 113.194904,26.451669,0 113.210112,26.465182,0 113.217388,26.462746,0 113.226852,26.467065,0 113.230079,26.482072,0 113.214324,26.502448,0 113.189653,26.506157,0 113.179423,26.519388,0 113.171655,26.521214,0 113.160003,26.534222,0 113.159182,26.541638,0 113.179149,26.564438,0 113.179259,26.578492,0 113.186699,26.608088,0 113.179587,26.638339,0 113.188176,26.662447,0 113.182979,26.687765,0 113.160878,26.687875,0 113.152289,26.700532,0 113.134784,26.71258,0 113.13916,26.71794,0 113.122311,26.72319,0 113.121381,26.73098,0 113.131392,26.738053,0 113.12904,26.74413,0 113.115364,26.74413,0 113.113066,26.753024,0 113.101961,26.753245,0 113.09556,26.759929,0 113.097256,26.781636,0 113.149062,26.792129,0 113.142935,26.812504,0 113.144138,26.834477,0 113.153165,26.837568,0 113.160495,26.827521,0 113.183854,26.825202,0 113.207103,26.829674,0 113.206338,26.825478,0 113.223679,26.820896,0 113.224609,26.814437,0 113.238066,26.805216,0 113.258526,26.815486,0 113.259784,26.827797,0 113.252399,26.839224,0 113.232869,26.860971,0 113.227125,26.876423,0 113.239106,26.877747,0 113.24288,26.889279,0 113.239708,26.894466,0 113.254751,26.900259,0 113.257104,26.917691,0 113.266458,26.918408,0 113.278329,26.928447,0 113.280955,26.939974,0 113.245014,26.93832,0 113.235331,26.951721,0 113.225594,26.956298,0 113.221546,26.974549,0 113.226852,26.994671,0 113.21892,27.002939,0 113.224937,27.012474,0 113.235714,27.014789,0 113.23462,27.021403,0 113.220014,27.024434,0 113.215856,27.0408,0 113.198022,27.04069,0 113.199171,27.056888,0 113.193865,27.076059,0 113.175101,27.088838,0 113.170779,27.099027,0 113.164543,27.101285,0 113.16799,27.126175,0 113.193482,27.1357,0 113.196053,27.14181,0 113.219467,27.131736,0 113.236042,27.145224,0 113.244795,27.139994,0 113.245944,27.151609,0 113.257815,27.160141,0 113.260058,27.173186,0 113.280298,27.166636,0 113.283964,27.178634,0 113.271929,27.205707,0 113.255408,27.223642,0 113.248406,27.23943,0 113.23183,27.237339,0 113.182979,27.240915,0 113.173734,27.233489,0 113.164324,27.236019,0 113.148296,27.251695,0 113.144138,27.249275,0 113.133252,27.229638,0 113.127508,27.207358,0 113.115473,27.205597,0 113.107814,27.225238,0 113.087847,27.235469,0 113.092606,27.238274,0 113.082431,27.253895,0 113.085878,27.266433,0 113.068427,27.280949,0 113.051031,27.287492,0 113.04381,27.309647,0 113.048843,27.320915,0 113.032541,27.329269,0 113.033306,27.345041,0 113.042223,27.350921,0 113.025265,27.367239,0 113.021545,27.378337,0 113.024171,27.385807,0 113.002015,27.392729,0 112.994247,27.407064,0 112.999225,27.435619,0 112.995396,27.438309,0</coordinates></LinearRing></outerBoundaryIs>
      </Polygon>
    </MultiGeometry>
    </Placemark>
  </Document>
</kml>
