<?xml version="1.0" encoding="UTF-8"?>
<kml xmlns="http://www.opengis.net/kml/2.2">
  <Document>
    <name><![CDATA[郴州市]]></name>
    <Placemark>
      <name><![CDATA[郴州市]]></name>
      <description><![CDATA[省级目录：湖南省]]></description>
      <ExtendedData>
        <Data name="adcode"><value>431000</value></Data>
      </ExtendedData>
      <MultiGeometry>
      <Polygon>
        <outerBoundaryIs><LinearRing><coordinates>112.364212,25.191725,0 112.373731,25.177561,0 112.393151,25.160148,0 112.387407,25.152196,0 112.399497,25.14066,0 112.413337,25.141332,0 112.426138,25.156284,0 112.430077,25.17409,0 112.442987,25.185623,0 112.454858,25.17353,0 112.45267,25.159868,0 112.45825,25.152084,0 112.477451,25.151413,0 112.491018,25.144468,0 112.502615,25.144636,0 112.507703,25.13674,0 112.537025,25.13422,0 112.562681,25.12453,0 112.596543,25.126266,0 112.612736,25.133212,0 112.624826,25.134108,0 112.628218,25.140604,0 112.648021,25.133604,0 112.659782,25.132764,0 112.669848,25.113047,0 112.679749,25.10991,0 112.695231,25.095513,0 112.697255,25.089966,0 112.715636,25.078368,0 112.719192,25.048219,0 112.715143,25.026023,0 112.724881,25.010831,0 112.741839,24.998609,0 112.745505,24.981675,0 112.742168,24.977469,0 112.743152,24.960308,0 112.750537,24.955372,0 112.773459,24.949987,0 112.784673,24.936637,0 112.782211,24.922724,0 112.786697,24.912401,0 112.780734,24.897307,0 112.788284,24.892369,0 112.80382,24.890517,0 112.843973,24.897363,0 112.873514,24.89669,0 112.877835,24.905668,0 112.904367,24.921827,0 112.924553,24.918853,0 112.937354,24.92048,0 112.941785,24.915936,0 112.959236,24.923454,0 112.966785,24.919302,0 112.983634,24.920929,0 112.994794,24.927381,0 112.991676,24.938488,0 113.011917,24.946117,0 113.002781,24.957111,0 113.00847,24.961934,0 113.010002,24.977357,0 113.002289,24.990871,0 112.990527,24.995413,0 112.992059,25.017951,0 112.978437,25.026472,0 112.979422,25.033927,0 113.002289,25.057971,0 113.002015,25.07114,0 113.018427,25.083131,0 113.004532,25.089182,0 112.999608,25.103076,0 112.991129,25.109462,0 112.981939,25.125258,0 112.967989,25.141612,0 112.974335,25.168267,0 112.991567,25.176777,0 113.00858,25.190101,0 113.030516,25.194468,0 113.034455,25.201409,0 113.029751,25.210533,0 113.01777,25.211149,0 112.999006,25.244055,0 112.979915,25.245062,0 112.972912,25.251161,0 112.959564,25.254071,0 112.951851,25.245734,0 112.934072,25.250378,0 112.933361,25.24316,0 112.924006,25.248643,0 112.896927,25.239299,0 112.89173,25.246181,0 112.868317,25.248811,0 112.86591,25.259778,0 112.873951,25.274324,0 112.866457,25.276561,0 112.856391,25.291609,0 112.854914,25.311855,0 112.858798,25.320243,0 112.851796,25.33344,0 112.857376,25.336851,0 112.8687,25.327849,0 112.877671,25.33372,0 112.894849,25.337578,0 112.900593,25.311352,0 112.913175,25.299887,0 112.927836,25.299887,0 112.931829,25.322816,0 112.945068,25.326339,0 112.95114,25.337466,0 112.964707,25.342163,0 112.968098,25.349822,0 112.987956,25.353791,0 112.995396,25.348983,0 113.009236,25.352897,0 113.023678,25.345964,0 113.029751,25.361227,0 113.041622,25.366034,0 113.064598,25.381797,0 113.080134,25.383362,0 113.080626,25.390963,0 113.088777,25.396552,0 113.090418,25.406778,0 113.096873,25.410746,0 113.092388,25.417507,0 113.114379,25.42058,0 113.128383,25.413204,0 113.130736,25.427117,0 113.118427,25.447285,0 113.127946,25.449687,0 113.122366,25.45572,0 113.13462,25.467673,0 113.149992,25.468008,0 113.152016,25.492246,0 113.169357,25.488058,0 113.177071,25.471583,0 113.200812,25.479402,0 113.210659,25.496713,0 113.226195,25.509667,0 113.243263,25.515641,0 113.249062,25.514078,0 113.260824,25.499449,0 113.269412,25.505256,0 113.282596,25.4942,0 113.291786,25.500901,0 113.291732,25.516367,0 113.303329,25.515864,0 113.296819,25.508383,0 113.311371,25.490459,0 113.309183,25.481021,0 113.315966,25.467506,0 113.313942,25.442928,0 113.329752,25.450804,0 113.340091,25.449911,0 113.352782,25.436838,0 113.35973,25.438403,0 113.366951,25.431196,0 113.371874,25.406834,0 113.376524,25.400743,0 113.38938,25.403649,0 113.393592,25.397558,0 113.407049,25.401414,0 113.424117,25.392695,0 113.427728,25.373245,0 113.442279,25.361283,0 113.449829,25.35955,0 113.462411,25.369835,0 113.470179,25.365643,0 113.480026,25.375201,0 113.50415,25.374978,0 113.519194,25.370059,0 113.515091,25.360668,0 113.524336,25.353624,0 113.536098,25.368494,0 113.544304,25.366593,0 113.554533,25.351835,0 113.581448,25.342722,0 113.583308,25.331875,0 113.579807,25.316609,0 113.585989,25.307325,0 113.61077,25.32701,0 113.620507,25.325668,0 113.628823,25.330141,0 113.658035,25.329246,0 113.663998,25.337746,0 113.68019,25.334503,0 113.687138,25.352058,0 113.707926,25.352617,0 113.706558,25.360891,0 113.725267,25.358599,0 113.734512,25.348872,0 113.743976,25.363966,0 113.754097,25.361171,0 113.758418,25.343784,0 113.764162,25.333608,0 113.75809,25.329973,0 113.780191,25.334055,0 113.800486,25.32947,0 113.821274,25.330756,0 113.832817,25.343896,0 113.833418,25.353959,0 113.839764,25.363463,0 113.860935,25.369332,0 113.876909,25.380344,0 113.883254,25.395322,0 113.881777,25.406946,0 113.892062,25.411863,0 113.884458,25.420301,0 113.886865,25.436615,0 113.913397,25.442816,0 113.943484,25.43885,0 113.939929,25.459407,0 113.951417,25.470857,0 113.958966,25.483646,0 113.952073,25.486941,0 113.955629,25.496657,0 113.945837,25.499561,0 113.953277,25.505033,0 113.96285,25.528258,0 113.986099,25.528984,0 113.984075,25.538585,0 113.992391,25.565152,0 113.97948,25.573244,0 113.983091,25.599357,0 113.978441,25.605606,0 113.957106,25.61191,0 113.949557,25.625186,0 113.951253,25.637569,0 113.943266,25.6427,0 113.937576,25.662664,0 113.932926,25.663445,0 113.926635,25.685468,0 113.913834,25.703753,0 113.918266,25.71741,0 113.914272,25.728668,0 113.918922,25.739479,0 113.937358,25.756196,0 113.946876,25.761322,0 113.961701,25.777311,0 113.960662,25.796863,0 113.971329,25.814741,0 113.970071,25.833953,0 113.977292,25.839855,0 113.991351,25.860565,0 114.010279,25.871086,0 114.013944,25.885614,0 114.028277,25.89335,0 114.022533,25.906817,0 114.021822,25.919226,0 114.03145,25.938921,0 114.021111,25.95561,0 114.021056,25.975243,0 114.028222,25.981361,0 114.027128,25.991037,0 114.017609,25.992928,0 114.009075,26.00416,0 114.008474,26.015669,0 114.028113,26.031179,0 114.036592,26.046798,0 114.035224,26.059025,0 114.045837,26.070695,0 114.043813,26.076697,0 114.069852,26.078531,0 114.085607,26.066361,0 114.10005,26.071807,0 114.106888,26.069473,0 114.120181,26.084198,0 114.118977,26.089865,0 114.107489,26.095144,0 114.108748,26.10031,0 114.156724,26.115809,0 114.171056,26.123253,0 114.187687,26.120975,0 114.214984,26.137471,0 114.225323,26.14769,0 114.237249,26.152188,0 114.235717,26.160073,0 114.225378,26.159684,0 114.218485,26.168513,0 114.232216,26.17995,0 114.222096,26.188888,0 114.21679,26.203154,0 114.192282,26.196715,0 114.183748,26.201045,0 114.181286,26.214477,0 114.148846,26.203265,0 114.141953,26.203376,0 114.102785,26.187833,0 114.100378,26.178395,0 114.088562,26.168402,0 114.074667,26.171789,0 114.05913,26.166181,0 114.055356,26.181338,0 114.040968,26.177396,0 114.036373,26.188555,0 114.027894,26.180061,0 114.013397,26.184058,0 113.992117,26.167791,0 113.985443,26.166403,0 113.97215,26.154742,0 113.962686,26.150855,0 113.944524,26.163738,0 113.9518,26.177896,0 113.94611,26.184502,0 113.930246,26.172788,0 113.916953,26.171344,0 113.914491,26.15874,0 113.902839,26.148023,0 113.896438,26.135527,0 113.888451,26.130362,0 113.860278,26.119309,0 113.849611,26.107588,0 113.845071,26.095699,0 113.824775,26.084087,0 113.811099,26.086421,0 113.805793,26.100033,0 113.791624,26.10431,0 113.780792,26.093699,0 113.780957,26.066139,0 113.761536,26.04791,0 113.750705,26.041629,0 113.736427,26.041129,0 113.709074,26.065805,0 113.693265,26.09581,0 113.702455,26.124419,0 113.72204,26.133139,0 113.729261,26.139248,0 113.736536,26.159351,0 113.738724,26.18317,0 113.725158,26.223745,0 113.708473,26.234067,0 113.67833,26.247273,0 113.671602,26.256761,0 113.655464,26.270575,0 113.64414,26.267968,0 113.615201,26.278896,0 113.617061,26.308236,0 113.60705,26.315113,0 113.598954,26.326646,0 113.597149,26.34583,0 113.592499,26.360187,0 113.583527,26.370331,0 113.583199,26.394661,0 113.607707,26.419096,0 113.609621,26.431007,0 113.603275,26.448345,0 113.588998,26.467121,0 113.595671,26.479913,0 113.603604,26.507652,0 113.589162,26.511416,0 113.587028,26.520882,0 113.572969,26.519111,0 113.558691,26.549497,0 113.562192,26.575172,0 113.554971,26.585352,0 113.541295,26.59271,0 113.523461,26.595476,0 113.509183,26.59271,0 113.495781,26.58419,0 113.491021,26.575338,0 113.477072,26.562667,0 113.467279,26.559347,0 113.458144,26.561782,0 113.429478,26.558738,0 113.414599,26.587399,0 113.399117,26.596969,0 113.400266,26.605211,0 113.411371,26.610134,0 113.418045,26.629381,0 113.415474,26.645694,0 113.400977,26.658245,0 113.399883,26.666593,0 113.392224,26.674885,0 113.381448,26.6939,0 113.382049,26.69915,0 113.400758,26.706943,0 113.413286,26.72982,0 113.427618,26.764569,0 113.428111,26.769761,0 113.412684,26.782575,0 113.404697,26.797596,0 113.394303,26.804774,0 113.384456,26.797099,0 113.363669,26.800081,0 113.338121,26.81024,0 113.326305,26.80759,0 113.315091,26.79616,0 113.306283,26.773517,0 113.299281,26.768104,0 113.283417,26.771473,0 113.27811,26.777715,0 113.285441,26.79003,0 113.285331,26.799694,0 113.273789,26.813056,0 113.280627,26.825202,0 113.259784,26.827797,0 113.258526,26.815486,0 113.238066,26.805216,0 113.224609,26.814437,0 113.223679,26.820896,0 113.206338,26.825478,0 113.207103,26.829674,0 113.183854,26.825202,0 113.160495,26.827521,0 113.153165,26.837568,0 113.144138,26.834477,0 113.142935,26.812504,0 113.149062,26.792129,0 113.097256,26.781636,0 113.09556,26.759929,0 113.101961,26.753245,0 113.113066,26.753024,0 113.115364,26.74413,0 113.12904,26.74413,0 113.131392,26.738053,0 113.121381,26.73098,0 113.122311,26.72319,0 113.13916,26.71794,0 113.134784,26.71258,0 113.152289,26.700532,0 113.160878,26.687875,0 113.182979,26.687765,0 113.188176,26.662447,0 113.179587,26.638339,0 113.186699,26.608088,0 113.179259,26.578492,0 113.179149,26.564438,0 113.159182,26.541638,0 113.160003,26.534222,0 113.171655,26.521214,0 113.179423,26.519388,0 113.189653,26.506157,0 113.214324,26.502448,0 113.230079,26.482072,0 113.226852,26.467065,0 113.217388,26.462746,0 113.210112,26.465182,0 113.194904,26.451669,0 113.192278,26.44552,0 113.211699,26.433112,0 113.212191,26.425246,0 113.191239,26.406186,0 113.179095,26.404967,0 113.171874,26.412115,0 113.163558,26.409566,0 113.16044,26.387733,0 113.167114,26.374266,0 113.156556,26.36246,0 113.168865,26.3491,0 113.164762,26.344499,0 113.173788,26.329696,0 113.162683,26.324317,0 113.142059,26.32587,0 113.127344,26.31356,0 113.130626,26.306572,0 113.128821,26.29304,0 113.119193,26.29304,0 113.117059,26.287327,0 113.103547,26.290544,0 113.087136,26.273626,0 113.091676,26.250103,0 113.073514,26.24855,0 113.068153,26.252933,0 113.05207,26.248494,0 113.045287,26.254542,0 113.032103,26.25199,0 113.025867,26.245276,0 113.039926,26.213589,0 113.034948,26.206651,0 113.035659,26.172843,0 113.008635,26.155631,0 112.992989,26.162349,0 112.984564,26.156575,0 112.968645,26.154242,0 112.949882,26.160184,0 112.942606,26.170789,0 112.930133,26.176785,0 112.921052,26.174398,0 112.920997,26.157963,0 112.903601,26.148467,0 112.891074,26.156519,0 112.875866,26.1498,0 112.870067,26.155797,0 112.857923,26.154187,0 112.846435,26.158296,0 112.838557,26.155742,0 112.818754,26.161794,0 112.818535,26.186667,0 112.809728,26.192163,0 112.802616,26.19022,0 112.795614,26.180116,0 112.78987,26.179839,0 112.79173,26.193218,0 112.786041,26.196993,0 112.775975,26.183892,0 112.777179,26.177341,0 112.78812,26.175342,0 112.791402,26.166292,0 112.783634,26.164237,0 112.782157,26.146024,0 112.768371,26.145524,0 112.758743,26.149855,0 112.760384,26.133084,0 112.752507,26.129862,0 112.746216,26.143802,0 112.739979,26.144469,0 112.735056,26.134583,0 112.720395,26.125474,0 112.710275,26.131751,0 112.707704,26.122419,0 112.688557,26.114198,0 112.686423,26.123808,0 112.676139,26.125974,0 112.673787,26.111032,0 112.665307,26.10981,0 112.654913,26.101033,0 112.642277,26.105977,0 112.646161,26.112421,0 112.658196,26.114976,0 112.670668,26.127696,0 112.654257,26.129251,0 112.637299,26.138915,0 112.630132,26.154409,0 112.633688,26.163293,0 112.623403,26.192108,0 112.608961,26.198436,0 112.602834,26.217085,0 112.597802,26.220526,0 112.581062,26.219083,0 112.58057,26.208982,0 112.572309,26.193384,0 112.577451,26.182004,0 112.576248,26.168346,0 112.582047,26.15924,0 112.578381,26.153632,0 112.566565,26.158518,0 112.554804,26.147245,0 112.529092,26.147579,0 112.524443,26.137471,0 112.5129,26.135583,0 112.50825,26.143858,0 112.507812,26.159573,0 112.48872,26.150911,0 112.482046,26.160739,0 112.485055,26.167957,0 112.47953,26.175786,0 112.450919,26.180394,0 112.444574,26.175953,0 112.429256,26.189721,0 112.405788,26.184835,0 112.395066,26.186168,0 112.386641,26.205208,0 112.377287,26.201544,0 112.375044,26.190553,0 112.364322,26.181282,0 112.357046,26.161294,0 112.33779,26.167569,0 112.327068,26.161128,0 112.310437,26.158574,0 112.31186,26.148967,0 112.304256,26.132917,0 112.292385,26.134417,0 112.290689,26.144024,0 112.284453,26.143636,0 112.266947,26.13114,0 112.258523,26.130751,0 112.257702,26.123308,0 112.232428,26.117865,0 112.230295,26.107032,0 112.240579,26.09331,0 112.251685,26.089588,0 112.26186,26.092866,0 112.271159,26.089032,0 112.282593,26.101699,0 112.291619,26.099977,0 112.299715,26.090365,0 112.309836,26.099033,0 112.321816,26.093755,0 112.33582,26.076641,0 112.328545,26.039072,0 112.306444,26.00694,0 112.300426,25.978747,0 112.292987,25.974298,0 112.311532,25.962396,0 112.299332,25.962507,0 112.304475,25.953997,0 112.309836,25.95611,0 112.316783,25.944039,0 112.315197,25.935806,0 112.296816,25.931466,0 112.265525,25.896689,0 112.272089,25.886337,0 112.288665,25.886282,0 112.312407,25.890567,0 112.33686,25.885725,0 112.349715,25.906595,0 112.360383,25.905871,0 112.359562,25.894407,0 112.377998,25.859285,0 112.38686,25.859786,0 112.387024,25.846258,0 112.380514,25.837293,0 112.359289,25.834398,0 112.357101,25.818249,0 112.361696,25.809116,0 112.377068,25.803658,0 112.385383,25.805552,0 112.38686,25.789343,0 112.377013,25.760486,0 112.37756,25.750791,0 112.392057,25.740315,0 112.383523,25.730618,0 112.361805,25.720196,0 112.352068,25.712393,0 112.343315,25.694277,0 112.336422,25.690876,0 112.321433,25.698458,0 112.317002,25.723262,0 112.310602,25.728891,0 112.297363,25.730284,0 112.278107,25.711167,0 112.247363,25.703921,0 112.243041,25.684855,0 112.245612,25.672087,0 112.257921,25.650452,0 112.257429,25.634055,0 112.238829,25.603876,0 112.243643,25.589928,0 112.260492,25.58234,0 112.257702,25.573021,0 112.246269,25.567608,0 112.250973,25.559013,0 112.270284,25.554883,0 112.285766,25.555776,0 112.312844,25.535013,0 112.325591,25.529989,0 112.357812,25.541655,0 112.369902,25.539422,0 112.372418,25.530044,0 112.367932,25.520442,0 112.372144,25.512068,0 112.392002,25.490961,0 112.39802,25.476888,0 112.399989,25.457172,0 112.411805,25.440581,0 112.420668,25.435498,0 112.426904,25.423318,0 112.439924,25.408287,0 112.440963,25.399346,0 112.426466,25.398508,0 112.421324,25.39359,0 112.435711,25.379952,0 112.455186,25.38107,0 112.458414,25.37509,0 112.45256,25.365475,0 112.444464,25.362736,0 112.432867,25.368382,0 112.420011,25.339087,0 112.409508,25.32578,0 112.394026,25.314595,0 112.386094,25.313141,0 112.374934,25.300837,0 112.362188,25.298153,0 112.345175,25.289259,0 112.344901,25.284673,0 112.357593,25.278631,0 112.355405,25.263974,0 112.360492,25.258547,0 112.357593,25.244279,0 112.368151,25.232696,0 112.368096,25.222846,0 112.36186,25.211988,0 112.364212,25.191725,0</coordinates></LinearRing></outerBoundaryIs>
      </Polygon>
    </MultiGeometry>
    </Placemark>
  </Document>
</kml>
