<?xml version="1.0" encoding="UTF-8"?>
<kml xmlns="http://www.opengis.net/kml/2.2">
  <Document>
    <name><![CDATA[中卫市]]></name>
    <Placemark>
      <name><![CDATA[中卫市]]></name>
      <description><![CDATA[省级目录：宁夏回族自治区]]></description>
      <ExtendedData>
        <Data name="adcode"><value>640500</value></Data>
      </ExtendedData>
      <MultiGeometry>
      <Polygon>
        <outerBoundaryIs><LinearRing><coordinates>106.410927,36.519381,0 106.418313,36.527841,0 106.406881,36.536845,0 106.401552,36.546308,0 106.384118,36.545512,0 106.371775,36.548904,0 106.371438,36.557696,0 106.362299,36.571049,0 106.364828,36.577913,0 106.392582,36.556649,0 106.397539,36.574356,0 106.407386,36.57264,0 106.41838,36.562719,0 106.444886,36.557235,0 106.455913,36.559914,0 106.459151,36.568705,0 106.449776,36.577662,0 106.471662,36.581303,0 106.459252,36.592644,0 106.444313,36.600845,0 106.447044,36.615195,0 106.444684,36.624941,0 106.432813,36.635439,0 106.430486,36.629668,0 106.410185,36.624774,0 106.404958,36.620591,0 106.388434,36.623979,0 106.380611,36.622139,0 106.383646,36.614191,0 106.363682,36.608753,0 106.320483,36.594318,0 106.306657,36.596577,0 106.297821,36.609171,0 106.290133,36.610844,0 106.277318,36.606284,0 106.274215,36.613313,0 106.25668,36.619127,0 106.249632,36.606577,0 106.231253,36.612518,0 106.216651,36.6103,0 106.21139,36.604904,0 106.211019,36.587162,0 106.195068,36.589757,0 106.182186,36.587539,0 106.167416,36.579043,0 106.152881,36.587288,0 106.146845,36.604736,0 106.152004,36.622683,0 106.132108,36.643427,0 106.119192,36.648947,0 106.118619,36.661741,0 106.106884,36.675494,0 106.106344,36.690582,0 106.077275,36.720458,0 106.067563,36.741677,0 106.071778,36.758923,0 106.058019,36.769695,0 106.047127,36.783429,0 106.029659,36.7957,0 106.031952,36.810723,0 106.028546,36.824366,0 106.004603,36.842011,0 105.990506,36.840676,0 105.984032,36.845306,0 105.976478,36.842387,0 105.971015,36.849227,0 105.984436,36.860361,0 105.980525,36.865573,0 105.981165,36.878456,0 105.965451,36.888461,0 105.963832,36.898298,0 105.95267,36.902216,0 105.956649,36.911926,0 105.936348,36.924301,0 105.934695,36.932883,0 105.926164,36.934216,0 105.923972,36.926801,0 105.909302,36.918009,0 105.888462,36.917426,0 105.908291,36.894713,0 105.908493,36.890087,0 105.897904,36.882333,0 105.899927,36.878248,0 105.882729,36.859694,0 105.874534,36.855023,0 105.872376,36.845681,0 105.86118,36.842303,0 105.856998,36.835546,0 105.839901,36.829247,0 105.836394,36.806258,0 105.826648,36.803504,0 105.82304,36.822113,0 105.808944,36.828246,0 105.789755,36.82057,0 105.767161,36.820361,0 105.761091,36.825701,0 105.745713,36.815062,0 105.737519,36.840176,0 105.738396,36.861695,0 105.748378,36.864989,0 105.746995,36.884168,0 105.759776,36.89859,0 105.742105,36.914092,0 105.751075,36.914676,0 105.768375,36.908133,0 105.76797,36.914092,0 105.783618,36.921968,0 105.785236,36.928009,0 105.821859,36.947837,0 105.831909,36.959332,0 105.833494,36.974531,0 105.848669,36.980194,0 105.842329,36.98698,0 105.785135,37.078511,0 105.778458,37.085371,0 105.748546,37.085579,0 105.741464,37.089861,0 105.711013,37.116754,0 105.696816,37.120245,0 105.683428,37.127393,0 105.67557,37.139068,0 105.668859,37.160711,0 105.6724,37.176285,0 105.664981,37.191897,0 105.63426,37.190569,0 105.616724,37.197917,0 105.586475,37.198041,0 105.575886,37.202566,0 105.573964,37.208046,0 105.561284,37.217717,0 105.573424,37.217094,0 105.585531,37.222157,0 105.605495,37.222946,0 105.63018,37.241411,0 105.649334,37.259375,0 105.667915,37.26879,0 105.676481,37.276836,0 105.679212,37.261614,0 105.687002,37.25506,0 105.69432,37.23888,0 105.693949,37.231163,0 105.684304,37.216306,0 105.707337,37.197128,0 105.712834,37.187455,0 105.73708,37.188077,0 105.769454,37.19306,0 105.780718,37.199577,0 105.775052,37.206095,0 105.783146,37.213027,0 105.771579,37.216181,0 105.767026,37.229254,0 105.772085,37.233652,0 105.756741,37.24415,0 105.755392,37.256222,0 105.734888,37.288903,0 105.755324,37.29649,0 105.775221,37.301341,0 105.791509,37.311124,0 105.794207,37.318668,0 105.837675,37.315394,0 105.925725,37.307642,0 105.94117,37.321031,0 105.943666,37.33222,0 105.92849,37.346143,0 105.916553,37.351695,0 105.905626,37.351861,0 105.889102,37.360519,0 105.876962,37.36288,0 105.843273,37.38127,0 105.850186,37.396508,0 105.884314,37.392989,0 105.885629,37.398289,0 105.875714,37.415759,0 105.885932,37.424824,0 105.913147,37.431487,0 105.923938,37.424989,0 105.934695,37.428011,0 105.936921,37.445888,0 105.983627,37.451805,0 105.973072,37.464381,0 105.958335,37.469056,0 105.960426,37.475012,0 105.975601,37.474185,0 105.98248,37.477328,0 105.994722,37.473564,0 106.004029,37.474723,0 106.01219,37.484773,0 106.016068,37.498791,0 106.032019,37.508301,0 106.037988,37.51938,0 106.048847,37.516982,0 106.056536,37.524092,0 106.075319,37.527647,0 106.060312,37.545583,0 106.039472,37.550045,0 106.029928,37.558681,0 106.034447,37.559714,0 106.002073,37.592964,0 106.001837,37.603081,0 106.008346,37.610554,0 106.020756,37.609522,0 106.024701,37.613403,0 106.022577,37.626324,0 106.024566,37.643782,0 106.011752,37.648611,0 106.005547,37.65513,0 105.990136,37.654594,0 105.977928,37.659628,0 105.951591,37.657647,0 105.934291,37.669488,0 105.93075,37.654553,0 105.910516,37.62942,0 105.904514,37.613857,0 105.882931,37.615178,0 105.894093,37.628842,0 105.886405,37.643494,0 105.879323,37.647249,0 105.880705,37.660164,0 105.888259,37.67947,0 105.889204,37.714111,0 105.902389,37.726849,0 105.901276,37.738308,0 105.882695,37.735876,0 105.853289,37.739833,0 105.844521,37.728704,0 105.825063,37.735217,0 105.815857,37.734186,0 105.78409,37.73872,0 105.760922,37.728416,0 105.742071,37.727591,0 105.717521,37.731672,0 105.696343,37.725942,0 105.678875,37.725036,0 105.651897,37.715554,0 105.649165,37.710318,0 105.610047,37.706978,0 105.598952,37.699391,0 105.584216,37.699803,0 105.533733,37.69605,0 105.4674,37.695019,0 105.447436,37.696875,0 105.421773,37.707225,0 105.403698,37.710029,0 105.388253,37.70739,0 105.372606,37.708174,0 105.359757,37.705164,0 105.323505,37.701246,0 105.314771,37.702071,0 105.27862,37.687348,0 105.246685,37.680625,0 105.22689,37.678522,0 105.210298,37.671674,0 105.187502,37.657771,0 105.165447,37.651458,0 105.134861,37.638376,0 105.110918,37.633795,0 105.087885,37.613816,0 105.040471,37.586481,0 105.024183,37.579872,0 104.926758,37.572437,0 104.905175,37.566902,0 104.866327,37.566613,0 104.832773,37.554797,0 104.805053,37.53926,0 104.715957,37.531738,0 104.623591,37.522563,0 104.544545,37.518801,0 104.433294,37.515287,0 104.430495,37.510947,0 104.41967,37.511815,0 104.410497,37.481506,0 104.407563,37.46463,0 104.391646,37.460782,0 104.37347,37.461982,0 104.357047,37.449736,0 104.336914,37.444067,0 104.322447,37.448371,0 104.303259,37.441709,0 104.287241,37.427845,0 104.287409,37.421306,0 104.298437,37.41402,0 104.345109,37.420436,0 104.365511,37.418036,0 104.375493,37.425196,0 104.386588,37.427638,0 104.404866,37.438315,0 104.437745,37.445805,0 104.452718,37.422713,0 104.465836,37.41965,0 104.484519,37.422423,0 104.499491,37.42114,0 104.521006,37.434798,0 104.531123,37.433018,0 104.544275,37.42321,0 104.56488,37.430411,0 104.58046,37.427307,0 104.607708,37.425114,0 104.613811,37.418822,0 104.625378,37.416007,0 104.638294,37.419443,0 104.658055,37.412489,0 104.679908,37.407852,0 104.671612,37.400152,0 104.669184,37.388475,0 104.661495,37.376631,0 104.661529,37.369383,0 104.668273,37.356045,0 104.702873,37.34548,0 104.717643,37.350452,0 104.718082,37.338229,0 104.712518,37.328947,0 104.70466,37.330107,0 104.686787,37.318917,0 104.678053,37.319331,0 104.666014,37.310834,0 104.664733,37.299558,0 104.653672,37.291515,0 104.64433,37.291183,0 104.632494,37.298854,0 104.624434,37.29848,0 104.61951,37.291308,0 104.625243,37.285669,0 104.622984,37.277914,0 104.613643,37.278121,0 104.603627,37.262444,0 104.600693,37.242656,0 104.611114,37.223195,0 104.624569,37.212529,0 104.626053,37.205846,0 104.637957,37.201902,0 104.653435,37.203521,0 104.663755,37.208336,0 104.666992,37.204808,0 104.683145,37.202982,0 104.705942,37.208129,0 104.717239,37.208502,0 104.731402,37.219626,0 104.747387,37.228631,0 104.750388,37.235105,0 104.765395,37.239129,0 104.776422,37.246639,0 104.785224,37.241619,0 104.793688,37.229171,0 104.804682,37.234814,0 104.810853,37.230291,0 104.823533,37.229378,0 104.832368,37.222116,0 104.856412,37.21174,0 104.858503,37.183884,0 104.86491,37.172838,0 104.888247,37.158676,0 104.897217,37.141436,0 104.898296,37.127725,0 104.90993,37.122032,0 104.918462,37.110105,0 104.916338,37.095806,0 104.93158,37.086494,0 104.947329,37.083209,0 104.953871,37.077346,0 104.954545,37.040289,0 104.965269,37.03176,0 105.004421,37.035463,0 105.013729,37.031927,0 105.010997,37.01728,0 105.039864,37.007251,0 105.049239,37.019777,0 105.059558,37.022815,0 105.075981,37.013119,0 105.090853,37.009581,0 105.111052,37.000342,0 105.129296,36.996346,0 105.156645,36.99697,0 105.165346,36.994889,0 105.168718,36.967245,0 105.177756,36.959083,0 105.179543,36.947463,0 105.185816,36.941798,0 105.184062,36.929217,0 105.17779,36.929425,0 105.184062,36.902382,0 105.179004,36.892296,0 105.190705,36.886294,0 105.191852,36.891837,0 105.207702,36.897506,0 105.22635,36.886419,0 105.240615,36.896797,0 105.24999,36.891254,0 105.274607,36.870785,0 105.280947,36.857859,0 105.278722,36.852646,0 105.297505,36.843513,0 105.292447,36.835671,0 105.298618,36.832626,0 105.303609,36.820528,0 105.327451,36.805048,0 105.332712,36.806049,0 105.335983,36.782344,0 105.341075,36.764685,0 105.333521,36.762597,0 105.329845,36.751156,0 105.319627,36.742846,0 105.307082,36.742136,0 105.298045,36.748317,0 105.275889,36.752284,0 105.272247,36.739421,0 105.240075,36.741426,0 105.239941,36.733783,0 105.226553,36.733783,0 105.215256,36.72781,0 105.200957,36.7022,0 105.208578,36.680217,0 105.225406,36.6645,0 105.222068,36.636485,0 105.233837,36.62582,0 105.241526,36.625862,0 105.241492,36.613689,0 105.250024,36.601431,0 105.261152,36.602644,0 105.27046,36.593146,0 105.265435,36.58938,0 105.274371,36.577453,0 105.275956,36.563138,0 105.252081,36.553132,0 105.248978,36.546727,0 105.257004,36.544214,0 105.260107,36.533662,0 105.272415,36.531066,0 105.28115,36.522564,0 105.287726,36.526459,0 105.30398,36.524658,0 105.320133,36.536007,0 105.336016,36.519255,0 105.36141,36.498184,0 105.367581,36.486117,0 105.365625,36.470277,0 105.370953,36.461642,0 105.363332,36.443197,0 105.370481,36.436531,0 105.384813,36.440514,0 105.39955,36.428774,0 105.397088,36.407804,0 105.402214,36.385108,0 105.414085,36.384101,0 105.41948,36.377346,0 105.413309,36.369583,0 105.401641,36.36996,0 105.405418,36.358041,0 105.419919,36.346792,0 105.425651,36.330209,0 105.435026,36.325339,0 105.454215,36.322777,0 105.460622,36.308037,0 105.468209,36.303627,0 105.476977,36.29132,0 105.473133,36.275565,0 105.466523,36.274599,0 105.459745,36.264556,0 105.465781,36.251991,0 105.457418,36.236355,0 105.460487,36.223868,0 105.479136,36.212894,0 105.488679,36.191109,0 105.496941,36.192666,0 105.516669,36.203559,0 105.537004,36.218024,0 105.588127,36.237447,0 105.603606,36.230721,0 105.60853,36.21445,0 105.618107,36.209236,0 105.625323,36.195315,0 105.635474,36.190142,0 105.645894,36.17727,0 105.673547,36.155812,0 105.687036,36.152403,0 105.696816,36.155265,0 105.706932,36.167593,0 105.725581,36.174704,0 105.745241,36.172222,0 105.75927,36.179121,0 105.768679,36.174662,0 105.779773,36.154886,0 105.757145,36.136495,0 105.76534,36.133211,0 105.77458,36.139146,0 105.784697,36.136873,0 105.800007,36.141335,0 105.80918,36.138725,0 105.812518,36.126939,0 105.818521,36.121256,0 105.839867,36.141251,0 105.857032,36.150762,0 105.861787,36.165953,0 105.876861,36.18501,0 105.885022,36.190605,0 105.882864,36.20911,0 105.886371,36.216132,0 105.902726,36.216552,0 105.952906,36.211885,0 105.98184,36.19603,0 106.003557,36.193843,0 105.999173,36.225382,0 105.993069,36.246275,0 105.967946,36.29174,0 105.971892,36.298839,0 105.981401,36.302619,0 105.979749,36.311607,0 105.984639,36.319082,0 106.014011,36.313203,0 106.026118,36.327942,0 106.038089,36.327228,0 106.058727,36.33277,0 106.074914,36.325003,0 106.07832,36.332015,0 106.085672,36.331637,0 106.091169,36.324205,0 106.105501,36.315429,0 106.127286,36.325171,0 106.141618,36.324919,0 106.158783,36.331973,0 106.197395,36.341797,0 106.203937,36.353928,0 106.227274,36.372101,0 106.245821,36.382465,0 106.270405,36.382507,0 106.281061,36.411537,0 106.288784,36.406965,0 106.302812,36.411872,0 106.315256,36.41204,0 106.316807,36.436405,0 106.327126,36.454181,0 106.316504,36.451037,0 106.311951,36.479538,0 106.330296,36.486243,0 106.337412,36.500279,0 106.347798,36.499274,0 106.3566,36.510375,0 106.371269,36.515821,0 106.401721,36.509914,0 106.410927,36.519381,0</coordinates></LinearRing></outerBoundaryIs>
      </Polygon>
    </MultiGeometry>
    </Placemark>
  </Document>
</kml>
