<?xml version="1.0" encoding="UTF-8"?>
<kml xmlns="http://www.opengis.net/kml/2.2">
  <Document>
    <name><![CDATA[固原市]]></name>
    <Placemark>
      <name><![CDATA[固原市]]></name>
      <description><![CDATA[省级目录：宁夏回族自治区]]></description>
      <ExtendedData>
        <Data name="adcode"><value>640400</value></Data>
      </ExtendedData>
      <MultiGeometry>
      <Polygon>
        <outerBoundaryIs><LinearRing><coordinates>106.071306,35.449418,0 106.076196,35.446785,0 106.078118,35.429418,0 106.084087,35.420287,0 106.081288,35.413109,0 106.087291,35.40232,0 106.100206,35.40198,0 106.098588,35.390977,0 106.104725,35.388852,0 106.102432,35.379972,0 106.106546,35.367138,0 106.115854,35.362208,0 106.113021,35.3716,0 106.123779,35.37347,0 106.129916,35.393568,0 106.154871,35.41553,0 106.166977,35.421009,0 106.170653,35.433198,0 106.178848,35.436383,0 106.180669,35.424534,0 106.187447,35.426063,0 106.192067,35.412217,0 106.207579,35.409329,0 106.221676,35.41209,0 106.237491,35.409456,0 106.244405,35.377507,0 106.249699,35.36684,0 106.241403,35.358552,0 106.251655,35.346863,0 106.253645,35.337425,0 106.261772,35.330325,0 106.275328,35.329134,0 106.287165,35.309913,0 106.285715,35.301492,0 106.300182,35.28822,0 106.310501,35.28856,0 106.320753,35.277711,0 106.318729,35.267117,0 106.335928,35.25103,0 106.352452,35.249541,0 106.355555,35.239538,0 106.363614,35.238304,0 106.37562,35.248604,0 106.368201,35.273499,0 106.376294,35.275967,0 106.387355,35.269797,0 106.410961,35.279796,0 106.421179,35.27835,0 106.43052,35.293027,0 106.443065,35.296855,0 106.457161,35.308169,0 106.472269,35.310678,0 106.490412,35.329602,0 106.488017,35.337297,0 106.493784,35.351921,0 106.50933,35.358765,0 106.502282,35.363058,0 106.496111,35.376147,0 106.497966,35.3866,0 106.493244,35.392549,0 106.494964,35.401428,0 106.503496,35.415063,0 106.497527,35.428399,0 106.483431,35.450564,0 106.490142,35.480405,0 106.486601,35.483121,0 106.470414,35.478792,0 106.465592,35.480999,0 106.463332,35.501665,0 106.449506,35.509598,0 106.451968,35.516131,0 106.443638,35.519355,0 106.440772,35.526609,0 106.454767,35.537679,0 106.450922,35.553496,0 106.460567,35.579399,0 106.478946,35.575202,0 106.471493,35.600929,0 106.465895,35.604827,0 106.465457,35.620631,0 106.454362,35.629104,0 106.453789,35.636644,0 106.460061,35.643125,0 106.449675,35.647656,0 106.445223,35.663155,0 106.437838,35.662182,0 106.434972,35.688515,0 106.44873,35.694145,0 106.465828,35.717971,0 106.488287,35.725334,0 106.494155,35.73663,0 106.524539,35.739464,0 106.531014,35.725714,0 106.530407,35.741791,0 106.566591,35.738787,0 106.581935,35.730411,0 106.597549,35.727957,0 106.60146,35.731638,0 106.599606,35.743694,0 106.606013,35.743906,0 106.613533,35.729734,0 106.61613,35.741198,0 106.62102,35.743821,0 106.624122,35.727322,0 106.633227,35.714882,0 106.648537,35.709466,0 106.651943,35.715475,0 106.662397,35.707561,0 106.674875,35.728041,0 106.681451,35.729691,0 106.692714,35.715051,0 106.713757,35.704176,0 106.737498,35.689446,0 106.75473,35.691266,0 106.753482,35.699266,0 106.746131,35.698208,0 106.751526,35.726095,0 106.756956,35.723049,0 106.764409,35.728126,0 106.768725,35.722795,0 106.782484,35.723726,0 106.806258,35.709635,0 106.816375,35.71759,0 106.817454,35.728634,0 106.823255,35.731045,0 106.818129,35.739464,0 106.827807,35.745301,0 106.834484,35.738068,0 106.836002,35.743821,0 106.85428,35.74399,0 106.86706,35.73866,0 106.868983,35.774145,0 106.875997,35.776597,0 106.885304,35.771861,0 106.88554,35.761712,0 106.897613,35.759809,0 106.902065,35.774948,0 106.90891,35.767717,0 106.91434,35.791353,0 106.905302,35.793889,0 106.904088,35.803907,0 106.897681,35.808472,0 106.919634,35.803569,0 106.926277,35.811684,0 106.917206,35.81291,0 106.919229,35.819249,0 106.911271,35.83125,0 106.899906,35.827278,0 106.877953,35.852797,0 106.873974,35.87476,0 106.883618,35.868974,0 106.880786,35.880841,0 106.873097,35.878307,0 106.852897,35.883375,0 106.850132,35.887555,0 106.862474,35.895366,0 106.861766,35.909044,0 106.872692,35.90592,0 106.885979,35.917486,0 106.905437,35.912674,0 106.904864,35.924872,0 106.912923,35.932215,0 106.925131,35.926223,0 106.934472,35.933439,0 106.940508,35.931034,0 106.944791,35.940275,0 106.938384,35.953144,0 106.922231,35.948545,0 106.91896,35.940486,0 106.902537,35.943566,0 106.896736,35.950106,0 106.891847,35.966137,0 106.898591,35.960442,0 106.90773,35.963311,0 106.910529,35.950148,0 106.917577,35.946604,0 106.917678,35.961201,0 106.934843,35.981237,0 106.944252,35.984231,0 106.951232,36.004513,0 106.932921,36.007464,0 106.928436,36.011385,0 106.930897,36.029047,0 106.942093,36.032503,0 106.942768,36.051804,0 106.940643,36.06495,0 106.949546,36.067941,0 106.947927,36.077545,0 106.95882,36.075144,0 106.955245,36.083063,0 106.957572,36.091571,0 106.950592,36.099446,0 106.944083,36.099614,0 106.940643,36.108204,0 106.946342,36.122393,0 106.940475,36.12656,0 106.932988,36.11431,0 106.92567,36.11612,0 106.930324,36.138515,0 106.918386,36.129297,0 106.907056,36.136368,0 106.912552,36.153582,0 106.905167,36.157663,0 106.896601,36.169529,0 106.888677,36.166373,0 106.878425,36.179331,0 106.874614,36.176891,0 106.867128,36.185515,0 106.865577,36.193843,0 106.857854,36.203306,0 106.84133,36.20646,0 106.838801,36.221766,0 106.834181,36.229124,0 106.828077,36.215459,0 106.821636,36.220967,0 106.810609,36.218318,0 106.808282,36.210876,0 106.789127,36.226265,0 106.7839,36.21773,0 106.776043,36.223406,0 106.772907,36.21302,0 106.762925,36.215165,0 106.741275,36.228661,0 106.736081,36.237279,0 106.729674,36.232151,0 106.719288,36.236943,0 106.716556,36.231983,0 106.708665,36.240138,0 106.702123,36.239465,0 106.685329,36.273339,0 106.670626,36.268632,0 106.663443,36.262833,0 106.656766,36.266447,0 106.654945,36.257917,0 106.64874,36.258883,0 106.643782,36.284892,0 106.638016,36.265943,0 106.609655,36.275691,0 106.609082,36.290354,0 106.600213,36.292832,0 106.599302,36.274221,0 106.594311,36.270397,0 106.586724,36.277834,0 106.582306,36.289093,0 106.577787,36.286027,0 106.559611,36.292244,0 106.561533,36.274053,0 106.556238,36.260648,0 106.545649,36.259346,0 106.541198,36.253882,0 106.518874,36.270481,0 106.502417,36.271028,0 106.484038,36.285523,0 106.478373,36.298251,0 106.470751,36.306315,0 106.470819,36.312867,0 106.480227,36.3161,0 106.497122,36.302997,0 106.499584,36.296193,0 106.510409,36.286111,0 106.509802,36.303585,0 106.497426,36.313791,0 106.506363,36.328236,0 106.50761,36.367065,0 106.510308,36.378857,0 106.525112,36.37273,0 106.531048,36.378982,0 106.524977,36.382759,0 106.526967,36.390185,0 106.514152,36.391444,0 106.504676,36.401386,0 106.492435,36.399247,0 106.492705,36.422945,0 106.504643,36.414641,0 106.50987,36.427138,0 106.500461,36.432925,0 106.503395,36.44173,0 106.519784,36.456319,0 106.523258,36.468474,0 106.518098,36.480921,0 106.502586,36.485279,0 106.494762,36.494456,0 106.491019,36.48243,0 106.483735,36.480921,0 106.477091,36.494623,0 106.462759,36.499567,0 106.453856,36.497849,0 106.433285,36.518082,0 106.420909,36.514606,0 106.410927,36.519381,0 106.401721,36.509914,0 106.371269,36.515821,0 106.3566,36.510375,0 106.347798,36.499274,0 106.337412,36.500279,0 106.330296,36.486243,0 106.311951,36.479538,0 106.316504,36.451037,0 106.327126,36.454181,0 106.316807,36.436405,0 106.315256,36.41204,0 106.302812,36.411872,0 106.288784,36.406965,0 106.281061,36.411537,0 106.270405,36.382507,0 106.245821,36.382465,0 106.227274,36.372101,0 106.203937,36.353928,0 106.197395,36.341797,0 106.158783,36.331973,0 106.141618,36.324919,0 106.127286,36.325171,0 106.105501,36.315429,0 106.091169,36.324205,0 106.085672,36.331637,0 106.07832,36.332015,0 106.074914,36.325003,0 106.058727,36.33277,0 106.038089,36.327228,0 106.026118,36.327942,0 106.014011,36.313203,0 105.984639,36.319082,0 105.979749,36.311607,0 105.981401,36.302619,0 105.971892,36.298839,0 105.967946,36.29174,0 105.993069,36.246275,0 105.999173,36.225382,0 106.003557,36.193843,0 105.98184,36.19603,0 105.952906,36.211885,0 105.902726,36.216552,0 105.886371,36.216132,0 105.882864,36.20911,0 105.885022,36.190605,0 105.876861,36.18501,0 105.861787,36.165953,0 105.857032,36.150762,0 105.839867,36.141251,0 105.818521,36.121256,0 105.812518,36.126939,0 105.80918,36.138725,0 105.800007,36.141335,0 105.784697,36.136873,0 105.77458,36.139146,0 105.76534,36.133211,0 105.757145,36.136495,0 105.779773,36.154886,0 105.768679,36.174662,0 105.75927,36.179121,0 105.745241,36.172222,0 105.725581,36.174704,0 105.706932,36.167593,0 105.696816,36.155265,0 105.687036,36.152403,0 105.673547,36.155812,0 105.645894,36.17727,0 105.635474,36.190142,0 105.625323,36.195315,0 105.618107,36.209236,0 105.60853,36.21445,0 105.603606,36.230721,0 105.588127,36.237447,0 105.537004,36.218024,0 105.516669,36.203559,0 105.496941,36.192666,0 105.488679,36.191109,0 105.488342,36.18501,0 105.502101,36.157705,0 105.5136,36.150173,0 105.505372,36.128455,0 105.497144,36.130644,0 105.500347,36.123277,0 105.491343,36.101046,0 105.486521,36.098856,0 105.468176,36.101046,0 105.459981,36.107152,0 105.452394,36.100878,0 105.441939,36.099488,0 105.431249,36.10412,0 105.407981,36.075818,0 105.399988,36.079693,0 105.391389,36.074807,0 105.391288,36.066003,0 105.378035,36.061579,0 105.360432,36.044219,0 105.365895,36.034653,0 105.343941,36.033852,0 105.338984,36.017203,0 105.341547,36.004555,0 105.333184,36.000634,0 105.335612,35.98014,0 105.331767,35.951456,0 105.325057,35.941794,0 105.335241,35.930612,0 105.340266,35.909255,0 105.327114,35.904738,0 105.334499,35.886373,0 105.350247,35.875985,0 105.357869,35.879279,0 105.370515,35.871128,0 105.379182,35.872142,0 105.390816,35.866482,0 105.398437,35.855162,0 105.391254,35.846883,0 105.385387,35.853684,0 105.371021,35.844263,0 105.378642,35.82487,0 105.375472,35.816545,0 105.386196,35.817601,0 105.374966,35.80433,0 105.383903,35.792494,0 105.394694,35.809698,0 105.408588,35.822292,0 105.416378,35.821574,0 105.417221,35.815023,0 105.428821,35.818911,0 105.431755,35.78759,0 105.437319,35.779937,0 105.447537,35.780783,0 105.457283,35.77165,0 105.453844,35.747628,0 105.464028,35.752704,0 105.472661,35.750631,0 105.476708,35.732737,0 105.4818,35.727068,0 105.509385,35.718902,0 105.530225,35.726857,0 105.537914,35.721864,0 105.54675,35.727787,0 105.56125,35.724614,0 105.567826,35.714247,0 105.560104,35.698758,0 105.564353,35.687668,0 105.57511,35.699308,0 105.570086,35.716321,0 105.595715,35.715602,0 105.597839,35.722922,0 105.621547,35.729353,0 105.668927,35.750039,0 105.679752,35.737603,0 105.684068,35.746867,0 105.690172,35.745555,0 105.691083,35.736418,0 105.702279,35.733203,0 105.707843,35.737941,0 105.72784,35.731849,0 105.734888,35.724445,0 105.746523,35.731807,0 105.755055,35.73058,0 105.756606,35.717294,0 105.73762,35.697404,0 105.728481,35.699689,0 105.720995,35.72601,0 105.711822,35.710397,0 105.704268,35.702991,0 105.690948,35.698589,0 105.690476,35.683986,0 105.704201,35.685891,0 105.719814,35.678059,0 105.714722,35.646979,0 105.726323,35.63855,0 105.736575,35.642489,0 105.744095,35.63999,0 105.742004,35.626351,0 105.750367,35.623682,0 105.759034,35.634442,0 105.763924,35.630417,0 105.758022,35.617496,0 105.749659,35.616861,0 105.76217,35.602921,0 105.778391,35.599954,0 105.78581,35.591987,0 105.777615,35.586816,0 105.79822,35.565749,0 105.816464,35.575075,0 105.82422,35.559771,0 105.820983,35.555065,0 105.827727,35.547983,0 105.82304,35.537891,0 105.834674,35.540986,0 105.836967,35.522537,0 105.834033,35.517574,0 105.836596,35.494791,0 105.846949,35.490505,0 105.856223,35.511423,0 105.862023,35.515071,0 105.868532,35.539969,0 105.884415,35.534879,0 105.884347,35.543785,0 105.902794,35.547305,0 105.913248,35.539672,0 105.948387,35.53577,0 105.96309,35.531147,0 105.974286,35.531783,0 105.996711,35.526227,0 106.00467,35.519568,0 106.016102,35.52224,0 106.017451,35.512144,0 106.01128,35.509641,0 106.02052,35.4939,0 106.031142,35.494536,0 106.068102,35.503107,0 106.070699,35.491863,0 106.074914,35.493221,0 106.078523,35.509641,0 106.094608,35.508368,0 106.099431,35.499628,0 106.088437,35.49025,0 106.068102,35.488129,0 106.072486,35.470176,0 106.069789,35.458121,0 106.074105,35.454894,0 106.073262,35.450182,0 106.071306,35.449418,0</coordinates></LinearRing></outerBoundaryIs>
      </Polygon>
      <Polygon>
        <outerBoundaryIs><LinearRing><coordinates>106.05458,35.451625,0 106.052219,35.474718,0 106.058829,35.486177,0 106.054276,35.489741,0 106.03927,35.485752,0 106.028546,35.486983,0 106.023015,35.48223,0 105.988483,35.475567,0 105.977759,35.469497,0 105.970374,35.470176,0 105.959853,35.463809,0 105.938405,35.459734,0 105.925523,35.450819,0 105.914833,35.453493,0 105.8976,35.451498,0 105.889811,35.439482,0 105.893958,35.415403,0 105.925624,35.42067,0 105.930682,35.425809,0 105.946802,35.422708,0 105.949399,35.429631,0 105.960426,35.432901,0 105.965585,35.425639,0 105.975466,35.432773,0 105.992429,35.437359,0 105.994789,35.451116,0 106.004029,35.439015,0 106.00983,35.442242,0 106.008143,35.453196,0 106.017282,35.463767,0 106.034548,35.469242,0 106.041832,35.454003,0 106.05458,35.451625,0</coordinates></LinearRing></outerBoundaryIs>
      </Polygon>
      <Polygon>
        <outerBoundaryIs><LinearRing><coordinates>106.073026,35.420755,0 106.074678,35.430692,0 106.063516,35.437911,0 106.064258,35.425809,0 106.073026,35.420755,0</coordinates></LinearRing></outerBoundaryIs>
      </Polygon>
      <Polygon>
        <outerBoundaryIs><LinearRing><coordinates>106.074105,35.454894,0 106.069789,35.458121,0 106.071306,35.449418,0 106.073262,35.450182,0 106.074105,35.454894,0</coordinates></LinearRing></outerBoundaryIs>
      </Polygon>
    </MultiGeometry>
    </Placemark>
  </Document>
</kml>
