<?xml version="1.0" encoding="UTF-8"?>
<kml xmlns="http://www.opengis.net/kml/2.2">
<Document>
<name>重庆市_全省轮廓</name>
<Placemark><name>重庆市_全省轮廓</name><Polygon><outerBoundaryIs><LinearRing><coordinates>107.045579000000004,28.874925999999999,0 107.058689000000001,28.868946999999999,0 107.040620000000004,28.863869000000001,0 107.036593999999994,28.881150000000002,0 107.016118000000006,28.882501000000001,0 107.019114000000002,28.860675000000001,0 107.005168999999995,28.859158999999998,0 106.997853000000006,28.853507,0 106.983367999999999,28.851172999999999,0 106.989260000000002,28.829585000000002,0 106.980813999999995,28.812951000000002,0 106.981354999999994,28.804347,0 106.988670999999997,28.790330999999998,0 106.987885000000006,28.774674999999998,0 106.967803000000004,28.774101000000002,0 106.951746,28.766969,0 106.950224000000006,28.777626000000001,0 106.942269999999994,28.782135,0 106.938390999999996,28.792380999999999,0 106.923070999999993,28.810041999999999,0 106.905344999999997,28.796109999999999,0 106.897881999999996,28.80115,0 106.886392000000001,28.794716000000001,0 106.874215000000007,28.779716000000001,0 106.864591000000004,28.774470000000001,0 106.862333000000007,28.780577000000001,0 106.845393000000001,28.781027999999999,0 106.838469000000003,28.765985000000001,0 106.833363000000006,28.768771999999998,0 106.824033,28.756146000000001,0 106.828354000000004,28.737696,0 106.852905000000007,28.724451999999999,0 106.862528999999995,28.707554999999999,0 106.853936000000004,28.706323999999999,0 106.854721999999995,28.697095000000001,0 106.862136000000007,28.690982999999999,0 106.883201,28.692460000000001,0 106.871515000000002,28.658816999999999,0 106.866359000000003,28.624507000000001,0 106.856145999999995,28.622496000000002,0 106.829286999999994,28.622741999999999,0 106.833264,28.613219000000001,0 106.827078,28.598562000000001,0 106.807732000000001,28.589447,0 106.800514000000007,28.602134,0 106.793442999999996,28.606486,0 106.792558999999997,28.616256,0 106.780332999999999,28.625,0 106.773900999999995,28.611946,0 106.759022999999999,28.611084000000002,0 106.758581000000007,28.588132999999999,0 106.766633999999996,28.580165999999998,0 106.780922000000004,28.574869,0 106.779891000000006,28.563780000000001,0 106.765161000000006,28.558153000000001,0 106.754357999999996,28.558318,0 106.737319999999997,28.553307,0 106.728187000000005,28.542010000000001,0 106.723965000000007,28.529890999999999,0 106.726027000000002,28.518550999999999,0 106.744833,28.489867,0 106.746649000000005,28.466643000000001,0 106.732900999999998,28.463560000000001,0 106.725240999999997,28.454433000000002,0 106.716206999999997,28.456365000000002,0 106.708546999999996,28.450486000000001,0 106.693275999999997,28.456530000000001,0 106.696713000000003,28.478400000000001,0 106.688267999999994,28.484646999999999,0 106.678348999999997,28.481359000000001,0 106.661066000000005,28.491880999999999,0 106.649771999999999,28.47955,0 106.631113999999997,28.490237,0 106.632733999999999,28.503553,0 106.610146999999998,28.497921999999999,0 106.593404000000007,28.510169000000001,0 106.584958,28.50684,0 106.591488999999996,28.499072999999999,0 106.589180999999996,28.488386999999999,0 106.568017999999995,28.484031000000002,0 106.562814000000003,28.497388000000001,0 106.567920000000001,28.505278000000001,0 106.560309000000004,28.513373999999999,0 106.568657000000002,28.523645999999999,0 106.584614999999999,28.523275999999999,0 106.600622000000001,28.541353000000001,0 106.615253999999993,28.549651000000001,0 106.616825000000006,28.562795000000001,0 106.607054000000005,28.594291999999999,0 106.614665000000002,28.609442000000001,0 106.629641000000007,28.604762000000001,0 106.636465999999999,28.613219000000001,0 106.636809,28.623235000000001,0 106.628609999999995,28.634440000000001,0 106.618887000000001,28.637271999999999,0 106.620213000000007,28.645727000000001,0 106.641178999999994,28.644166999999999,0 106.651392999999999,28.649419999999999,0 106.643683999999993,28.664315999999999,0 106.635238000000001,28.658448,0 106.626891000000001,28.659268999999998,0 106.617660000000001,28.667311000000002,0 106.614272,28.680275999999999,0 106.619181999999995,28.689177999999998,0 106.606071999999998,28.685034999999999,0 106.598067999999998,28.691886,0 106.587315000000004,28.691517000000001,0 106.582356000000004,28.702223,0 106.576857000000004,28.702387000000002,0 106.56026,28.72072,0 106.559229000000002,28.731546000000002,0 106.563894000000005,28.746184,0 106.561830999999998,28.756063999999999,0 106.547984999999997,28.769838,0 106.534040000000005,28.770904000000002,0 106.533794999999998,28.778732999999999,0 106.523041000000006,28.781110000000002,0 106.521125999999995,28.794266,0 106.508752999999999,28.795864000000002,0 106.490584999999996,28.806518000000001,0 106.476198999999994,28.826758999999999,0 106.47448,28.833027000000001,0 106.461860999999999,28.831019000000001,0 106.468440000000001,28.826471999999999,0 106.453513999999998,28.816967000000002,0 106.451402000000002,28.808115999999998,0 106.460290000000001,28.804960999999999,0 106.462794000000002,28.797215999999999,0 106.451648000000006,28.79279,0 106.454200999999998,28.776067999999999,0 106.462057000000001,28.761230000000001,0 106.493825999999999,28.739460000000001,0 106.499324999999999,28.717397999999999,0 106.510323999999997,28.715183,0 106.515773999999993,28.688193999999999,0 106.529719,28.673137000000001,0 106.520144000000002,28.662099999999999,0 106.502762000000004,28.661321000000001,0 106.506641000000002,28.635342999999999,0 106.501338000000004,28.628734999999999,0 106.501092999999997,28.617898,0 106.494955000000004,28.615148000000001,0 106.494463999999994,28.599999,0 106.513318999999996,28.577045999999999,0 106.524710999999996,28.577826000000002,0 106.508802000000003,28.564889000000001,0 106.498784999999998,28.585874,0 106.473842000000005,28.598973000000001,0 106.466966999999997,28.586407999999999,0 106.478898999999998,28.574992000000002,0 106.488866999999999,28.557496,0 106.504726000000005,28.54468,0 106.501191000000006,28.534533,0 106.493384000000006,28.538312999999999,0 106.483857999999998,28.530588999999999,0 106.471632,28.532603000000002,0 106.466918000000007,28.541846,0 106.453072000000006,28.544720999999999,0 106.454053999999999,28.549773999999999,0 106.439470999999998,28.559426999999999,0 106.434020000000004,28.556674999999998,0 106.423218000000006,28.562671000000002,0 106.412955999999994,28.563123000000001,0 106.399108999999996,28.571173000000002,0 106.385704000000004,28.560822999999999,0 106.389829000000006,28.553266000000001,0 106.373576,28.537655999999998,0 106.378487000000007,28.533835,0 106.374313000000001,28.525618000000001,0 106.363902999999993,28.526892,0 106.349811000000003,28.540120999999999,0 106.342250000000007,28.532603000000002,0 106.338370999999995,28.546858,0 106.332037,28.553224,0 106.344802999999999,28.562014000000001,0 106.339303999999998,28.566368000000001,0 106.345196000000001,28.573021000000001,0 106.346620000000001,28.583780000000001,0 106.340187,28.598890000000001,0 106.332183999999998,28.603366000000001,0 106.324523999999997,28.616748999999999,0 106.329778000000005,28.634029999999999,0 106.310776000000004,28.639980999999999,0 106.304049000000006,28.649871999999998,0 106.311167999999995,28.660048,0 106.321087000000006,28.665465000000001,0 106.306160000000006,28.675763,0 106.307191000000003,28.687906999999999,0 106.303509000000005,28.709112999999999,0 106.287698000000006,28.732365999999999,0 106.273212999999998,28.739788000000001,0 106.267664999999994,28.779347999999999,0 106.252393999999995,28.785823000000001,0 106.244389999999996,28.814630999999999,0 106.254357999999996,28.819178999999998,0 106.246697999999995,28.826471999999999,0 106.260200999999995,28.833641,0 106.265062,28.846708,0 106.255585999999994,28.857398,0 106.253229000000005,28.865753000000002,0 106.242181000000002,28.868210000000001,0 106.228088999999997,28.881764,0 106.225584999999995,28.890567999999998,0 106.215371000000005,28.891714,0 106.206925999999996,28.904527999999999,0 106.191605999999993,28.908663000000001,0 106.173683999999994,28.920819999999999,0 106.162537999999998,28.908908,0 106.149182999999994,28.901948999999998,0 106.134354000000002,28.905059999999999,0 106.101259999999996,28.898961,0 106.087708000000006,28.904201,0 106.085645,28.910299999999999,0 106.070521999999997,28.919796999999999,0 106.062813000000006,28.918201,0 106.051912999999999,28.906862,0 106.042534000000003,28.910587,0 106.039490000000001,28.918651000000001,0 106.042338000000001,28.929538000000001,0 106.040030000000002,28.940465,0 106.047346000000005,28.943574999999999,0 106.043811000000005,28.954132999999999,0 106.036102,28.955729000000002,0 106.024169999999998,28.949714,0 106.017443,28.952905000000001,0 106.001535000000004,28.973607999999999,0 105.984103000000005,28.979008,0 105.974626999999998,28.973566999999999,0 105.985968999999997,28.970130999999999,0 105.988423999999995,28.964198,0 105.976100000000002,28.959166,0 105.971877000000006,28.965957,0 105.961566000000005,28.960107000000001,0 105.958079999999995,28.952496,0 105.934511000000001,28.933876000000001,0 105.920321000000001,28.930643,0 105.909763999999996,28.920452000000001,0 105.915606999999994,28.907475999999999,0 105.909566999999996,28.900189000000001,0 105.889337999999995,28.909523,0 105.888060999999993,28.926836999999999,0 105.875049000000004,28.933958000000001,0 105.852708000000007,28.927368999999999,0 105.844262000000001,28.93093,0 105.830513999999994,28.944271000000001,0 105.810579000000004,28.940874000000001,0 105.797567000000001,28.935922999999999,0 105.792705999999995,28.943453000000002,0 105.796339000000003,28.949632000000001,0 105.803852000000006,28.947586000000001,0 105.808859999999996,28.956547,0 105.801348000000004,28.958183999999999,0 105.788777999999994,28.977616999999999,0 105.779105000000001,28.979949000000001,0 105.761870000000002,28.992998,0 105.766239999999996,29.013365,0 105.754063000000002,29.02412,0 105.747630999999998,29.037898999999999,0 105.741788,29.039494000000001,0 105.757795000000002,29.069008,0 105.745028000000005,29.075465000000001,0 105.740854999999996,29.088625,0 105.729905000000002,29.098759000000001,0 105.729266999999993,29.107748000000001,0 105.735208,29.122413999999999,0 105.752099000000001,29.129767000000001,0 105.742868000000001,29.137568999999999,0 105.733194999999995,29.130993,0 105.728825000000001,29.134423999999999,0 105.729462999999996,29.152557999999999,0 105.719594000000001,29.172159000000001,0 105.705796000000007,29.174731999999999,0 105.704520000000002,29.202411000000001,0 105.711983000000004,29.218900999999999,0 105.705844999999997,29.223756999999999,0 105.708889999999997,29.238,0 105.693962999999997,29.267579000000001,0 105.695189999999997,29.287362000000002,0 105.715911000000006,29.290870000000002,0 105.705060000000003,29.299230000000001,0 105.689837999999995,29.291930000000001,0 105.678054000000003,29.273493999999999,0 105.665139999999994,29.276593999999999,0 105.664698000000001,29.269048000000002,0 105.671621999999999,29.260888999999999,0 105.666515000000004,29.252932999999999,0 105.647610999999998,29.253260000000001,0 105.63946,29.261582000000001,0 105.644075999999998,29.270965,0 105.631799999999998,29.280387999999999,0 105.619771,29.271740000000001,0 105.614172999999994,29.258358999999999,0 105.607985999999997,29.255748000000001,0 105.609508000000005,29.272760000000002,0 105.596005000000005,29.274473,0 105.583287999999996,29.270353,0 105.558295000000001,29.278469999999999,0 105.555840000000003,29.273575999999998,0 105.537869000000001,29.272881999999999,0 105.518424999999993,29.264437999999998,0 105.509389999999996,29.274677000000001,0 105.509145000000004,29.285404,0 105.488866000000002,29.278185000000001,0 105.459306999999995,29.290136,0 105.465395000000001,29.292379,0 105.466426999999996,29.305592000000001,0 105.474283,29.309996000000002,0 105.466082999999998,29.313421000000002,0 105.466476,29.321576,0 105.454690999999997,29.329077000000002,0 105.449290000000005,29.317498000000001,0 105.436572999999996,29.319496000000001,0 105.420074999999997,29.316967999999999,0 105.422972000000001,29.326509000000001,0 105.418602000000007,29.352312999999999,0 105.434804999999997,29.363113999999999,0 105.438586000000001,29.370816000000001,0 105.432203000000001,29.379659,0 105.443692999999996,29.386382000000001,0 105.443102999999994,29.399094000000002,0 105.431466,29.408179000000001,0 105.427293000000006,29.418852000000001,0 105.417030999999994,29.423373000000002,0 105.413544000000002,29.418566999999999,0 105.39631,29.422884,0 105.373281000000006,29.420766,0 105.371758999999997,29.423862,0 105.388796999999997,29.431885999999999,0 105.387471000000005,29.438361,0 105.399207000000004,29.438972,0 105.389533999999998,29.452818000000001,0 105.373821000000007,29.458273999999999,0 105.362037000000001,29.454691,0 105.360416999999998,29.444224999999999,0 105.345588000000006,29.448501,0 105.334147000000002,29.441416,0 105.324622000000005,29.450008,0 105.336111000000002,29.455545999999998,0 105.338025999999999,29.461856999999998,0 105.331299000000001,29.47175,0 105.321234000000004,29.475984,0 105.323246999999995,29.495156999999999,0 105.318877000000001,29.512412999999999,0 105.304686000000004,29.531254000000001,0 105.294325999999998,29.53398,0 105.289759000000004,29.552613000000001,0 105.298647000000003,29.572503000000001,0 105.317649000000003,29.578156,0 105.311314999999993,29.593364999999999,0 105.320644000000001,29.601782,0 105.320988,29.60971,0 105.329825999999997,29.604384,0 105.325653000000003,29.595927,0 105.335521999999997,29.595195,0 105.341611,29.602920000000001,0 105.346766000000002,29.620199,0 105.354376999999999,29.626702999999999,0 105.365965000000003,29.627516,0 105.369647999999998,29.621053,0 105.380793999999995,29.628247999999999,0 105.377553000000006,29.643287000000001,0 105.393167000000005,29.650724,0 105.383887000000001,29.669823000000001,0 105.389680999999996,29.676487000000002,0 105.400531999999998,29.671569999999999,0 105.420614999999998,29.688309,0 105.436376999999993,29.676974000000001,0 105.475657999999996,29.674699,0 105.482776999999999,29.679127000000001,0 105.481352999999999,29.692737000000001,0 105.474233999999996,29.697123999999999,0 105.473448000000005,29.707522999999998,0 105.482187999999994,29.718081999999999,0 105.490290000000002,29.720275000000001,0 105.499030000000005,29.709553,0 105.520094999999998,29.703582999999998,0 105.527951000000002,29.692412000000001,0 105.538850999999994,29.694890000000001,0 105.529619999999994,29.707604,0 105.550341000000003,29.722021999999999,0 105.542828999999998,29.726528999999999,0 105.549211999999997,29.737615000000002,0 105.557952,29.726651,0 105.565709999999996,29.724011999999998,0 105.564335,29.737818000000001,0 105.574940999999995,29.744477,0 105.576217999999997,29.757387999999999,0 105.572288999999998,29.768713000000002,0 105.587511000000006,29.784867999999999,0 105.580292999999998,29.790752999999999,0 105.588443999999996,29.823132999999999,0 105.604106999999999,29.816844,0 105.605874999999997,29.827878999999999,0 105.617659000000003,29.845728000000001,0 105.641473000000005,29.836843999999999,0 105.656204000000002,29.844389,0 105.661800999999997,29.840820000000001,0 105.677758999999995,29.854285999999998,0 105.690427999999997,29.852298000000001,0 105.695436000000001,29.843496999999999,0 105.708939000000001,29.840575999999999,0 105.720624999999998,29.849661999999999,0 105.719397000000001,29.856556999999999,0 105.733146000000005,29.860693000000001,0 105.735257000000004,29.871967000000001,0 105.734030000000004,29.893578000000002,0 105.717433,29.893578000000002,0 105.711639000000005,29.899497,0 105.715027000000006,29.911171,0 105.702506999999997,29.923939000000001,0 105.714978000000002,29.930747,0 105.721115999999995,29.950562999999999,0 105.731033999999994,29.95664,0 105.723326,29.976005000000001,0 105.732507999999996,29.998767999999998,0 105.748760000000004,30.005894999999999,0 105.75367,30.018609999999999,0 105.743358999999998,30.027113,0 105.742033000000006,30.03359,0 105.728038999999995,30.027194000000001,0 105.721311999999998,30.042051000000001,0 105.705354,30.035775999999998,0 105.699413000000007,30.043144000000002,0 105.686989999999994,30.038975000000001,0 105.683454999999995,30.052859000000002,0 105.676727999999997,30.056056999999999,0 105.674616999999998,30.071273999999999,0 105.660476000000003,30.066296000000001,0 105.649231,30.074591999999999,0 105.639263999999997,30.076412999999999,0 105.637495999999999,30.093691,0 105.640834999999996,30.101337999999998,0 105.619720999999998,30.104129,0 105.606758999999997,30.109711999999998,0 105.598067999999998,30.109227000000001,0 105.583140999999998,30.123950000000001,0 105.574155000000005,30.130421999999999,0 105.569981999999996,30.134304,0 105.593207000000007,30.144738,0 105.59684,30.157112000000001,0 105.582159000000004,30.162973999999998,0 105.571405999999996,30.161559,0 105.558197000000007,30.151976999999999,0 105.556085999999993,30.144779,0 105.549605,30.151734000000001,0 105.536151000000004,30.152906999999999,0 105.536445000000001,30.164833999999999,0 105.546903999999998,30.180721999999999,0 105.567036000000002,30.183188000000001,0 105.579899999999995,30.173445999999998,0 105.595122000000003,30.183672999999999,0 105.607888000000003,30.178297000000001,0 105.618052000000006,30.185694000000002,0 105.632831999999993,30.183754,0 105.642405999999994,30.186422,0 105.645549000000003,30.206873000000002,0 105.662341999999995,30.210066000000001,0 105.655417999999997,30.220815000000002,0 105.636268999999999,30.219723999999999,0 105.618739000000005,30.23536,0 105.620360000000005,30.248933999999998,0 105.610589000000004,30.255882,0 105.620163000000005,30.261779000000001,0 105.622668000000004,30.273855999999999,0 105.645745000000005,30.273371000000001,0 105.660672000000005,30.264323999999998,0 105.667203000000001,30.265696999999999,0 105.673339999999996,30.252772,0 105.701475000000002,30.257861999999999,0 105.723866000000001,30.254750999999999,0 105.720968999999997,30.263193000000001,0 105.735158999999996,30.261537000000001,0 105.730102000000002,30.265817999999999,0 105.734962999999993,30.277045999999999,0 105.722982000000002,30.275552000000001,0 105.711787000000001,30.282254999999999,0 105.711000999999996,30.294208000000001,0 105.718611999999993,30.307732999999999,0 105.711737999999997,30.315847999999999,0 105.714831000000004,30.322790999999999,0 105.729905000000002,30.316897000000001,0 105.741493000000006,30.319158000000002,0 105.735011999999998,30.336676000000001,0 105.749840000000006,30.339703,0 105.756224000000003,30.347087999999999,0 105.751853999999994,30.357136000000001,0 105.770021,30.376180000000002,0 105.760299000000003,30.384571000000001,0 105.770707999999999,30.404053999999999,0 105.782786999999999,30.403085999999998,0 105.795456000000001,30.418491,0 105.792312999999993,30.427282000000002,0 105.802182999999999,30.427927,0 105.820154000000002,30.437524,0 105.831102999999999,30.429016000000001,0 105.836945999999998,30.41583,0 105.846127999999993,30.411152000000001,0 105.839106999999998,30.399698000000001,0 105.846226999999999,30.392437000000001,0 105.862331999999995,30.406352999999999,0 105.873772000000002,30.408691999999999,0 105.869107999999997,30.401513000000001,0 105.877601999999996,30.386669000000001,0 105.886784000000006,30.392638999999999,0 105.876521999999994,30.399536000000001,0 105.905296000000007,30.406433,0 105.905983000000006,30.397036,0 105.899011000000002,30.396027,0 105.901515000000003,30.386346,0 105.917030999999994,30.395987000000002,0 105.925574999999995,30.385338000000001,0 105.939567999999994,30.380537,0 105.940894,30.372267000000001,0 105.970257000000004,30.378882999999998,0 105.978260000000006,30.373477000000001,0 105.992008999999996,30.369160000000001,0 106.002222000000003,30.376906000000002,0 106.013810000000007,30.372347000000001,0 106.030896999999996,30.374244000000001,0 106.033744999999996,30.361816999999999,0 106.061046000000005,30.342002999999998,0 106.070768000000001,30.341196,0 106.073516999999995,30.334133000000001,0 106.079311000000004,30.344344,0 106.088590999999994,30.345958,0 106.091047000000003,30.336836999999999,0 106.088346000000001,30.323153999999999,0 106.098018999999994,30.323557999999998,0 106.106071999999998,30.310760999999999,0 106.114812000000001,30.317340999999999,0 106.122864000000007,30.313707999999998,0 106.122324000000006,30.306805000000001,0 106.131800999999996,30.301798999999999,0 106.134403000000006,30.308622,0 106.124827999999994,30.317907000000002,0 106.124092000000005,30.324769,0 106.132684999999995,30.323678999999998,0 106.137152999999998,30.315685999999999,0 106.149428,30.309469,0 106.156498999999997,30.313668,0 106.169068999999993,30.304099999999998,0 106.179822000000001,30.278661,0 106.178447000000006,30.256892000000001,0 106.170541999999998,30.250591,0 106.178251000000003,30.248611,0 106.180362000000002,30.232855000000001,0 106.201082999999997,30.228411000000001,0 106.192538999999996,30.215399999999999,0 106.201819,30.213137,0 106.204470999999998,30.205701000000001,0 106.212524000000002,30.203115,0 106.232213000000002,30.212530999999998,0 106.240314999999995,30.200164000000001,0 106.232703999999998,30.186139000000001,0 106.240314999999995,30.18533,0 106.241788,30.177731000000001,0 106.249741999999998,30.189736,0 106.245913000000002,30.196527,0 106.254357999999996,30.198426000000001,0 106.264424000000005,30.193536000000002,0 106.271739999999994,30.204004000000001,0 106.261920000000003,30.213784,0 106.279792999999998,30.207923999999998,0 106.278467000000006,30.195717999999999,0 106.284310000000005,30.201982999999998,0 106.296683999999999,30.205134999999999,0 106.292705999999995,30.220209000000001,0 106.305815999999993,30.225704,0 106.300562999999997,30.238551999999999,0 106.309793999999997,30.237300000000001,0 106.318680999999998,30.229137999999999,0 106.335031999999998,30.226391,0 106.336798999999999,30.237905999999999,0 106.343968000000004,30.237219,0 106.349320000000006,30.245258,0 106.359632000000005,30.241218,0 106.372545000000002,30.248166999999999,0 106.390221999999994,30.243683000000001,0 106.383101999999994,30.254711,0 106.397390999999999,30.249662000000001,0 106.401319000000001,30.242673,0 106.410794999999993,30.243359999999999,0 106.416786000000002,30.253418,0 106.427834000000004,30.253782000000001,0 106.429405000000003,30.261174,0 106.422138000000004,30.262466,0 106.407996999999995,30.276116999999999,0 106.418210000000002,30.278783000000001,0 106.434708000000001,30.277045999999999,0 106.428618999999998,30.291543000000001,0 106.435689999999994,30.295176999999999,0 106.441877000000005,30.289484000000002,0 106.444773999999995,30.295701999999999,0 106.436475000000002,30.303574999999999,0 106.441041999999996,30.308945000000001,0 106.451499999999996,30.308136999999999,0 106.448260000000005,30.299617999999999,0 106.458963999999995,30.302282999999999,0 106.472122999999996,30.300021999999998,0 106.476149000000007,30.306965999999999,0 106.481845000000007,30.298407000000001,0 106.498000000000005,30.296025,0 106.499865,30.288917999999999,0 106.509390999999994,30.289363000000002,0 106.521372,30.300305000000002,0 106.544842000000003,30.296752000000001,0 106.547051999999994,30.310358000000001,0 106.56026,30.315162000000001,0 106.571602999999996,30.306239999999999,0 106.586382,30.302969000000001,0 106.590507000000002,30.294248,0 106.611669000000006,30.292431000000001,0 106.623061000000007,30.281609,0 106.627578,30.265899000000001,0 106.634844999999999,30.265696999999999,0 106.642652999999996,30.249863000000001,0 106.633028999999993,30.24643,0 106.621685999999997,30.236491999999998,0 106.609803999999997,30.235320000000002,0 106.611473000000004,30.228047,0 106.619133000000005,30.229664,0 106.632733999999999,30.216208000000002,0 106.624436000000003,30.211317999999999,0 106.626988999999995,30.197780000000002,0 106.633617999999998,30.199679,0 106.63185,30.186543,0 106.646973000000003,30.189494,0 106.639264999999995,30.180156,0 106.649527000000006,30.176922000000001,0 106.653994999999995,30.169726000000001,0 106.662194999999997,30.170171,0 106.665779000000001,30.158971999999999,0 106.677612999999994,30.157395000000001,0 106.67501,30.147165000000001,0 106.673880999999994,30.122129999999999,0 106.688856999999999,30.124030999999999,0 106.689643000000004,30.117802000000001,0 106.703194999999994,30.118126,0 106.698725999999994,30.098707999999998,0 106.698824999999999,30.076535,0 106.725830000000002,30.057068000000001,0 106.726076000000006,30.034319,0 106.732410000000002,30.026828999999999,0 106.742131999999998,30.025938,0 106.759416000000002,30.018892999999998,0 106.764228000000003,30.024602000000002,0 106.768597999999997,30.017274,0 106.785587000000007,30.017233000000001,0 106.797764000000001,30.023145,0 106.799974000000006,30.030553999999999,0 106.812494999999998,30.028974999999999,0 106.830171000000007,30.033954999999999,0 106.836995999999999,30.049741999999998,0 106.842054000000005,30.049135,0 106.861448999999993,30.028165000000001,0 106.884330000000006,30.034400000000002,0 106.913594000000003,30.025573999999999,0 106.914871000000005,30.033954999999999,0 106.941877000000005,30.042739000000001,0 106.948604000000003,30.040149,0 106.956755000000001,30.060590000000001,0 106.954888999999994,30.066094,0 106.966476999999998,30.079893999999999,0 106.985332,30.084060999999998,0 106.998294999999999,30.059456000000001,0 107.005315999999993,30.052495,0 107.014351000000005,30.051604000000001,0 107.020635999999996,30.036829000000001,0 107.042681999999999,30.035007,0 107.037820999999994,30.047273000000001,0 107.042485999999997,30.055084999999998,0 107.050588000000005,30.053426000000002,0 107.053779000000006,30.043751,0 107.058395000000004,30.043063,0 107.075286000000006,30.051117999999999,0 107.084517000000005,30.063867999999999,0 107.073910999999995,30.080985999999999,0 107.080146999999997,30.094176999999998,0 107.093796999999995,30.095390999999999,0 107.103076999999999,30.090131,0 107.111031999999994,30.104251000000001,0 107.106562999999994,30.113838000000001,0 107.131309999999999,30.121524000000001,0 107.136465999999999,30.134426000000001,0 107.168480000000002,30.160305999999999,0 107.187335000000004,30.181248,0 107.221068000000002,30.213743000000001,0 107.228335000000001,30.223804999999999,0 107.239431999999994,30.237582,0 107.255978999999996,30.263798999999999,0 107.264865999999998,30.289766,0 107.277535,30.311246000000001,0 107.288779000000005,30.337564,0 107.304197000000002,30.354593999999999,0 107.318780000000004,30.364277999999999,0 107.339010000000002,30.387072,0 107.342839999999995,30.401674,0 107.341367000000005,30.412120000000002,0 107.34554,30.425508000000001,0 107.360024999999993,30.45627,0 107.381236999999999,30.485329,0 107.388847999999996,30.49089,0 107.404854999999998,30.516112,0 107.408733999999995,30.521550999999999,0 107.419928999999996,30.516475,0 107.433824999999999,30.523565000000001,0 107.442858999999999,30.535287,0 107.427539999999993,30.547611,0 107.460240999999996,30.571328999999999,0 107.467410000000001,30.586304999999999,0 107.485332,30.598341000000001,0 107.493728000000004,30.618988000000002,0 107.515431000000007,30.642045,0 107.516806000000003,30.647838,0 107.499178999999998,30.660148,0 107.477427000000006,30.664774000000001,0 107.469718,30.677603999999999,0 107.456558999999999,30.682711999999999,0 107.460928999999993,30.687498000000001,0 107.458620999999994,30.704788000000001,0 107.437065000000004,30.721031,0 107.425674000000001,30.746756000000001,0 107.439029000000005,30.747077000000001,0 107.44502,30.752503000000001,0 107.439570000000003,30.759775999999999,0 107.446837000000002,30.770102999999999,0 107.44556,30.778179000000002,0 107.453809000000007,30.77167,0 107.466379000000003,30.774041,0 107.460339000000005,30.784165000000002,0 107.47345,30.785772000000001,0 107.477770000000007,30.799792,0 107.493778000000006,30.803688000000001,0 107.490193000000005,30.810756999999999,0 107.498981999999998,30.810756999999999,0 107.489997000000002,30.821117999999998,0 107.492108000000002,30.833165000000001,0 107.482926000000006,30.838304999999998,0 107.514792999999997,30.854925999999999,0 107.523287999999994,30.848222,0 107.526625999999993,30.839428999999999,0 107.535465000000002,30.847660000000001,0 107.556528999999998,30.846295000000001,0 107.560654,30.849868000000001,0 107.577594000000005,30.848140999999998,0 107.584074999999999,30.840472999999999,0 107.598265999999995,30.844729000000001,0 107.614665000000002,30.839148000000002,0 107.616138000000007,30.828588,0 107.633765999999994,30.817785000000001,0 107.647464999999997,30.823246999999999,0 107.670445000000001,30.851996,0 107.691951000000003,30.874756000000001,0 107.704127999999997,30.872226999999999,0 107.715863999999996,30.887839,0 107.737713999999997,30.884989999999998,0 107.749547000000007,30.873470999999999,0 107.750038000000004,30.864801,0 107.760349000000005,30.862272000000001,0 107.752787999999995,30.850750999999999,0 107.757452000000001,30.840232,0 107.755341000000001,30.829550999999999,0 107.763835999999998,30.817101999999998,0 107.775374999999997,30.814852999999999,0 107.783721999999997,30.819310999999999,0 107.799188999999998,30.814934000000001,0 107.817749000000006,30.798024000000002,0 107.831399000000005,30.798425999999999,0 107.849861000000004,30.792601000000001,0 107.876131000000001,30.813286999999999,0 107.896507999999997,30.834931999999998,0 107.929503999999994,30.859342000000002,0 107.954201999999995,30.872427999999999,0 107.955969999999994,30.882982999999999,0 107.986953,30.901924000000001,0 107.994710999999995,30.908664999999999,0 107.982434999999995,30.913239000000001,0 107.971535000000003,30.911794,0 107.957345000000004,30.919858000000001,0 107.948261000000002,30.919056000000001,0 107.938734999999994,30.940035000000002,0 107.936329000000001,30.952749000000001,0 107.937409000000002,30.968668999999998,0 107.943546999999995,30.989436999999999,0 107.971535000000003,30.982420999999999,0 107.983123000000006,30.984224999999999,0 107.995889000000005,31.004308000000002,0 108.003794999999997,31.025389000000001,0 108.011061999999995,31.023665999999999,0 108.033598999999995,31.036128000000001,0 108.043321000000006,31.035406999999999,0 108.053289000000007,31.040735999999999,0 108.059869000000006,31.053196,0 108.050245000000004,31.059965999999999,0 108.028983999999994,31.061727999999999,0 108.024711999999994,31.089244000000001,0 108.013859999999994,31.098735000000001,0 108.009293999999997,31.108785000000001,0 108.014743999999993,31.115271,0 108.025743000000006,31.116351000000002,0 108.035318000000004,31.128962000000001,0 108.036299999999997,31.139928999999999,0 108.045629000000005,31.145893000000001,0 108.056628000000003,31.145651999999998,0 108.055252999999993,31.156658,0 108.069443000000007,31.169383,0 108.070278000000002,31.177785,0 108.085695999999999,31.188106999999999,0 108.089918999999995,31.201867,0 108.080736999999999,31.218945000000001,0 108.071112999999997,31.218344999999999,0 108.076267999999999,31.231822000000001,0 108.040081000000001,31.218624999999999,0 108.027902999999995,31.221983999999999,0 108.031634999999994,31.236820000000002,0 108.021422000000001,31.245736000000001,0 108.040865999999994,31.253610999999999,0 108.059967,31.254971000000001,0 108.066399000000004,31.261766000000001,0 108.080589000000003,31.261445999999999,0 108.092374000000007,31.265764000000001,0 108.094485000000006,31.275036,0 108.111915999999994,31.286586,0 108.146533000000005,31.302769999999999,0 108.161410000000004,31.313756999999999,0 108.162834000000004,31.319710000000001,0 108.180462000000006,31.325782,0 108.185518999999999,31.338004999999999,0 108.180609000000004,31.349226999999999,0 108.171182000000002,31.356974999999998,0 108.158906000000002,31.360289000000002,0 108.154143000000005,31.370750000000001,0 108.157826,31.376659,0 108.175257000000002,31.382608000000001,0 108.182867999999999,31.393027,0 108.203391999999994,31.395382000000001,0 108.216306000000003,31.411187999999999,0 108.216550999999995,31.427030999999999,0 108.210560999999998,31.435769000000001,0 108.225586000000007,31.453004,0 108.223130999999995,31.465170000000001,0 108.210806000000005,31.467883,0 108.206828999999999,31.464293000000001,0 108.193325999999999,31.468202000000002,0 108.190477999999999,31.491492000000001,0 108.218417000000002,31.496196999999999,0 108.226764000000003,31.505845999999998,0 108.236682999999999,31.506364999999999,0 108.254801,31.498829000000001,0 108.259563999999997,31.502497000000002,0 108.276994999999999,31.501180999999999,0 108.281709000000006,31.507282,0 108.295997999999997,31.503494,0 108.311414999999997,31.506684,0 108.323297999999994,31.502378,0 108.345344999999995,31.514935999999999,0 108.346571999999995,31.525141000000001,0 108.339060000000003,31.537896,0 108.347603000000007,31.545189000000001,0 108.381139000000005,31.542598999999999,0 108.388651999999993,31.546385000000001,0 108.391795000000002,31.560452000000002,0 108.377948000000004,31.570412999999999,0 108.393611000000007,31.576349,0 108.388356999999999,31.586905999999999,0 108.402646000000004,31.603874000000001,0 108.417916000000005,31.610087,0 108.423072000000005,31.621276999999999,0 108.442663999999994,31.633700000000001,0 108.456461000000004,31.628882000000001,0 108.465249999999997,31.618369999999999,0 108.468785999999994,31.636168999999999,0 108.486168000000006,31.639870999999999,0 108.494563999999997,31.649545,0 108.506692000000001,31.657306999999999,0 108.513272000000001,31.656192999999998,0 108.519065999999995,31.665706,0 108.532814000000002,31.669129000000002,0 108.546464,31.666701,0 108.542831000000007,31.673625999999999,0 108.532224999999997,31.677168000000002,0 108.514793999999995,31.694120000000002,0 108.524760999999998,31.699729999999999,0 108.518673000000007,31.726184,0 108.506102999999996,31.734815000000001,0 108.535269,31.757681000000002,0 108.515726999999998,31.761099999999999,0 108.489260999999999,31.774736999999998,0 108.488574,31.780301999999999,0 108.478212999999997,31.777916999999999,0 108.456314000000006,31.783999000000001,0 108.454398999999995,31.791074999999999,0 108.464072000000002,31.803674000000001,0 108.462501000000003,31.812813999999999,0 108.455134999999999,31.813927,0 108.441435999999996,31.807607999999998,0 108.394740999999996,31.826523000000002,0 108.384135000000001,31.848610999999998,0 108.386196999999996,31.853894,0 108.370778999999999,31.852741999999999,0 108.353740999999999,31.856396,0 108.340974000000003,31.863545999999999,0 108.335229999999996,31.876452,0 108.326244000000003,31.881615,0 108.308419999999998,31.905953,0 108.299484000000007,31.911272,0 108.289516000000006,31.910955000000001,0 108.282691,31.917742000000001,0 108.286029999999997,31.938856000000001,0 108.275817000000004,31.957625,0 108.259367999999995,31.966868999999999,0 108.267174999999995,31.973096999999999,0 108.265849000000003,31.983727999999999,0 108.282150999999999,31.979206000000001,0 108.283918999999997,31.986068,0 108.297175999999993,31.988527000000001,0 108.307094000000006,31.997252,0 108.325900000000004,31.984957000000001,0 108.337487999999993,31.981705000000002,0 108.350499999999997,31.971947,0 108.367146000000005,31.984521000000001,0 108.369501999999997,31.989875999999999,0 108.361401000000001,31.998085,0 108.338470000000001,32.009506000000002,0 108.329189999999997,32.019260000000003,0 108.340091000000001,32.023105999999999,0 108.362874000000005,32.036783,0 108.364298000000005,32.047248000000003,0 108.359780000000001,32.053747999999999,0 108.344803999999996,32.060526000000003,0 108.344607999999994,32.068252999999999,0 108.362825000000001,32.070036999999999,0 108.373773999999997,32.077168999999998,0 108.395183000000003,32.066310999999999,0 108.412711999999999,32.070115999999999,0 108.429995000000005,32.061357999999998,0 108.449439999999996,32.072969000000001,0 108.452090999999996,32.091036000000003,0 108.439276000000007,32.094721,0 108.431616000000005,32.101692999999997,0 108.423464999999993,32.117339000000001,0 108.414872000000003,32.126368999999997,0 108.406622999999996,32.141337,0 108.390861999999998,32.151314999999997,0 108.388210000000001,32.157530999999999,0 108.369404000000003,32.173324999999998,0 108.379175000000004,32.177520999999999,0 108.399159999999995,32.194063999999997,0 108.406378000000004,32.196201000000002,0 108.425281999999996,32.187415999999999,0 108.434021999999999,32.192084999999999,0 108.457295999999999,32.181479000000003,0 108.479342000000003,32.182073000000003,0 108.492943999999994,32.194935000000001,0 108.509736000000004,32.201186999999997,0 108.551030999999995,32.176096000000001,0 108.583978000000002,32.172217000000003,0 108.592178000000004,32.160223000000002,0 108.606024000000005,32.155155000000001,0 108.646974999999998,32.128666000000003,0 108.654044999999996,32.117418000000001,0 108.666910000000001,32.111913000000001,0 108.674717000000001,32.103395999999996,0 108.714832999999999,32.103712999999999,0 108.726421000000002,32.106802999999999,0 108.747731000000002,32.099831000000002,0 108.752543000000003,32.087589999999999,0 108.751707999999994,32.074157999999997,0 108.767961,32.065519000000002,0 108.776258999999996,32.055095999999999,0 108.788681999999994,32.048318000000002,0 108.810580999999999,32.047168999999997,0 108.837880999999996,32.038805000000004,0 108.873529000000005,32.000227000000002,0 108.902400999999998,31.984918,0 108.918310000000005,31.988249,0 108.937116000000003,31.988924000000001,0 108.952730000000003,31.979682,0 108.968294999999998,31.982538000000002,0 108.978212999999997,31.978135000000002,0 108.988427000000001,31.979403999999999,0 109.020882999999998,31.963218999999999,0 109.035122000000001,31.958061000000001,0 109.039344999999997,31.960719999999998,0 109.059820000000002,31.941355999999999,0 109.069935000000001,31.938936000000002,0 109.114225000000005,31.905556000000001,0 109.124584999999996,31.892137000000002,0 109.131900999999999,31.891342999999999,0 109.167008999999993,31.875340000000001,0 109.190921000000003,31.855681000000001,0 109.199562999999998,31.842493999999999,0 109.191854000000006,31.827953000000001,0 109.196224000000001,31.817543000000001,0 109.213605999999999,31.817502999999999,0 109.232363000000007,31.809436000000002,0 109.239874999999998,31.811304,0 109.255292999999995,31.803038000000001,0 109.274834999999996,31.800454999999999,0 109.274786000000006,31.791074999999999,0 109.281267999999997,31.777916999999999,0 109.263688999999999,31.773544000000001,0 109.254655,31.766905000000001,0 109.256176999999994,31.758635000000002,0 109.271299999999997,31.756606999999999,0 109.270759999999996,31.749290999999999,0 109.283085,31.739626999999999,0 109.279499999999999,31.723479000000001,0 109.281610999999998,31.716875999999999,0 109.302037999999996,31.71067,0 109.3232,31.708880000000001,0 109.361254000000002,31.708642000000001,0 109.389487000000003,31.705100999999999,0 109.411631999999997,31.708244000000001,0 109.420274000000006,31.720655000000001,0 109.425871999999998,31.718786000000001,0 109.446200000000005,31.722882999999999,0 109.456559999999996,31.722007999999999,0 109.459703000000005,31.715205000000001,0 109.472713999999996,31.714649000000001,0 109.477134000000007,31.720217999999999,0 109.491028999999997,31.720973000000001,0 109.501095000000007,31.717155000000002,0 109.549755000000005,31.730001999999999,0 109.572096000000002,31.726343,0 109.580393999999998,31.72869,0 109.606172000000001,31.714687999999999,0 109.617024000000001,31.711584999999999,0 109.644913000000003,31.720853999999999,0 109.659004999999993,31.716956,0 109.683015999999995,31.71978,0 109.693376000000001,31.716557999999999,0 109.696027999999998,31.707090000000001,0 109.709530999999998,31.701122000000002,0 109.731086000000005,31.700445999999999,0 109.728091000000006,31.688828000000001,0 109.731871999999996,31.673148000000001,0 109.740611999999999,31.663636,0 109.740415999999996,31.635173000000002,0 109.737420999999998,31.628682999999999,0 109.764229999999998,31.602997999999999,0 109.745326000000006,31.596426000000001,0 109.746405999999993,31.577981999999999,0 109.727502000000001,31.570730999999999,0 109.718908999999996,31.556985000000001,0 109.735309000000001,31.546106000000002,0 109.760204000000002,31.547181999999999,0 109.765456999999998,31.549652999999999,0 109.788584,31.550450000000001,0 109.801006999999998,31.541443000000001,0 109.822070999999994,31.553757000000001,0 109.837980000000002,31.555271999999999,0 109.860174000000001,31.543555000000001,0 109.869208999999998,31.530124000000001,0 109.878193999999993,31.528848,0 109.894593999999998,31.519162000000001,0 109.923858999999993,31.521474000000001,0 109.934906999999995,31.517727000000001,0 109.945267000000001,31.506684,0 109.965594999999993,31.50788,0 109.982290000000006,31.512504,0 109.961322999999993,31.499268000000001,0 109.957248000000007,31.490773999999998,0 109.942173999999994,31.483238,0 109.942909999999998,31.475341,0 109.954744000000005,31.468401,0 109.967903000000007,31.474304,0 109.987789000000006,31.474663,0 109.996381999999997,31.469359000000001,0 110.003648999999996,31.453641999999999,0 110.020686999999995,31.442073000000001,0 110.033501999999999,31.439679000000002,0 110.034484000000006,31.430821999999999,0 110.049411000000006,31.418769999999999,0 110.053978000000001,31.410909,0 110.089772999999994,31.408674000000001,0 110.100083999999995,31.411268,0 110.108823999999998,31.408314000000001,0 110.115157999999994,31.412265000000001,0 110.118889999999993,31.400651,0 110.127384000000006,31.393386,0 110.140004000000005,31.390471999999999,0 110.145307000000003,31.381330999999999,0 110.140052999999995,31.368314999999999,0 110.149479999999997,31.354299000000001,0 110.147319999999993,31.347829999999998,0 110.157974999999993,31.333490999999999,0 110.151739000000006,31.317872000000001,0 110.159644,31.315355,0 110.163965000000005,31.30321,0 110.156158000000005,31.277315000000002,0 110.162442999999996,31.251932,0 110.171428000000006,31.250572999999999,0 110.174865999999994,31.243497000000001,0 110.169612000000001,31.227943,0 110.178008000000005,31.204867,0 110.176535000000001,31.198067000000002,0 110.180217999999996,31.179584999999999,0 110.186403999999996,31.169582999999999,0 110.196911999999998,31.163581000000001,0 110.198875999999998,31.156538000000001,0 110.186895000000007,31.145332,0 110.189400000000006,31.129481999999999,0 110.180217999999996,31.121676000000001,0 110.161264000000003,31.116111,0 110.146927000000005,31.116911999999999,0 110.145847000000003,31.108143999999999,0 110.135436999999996,31.106262000000001,0 110.128709999999998,31.095130999999999,0 110.120116999999993,31.088844000000002,0 110.122130999999996,31.072904000000001,0 110.133080000000007,31.059805999999998,0 110.126648000000003,31.054677999999999,0 110.120853999999994,31.032001000000001,0 110.140151000000003,31.030638,0 110.140985999999998,31.005030000000001,0 110.136075000000005,30.986751000000002,0 110.163572000000002,30.991641000000001,0 110.172165000000007,30.98659,0 110.173244999999994,30.979894999999999,0 110.161657000000005,30.968308,0 110.163769000000002,30.961371,0 110.153898999999996,30.953831999999998,0 110.145600999999999,30.922145,0 110.151837,30.912316000000001,0 110.144323999999997,30.897228999999999,0 110.124094999999997,30.868133,0 110.115306000000004,30.845492,0 110.095811999999995,30.829872999999999,0 110.095860999999999,30.821560000000002,0 110.089527000000004,30.816058000000002,0 110.082308999999995,30.799590999999999,0 110.052995999999993,30.799590999999999,0 110.042488000000006,30.806660000000001,0 110.039197999999999,30.820516000000001,0 110.031980000000004,30.820475999999999,0 110.019606999999993,30.829592000000002,0 110.017937000000003,30.855328,0 110.005024000000006,30.870380999999998,0 110.008215000000007,30.883585,0 109.995056000000005,30.887839,0 109.975955999999996,30.888681999999999,0 109.958376999999999,30.877445000000002,0 109.943696000000003,30.878969999999999,0 109.940897000000007,30.889685,0 109.932304000000002,30.887678999999999,0 109.905642,30.899797,0 109.894544999999994,30.899797,0 109.878243999999995,30.889163,0 109.856099,30.880254000000001,0 109.819419999999994,30.860225,0 109.797618999999997,30.855609000000001,0 109.780777,30.848583000000001,0 109.759073999999998,30.832803999999999,0 109.729613000000001,30.815376000000001,0 109.716600999999997,30.801680000000001,0 109.718124000000003,30.778661,0 109.702657000000002,30.770264000000001,0 109.702117000000001,30.783643000000001,0 109.692149000000001,30.778901999999999,0 109.685372999999998,30.768657000000001,0 109.659153000000003,30.761987000000001,0 109.656698000000006,30.760459999999998,0 109.660773000000006,30.737269999999999,0 109.649038000000004,30.71894,0 109.625420000000005,30.702656999999999,0 109.602243999999999,30.698837999999999,0 109.590655999999996,30.693408999999999,0 109.581621999999996,30.670846999999998,0 109.588004999999995,30.664693,0 109.577104000000006,30.655321000000001,0 109.574109000000007,30.646871999999998,0 109.562865000000002,30.646751999999999,0 109.538756000000006,30.638424000000001,0 109.533698000000001,30.641562,0 109.541407000000007,30.65166,0 109.537920999999997,30.663969000000002,0 109.528739000000002,30.663929,0 109.514696000000001,30.655401000000001,0 109.493336999999997,30.637176,0 109.482780000000005,30.623173000000001,0 109.465889000000004,30.619510999999999,0 109.456511000000006,30.613797000000002,0 109.449342000000001,30.603735,0 109.437852000000007,30.598058999999999,0 109.428032000000002,30.576160000000002,0 109.418114000000003,30.560013999999999,0 109.393808000000007,30.531137999999999,0 109.380846000000005,30.518287999999998,0 109.368668,30.500278999999999,0 109.352072000000007,30.487183000000002,0 109.342841000000007,30.494717999999999,0 109.341564000000005,30.512727999999999,0 109.337145000000007,30.520826,0 109.342252000000002,30.529567,0 109.361058,30.550993999999999,0 109.361155999999994,30.554739000000001,0 109.344264999999993,30.577126,0 109.314509000000001,30.599789999999999,0 109.323299000000006,30.604137000000001,0 109.328159999999997,30.616091000000001,0 109.313576999999995,30.610174000000001,0 109.299533999999994,30.630576999999999,0 109.278813,30.610174000000001,0 109.251169000000004,30.592907,0 109.227551000000005,30.585661000000002,0 109.227845000000002,30.580870000000001,0 109.247731000000002,30.583205,0 109.222787999999994,30.569597000000002,0 109.192786999999996,30.546282000000001,0 109.171329999999998,30.547007000000001,0 109.164799000000002,30.538187000000001,0 109.150609000000003,30.527391999999999,0 109.141181000000003,30.525096000000001,0 109.139463000000006,30.534562000000001,0 109.124388999999994,30.531701999999999,0 109.124830000000003,30.538912,0 109.113488000000004,30.548658,0 109.103667999999999,30.565812000000001,0 109.092865000000003,30.578737,0 109.083584999999999,30.598261000000001,0 109.093159999999997,30.609006999999998,0 109.105925999999997,30.610738000000001,0 109.112505999999996,30.61271,0 109.121736999999996,30.628726,0 109.120951000000005,30.635767999999999,0 109.111917000000005,30.646108000000002,0 109.096646000000007,30.638745,0 109.088053000000002,30.646630999999999,0 109.070181000000005,30.640274000000002,0 109.049165000000002,30.645544999999998,0 109.045727999999997,30.653189000000001,0 109.021766,30.642365999999999,0 109.009737000000001,30.627237999999998,0 108.999229,30.632065999999998,0 108.987493999999998,30.623294000000001,0 108.978016999999994,30.629812999999999,0 108.967509000000007,30.624822999999999,0 108.943842000000004,30.601842999999999,0 108.919488000000001,30.589365000000001,0 108.909520000000001,30.581272999999999,0 108.894643000000002,30.567019999999999,0 108.893120999999994,30.557798999999999,0 108.871662999999998,30.532748999999999,0 108.854428999999996,30.521913000000001,0 108.853004999999996,30.514983999999998,0 108.839010999999999,30.50318,0 108.806948000000006,30.491413999999999,0 108.799239,30.50592,0 108.788533999999999,30.512930000000001,0 108.772919999999999,30.503502000000001,0 108.761528999999996,30.505315,0 108.744196000000002,30.494799,0 108.723966000000004,30.507572,0 108.726175999999995,30.515547999999999,0 108.711887000000004,30.523202999999999,0 108.715815000000006,30.530373000000001,0 108.711591999999996,30.537863999999999,0 108.699415000000002,30.544388999999999,0 108.700004000000007,30.561786000000001,0 108.690478999999996,30.586708000000002,0 108.666223000000002,30.5886,0 108.654487000000003,30.585017000000001,0 108.639904000000001,30.574750999999999,0 108.643439999999998,30.562027,0 108.649725000000004,30.554214999999999,0 108.649332000000001,30.537824000000001,0 108.628611000000006,30.525175999999998,0 108.620115999999996,30.522880000000001,0 108.621736999999996,30.515467999999998,0 108.604551000000001,30.510795000000002,0 108.611376000000007,30.502172999999999,0 108.598561000000004,30.493872,0 108.590605999999994,30.494717999999999,0 108.591245000000001,30.487787000000001,0 108.581719000000007,30.485893000000001,0 108.569935000000001,30.470417999999999,0 108.564926,30.468564000000001,0 108.557069999999996,30.486014000000001,0 108.542929000000001,30.491978,0 108.528296999999995,30.487504999999999,0 108.513124000000005,30.501407,0 108.491765000000001,30.501487999999998,0 108.479146,30.488956000000002,0 108.455085999999994,30.489318999999998,0 108.452680000000001,30.495968000000001,0 108.440994000000003,30.491011,0 108.424053999999998,30.488956000000002,0 108.414332000000002,30.475818,0 108.421205999999998,30.464372000000001,0 108.421796000000001,30.448851999999999,0 108.411778999999996,30.436919,0 108.421205999999998,30.429500000000001,0 108.430486000000002,30.415628000000002,0 108.421696999999995,30.410547000000001,0 108.425331,30.399052000000001,0 108.420912000000001,30.394131000000002,0 108.399454000000006,30.389412,0 108.403283999999999,30.374728000000001,0 108.421942999999999,30.366457,0 108.432696000000007,30.354109999999999,0 108.451010999999994,30.355602999999999,0 108.459897999999995,30.359798999999999,0 108.469080000000005,30.343819,0 108.482730000000004,30.336030000000001,0 108.498394000000005,30.316331999999999,0 108.514989999999997,30.315162000000001,0 108.526381999999998,30.305271000000001,0 108.524860000000004,30.294733000000001,0 108.533304999999999,30.292107999999999,0 108.537920999999997,30.278580999999999,0 108.546170000000004,30.276278999999999,0 108.545237,30.269977999999998,0 108.562028999999995,30.262869999999999,0 108.567331999999993,30.254871999999999,0 108.581670000000003,30.255882,0 108.573519000000005,30.237178,0 108.567430000000002,30.234349999999999,0 108.568904000000003,30.225622999999999,0 108.553828999999993,30.174537000000001,0 108.552257999999995,30.163338,0 108.567480000000003,30.155697,0 108.561488999999995,30.144131999999999,0 108.546070999999998,30.104372000000001,0 108.533207000000004,30.084182999999999,0 108.532323000000005,30.073702000000001,0 108.525251999999995,30.073823999999998,0 108.516266999999999,30.064232000000001,0 108.516413999999997,30.052980000000002,0 108.524220999999997,30.058647000000001,0 108.531783000000004,30.055084999999998,0 108.526184999999998,30.04954,0 108.530703000000003,30.043104,0 108.528886,30.00545,0 108.542634000000007,29.997350000000001,0 108.534238000000002,29.971833,0 108.519458,29.943511999999998,0 108.515873999999997,29.930382999999999,0 108.524073999999999,29.911657999999999,0 108.524220999999997,29.896820999999999,0 108.516169000000005,29.885631,0 108.517052000000007,29.865479000000001,0 108.509049000000005,29.878616999999998,0 108.495693000000003,29.876913999999999,0 108.489163000000005,29.867466,0 108.468048999999993,29.864180999999999,0 108.457393999999994,29.865438000000001,0 108.453121999999993,29.871683000000001,0 108.433775999999995,29.880077,0 108.402793000000003,29.855907999999999,0 108.392776999999995,29.863492000000001,0 108.386932999999999,29.860004,0 108.391598000000002,29.853231000000001,0 108.371465999999998,29.84159,0 108.372840999999994,29.834126999999999,0 108.368177000000003,29.818912999999998,0 108.394199999999998,29.816479000000001,0 108.393169,29.835830000000001,0 108.404561000000001,29.834451000000001,0 108.408882000000006,29.820658000000002,0 108.424496000000005,29.815301999999999,0 108.425477999999998,29.804185,0 108.416983999999999,29.787344000000001,0 108.421304000000006,29.774152999999998,0 108.444235000000006,29.776913,0 108.445462000000006,29.76437,0 108.438587999999996,29.756170000000001,0 108.437115000000006,29.740781999999999,0 108.460487000000001,29.740904,0 108.467656000000005,29.729697000000002,0 108.489506000000006,29.723199000000001,0 108.506445999999997,29.708172000000001,0 108.515285000000006,29.718610000000002,0 108.504187999999999,29.729413000000001,0 108.516660000000002,29.735665999999998,0 108.520244000000005,29.730346999999998,0 108.547004000000001,29.742569,0 108.548525999999995,29.749511999999999,0 108.540081000000001,29.756779000000002,0 108.522503,29.763760999999999,0 108.534434000000005,29.787506,0 108.557462999999998,29.819035,0 108.565809999999999,29.820861000000001,0 108.579902000000004,29.831206000000002,0 108.577348999999998,29.844673,0 108.588150999999996,29.84808,0 108.587954999999994,29.85388,0 108.601409000000004,29.865600000000001,0 108.608429999999998,29.862964000000002,0 108.622915000000006,29.867304000000001,0 108.632686000000007,29.86487,0 108.633225999999993,29.855907999999999,0 108.662491000000003,29.852582000000002,0 108.657728000000006,29.84808,0 108.666123999999996,29.842725999999999,0 108.670347000000007,29.819075999999999,0 108.656942000000001,29.816682,0 108.670985999999999,29.811813000000001,0 108.680657999999994,29.800166999999998,0 108.678449000000001,29.777887,0 108.681787999999997,29.770458999999999,0 108.677319999999995,29.761447,0 108.677565000000001,29.748536999999999,0 108.686649000000003,29.740051000000001,0 108.681050999999997,29.721412999999998,0 108.693129999999996,29.704476,0 108.684782999999996,29.693508999999999,0 108.691165999999996,29.689689999999999,0 108.710364999999996,29.699196000000001,0 108.718221,29.691924,0 108.710904999999997,29.679168000000001,0 108.733590000000007,29.671489000000001,0 108.740611000000001,29.665718999999999,0 108.743016999999995,29.655926000000001,0 108.752640999999997,29.649017000000001,0 108.763002,29.653365999999998,0 108.765899000000005,29.661045999999999,0 108.774540999999999,29.65174,0 108.783281000000002,29.653772,0 108.773017999999993,29.661534,0 108.775964000000002,29.67539,0 108.765112999999999,29.682255999999999,0 108.758140999999995,29.678720999999999,0 108.752592000000007,29.689364999999999,0 108.760644999999997,29.693549000000001,0 108.786276000000001,29.691517999999999,0 108.784655000000001,29.677177,0 108.794132000000005,29.671205,0 108.797520000000006,29.660070999999999,0 108.792265999999998,29.647351,0 108.780089000000004,29.645522,0 108.785636999999994,29.633856999999999,0 108.804394000000002,29.640564000000001,0 108.813625000000002,29.631540000000001,0 108.819811999999999,29.632435000000001,0 108.816473000000002,29.644017999999999,0 108.828061000000005,29.671285999999998,0 108.835376999999994,29.668441999999999,0 108.827325000000002,29.654381999999998,0 108.833020000000005,29.651292999999999,0 108.84451,29.658363999999999,0 108.855754000000005,29.636377,0 108.869698999999997,29.643001999999999,0 108.879617999999994,29.639222,0 108.887916000000004,29.628572999999999,0 108.885853999999995,29.621134000000001,0 108.868324000000001,29.598001,0 108.885902999999999,29.588445,0 108.897588999999996,29.596495999999998,0 108.901270999999994,29.604790999999999,0 108.909177,29.593284000000001,0 108.899995000000004,29.584866000000002,0 108.913055999999997,29.574455,0 108.902106000000003,29.563026000000001,0 108.886933999999997,29.553101000000002,0 108.878439,29.539349999999999,0 108.886983000000001,29.530562,0 108.888651999999993,29.507041000000001,0 108.885952000000003,29.498047,0 108.869845999999995,29.485917000000001,0 108.866557,29.471057999999999,0 108.873726000000005,29.462752999999999,0 108.873970999999997,29.449397000000001,0 108.886540999999994,29.440601000000001,0 108.898079999999993,29.441945,0 108.909570000000002,29.436813999999998,0 108.921256,29.436895,0 108.932008999999994,29.431681999999999,0 108.943646000000001,29.410746,0 108.934119999999993,29.399460999999999,0 108.931027,29.369634000000001,0 108.916590999999997,29.334622,0 108.919734000000005,29.326305000000001,0 108.956068999999999,29.330953000000001,0 108.972369999999998,29.329239999999999,0 108.986168000000006,29.336742000000001,0 108.985088000000005,29.350479,0 108.994760999999997,29.355084999999999,0 108.999425000000002,29.363928999999999,0 109.009786000000005,29.360220000000002,0 109.034728999999999,29.360261000000001,0 109.033452999999994,29.378233000000002,0 109.039934000000002,29.389804999999999,0 109.053190999999998,29.402719999999999,0 109.064189999999996,29.401743,0 109.080786000000003,29.390661000000001,0 109.090361000000001,29.378681,0 109.101703999999998,29.373505999999999,0 109.112505999999996,29.360994999999999,0 109.110001999999994,29.342693000000001,0 109.114568000000006,29.332787,0 109.108725000000007,29.319333,0 109.113881000000006,29.314195999999999,0 109.104650000000007,29.293154000000001,0 109.106466999999995,29.288544999999999,0 109.129986000000002,29.282468000000001,0 109.141966999999994,29.270475000000001,0 109.118544999999997,29.232409000000001,0 109.110394999999997,29.215105000000001,0 109.122964999999994,29.199268,0 109.123013999999998,29.191267,0 109.138824,29.169505000000001,0 109.154488000000001,29.172363000000001,0 109.162540000000007,29.180693000000002,0 109.180070000000001,29.171955000000001,0 109.203097999999997,29.151823,0 109.215520999999995,29.145288999999998,0 109.228532999999999,29.129971999999999,0 109.232558999999995,29.120086000000001,0 109.225930000000005,29.113507999999999,0 109.237273000000002,29.086704000000001,0 109.257748000000007,29.086745000000001,0 109.266193999999999,29.079552,0 109.287846999999999,29.071010000000001,0 109.301153999999997,29.070643,0 109.312251000000003,29.066351000000001,0 109.319615999999996,29.042560000000002,0 109.304835999999995,29.020807999999999,0 109.295457999999996,29.016390999999999,0 109.292365000000004,29.004695000000002,0 109.292462999999998,28.987639000000001,0 109.284165000000002,28.972299,0 109.272330999999994,28.970949000000001,0 109.261037999999999,28.950531999999999,0 109.255439999999993,28.926141000000001,0 109.256863999999993,28.907720999999999,0 109.239924000000002,28.892042,0 109.235505000000003,28.880372000000001,0 109.234031999999999,28.863828000000002,0 109.242673999999994,28.851050000000001,0 109.239678999999995,28.827168,0 109.245817000000002,28.812992000000001,0 109.246405999999993,28.801683000000001,0 109.241888000000003,28.794266,0 109.241298999999998,28.776519,0 109.261332999999993,28.774961999999999,0 109.256176999999994,28.765616000000001,0 109.273019000000005,28.760902000000002,0 109.278469000000001,28.751514,0 109.297668000000002,28.748152000000001,0 109.300663,28.739664999999999,0 109.288240000000002,28.727322000000001,0 109.294672000000006,28.71912,0 109.284949999999995,28.713871000000001,0 109.271496999999997,28.698941000000001,0 109.265015000000005,28.699473999999999,0 109.252936000000005,28.691558000000001,0 109.266193999999999,28.680194,0 109.270906999999994,28.671783000000001,0 109.251757999999995,28.660827999999999,0 109.221069,28.649132999999999,0 109.202901999999995,28.637969999999999,0 109.193130999999994,28.636205,0 109.181394999999995,28.621715999999999,0 109.186355000000006,28.610631999999999,0 109.201477999999994,28.598438999999999,0 109.236143999999996,28.619416999999999,0 109.249401000000006,28.608661999999999,0 109.258877999999996,28.605582999999999,0 109.278469000000001,28.612438999999998,0 109.287013000000002,28.626805999999998,0 109.300172000000003,28.626436000000002,0 109.306603999999993,28.62069,0 109.309353999999999,28.598807999999998,0 109.320499999999996,28.579796999999999,0 109.304738,28.579017,0 109.294820000000001,28.566286000000002,0 109.288927999999999,28.546323999999998,0 109.274590000000003,28.539217000000001,0 109.274687999999998,28.524837000000002,0 109.280383999999998,28.520399999999999,0 109.271987999999993,28.51399,0 109.274343999999999,28.494675999999998,0 109.229613000000001,28.474906000000001,0 109.215520999999995,28.482140000000001,0 109.191755999999998,28.470877000000002,0 109.192393999999993,28.464423,0 109.176582999999994,28.446169000000001,0 109.180707999999996,28.439465999999999,0 109.176731000000004,28.431529999999999,0 109.168383000000006,28.432064,0 109.164946,28.414997,0 109.154291000000001,28.417587999999999,0 109.157139000000001,28.403397999999999,0 109.153653000000006,28.397310000000001,0 109.153113000000005,28.381060000000002,0 109.144766000000004,28.36382,0 109.138578999999993,28.358635,0 109.151689000000005,28.350528000000001,0 109.150805000000005,28.344684000000001,0 109.137743999999998,28.334230000000002,0 109.141229999999993,28.320564000000001,0 109.126844000000006,28.296932000000002,0 109.116140000000001,28.288613999999999,0 109.117563000000004,28.278607000000001,0 109.095958999999993,28.261804000000001,0 109.088003999999998,28.261392000000001,0 109.081523000000004,28.248539999999998,0 109.085352999999998,28.232803000000001,0 109.096106000000006,28.221060000000001,0 109.101409000000004,28.201404,0 109.089477000000002,28.196252000000001,0 109.086383999999995,28.184712000000001,0 109.070032999999995,28.191471,0 109.061440000000005,28.200126000000001,0 109.041602999999995,28.205359999999999,0 109.038214999999994,28.217434000000001,0 109.026185999999996,28.220154000000001,0 109.013812000000001,28.199591000000002,0 109.014646999999997,28.17923,0 109.009786000000005,28.167892999999999,0 109.001536999999999,28.161380000000001,0 108.985775000000004,28.161339000000002,0 108.979539000000003,28.171274,0 108.956609,28.182321000000002,0 108.929406999999998,28.190564999999999,0 108.927884000000006,28.20025,0 108.933187000000004,28.207874,0 108.919488000000001,28.217763999999999,0 108.912270000000007,28.215579999999999,0 108.897244999999998,28.219536000000002,0 108.864445000000003,28.206143000000001,0 108.855115999999995,28.199878999999999,0 108.836212000000003,28.207380000000001,0 108.826538999999997,28.22551,0 108.821776,28.245121000000001,0 108.807389000000001,28.242854999999999,0 108.796636000000007,28.223780000000001,0 108.773313000000002,28.213477999999999,0 108.765309000000002,28.192131,0 108.758533,28.196045999999999,0 108.758680999999996,28.220236,0 108.749548000000004,28.22757,0 108.739677999999998,28.226251999999999,0 108.737566999999999,28.251424,0 108.727599999999995,28.259827000000001,0 108.725783000000007,28.280296,0 108.741052999999994,28.294913999999999,0 108.763738000000004,28.305619,0 108.770071999999999,28.314965000000001,0 108.761430000000004,28.324556999999999,0 108.777929,28.347235999999999,0 108.777732,28.367440999999999,0 108.783084000000002,28.380402,0 108.762805,28.385791000000001,0 108.763295999999997,28.398585000000001,0 108.779302999999999,28.427417999999999,0 108.773509000000004,28.438314999999999,0 108.746748999999994,28.450239,0 108.749105999999998,28.461051999999999,0 108.729416000000001,28.470918000000001,0 108.723376999999999,28.491962999999998,0 108.709727000000001,28.501086999999998,0 108.701428000000007,28.482468999999998,0 108.688613000000004,28.482468999999998,0 108.671132999999998,28.475276000000001,0 108.658660999999995,28.47803,0 108.645256000000003,28.468616000000001,0 108.641475999999997,28.455707,0 108.663915000000003,28.444317999999999,0 108.669855999999996,28.431488999999999,0 108.688317999999995,28.422318000000001,0 108.690921000000003,28.410554999999999,0 108.696813000000006,28.404591,0 108.693522999999999,28.395171000000001,0 108.664700999999994,28.38287,0 108.657041000000007,28.362214999999999,0 108.659103000000002,28.350321999999998,0 108.670102,28.354396000000001,0 108.677418000000003,28.345794999999999,0 108.667351999999994,28.334436,0 108.647465999999994,28.331101,0 108.639854999999997,28.333200999999999,0 108.630770999999996,28.328014,0 108.611573000000007,28.324556999999999,0 108.606465999999998,28.336576000000001,0 108.598021000000003,28.34205,0 108.580099000000004,28.343285000000002,0 108.576367000000005,28.364314,0 108.577545000000001,28.390193,0 108.587414999999993,28.404961,0 108.608823000000001,28.407305999999998,0 108.609952000000007,28.435683000000001,0 108.602833000000004,28.438849000000001,0 108.597234999999998,28.456817000000001,0 108.586776,28.463066000000001,0 108.589181999999994,28.473837,0 108.574943000000005,28.497675999999998,0 108.578035999999997,28.509018000000001,0 108.573223999999996,28.528123999999998,0 108.576858000000001,28.533794,0 108.589330000000004,28.538601,0 108.610934,28.539380999999999,0 108.604453000000007,28.589528999999999,0 108.618888999999996,28.606527,0 108.636025000000004,28.621756999999999,0 108.632343000000006,28.638914,0 108.623259000000004,28.641418000000002,0 108.609019000000004,28.633618999999999,0 108.596154999999996,28.640350000000002,0 108.585302999999996,28.639652999999999,0 108.586482000000004,28.647040000000001,0 108.574796000000006,28.660336000000001,0 108.564828000000006,28.661155999999998,0 108.561145999999994,28.649173999999999,0 108.548722999999995,28.647819999999999,0 108.538510000000002,28.652702999999999,0 108.524614,28.647122,0 108.517984999999996,28.639980999999999,0 108.502714999999995,28.637601,0 108.500996000000001,28.626642,0 108.491274000000004,28.630582,0 108.471142,28.627790999999998,0 108.461371,28.634153000000001,0 108.439030000000002,28.633989,0 108.421696999999995,28.643346000000001,0 108.390960000000007,28.651758999999998,0 108.352170000000001,28.676091,0 108.344019000000003,28.673425000000002,0 108.332528999999994,28.679579,0 108.340237999999999,28.689671000000001,0 108.347898000000001,28.710262,0 108.347258999999994,28.736301999999998,0 108.372497999999993,28.760164,0 108.375050999999999,28.767092000000002,0 108.385264000000006,28.772216,0 108.388996000000006,28.785823000000001,0 108.386492000000004,28.801642000000001,0 108.382416000000006,28.805781,0 108.354231999999996,28.814263,0 108.355165,28.831634000000001,0 108.346424999999996,28.856332999999999,0 108.355311999999998,28.870830999999999,0 108.357422999999997,28.893393,0 108.350352999999998,28.907107,0 108.350549000000001,28.930316000000001,0 108.346915999999993,28.941488,0 108.339943000000005,28.947872,0 108.322953999999996,28.953969000000001,0 108.312102999999993,28.997496999999999,0 108.308715000000007,29.003385999999999,0 108.309794999999994,29.018436000000001,0 108.297863000000007,29.047179,0 108.307192999999998,29.077508999999999,0 108.301939000000004,29.083067,0 108.286569999999998,29.089196999999999,0 108.270612,29.090913,0 108.268647999999999,29.077794999999998,0 108.260203000000004,29.063735000000001,0 108.256962000000001,29.041986999999999,0 108.242279999999994,29.028372000000001,0 108.224653000000004,29.031562000000001,0 108.230397999999994,29.046975,0 108.215029000000001,29.056132000000002,0 108.204718,29.056785999999999,0 108.197744999999998,29.070643,0 108.171426999999994,29.065370000000001,0 108.150068000000005,29.053311000000001,0 108.132686000000007,29.054088,0 108.130623999999997,29.063326,0 108.109853999999999,29.076077999999999,0 108.070474000000004,29.086417999999998,0 108.035955999999999,29.054047000000001,0 108.034531999999999,29.046771,0 108.024270000000001,29.038675999999999,0 107.993925000000004,29.033850999999999,0 107.949292,29.033729000000001,0 107.931123999999997,29.035240999999999,0 107.908783,29.007352999999998,0 107.885215000000002,29.008417000000001,0 107.887570999999994,29.000114,0 107.883054000000001,28.986535,0 107.872005999999999,28.983058,0 107.867537999999996,28.960474999999999,0 107.842005,28.964648,0 107.828109999999995,28.976144000000001,0 107.810433000000003,28.984285,0 107.821185999999997,29.005758,0 107.823543000000001,29.034219,0 107.785244000000006,29.047219999999999,0 107.789810000000003,29.082371999999999,0 107.799974000000006,29.106195,0 107.810629000000006,29.138345000000001,0 107.808566999999996,29.142838000000001,0 107.795162000000005,29.146473,0 107.781904999999995,29.161992000000001,0 107.775227000000001,29.162807999999998,0 107.767910999999998,29.175139999999999,0 107.760250999999997,29.177712,0 107.760890000000003,29.189021,0 107.751609000000002,29.199635000000001,0 107.739383000000004,29.189021,0 107.724750999999998,29.182203000000001,0 107.727205999999995,29.175712000000001,0 107.718514999999996,29.156151999999999,0 107.707565000000002,29.154150999999999,0 107.698628999999997,29.141245000000001,0 107.663619999999995,29.147535000000001,0 107.659446000000003,29.162890000000001,0 107.641572999999994,29.16093,0 107.629936000000001,29.165585,0 107.616923999999997,29.163012999999999,0 107.606711000000004,29.165462999999999,0 107.600622000000001,29.15897,0 107.601015000000004,29.147821,0 107.589230999999998,29.150026,0 107.585057000000006,29.158356999999999,0 107.590164000000001,29.165299000000001,0 107.583437000000004,29.168279999999999,0 107.580146999999997,29.183591,0 107.575237000000001,29.189062,0 107.575138999999993,29.207840000000001,0 107.565710999999993,29.220981999999999,0 107.553387000000001,29.218696999999999,0 107.549556999999993,29.210084999999999,0 107.532223999999999,29.195471000000001,0 107.514891000000006,29.194206000000001,0 107.486706999999996,29.174242,0 107.473106000000001,29.170974999999999,0 107.462352999999993,29.176855,0 107.463972999999996,29.195430999999999,0 107.441434999999998,29.203962000000001,0 107.428472999999997,29.191144000000001,0 107.405444000000003,29.188613,0 107.401565000000005,29.184694,0 107.401516000000001,29.175957,0 107.412317999999999,29.161379,0 107.408095000000003,29.150271,0 107.408439000000001,29.138345000000001,0 107.421499999999995,29.135812999999999,0 107.427588999999998,29.127357,0 107.412957000000006,29.095735000000001,0 107.392285000000001,29.091280999999999,0 107.374412000000007,29.097574000000002,0 107.369747000000004,29.091608000000001,0 107.379862000000003,29.05744,0 107.390714000000003,29.059075,0 107.395182000000005,29.039656999999998,0 107.381040999999996,29.029926,0 107.378535999999997,29.021912,0 107.364542,29.010542999999998,0 107.370435000000001,28.993897,0 107.396949000000006,28.993324999999999,0 107.404413000000005,28.981871999999999,0 107.405541999999997,28.972258,0 107.412957000000006,28.960148,0 107.421548999999999,28.954542,0 107.438783999999998,28.955278,0 107.441042999999993,28.94378,0 107.433578999999995,28.933754,0 107.422875000000005,28.928269,0 107.414429999999996,28.913247999999999,0 107.415656999999996,28.889790000000001,0 107.406131000000002,28.891549999999999,0 107.391941000000003,28.868497000000001,0 107.395377999999994,28.860880000000002,0 107.383447000000004,28.848551,0 107.367243000000002,28.844988000000001,0 107.359877999999995,28.849985,0 107.331987999999996,28.841177999999999,0 107.345146999999997,28.829585000000002,0 107.325408999999993,28.809591000000001,0 107.304638999999995,28.806764000000001,0 107.277141999999998,28.799182999999999,0 107.261429000000007,28.792708000000001,0 107.252395000000007,28.780577000000001,0 107.253573000000003,28.766805000000002,0 107.246650000000002,28.761845000000001,0 107.219201999999996,28.772707,0 107.218760000000003,28.788733000000001,0 107.213408000000001,28.795003000000001,0 107.210609000000005,28.814795,0 107.216353999999995,28.828150999999998,0 107.226371,28.836794999999999,0 107.195142000000004,28.838065,0 107.196910000000003,28.847404999999998,0 107.206534000000005,28.868005,0 107.194012999999998,28.876605000000001,0 107.198431999999997,28.878406999999999,0 107.193571000000006,28.888766,0 107.184094999999999,28.879922000000001,0 107.178644000000006,28.883361000000001,0 107.166565000000006,28.880659000000001,0 107.155861000000002,28.882992999999999,0 107.146827000000002,28.876235999999999,0 107.141964999999999,28.887741999999999,0 107.096693999999999,28.890076000000001,0 107.087069999999997,28.872264000000001,0 107.072682999999998,28.866613000000001,0 107.059819000000005,28.868455999999998,0 107.063354000000004,28.877054999999999,0 107.072339999999997,28.879308000000002,0 107.066546000000002,28.895358000000002,0 107.057462000000001,28.894784999999999,0 107.052552000000006,28.891100000000002,0 107.045579000000004,28.874925999999999,0</coordinates></LinearRing></outerBoundaryIs><innerBoundaryIs><LinearRing><coordinates>109.106122999999997,30.570765000000002,0 109.101113999999995,30.579542,0 109.098658999999998,30.579098999999999,0 109.106122999999997,30.570765000000002,0</coordinates></LinearRing></innerBoundaryIs></Polygon></Placemark>
</Document>
</kml>