<?xml version="1.0" encoding="UTF-8"?>
<kml xmlns="http://www.opengis.net/kml/2.2">
  <Document>
    <name>果洛藏族自治州</name>
    <Placemark>
      <name>果洛藏族自治州</name>
      <Polygon><outerBoundaryIs><LinearRing><coordinates>97.664020000000,34.119498000000,0 97.666207000000,34.127315000000,0 97.699827000000,34.133816000000,0 97.739051000000,34.153162000000,0 97.787567000000,34.171188000000,0 97.796724000000,34.199497000000,0 97.835401000000,34.208235000000,0 97.889384000000,34.204523000000,0 97.895261000000,34.208853000000,0 97.948561000000,34.191840000000,0 98.012658000000,34.145811000000,0 98.028648000000,34.122903000000,0 98.050378000000,34.114698000000,0 98.098211000000,34.122981000000,0 98.143174000000,34.104248000000,0 98.158071000000,34.107035000000,0 98.197704000000,34.092092000000,0 98.207954000000,34.078618000000,0 98.228864000000,34.086284000000,0 98.256198000000,34.083110000000,0 98.349268000000,34.094260000000,0 98.401338000000,34.087911000000,0 98.392728000000,34.072190000000,0 98.396828000000,34.052981000000,0 98.428125000000,34.029040000000,0 98.440561000000,33.992226000000,0 98.432225000000,33.963228000000,0 98.415005000000,33.956559000000,0 98.408855000000,33.935616000000,0 98.424161000000,33.914669000000,0 98.422658000000,33.892553000000,0 98.406941000000,33.867247000000,0 98.439468000000,33.841546000000,0 98.463521000000,33.848380000000,0 98.492905000000,33.796026000000,0 98.493451000000,33.769371000000,0 98.517778000000,33.773957000000,0 98.539645000000,33.746673000000,0 98.581738000000,33.732211000000,0 98.596088000000,33.717125000000,0 98.595952000000,33.698457000000,0 98.610575000000,33.682976000000,0 98.652395000000,33.655430000000,0 98.656632000000,33.647335000000,0 98.617545000000,33.637216000000,0 98.622738000000,33.610200000000,0 98.652532000000,33.595015000000,0 98.657862000000,33.576788000000,0 98.648022000000,33.548818000000,0 98.666608000000,33.545623000000,0 98.680002000000,33.521541000000,0 98.725512000000,33.503221000000,0 98.722915000000,33.486145000000,0 98.742185000000,33.477723000000,0 98.744235000000,33.454323000000,0 98.733985000000,33.410237000000,0 98.754622000000,33.387288000000,0 98.779222000000,33.371673000000,0 98.783458000000,33.344027000000,0 98.764325000000,33.321061000000,0 98.774028000000,33.301839000000,0 98.759678000000,33.277220000000,0 98.785645000000,33.276829000000,0 98.808605000000,33.263226000000,0 98.814209000000,33.249857000000,0 98.804369000000,33.220139000000,0 98.810245000000,33.207153000000,0 98.830882000000,33.196826000000,0 98.829652000000,33.181334000000,0 98.860675000000,33.150105000000,0 98.895662000000,33.135074000000,0 98.902769000000,33.125913000000,0 98.935569000000,33.115654000000,0 98.966045000000,33.116046000000,0 98.969872000000,33.099521000000,0 99.014562000000,33.081347000000,0 99.025769000000,33.095056000000,0 99.066359000000,33.077822000000,0 99.092736000000,33.078135000000,0 99.102029000000,33.061994000000,0 99.113509000000,33.064267000000,0 99.124579000000,33.046008000000,0 99.147539000000,33.050396000000,0 99.179382000000,33.044832000000,0 99.208629000000,33.018651000000,0 99.215189000000,32.990188000000,0 99.234732000000,32.983364000000,0 99.233229000000,32.954419000000,0 99.248946000000,32.951516000000,0 99.245666000000,32.928368000000,0 99.259469000000,32.907961000000,0 99.269036000000,32.878599000000,0 99.284206000000,32.885352000000,0 99.327256000000,32.881504000000,0 99.343519000000,32.895244000000,0 99.354043000000,32.885509000000,0 99.376183000000,32.899797000000,0 99.435359000000,32.877185000000,0 99.452716000000,32.862422000000,0 99.490163000000,32.850955000000,0 99.532393000000,32.848048000000,0 99.557129000000,32.840114000000,0 99.581729000000,32.813480000000,0 99.586513000000,32.792654000000,0 99.607423000000,32.780863000000,0 99.640086000000,32.790767000000,0 99.651293000000,32.772137000000,0 99.706233000000,32.764118000000,0 99.717713000000,32.732191000000,0 99.739443000000,32.732505000000,0 99.737120000000,32.745325000000,0 99.760216000000,32.769936000000,0 99.769783000000,32.802321000000,0 99.766913000000,32.823537000000,0 99.792060000000,32.883075000000,0 99.774430000000,32.922482000000,0 99.763633000000,32.925307000000,0 99.775250000000,32.952301000000,0 99.788233000000,32.956616000000,0 99.802856000000,32.941944000000,0 99.832376000000,32.951516000000,0 99.854380000000,32.944847000000,0 99.863673000000,32.980227000000,0 99.877750000000,32.993717000000,0 99.882670000000,33.025158000000,0 99.877340000000,33.045537000000,0 99.902760000000,33.047105000000,0 99.906723000000,33.027196000000,0 99.921073000000,33.006969000000,0 99.947450000000,32.986894000000,0 99.956607000000,32.948064000000,0 99.969453000000,32.939590000000,0 100.002527000000,32.941630000000,0 100.038333000000,32.929153000000,0 100.029587000000,32.895872000000,0 100.066077000000,32.895951000000,0 100.082340000000,32.885194000000,0 100.088627000000,32.864228000000,0 100.109263000000,32.862265000000,0 100.109673000000,32.846556000000,0 100.123203000000,32.837286000000,0 100.117053000000,32.802478000000,0 100.139194000000,32.724404000000,0 100.125253000000,32.714807000000,0 100.087943000000,32.669089000000,0 100.105437000000,32.656731000000,0 100.109673000000,32.640120000000,0 100.131950000000,32.632483000000,0 100.188120000000,32.630829000000,0 100.209987000000,32.605865000000,0 100.229804000000,32.650512000000,0 100.230897000000,32.696239000000,0 100.238277000000,32.721572000000,0 100.262194000000,32.729123000000,0 100.264380000000,32.742729000000,0 100.334490000000,32.718268000000,0 100.402277000000,32.755075000000,0 100.391207000000,32.719527000000,0 100.377950000000,32.702927000000,0 100.392984000000,32.697184000000,0 100.420317000000,32.731797000000,0 100.449974000000,32.694115000000,0 100.470201000000,32.694508000000,0 100.476351000000,32.672474000000,0 100.487967000000,32.667909000000,0 100.516531000000,32.630042000000,0 100.508877000000,32.609724000000,0 100.525277000000,32.611142000000,0 100.528967000000,32.589559000000,0 100.538534000000,32.595940000000,0 100.544821000000,32.570099000000,0 100.564911000000,32.569626000000,0 100.572017000000,32.554654000000,0 100.615341000000,32.545118000000,0 100.645544000000,32.526436000000,0 100.668094000000,32.526830000000,0 100.658117000000,32.546694000000,0 100.658664000000,32.599721000000,0 100.666181000000,32.624372000000,0 100.676431000000,32.627837000000,0 100.704038000000,32.611221000000,0 100.717568000000,32.617048000000,0 100.709231000000,32.649804000000,0 100.684768000000,32.671057000000,0 100.690644000000,32.678062000000,0 100.752008000000,32.650591000000,0 100.765811000000,32.663737000000,0 100.773601000000,32.640986000000,0 100.799704000000,32.654921000000,0 100.806948000000,32.646891000000,0 100.834008000000,32.648938000000,0 100.860658000000,32.635475000000,0 100.887581000000,32.632562000000,0 100.897968000000,32.615710000000,0 100.914778000000,32.616576000000,0 100.932134000000,32.600666000000,0 100.956871000000,32.620907000000,0 100.997188000000,32.627837000000,0 101.030535000000,32.660589000000,0 101.076728000000,32.683020000000,0 101.083971000000,32.671923000000,0 101.112808000000,32.671844000000,0 101.112261000000,32.636656000000,0 101.130301000000,32.660589000000,0 101.157498000000,32.661533000000,0 101.190161000000,32.686561000000,0 101.223098000000,32.725820000000,0 101.224328000000,32.771508000000,0 101.237722000000,32.825109000000,0 101.222552000000,32.838308000000,0 101.223782000000,32.855510000000,0 101.176358000000,32.894145000000,0 101.123878000000,32.910002000000,0 101.133718000000,32.947986000000,0 101.129071000000,32.989482000000,0 101.184148000000,32.984227000000,0 101.172258000000,33.008537000000,0 101.184558000000,33.041462000000,0 101.159411000000,33.057528000000,0 101.146975000000,33.056666000000,0 101.143148000000,33.082757000000,0 101.168568000000,33.097562000000,0 101.163511000000,33.119413000000,0 101.151211000000,33.132412000000,0 101.158728000000,33.144234000000,0 101.144515000000,33.150731000000,0 101.120325000000,33.186655000000,0 101.127841000000,33.223815000000,0 101.153808000000,33.234139000000,0 101.183465000000,33.270106000000,0 101.204101000000,33.268464000000,0 101.216675000000,33.255877000000,0 101.222005000000,33.269090000000,0 101.244418000000,33.262601000000,0 101.272572000000,33.268386000000,0 101.296488000000,33.262366000000,0 101.310565000000,33.244461000000,0 101.328332000000,33.238205000000,0 101.328878000000,33.223502000000,0 101.374388000000,33.171395000000,0 101.382725000000,33.152845000000,0 101.393932000000,33.157854000000,0 101.396255000000,33.187202000000,0 101.386825000000,33.207388000000,0 101.405275000000,33.225614000000,0 101.428235000000,33.230306000000,0 101.475932000000,33.223267000000,0 101.485362000000,33.226943000000,0 101.517069000000,33.190880000000,0 101.557522000000,33.167169000000,0 101.567089000000,33.154645000000,0 101.633372000000,33.101400000000,0 101.660979000000,33.135700000000,0 101.654145000000,33.162786000000,0 101.686672000000,33.185403000000,0 101.680659000000,33.201990000000,0 101.710042000000,33.212942000000,0 101.740109000000,33.270653000000,0 101.706762000000,33.298557000000,0 101.678199000000,33.297463000000,0 101.649362000000,33.324576000000,0 101.662755000000,33.381667000000,0 101.692959000000,33.422490000000,0 101.695692000000,33.433961000000,0 101.734505000000,33.445118000000,0 101.759516000000,33.444728000000,0 101.769219000000,33.456040000000,0 101.775779000000,33.491993000000,0 101.777282000000,33.535492000000,0 101.759106000000,33.535648000000,0 101.749402000000,33.506106000000,0 101.735872000000,33.496360000000,0 101.700612000000,33.501662000000,0 101.677105000000,33.496438000000,0 101.650045000000,33.502207000000,0 101.631459000000,33.492227000000,0 101.622575000000,33.502363000000,0 101.614785000000,33.538610000000,0 101.611779000000,33.590108000000,0 101.616972000000,33.598831000000,0 101.602622000000,33.632390000000,0 101.588682000000,33.638072000000,0 101.582532000000,33.675040000000,0 101.557932000000,33.669671000000,0 101.542215000000,33.695190000000,0 101.491649000000,33.699935000000,0 101.469918000000,33.686244000000,0 101.428235000000,33.680175000000,0 101.428508000000,33.659399000000,0 101.385458000000,33.644767000000,0 101.349788000000,33.657142000000,0 101.302912000000,33.657998000000,0 101.259588000000,33.669515000000,0 101.237038000000,33.685621000000,0 101.217768000000,33.669827000000,0 101.166655000000,33.660021000000,0 101.178271000000,33.683754000000,0 101.164741000000,33.692934000000,0 101.164195000000,33.722646000000,0 101.188931000000,33.744651000000,0 101.184148000000,33.762531000000,0 101.191665000000,33.785925000000,0 101.150118000000,33.830518000000,0 101.153535000000,33.844497000000,0 101.114448000000,33.850632000000,0 101.109118000000,33.860881000000,0 101.087388000000,33.856611000000,0 101.054315000000,33.863598000000,0 101.045021000000,33.884403000000,0 101.032311000000,33.882540000000,0 101.019328000000,33.897132000000,0 100.999101000000,33.889603000000,0 100.975731000000,33.919402000000,0 100.965618000000,33.946786000000,0 100.927078000000,33.976255000000,0 100.934731000000,33.989823000000,0 100.909311000000,34.007419000000,0 100.896738000000,34.035859000000,0 100.879381000000,34.039113000000,0 100.870224000000,34.083961000000,0 100.849041000000,34.089614000000,0 100.839201000000,34.114389000000,0 100.806264000000,34.155406000000,0 100.788634000000,34.159739000000,0 100.764991000000,34.177841000000,0 100.780844000000,34.195939000000,0 100.809681000000,34.247119000000,0 100.799431000000,34.262267000000,0 100.806128000000,34.288149000000,0 100.816241000000,34.293711000000,0 100.821844000000,34.317345000000,0 100.868448000000,34.332788000000,0 100.897284000000,34.375783000000,0 100.916144000000,34.373776000000,0 100.950585000000,34.383654000000,0 100.962611000000,34.422457000000,0 100.976278000000,34.447443000000,0 100.977645000000,34.480282000000,0 100.970675000000,34.499934000000,0 100.970128000000,34.542457000000,0 100.946758000000,34.539761000000,0 100.916691000000,34.570178000000,0 100.908354000000,34.605894000000,0 100.910268000000,34.626208000000,0 100.892638000000,34.638056000000,0 100.889631000000,34.663591000000,0 100.878698000000,34.709413000000,0 100.852868000000,34.721556000000,0 100.793281000000,34.694962000000,0 100.767724000000,34.672435000000,0 100.745174000000,34.679970000000,0 100.731098000000,34.669128000000,0 100.695564000000,34.673204000000,0 100.683948000000,34.692118000000,0 100.659347000000,34.710643000000,0 100.644177000000,34.713794000000,0 100.642947000000,34.730855000000,0 100.598257000000,34.703187000000,0 100.587871000000,34.734389000000,0 100.556301000000,34.741458000000,0 100.517077000000,34.780402000000,0 100.485371000000,34.806355000000,0 100.465554000000,34.811498000000,0 100.421957000000,34.812803000000,0 100.387654000000,34.823626000000,0 100.356494000000,34.821477000000,0 100.317407000000,34.850409000000,0 100.323010000000,34.865907000000,0 100.318364000000,34.892830000000,0 100.298137000000,34.897048000000,0 100.298000000000,34.910237000000,0 100.252080000000,34.890759000000,0 100.186207000000,34.895361000000,0 100.147940000000,34.888535000000,0 100.106120000000,34.886541000000,0 100.088490000000,34.844885000000,0 100.074140000000,34.829690000000,0 100.048173000000,34.816334000000,0 100.026033000000,34.818637000000,0 100.024667000000,34.806432000000,0 99.969453000000,34.807967000000,0 99.950867000000,34.819251000000,0 99.926813000000,34.819942000000,0 99.903033000000,34.835292000000,0 99.872147000000,34.842276000000,0 99.852876000000,34.831455000000,0 99.815430000000,34.831225000000,0 99.799166000000,34.849796000000,0 99.775250000000,34.859770000000,0 99.738213000000,34.864757000000,0 99.707873000000,34.901802000000,0 99.672066000000,34.910467000000,0 99.653753000000,34.936148000000,0 99.592936000000,34.939598000000,0 99.553713000000,34.959830000000,0 99.528566000000,34.954389000000,0 99.477453000000,34.965807000000,0 99.440553000000,35.005410000000,0 99.416226000000,35.042163000000,0 99.395999000000,35.054716000000,0 99.370579000000,35.098408000000,0 99.344749000000,35.102998000000,0 99.340513000000,35.134201000000,0 99.331766000000,35.134125000000,0 99.293499000000,35.172730000000,0 99.266302000000,35.212616000000,0 99.234322000000,35.221171000000,0 99.219699000000,35.245380000000,0 99.200976000000,35.250649000000,0 99.181706000000,35.270575000000,0 99.179382000000,35.300035000000,0 99.208492000000,35.333223000000,0 99.233092000000,35.345883000000,0 99.256326000000,35.370437000000,0 99.291996000000,35.376079000000,0 99.310719000000,35.389952000000,0 99.312086000000,35.412435000000,0 99.300606000000,35.429350000000,0 99.280652000000,35.433159000000,0 99.278192000000,35.445195000000,0 99.221202000000,35.450451000000,0 99.201796000000,35.462027000000,0 99.213139000000,35.480150000000,0 99.265756000000,35.474744000000,0 99.278466000000,35.499715000000,0 99.313179000000,35.514100000000,0 99.337779000000,35.515775000000,0 99.321516000000,35.530842000000,0 99.314682000000,35.550471000000,0 99.295002000000,35.565607000000,0 99.211089000000,35.604615000000,0 99.192639000000,35.616169000000,0 99.180749000000,35.608112000000,0 99.156012000000,35.619818000000,0 99.125672000000,35.617537000000,0 99.106266000000,35.592907000000,0 99.078386000000,35.586216000000,0 99.043809000000,35.592147000000,0 99.029185000000,35.600814000000,0 99.010462000000,35.583479000000,0 98.978072000000,35.586672000000,0 98.911105000000,35.600054000000,0 98.900719000000,35.592299000000,0 98.912472000000,35.580589000000,0 98.865049000000,35.569258000000,0 98.817079000000,35.600206000000,0 98.793025000000,35.603551000000,0 98.765692000000,35.593896000000,0 98.771158000000,35.581502000000,0 98.760772000000,35.538983000000,0 98.714442000000,35.516536000000,0 98.678362000000,35.515090000000,0 98.637772000000,35.498650000000,0 98.617682000000,35.474211000000,0 98.594585000000,35.461266000000,0 98.497551000000,35.448090000000,0 98.455731000000,35.470328000000,0 98.434685000000,35.473450000000,0 98.396828000000,35.461647000000,0 98.356921000000,35.459895000000,0 98.331365000000,35.473145000000,0 98.313325000000,35.461494000000,0 98.296515000000,35.476419000000,0 98.309088000000,35.502684000000,0 98.260981000000,35.512959000000,0 98.253055000000,35.493702000000,0 98.220118000000,35.465150000000,0 98.224081000000,35.436130000000,0 98.203718000000,35.406872000000,0 98.180758000000,35.337723000000,0 98.179118000000,35.320102000000,0 98.129234000000,35.332612000000,0 98.106411000000,35.320712000000,0 98.088234000000,35.323840000000,0 98.073064000000,35.293473000000,0 98.059944000000,35.295762000000,0 98.021404000000,35.285536000000,0 97.942821000000,35.287138000000,0 97.917537000000,35.306521000000,0 97.894304000000,35.295991000000,0 97.867107000000,35.314990000000,0 97.838681000000,35.314304000000,0 97.818454000000,35.325747000000,0 97.787977000000,35.322696000000,0 97.767341000000,35.330477000000,0 97.750667000000,35.348553000000,0 97.710350000000,35.344740000000,0 97.667437000000,35.349315000000,0 97.667300000000,35.376841000000,0 97.638327000000,35.386522000000,0 97.617007000000,35.376612000000,0 97.609217000000,35.327273000000,0 97.619330000000,35.273323000000,0 97.612907000000,35.259277000000,0 97.591040000000,35.257368000000,0 97.560837000000,35.271262000000,0 97.534324000000,35.266377000000,0 97.493734000000,35.276834000000,0 97.458474000000,35.292633000000,0 97.412827000000,35.302248000000,0 97.375107000000,35.294999000000,0 97.369913000000,35.304308000000,0 97.348183000000,35.298814000000,0 97.343400000000,35.262712000000,0 97.370733000000,35.243319000000,0 97.371143000000,35.232398000000,0 97.338207000000,35.210400000000,0 97.276160000000,35.148728000000,0 97.241720000000,35.077292000000,0 97.225593000000,35.074537000000,0 97.204000000000,35.036728000000,0 97.217530000000,35.027694000000,0 97.220400000000,35.005257000000,0 97.121316000000,34.950557000000,0 97.079496000000,34.911617000000,0 97.047653000000,34.913840000000,0 97.007200000000,34.898658000000,0 97.023053000000,34.873042000000,0 97.017996000000,34.856624000000,0 96.996813000000,34.841201000000,0 96.995993000000,34.823933000000,0 96.956086000000,34.812036000000,0 96.935313000000,34.785471000000,0 96.951440000000,34.748680000000,0 96.980960000000,34.728473000000,0 97.003373000000,34.723939000000,0 97.000640000000,34.739537000000,0 97.011573000000,34.756208000000,0 97.075123000000,34.745914000000,0 97.113116000000,34.723401000000,0 97.138536000000,34.725168000000,0 97.118446000000,34.684737000000,0 97.073483000000,34.674665000000,0 97.064736000000,34.656901000000,0 97.073620000000,34.645210000000,0 97.105463000000,34.630363000000,0 97.129106000000,34.633209000000,0 97.148923000000,34.620053000000,0 97.197167000000,34.607433000000,0 97.200037000000,34.563711000000,0 97.181587000000,34.525897000000,0 97.158900000000,34.518810000000,0 97.146326000000,34.503401000000,0 97.177897000000,34.485292000000,0 97.209603000000,34.498007000000,0 97.225047000000,34.497237000000,0 97.275203000000,34.481207000000,0 97.302127000000,34.479897000000,0 97.324403000000,34.465560000000,0 97.327410000000,34.448907000000,0 97.346953000000,34.428627000000,0 97.317570000000,34.413356000000,0 97.303630000000,34.396693000000,0 97.316203000000,34.375937000000,0 97.338343000000,34.375242000000,0 97.360210000000,34.362508000000,0 97.404080000000,34.322519000000,0 97.413100000000,34.294793000000,0 97.452734000000,34.286759000000,0 97.474874000000,34.266826000000,0 97.479520000000,34.237303000000,0 97.496330000000,34.205760000000,0 97.526944000000,34.199342000000,0 97.541157000000,34.178305000000,0 97.567944000000,34.168249000000,0 97.582567000000,34.174051000000,0 97.588717000000,34.205451000000,0 97.607167000000,34.217668000000,0 97.627667000000,34.199651000000,0 97.637644000000,34.158501000000,0 97.664020000000,34.119498000000,0</coordinates></LinearRing></outerBoundaryIs></Polygon>
    </Placemark>
  </Document>
</kml>
