<?xml version="1.0" encoding="UTF-8"?>
<kml xmlns="http://www.opengis.net/kml/2.2">
<Document>
<name>海南藏族自治州</name>
<Placemark><name>海南藏族自治州</name><MultiGeometry><Polygon><outerBoundaryIs><LinearRing><coordinates>100.917373999999995,36.741320999999999,0 100.918604000000002,36.749712000000002,0 100.862707999999998,36.780346999999999,0 100.801070999999993,36.757353000000002,0 100.763077999999993,36.758926000000002,0 100.725631000000007,36.753982000000001,0 100.696383999999995,36.776228000000003,0 100.536620999999997,36.814563,0 100.278183999999996,36.867316000000002,0 100.142610000000005,36.899025000000002,0 99.904537000000005,36.951197999999998,0 99.839755999999994,36.966588000000002,0 99.821715999999995,36.984963,0 99.797526000000005,36.991684999999997,0 99.771969999999996,37.018565000000002,0 99.743543000000003,37.015877000000003,0 99.740809999999996,37.036554000000002,0 99.720855999999998,37.034239999999997,0 99.688192999999998,37.042749000000001,0 99.631339999999994,37.086320000000001,0 99.589246000000003,37.101683000000001,0 99.566558999999998,37.116520999999999,0 99.548929000000001,37.117342000000001,0 99.512985999999998,37.143804000000003,0 99.454356000000004,37.156621999999999,0 99.415953000000002,37.163403000000002,0 99.408845999999997,37.170332000000002,0 99.382743000000005,37.167054,0 99.368528999999995,37.175324000000003,0 99.359645999999998,37.135083999999999,0 99.350078999999994,37.123753000000001,0 99.321788999999995,37.123679000000003,0 99.299649000000002,37.106977000000001,0 99.286801999999994,37.106529999999999,0 99.271769000000006,37.089078999999998,0 99.249082000000001,37.031852000000001,0 99.231042000000002,36.976672999999998,0 99.197969000000001,36.961134999999999,0 99.155328999999995,36.970098999999998,0 99.160111999999998,36.954560000000001,0 99.264526000000004,36.905231000000001,0 99.277646000000004,36.893642,0 99.297461999999996,36.849660999999998,0 99.387388999999999,36.798318000000002,0 99.430986000000004,36.760499000000003,0 99.422786000000002,36.740721999999998,0 99.446838999999997,36.686981000000003,0 99.427159000000003,36.671534000000001,0 99.395178999999999,36.657434000000002,0 99.374268999999998,36.654958999999998,0 99.355408999999995,36.632828000000003,0 99.334498999999994,36.620896999999999,0 99.263159000000002,36.604236,0 99.171318999999997,36.565120999999998,0 99.119522000000003,36.553330000000003,0 99.085492000000002,36.533048000000001,0 98.977114999999998,36.498181000000002,0 98.921218999999994,36.486755000000002,0 98.929828999999998,36.446753000000001,0 98.946775000000002,36.444121000000003,0 98.954839000000007,36.423434,0 98.989005000000006,36.409815999999999,0 99.034925000000001,36.365783,0 99.065949000000003,36.323985999999998,0 99.065949000000003,36.298972999999997,0 99.049684999999997,36.288195999999999,0 99.043808999999996,36.233235999999998,0 98.993379000000004,36.191291999999997,0 98.993789000000007,36.171520000000001,0 98.983675000000005,36.164574999999999,0 98.935432000000006,36.156497999999999,0 98.937072000000001,36.143436999999999,0 98.967685000000003,36.129316000000003,0 98.980259000000004,36.087845999999999,0 99.015792000000005,36.086184000000003,0 99.010188999999997,36.058297000000003,0 99.040255000000002,36.046505000000003,0 99.077566000000004,36.017091999999998,0 99.089455999999998,35.999923000000003,0 99.071141999999995,35.968147000000002,0 99.116788999999997,35.911448,0 99.102439000000004,35.883423999999998,0 99.124716000000006,35.866149999999998,0 99.126628999999994,35.831515000000003,0 99.119112000000001,35.818323999999997,0 99.126766000000003,35.802629000000003,0 99.163802000000004,35.791102000000002,0 99.185805999999999,35.762124999999997,0 99.194141999999999,35.737462999999998,0 99.208219,35.727899999999998,0 99.205622000000005,35.682572999999998,0 99.177605999999997,35.655684000000001,0 99.156012000000004,35.619818000000002,0 99.180749000000006,35.608111999999998,0 99.192639,35.616168999999999,0 99.211089000000001,35.604615000000003,0 99.295001999999997,35.565607,0 99.314682000000005,35.550471000000002,0 99.321516000000003,35.530842,0 99.337778999999998,35.515774999999998,0 99.313179000000005,35.514099999999999,0 99.278465999999995,35.499715000000002,0 99.265755999999996,35.474744000000001,0 99.213138999999998,35.480150000000002,0 99.201796000000002,35.462026999999999,0 99.221202000000005,35.450451000000001,0 99.278192000000004,35.445194999999998,0 99.280652000000003,35.433159000000003,0 99.300606000000002,35.429349999999999,0 99.312085999999994,35.412435000000002,0 99.310719000000006,35.389952000000001,0 99.291995999999997,35.376078999999997,0 99.256326000000001,35.370437000000003,0 99.233091999999999,35.345883000000001,0 99.208492000000007,35.333222999999997,0 99.179382000000004,35.300035000000001,0 99.181706000000005,35.270575000000001,0 99.200975999999997,35.250649000000003,0 99.219699000000006,35.245379999999997,0 99.234322000000006,35.221170999999998,0 99.266301999999996,35.212615999999997,0 99.293498999999997,35.172730000000001,0 99.331766000000002,35.134124999999997,0 99.340513000000001,35.134200999999997,0 99.344748999999993,35.102997999999999,0 99.370579000000006,35.098407999999999,0 99.395999000000003,35.054715999999999,0 99.416225999999995,35.042163000000002,0 99.440552999999994,35.005409999999998,0 99.477452999999997,34.965806999999998,0 99.528565999999998,34.954388999999999,0 99.553713000000002,34.959829999999997,0 99.592935999999995,34.939597999999997,0 99.653752999999995,34.936148000000003,0 99.672066000000001,34.910466999999997,0 99.707873000000006,34.901802000000004,0 99.738213000000002,34.864756999999997,0 99.77525,34.859769999999997,0 99.799166,34.849795999999998,0 99.815430000000006,34.831225000000003,0 99.852875999999995,34.831454999999998,0 99.872146999999998,34.842275999999998,0 99.903032999999994,34.835292000000003,0 99.926812999999996,34.819941999999998,0 99.950867000000002,34.819251000000001,0 99.969453000000001,34.807966999999998,0 100.024666999999994,34.806432000000001,0 100.026032999999998,34.818637000000003,0 100.048173000000006,34.816333999999998,0 100.07414,34.829689999999999,0 100.088489999999993,34.844884999999998,0 100.106120000000004,34.886541000000001,0 100.147940000000006,34.888534999999997,0 100.186206999999996,34.895361000000001,0 100.252080000000007,34.890759000000003,0 100.298000000000002,34.910237000000002,0 100.298136999999997,34.897047999999998,0 100.318364000000003,34.892829999999996,0 100.323009999999996,34.865907,0 100.317407000000003,34.850408999999999,0 100.356493999999998,34.821477000000002,0 100.387653999999998,34.823625999999997,0 100.421957000000006,34.812803000000002,0 100.465553999999997,34.811498,0 100.485371000000001,34.806355000000003,0 100.517077,34.780402000000002,0 100.556301000000005,34.741458000000002,0 100.587871000000007,34.734389,0 100.598257000000004,34.703187,0 100.642947000000007,34.730854999999998,0 100.644176999999999,34.713794,0 100.659346999999997,34.710642999999997,0 100.683948000000001,34.692118000000001,0 100.695564000000005,34.673203999999998,0 100.731098000000003,34.669128000000001,0 100.745174000000006,34.679969999999997,0 100.767724000000001,34.672435,0 100.793280999999993,34.694961999999997,0 100.852868000000001,34.721556,0 100.878698,34.709412999999998,0 100.889630999999994,34.663590999999997,0 100.907808000000003,34.659053999999998,0 100.959740999999994,34.663590999999997,0 101.000331000000003,34.640979000000002,0 101.036957999999998,34.651440000000001,0 101.058824999999999,34.677816999999997,0 101.065657999999999,34.715485000000001,0 101.097638000000003,34.720019000000001,0 101.100917999999993,34.741073999999998,0 101.080827999999997,34.781401000000002,0 101.087388000000004,34.801211000000002,0 101.126064999999997,34.803897999999997,0 101.148341000000002,34.835138999999998,0 101.139184999999998,34.848261000000001,0 101.131530999999995,34.882783000000003,0 101.114447999999996,34.889532000000003,0 101.055408,34.889532000000003,0 101.035454999999999,34.904178999999999,0 101.037778000000003,34.915987000000001,0 101.006754999999998,34.916907000000002,0 100.968078000000006,34.931933000000001,0 100.948397999999997,34.945881999999997,0 100.919424000000006,34.982278999999998,0 100.873093999999995,35.000048999999997,0 100.811730999999995,35.007247999999997,0 100.795468,35.020037000000002,0 100.738478000000001,35.044459000000003,0 100.715518000000003,35.071936000000001,0 100.697478000000004,35.079740999999999,0 100.696931000000006,35.117376999999998,0 100.713877999999994,35.132824999999997,0 100.703491,35.148881000000003,0 100.730960999999994,35.152092000000003,0 100.754193999999998,35.173417999999998,0 100.781254000000004,35.181060000000002,0 100.873367999999999,35.247824000000001,0 100.915734,35.294617000000002,0 100.911088000000007,35.303621999999997,0 100.849587999999997,35.325136999999998,0 100.814053999999999,35.318880999999998,0 100.812414000000004,35.333984999999998,0 100.733011000000005,35.342528000000001,0 100.728363999999999,35.357093999999996,0 100.703491,35.370055999999998,0 100.687638000000007,35.404890999999999,0 100.693104000000005,35.419598000000001,0 100.712373999999997,35.42295,0 100.767313999999999,35.419978999999998,0 100.816513999999998,35.413578000000001,0 100.842071000000004,35.432397999999999,0 100.914094000000006,35.417236000000003,0 100.934867999999994,35.417006999999998,0 100.964524999999995,35.401004,0 101.043380999999997,35.411064000000003,0 101.100234999999998,35.406339000000003,0 101.127295000000004,35.408168000000003,0 101.148205000000004,35.397117000000001,0 101.162144999999995,35.403137999999998,0 101.184421,35.391781999999999,0 101.214214999999996,35.388047,0 101.242095000000006,35.368760000000002,0 101.290064999999998,35.369140999999999,0 101.368101999999993,35.338332999999999,0 101.391745,35.335892000000001,0 101.437392000000003,35.334367,0 101.479759000000001,35.352288999999999,0 101.455842000000004,35.402299999999997,0 101.410058000000006,35.438262999999999,0 101.395297999999997,35.455021000000002,0 101.398714999999996,35.476647999999997,0 101.389831999999998,35.497812000000003,0 101.404044999999996,35.506793999999999,0 101.420171999999994,35.491112999999999,0 101.441081999999994,35.488906,0 101.464861999999997,35.473221000000002,0 101.486318999999995,35.491112999999999,0 101.501351999999997,35.488373000000003,0 101.533058999999994,35.469109000000003,0 101.548638999999994,35.491494000000003,0 101.580208999999996,35.504739000000001,0 101.593738999999999,35.496060999999997,0 101.663984999999997,35.526353,0 101.657698999999994,35.538221999999998,0 101.677651999999995,35.576027000000003,0 101.696239000000006,35.582338,0 101.689542000000003,35.604159000000003,0 101.699518999999995,35.608491999999998,0 101.727808999999993,35.644212000000003,0 101.759106000000003,35.662976999999998,0 101.770585999999994,35.687586000000003,0 101.772498999999996,35.716892999999999,0 101.760199,35.725850999999999,0 101.764572000000001,35.747253000000001,0 101.739424999999997,35.754840999999999,0 101.718652000000006,35.751956999999997,0 101.685169000000002,35.757724000000003,0 101.663028999999995,35.776387,0 101.674509,35.79186,0 101.665215000000003,35.81514,0 101.733684999999994,35.902510999999997,0 101.697058999999996,35.916218000000001,0 101.679974999999999,35.928863,0 101.681752000000003,35.964514999999999,0 101.668222,35.984414999999998,0 101.645534999999995,35.999847000000003,0 101.651959000000005,36.010739000000001,0 101.646355,36.033199000000003,0 101.656604999999999,36.057768000000003,0 101.643212000000005,36.080289999999998,0 101.649361999999996,36.090037000000002,0 101.638429000000002,36.116477000000003,0 101.647722000000002,36.154611000000003,0 101.666854999999998,36.160800999999999,0 101.667265,36.202458999999998,0 101.676422000000002,36.211286000000001,0 101.668358999999995,36.231048999999999,0 101.646765000000002,36.255481000000003,0 101.645398999999998,36.267619000000003,0 101.623531999999997,36.282693999999999,0 101.603168999999994,36.282015999999999,0 101.603168999999994,36.322329000000003,0 101.579251999999997,36.329861999999999,0 101.541394999999994,36.325417999999999,0 101.455978000000002,36.353209,0 101.438485,36.372860000000003,0 101.407325,36.375872000000001,0 101.378214999999997,36.392882999999998,0 101.357851999999994,36.380313000000001,0 101.343227999999996,36.348314000000002,0 101.307558,36.337468999999999,0 101.303321999999994,36.320898,0 101.275167999999994,36.305905000000003,0 101.249065000000002,36.311405000000001,0 101.200547999999998,36.340181000000001,0 101.183190999999994,36.373387000000001,0 101.141371000000007,36.384303000000003,0 101.111440999999999,36.420349000000002,0 101.111030999999997,36.436222999999998,0 101.081374999999994,36.446001000000003,0 101.075225000000003,36.482545999999999,0 101.060191000000003,36.497954999999997,0 101.031355000000005,36.509905000000003,0 101.009078000000002,36.526511999999997,0 101.014544999999998,36.535828000000002,0 100.993224999999995,36.564594999999997,0 100.999375000000001,36.59628,0 100.990354999999994,36.625250000000001,0 100.949354999999997,36.663134999999997,0 100.945255000000003,36.683007000000003,0 100.953727999999998,36.690354999999997,0 100.916554000000005,36.729331999999999,0 100.917373999999995,36.741320999999999,0</coordinates></LinearRing></outerBoundaryIs></Polygon><Polygon><outerBoundaryIs><LinearRing><coordinates>101.406642000000005,35.288969999999999,0 101.341314999999994,35.277062999999998,0 101.329288000000005,35.278207999999999,0 101.348557999999997,35.248815999999998,0 101.355528000000007,35.204976000000002,0 101.345277999999993,35.180678,0 101.359217999999998,35.172806000000001,0 101.398852000000005,35.172119000000002,0 101.418942000000001,35.186639,0 101.406094999999993,35.229038000000003,0 101.397075000000001,35.238508000000003,0 101.425501999999994,35.254925,0 101.446957999999995,35.256298999999999,0 101.459941999999998,35.219338,0 101.506681999999998,35.216740000000001,0 101.529779000000005,35.248358000000003,0 101.549869000000001,35.258360000000003,0 101.541122000000001,35.286299,0 101.549322000000004,35.312244,0 101.537841999999998,35.320864999999998,0 101.505999000000003,35.327424999999998,0 101.498071999999993,35.309877999999998,0 101.459258000000005,35.281337999999998,0 101.420308000000006,35.291258999999997,0 101.406642000000005,35.288969999999999,0</coordinates></LinearRing></outerBoundaryIs></Polygon></MultiGeometry></Placemark>
</Document>
</kml>