<?xml version="1.0" encoding="UTF-8"?>
<kml xmlns="http://www.opengis.net/kml/2.2">
  <Document>
    <name>海西蒙古族藏族自治州</name>
    <Placemark>
      <name>海西蒙古族藏族自治州</name>
      <MultiGeometry><Polygon><outerBoundaryIs><LinearRing><coordinates>98.093291000000,38.786307000000,0 98.068691000000,38.816255000000,0 98.050924000000,38.819242000000,0 98.027828000000,38.835558000000,0 98.011974000000,38.858059000000,0 97.971931000000,38.863301000000,0 97.955257000000,38.873638000000,0 97.908791000000,38.884484000000,0 97.875854000000,38.898238000000,0 97.828977000000,38.930030000000,0 97.793307000000,38.942903000000,0 97.749711000000,38.949593000000,0 97.725384000000,38.961153000000,0 97.701467000000,38.963262000000,0 97.690397000000,38.975910000000,0 97.686844000000,39.005488000000,0 97.620150000000,39.031785000000,0 97.581474000000,39.052336000000,0 97.536920000000,39.069252000000,0 97.500567000000,39.078180000000,0 97.458884000000,39.118089000000,0 97.430457000000,39.123746000000,0 97.401347000000,39.146736000000,0 97.375653000000,39.140355000000,0 97.342033000000,39.168269000000,0 97.300623000000,39.165949000000,0 97.220810000000,39.193056000000,0 97.163546000000,39.194867000000,0 97.141133000000,39.199940000000,0 97.060500000000,39.197621000000,0 97.047516000000,39.207765000000,0 97.017450000000,39.208344000000,0 96.963056000000,39.198346000000,0 96.983693000000,39.178562000000,0 96.997223000000,39.152827000000,0 97.011573000000,39.140065000000,0 96.969890000000,39.097774000000,0 96.969206000000,39.079051000000,0 96.957726000000,39.041661000000,0 96.965653000000,39.016967000000,0 96.948706000000,38.992336000000,0 96.939003000000,38.955482000000,0 96.949253000000,38.939266000000,0 96.940780000000,38.907842000000,0 96.966200000000,38.886813000000,0 96.993123000000,38.884192000000,0 96.983693000000,38.870945000000,0 96.993670000000,38.836068000000,0 96.987656000000,38.791700000000,0 97.000640000000,38.761086000000,0 97.023053000000,38.755545000000,0 97.021686000000,38.731552000000,0 97.009113000000,38.702663000000,0 97.017586000000,38.688142000000,0 97.057493000000,38.672814000000,0 97.047243000000,38.653905000000,0 97.055990000000,38.594518000000,0 96.960733000000,38.557824000000,0 96.925746000000,38.564404000000,0 96.899233000000,38.580705000000,0 96.876819000000,38.580705000000,0 96.846753000000,38.599414000000,0 96.794409000000,38.608036000000,0 96.805343000000,38.570545000000,0 96.783066000000,38.566963000000,0 96.767349000000,38.552486000000,0 96.800423000000,38.527768000000,0 96.795093000000,38.510284000000,0 96.780606000000,38.504284000000,0 96.706806000000,38.505455000000,0 96.680293000000,38.498797000000,0 96.666353000000,38.483721000000,0 96.708173000000,38.459125000000,0 96.698059000000,38.422142000000,0 96.679746000000,38.411666000000,0 96.663483000000,38.388438000000,0 96.626719000000,38.356259000000,0 96.623712000000,38.345187000000,0 96.639019000000,38.307412000000,0 96.654189000000,38.297800000000,0 96.665259000000,38.230187000000,0 96.524902000000,38.262056000000,0 96.463676000000,38.277765000000,0 96.399716000000,38.281802000000,0 96.378396000000,38.277325000000,0 96.335755000000,38.246197000000,0 96.301862000000,38.183240000000,0 96.313205000000,38.161997000000,0 96.264279000000,38.145895000000,0 96.252525000000,38.167437000000,0 96.227652000000,38.169642000000,0 96.222185000000,38.149057000000,0 96.209339000000,38.150234000000,0 96.155082000000,38.174420000000,0 96.117362000000,38.179492000000,0 96.101782000000,38.188090000000,0 96.073902000000,38.188311000000,0 96.064335000000,38.172803000000,0 96.044108000000,38.180521000000,0 96.006935000000,38.207195000000,0 95.985615000000,38.209987000000,0 95.938465000000,38.237311000000,0 95.933682000000,38.257871000000,0 95.893638000000,38.290388000000,0 95.859608000000,38.283049000000,0 95.850588000000,38.298020000000,0 95.837742000000,38.342473000000,0 95.827491000000,38.353546000000,0 95.807538000000,38.349293000000,0 95.776105000000,38.355965000000,0 95.761891000000,38.365863000000,0 95.723898000000,38.378544000000,0 95.701895000000,38.400530000000,0 95.674288000000,38.390637000000,0 95.662398000000,38.365350000000,0 95.640121000000,38.366009000000,0 95.627821000000,38.349146000000,0 95.608415000000,38.339247000000,0 95.590921000000,38.344160000000,0 95.568781000000,38.325825000000,0 95.536801000000,38.313795000000,0 95.516164000000,38.294791000000,0 95.505641000000,38.309319000000,0 95.487601000000,38.314381000000,0 95.454118000000,38.291783000000,0 95.441818000000,38.310933000000,0 95.424461000000,38.311520000000,0 95.408061000000,38.300368000000,0 95.389201000000,38.301249000000,0 95.361731000000,38.313354000000,0 95.335628000000,38.308072000000,0 95.321278000000,38.320250000000,0 95.311301000000,38.311740000000,0 95.260051000000,38.302276000000,0 95.249801000000,38.317609000000,0 95.226977000000,38.330886000000,0 95.204427000000,38.331986000000,0 95.188164000000,38.362710000000,0 95.192401000000,38.372020000000,0 95.169167000000,38.387559000000,0 95.138281000000,38.394448000000,0 95.122154000000,38.417014000000,0 95.073364000000,38.402435000000,0 95.045347000000,38.418699000000,0 95.031544000000,38.412692000000,0 95.017604000000,38.426171000000,0 94.985350000000,38.423900000000,0 94.973870000000,38.430126000000,0 94.902120000000,38.420457000000,0 94.883944000000,38.414890000000,0 94.861530000000,38.393715000000,0 94.812057000000,38.385507000000,0 94.750420000000,38.384994000000,0 94.729373000000,38.389611000000,0 94.698897000000,38.385067000000,0 94.661040000000,38.386020000000,0 94.611840000000,38.371654000000,0 94.583003000000,38.369235000000,0 94.551980000000,38.350246000000,0 94.529977000000,38.360878000000,0 94.527107000000,38.426025000000,0 94.511117000000,38.445140000000,0 94.428023000000,38.634480000000,0 94.370076000000,38.762763000000,0 94.334816000000,38.755691000000,0 94.281380000000,38.760065000000,0 93.972923000000,38.724842000000,0 93.951329000000,38.715140000000,0 93.871926000000,38.722581000000,0 93.800312000000,38.750805000000,0 93.773526000000,38.771073000000,0 93.756306000000,38.807658000000,0 93.769972000000,38.820917000000,0 93.884226000000,38.826235000000,0 93.884636000000,38.867669000000,0 93.834342000000,38.867669000000,0 93.748106000000,38.912353000000,0 93.729109000000,38.924502000000,0 93.509485000000,38.918028000000,0 93.453179000000,38.915409000000,0 93.332228000000,38.904059000000,0 93.302572000000,38.894017000000,0 93.274008000000,38.896128000000,0 93.237928000000,38.916136000000,0 93.206905000000,38.915918000000,0 93.179298000000,38.923847000000,0 93.185722000000,38.947411000000,0 93.198158000000,39.046019000000,0 93.175608000000,39.069106000000,0 93.165768000000,39.090518000000,0 93.132558000000,39.107424000000,0 93.126681000000,39.122804000000,0 93.142398000000,39.160730000000,0 93.115338000000,39.179576000000,0 93.043178000000,39.146446000000,0 92.993568000000,39.151812000000,0 92.978535000000,39.143546000000,0 92.958991000000,39.165152000000,0 92.939038000000,39.169646000000,0 92.889155000000,39.159932000000,0 92.866878000000,39.138687000000,0 92.831208000000,39.143908000000,0 92.821778000000,39.134843000000,0 92.780778000000,39.139702000000,0 92.727751000000,39.121643000000,0 92.715178000000,39.126793000000,0 92.663518000000,39.110907000000,0 92.645341000000,39.119975000000,0 92.610354000000,39.108948000000,0 92.545711000000,39.111342000000,0 92.536417000000,39.100749000000,0 92.494051000000,39.102128000000,0 92.460567000000,39.066203000000,0 92.459064000000,39.042751000000,0 92.423121000000,39.046599000000,0 92.406037000000,39.033382000000,0 92.418474000000,39.013044000000,0 92.380071000000,39.000038000000,0 92.323490000000,39.002945000000,0 92.264177000000,39.002145000000,0 92.208964000000,38.982670000000,0 92.198167000000,38.983469000000,0 92.173020000000,38.960572000000,0 92.150060000000,38.958463000000,0 92.105644000000,38.962680000000,0 92.090884000000,38.954101000000,0 92.036627000000,38.949374000000,0 92.022823000000,38.940430000000,0 91.990433000000,38.938612000000,0 91.880553000000,38.899257000000,0 91.879323000000,38.884192000000,0 91.858277000000,38.876987000000,0 91.806343000000,38.872619000000,0 91.782836000000,38.861772000000,0 91.756596000000,38.869125000000,0 91.705620000000,38.868179000000,0 91.681293000000,38.852817000000,0 91.641250000000,38.855147000000,0 91.613370000000,38.839054000000,0 91.552826000000,38.826235000000,0 91.535606000000,38.826891000000,0 91.501439000000,38.815308000000,0 91.446363000000,38.813487000000,0 91.395386000000,38.793522000000,0 91.351789000000,38.768230000000,0 91.316393000000,38.760503000000,0 91.307783000000,38.751024000000,0 91.270609000000,38.745482000000,0 91.249972000000,38.752774000000,0 91.219496000000,38.745190000000,0 91.191069000000,38.731844000000,0 91.129979000000,38.718787000000,0 91.112076000000,38.707479000000,0 91.088022000000,38.709960000000,0 90.992766000000,38.695001000000,0 90.965432000000,38.696899000000,0 90.905845000000,38.680916000000,0 90.833959000000,38.669091000000,0 90.803619000000,38.655146000000,0 90.805532000000,38.666390000000,0 90.724625000000,38.658140000000,0 90.702075000000,38.667558000000,0 90.650278000000,38.673909000000,0 90.620622000000,38.663177000000,0 90.645632000000,38.634991000000,0 90.626225000000,38.628710000000,0 90.605178000000,38.607013000000,0 90.610645000000,38.595833000000,0 90.563085000000,38.593714000000,0 90.532608000000,38.580997000000,0 90.535615000000,38.567986000000,0 90.499945000000,38.555411000000,0 90.463592000000,38.556727000000,0 90.456758000000,38.547368000000,0 90.463728000000,38.520160000000,0 90.441315000000,38.511016000000,0 90.420268000000,38.490966000000,0 90.358905000000,38.481306000000,0 90.315171000000,38.501870000000,0 90.273488000000,38.499528000000,0 90.259275000000,38.492211000000,0 90.228935000000,38.496016000000,0 90.197228000000,38.491259000000,0 90.130808000000,38.494186000000,0 90.112084000000,38.477719000000,0 90.110854000000,38.424560000000,0 90.128348000000,38.400237000000,0 90.138598000000,38.403973000000,0 90.179188000000,38.397012000000,0 90.159918000000,38.360218000000,0 90.144338000000,38.362197000000,0 90.149121000000,38.349073000000,0 90.137778000000,38.340567000000,0 90.210075000000,38.286132000000,0 90.280868000000,38.238119000000,0 90.352891000000,38.233492000000,0 90.361638000000,38.300148000000,0 90.401818000000,38.311227000000,0 90.530695000000,38.319076000000,0 90.516345000000,38.204403000000,0 90.519625000000,37.731184000000,0 90.579348000000,37.720535000000,0 90.586592000000,37.703079000000,0 90.614745000000,37.696938000000,0 90.658752000000,37.703818000000,0 90.676928000000,37.682733000000,0 90.742255000000,37.664675000000,0 90.750865000000,37.651130000000,0 90.776149000000,37.650537000000,0 90.795009000000,37.630177000000,0 90.806899000000,37.631436000000,0 90.824939000000,37.610478000000,0 90.854595000000,37.604182000000,0 90.882475000000,37.575732000000,0 90.869355000000,37.561132000000,0 90.865939000000,37.530664000000,0 90.911722000000,37.519541000000,0 90.942609000000,37.494916000000,0 90.940832000000,37.480449000000,0 90.957915000000,37.477630000000,0 91.000419000000,37.494545000000,0 91.056999000000,37.483862000000,0 91.074766000000,37.475181000000,0 91.095539000000,37.452175000000,0 91.109069000000,37.427676000000,0 91.111392000000,37.391954000000,0 91.136676000000,37.354579000000,0 91.134762000000,37.324175000000,0 91.161139000000,37.311683000000,0 91.172756000000,37.283494000000,0 91.191889000000,37.277840000000,0 91.190932000000,37.205714000000,0 91.218539000000,37.199160000000,0 91.235486000000,37.179198000000,0 91.256259000000,37.176889000000,0 91.280313000000,37.163776000000,0 91.287556000000,37.103473000000,0 91.303546000000,37.081770000000,0 91.303136000000,37.062075000000,0 91.291109000000,37.042749000000,0 91.314206000000,37.019908000000,0 91.303683000000,37.012592000000,0 91.244916000000,37.013787000000,0 91.216352000000,37.010203000000,0 91.190796000000,37.024686000000,0 91.133669000000,37.007739000000,0 91.127109000000,36.978391000000,0 91.110709000000,36.970174000000,0 91.048936000000,36.966439000000,0 91.037046000000,36.929526000000,0 90.983745000000,36.913679000000,0 90.965979000000,36.918463000000,0 90.873592000000,36.920556000000,0 90.854185000000,36.915548000000,0 90.813732000000,36.881901000000,0 90.789132000000,36.845695000000,0 90.756469000000,36.825191000000,0 90.733645000000,36.827287000000,0 90.722439000000,36.798168000000,0 90.727085000000,36.756005000000,0 90.755102000000,36.721239000000,0 90.722165000000,36.710071000000,0 90.719432000000,36.690580000000,0 90.708088000000,36.684657000000,0 90.706038000000,36.659159000000,0 90.723122000000,36.661260000000,0 90.735559000000,36.633428000000,0 90.722439000000,36.619922000000,0 90.741025000000,36.585845000000,0 90.779155000000,36.582016000000,0 90.812912000000,36.585619000000,0 90.826579000000,36.576460000000,0 90.817559000000,36.565797000000,0 90.833002000000,36.558061000000,0 90.906939000000,36.559563000000,0 91.011352000000,36.539809000000,0 91.035269000000,36.528315000000,0 91.027889000000,36.504870000000,0 91.039779000000,36.474802000000,0 91.028299000000,36.443293000000,0 91.052626000000,36.426443000000,0 91.032809000000,36.396571000000,0 91.042102000000,36.386034000000,0 91.029256000000,36.356899000000,0 91.036226000000,36.339804000000,0 91.026386000000,36.323685000000,0 91.074082000000,36.297616000000,0 91.076132000000,36.287744000000,0 91.052216000000,36.265056000000,0 91.047842000000,36.244397000000,0 91.096906000000,36.219358000000,0 91.093352000000,36.184199000000,0 91.102099000000,36.173935000000,0 91.091439000000,36.161330000000,0 91.104832000000,36.156725000000,0 91.122599000000,36.154913000000,0 91.146652000000,36.139813000000,0 91.229882000000,36.117761000000,0 91.255029000000,36.107942000000,0 91.291929000000,36.081348000000,0 91.316393000000,36.074320000000,0 91.391969000000,36.065327000000,0 91.477249000000,36.091699000000,0 91.523579000000,36.120556000000,0 91.527680000000,36.133017000000,0 91.571413000000,36.155064000000,0 91.548863000000,36.095250000000,0 91.582893000000,36.060792000000,0 91.632640000000,36.037735000000,0 91.646033000000,36.043405000000,0 91.679516000000,36.037130000000,0 91.719560000000,36.020571000000,0 91.763566000000,36.008773000000,0 91.793223000000,36.005520000000,0 91.885473000000,36.024957000000,0 91.909937000000,36.015579000000,0 91.967747000000,36.006579000000,0 91.974307000000,35.988500000000,0 92.033620000000,35.961639000000,0 92.141314000000,35.935147000000,0 92.151017000000,35.928333000000,0 92.258027000000,35.907813000000,0 92.314334000000,35.911372000000,0 92.351234000000,35.896528000000,0 92.369411000000,35.910236000000,0 92.406311000000,35.915158000000,0 92.452231000000,35.898270000000,0 92.497057000000,35.894256000000,0 92.591904000000,35.878499000000,0 92.695498000000,35.877439000000,0 92.756178000000,35.869181000000,0 92.839818000000,35.867893000000,0 92.915531000000,35.847963000000,0 92.993978000000,35.833334000000,0 93.016255000000,35.849175000000,0 93.067095000000,35.841521000000,0 93.086911000000,35.807178000000,0 93.147045000000,35.800050000000,0 93.174105000000,35.791329000000,0 93.225492000000,35.790571000000,0 93.265398000000,35.777525000000,0 93.385528000000,35.777070000000,0 93.408488000000,35.772139000000,0 93.448532000000,35.773580000000,0 93.516045000000,35.757117000000,0 93.531079000000,35.761290000000,0 93.539415000000,35.781241000000,0 93.587112000000,35.771001000000,0 93.627565000000,35.755903000000,0 93.660639000000,35.753703000000,0 93.681412000000,35.765008000000,0 93.697539000000,35.751881000000,0 93.726922000000,35.750743000000,0 93.761909000000,35.756282000000,0 93.781452000000,35.730556000000,0 93.835846000000,35.722207000000,0 93.850332000000,35.709681000000,0 93.889146000000,35.702165000000,0 93.933972000000,35.706568000000,0 93.963493000000,35.688649000000,0 94.008456000000,35.673611000000,0 94.032373000000,35.648694000000,0 94.062029000000,35.636461000000,0 94.092916000000,35.642160000000,0 94.122436000000,35.640412000000,0 94.155236000000,35.669434000000,0 94.196099000000,35.661837000000,0 94.214003000000,35.648846000000,0 94.239013000000,35.661002000000,0 94.267576000000,35.660774000000,0 94.253500000000,35.653861000000,0 94.280423000000,35.633041000000,0 94.313770000000,35.638285000000,0 94.343836000000,35.628482000000,0 94.363516000000,35.628862000000,0 94.384290000000,35.617081000000,0 94.407386000000,35.614041000000,0 94.434036000000,35.623618000000,0 94.461370000000,35.606135000000,0 94.488840000000,35.602182000000,0 94.506470000000,35.609708000000,0 94.579860000000,35.601726000000,0 94.591613000000,35.592831000000,0 94.642317000000,35.606287000000,0 94.649013000000,35.597469000000,0 94.686870000000,35.587889000000,0 94.711607000000,35.594124000000,0 94.718030000000,35.607352000000,0 94.768324000000,35.608036000000,0 94.786774000000,35.590930000000,0 94.815884000000,35.616473000000,0 94.828184000000,35.583099000000,0 94.838297000000,35.573821000000,0 94.852100000000,35.586292000000,0 94.894604000000,35.589562000000,0 94.931640000000,35.579068000000,0 94.941480000000,35.566748000000,0 94.976604000000,35.572224000000,0 95.009814000000,35.546135000000,0 95.021294000000,35.552068000000,0 95.090311000000,35.545298000000,0 95.099331000000,35.516840000000,0 95.113407000000,35.511665000000,0 95.126937000000,35.535331000000,0 95.118737000000,35.579601000000,0 95.148257000000,35.577167000000,0 95.156184000000,35.595872000000,0 95.143201000000,35.629926000000,0 95.174634000000,35.636385000000,0 95.155637000000,35.656748000000,0 95.166707000000,35.672700000000,0 95.175181000000,35.647707000000,0 95.211944000000,35.639652000000,0 95.249801000000,35.647175000000,0 95.279047000000,35.637677000000,0 95.321004000000,35.640488000000,0 95.357631000000,35.626050000000,0 95.371708000000,35.602791000000,0 95.396991000000,35.597773000000,0 95.433754000000,35.601270000000,0 95.460268000000,35.617309000000,0 95.468604000000,35.646947000000,0 95.478991000000,35.657887000000,0 95.571105000000,35.653329000000,0 95.633015000000,35.659255000000,0 95.649005000000,35.646415000000,0 95.664311000000,35.653937000000,0 95.687818000000,35.648618000000,0 95.736745000000,35.650442000000,0 95.745491000000,35.633801000000,0 95.773235000000,35.641856000000,0 95.885165000000,35.636157000000,0 95.917008000000,35.617461000000,0 95.925755000000,35.620426000000,0 95.945298000000,35.590854000000,0 95.948988000000,35.569182000000,0 95.968122000000,35.553209000000,0 95.979875000000,35.533049000000,0 95.993405000000,35.532364000000,0 96.052445000000,35.554655000000,0 96.072672000000,35.613433000000,0 96.117499000000,35.625062000000,0 96.134172000000,35.647707000000,0 96.179819000000,35.632585000000,0 96.203599000000,35.636309000000,0 96.224099000000,35.629394000000,0 96.242139000000,35.647783000000,0 96.265645000000,35.642616000000,0 96.293252000000,35.648390000000,0 96.338625000000,35.634485000000,0 96.354342000000,35.652493000000,0 96.429509000000,35.634181000000,0 96.441672000000,35.636005000000,0 96.465999000000,35.622326000000,0 96.526816000000,35.611381000000,0 96.542942000000,35.614573000000,0 96.566449000000,35.602182000000,0 96.581346000000,35.581350000000,0 96.617289000000,35.582414000000,0 96.640113000000,35.589410000000,0 96.662936000000,35.583327000000,0 96.674963000000,35.592071000000,0 96.707626000000,35.585000000000,0 96.712546000000,35.565151000000,0 96.771996000000,35.527113000000,0 96.787576000000,35.505881000000,0 96.825569000000,35.500933000000,0 96.843883000000,35.509991000000,0 96.850989000000,35.496975000000,0 96.894449000000,35.481064000000,0 96.929846000000,35.498497000000,0 96.941053000000,35.490504000000,0 96.946110000000,35.466520000000,0 96.963603000000,35.486013000000,0 97.000366000000,35.472688000000,0 97.017723000000,35.452507000000,0 97.044783000000,35.432855000000,0 97.043416000000,35.407863000000,0 97.056263000000,35.390791000000,0 97.076900000000,35.381872000000,0 97.097946000000,35.355645000000,0 97.127740000000,35.342604000000,0 97.177350000000,35.333451000000,0 97.217940000000,35.334367000000,0 97.240490000000,35.321704000000,0 97.278073000000,35.318729000000,0 97.296660000000,35.338104000000,0 97.311283000000,35.332536000000,0 97.321260000000,35.298814000000,0 97.348183000000,35.298814000000,0 97.369913000000,35.304308000000,0 97.375107000000,35.294999000000,0 97.412827000000,35.302248000000,0 97.458474000000,35.292633000000,0 97.493734000000,35.276834000000,0 97.534324000000,35.266377000000,0 97.560837000000,35.271262000000,0 97.591040000000,35.257368000000,0 97.612907000000,35.259277000000,0 97.619330000000,35.273323000000,0 97.609217000000,35.327273000000,0 97.617007000000,35.376612000000,0 97.638327000000,35.386522000000,0 97.667300000000,35.376841000000,0 97.667437000000,35.349315000000,0 97.710350000000,35.344740000000,0 97.750667000000,35.348553000000,0 97.767341000000,35.330477000000,0 97.787977000000,35.322696000000,0 97.818454000000,35.325747000000,0 97.838681000000,35.314304000000,0 97.867107000000,35.314990000000,0 97.894304000000,35.295991000000,0 97.917537000000,35.306521000000,0 97.942821000000,35.287138000000,0 98.021404000000,35.285536000000,0 98.059944000000,35.295762000000,0 98.073064000000,35.293473000000,0 98.088234000000,35.323840000000,0 98.106411000000,35.320712000000,0 98.129234000000,35.332612000000,0 98.179118000000,35.320102000000,0 98.180758000000,35.337723000000,0 98.203718000000,35.406872000000,0 98.224081000000,35.436130000000,0 98.220118000000,35.465150000000,0 98.253055000000,35.493702000000,0 98.260981000000,35.512959000000,0 98.309088000000,35.502684000000,0 98.296515000000,35.476419000000,0 98.313325000000,35.461494000000,0 98.331365000000,35.473145000000,0 98.356921000000,35.459895000000,0 98.396828000000,35.461647000000,0 98.434685000000,35.473450000000,0 98.455731000000,35.470328000000,0 98.497551000000,35.448090000000,0 98.594585000000,35.461266000000,0 98.617682000000,35.474211000000,0 98.637772000000,35.498650000000,0 98.678362000000,35.515090000000,0 98.714442000000,35.516536000000,0 98.760772000000,35.538983000000,0 98.771158000000,35.581502000000,0 98.765692000000,35.593896000000,0 98.793025000000,35.603551000000,0 98.817079000000,35.600206000000,0 98.865049000000,35.569258000000,0 98.912472000000,35.580589000000,0 98.900719000000,35.592299000000,0 98.911105000000,35.600054000000,0 98.978072000000,35.586672000000,0 99.010462000000,35.583479000000,0 99.029185000000,35.600814000000,0 99.043809000000,35.592147000000,0 99.078386000000,35.586216000000,0 99.106266000000,35.592907000000,0 99.125672000000,35.617537000000,0 99.156012000000,35.619818000000,0 99.177606000000,35.655684000000,0 99.205622000000,35.682573000000,0 99.208219000000,35.727900000000,0 99.194142000000,35.737463000000,0 99.185806000000,35.762125000000,0 99.163802000000,35.791102000000,0 99.126766000000,35.802629000000,0 99.119112000000,35.818324000000,0 99.126629000000,35.831515000000,0 99.124716000000,35.866150000000,0 99.102439000000,35.883424000000,0 99.116789000000,35.911448000000,0 99.071142000000,35.968147000000,0 99.089456000000,35.999923000000,0 99.077566000000,36.017092000000,0 99.040255000000,36.046505000000,0 99.010189000000,36.058297000000,0 99.015792000000,36.086184000000,0 98.980259000000,36.087846000000,0 98.967685000000,36.129316000000,0 98.937072000000,36.143437000000,0 98.935432000000,36.156498000000,0 98.983675000000,36.164575000000,0 98.993789000000,36.171520000000,0 98.993379000000,36.191292000000,0 99.043809000000,36.233236000000,0 99.049685000000,36.288196000000,0 99.065949000000,36.298973000000,0 99.065949000000,36.323986000000,0 99.034925000000,36.365783000000,0 98.989005000000,36.409816000000,0 98.954839000000,36.423434000000,0 98.946775000000,36.444121000000,0 98.929829000000,36.446753000000,0 98.921219000000,36.486755000000,0 98.977115000000,36.498181000000,0 99.085492000000,36.533048000000,0 99.119522000000,36.553330000000,0 99.171319000000,36.565121000000,0 99.263159000000,36.604236000000,0 99.334499000000,36.620897000000,0 99.355409000000,36.632828000000,0 99.374269000000,36.654959000000,0 99.395179000000,36.657434000000,0 99.427159000000,36.671534000000,0 99.446839000000,36.686981000000,0 99.422786000000,36.740722000000,0 99.430986000000,36.760499000000,0 99.387389000000,36.798318000000,0 99.297462000000,36.849661000000,0 99.277646000000,36.893642000000,0 99.264526000000,36.905231000000,0 99.160112000000,36.954560000000,0 99.155329000000,36.970099000000,0 99.197969000000,36.961135000000,0 99.231042000000,36.976673000000,0 99.249082000000,37.031852000000,0 99.271769000000,37.089079000000,0 99.286802000000,37.106530000000,0 99.299649000000,37.106977000000,0 99.321789000000,37.123679000000,0 99.350079000000,37.123753000000,0 99.359646000000,37.135084000000,0 99.368529000000,37.175324000000,0 99.382743000000,37.167054000000,0 99.408846000000,37.170332000000,0 99.415953000000,37.163403000000,0 99.454356000000,37.156622000000,0 99.454356000000,37.174430000000,0 99.430713000000,37.182848000000,0 99.436999000000,37.216362000000,0 99.423196000000,37.242195000000,0 99.439323000000,37.280295000000,0 99.434539000000,37.313840000000,0 99.418276000000,37.330569000000,0 99.417046000000,37.370111000000,0 99.464879000000,37.398565000000,0 99.476086000000,37.411785000000,0 99.473353000000,37.460191000000,0 99.463649000000,37.482675000000,0 99.500959000000,37.544083000000,0 99.543053000000,37.563504000000,0 99.541549000000,37.596774000000,0 99.559589000000,37.610552000000,0 99.590749000000,37.610996000000,0 99.635850000000,37.654017000000,0 99.686143000000,37.667266000000,0 99.697350000000,37.682807000000,0 99.689150000000,37.719869000000,0 99.657716000000,37.735843000000,0 99.649516000000,37.756839000000,0 99.648423000000,37.793052000000,0 99.661543000000,37.812038000000,0 99.606466000000,37.829174000000,0 99.600453000000,37.836780000000,0 99.555079000000,37.845197000000,0 99.512439000000,37.857748000000,0 99.498089000000,37.838404000000,0 99.477453000000,37.846009000000,0 99.474036000000,37.873175000000,0 99.438366000000,37.897305000000,0 99.417456000000,37.902543000000,0 99.375226000000,37.924083000000,0 99.392309000000,37.947238000000,0 99.358963000000,37.967364000000,0 99.359646000000,37.979452000000,0 99.380693000000,38.007083000000,0 99.411716000000,38.025352000000,0 99.441373000000,38.017544000000,0 99.499456000000,38.032643000000,0 99.523919000000,38.034631000000,0 99.559589000000,38.029476000000,0 99.615623000000,38.053261000000,0 99.652933000000,38.051199000000,0 99.684503000000,38.071002000000,0 99.647330000000,38.076670000000,0 99.622593000000,38.095141000000,0 99.579269000000,38.109635000000,0 99.594713000000,38.162512000000,0 99.585009000000,38.200215000000,0 99.560136000000,38.207121000000,0 99.548656000000,38.202125000000,0 99.524193000000,38.209546000000,0 99.498499000000,38.250676000000,0 99.469116000000,38.248400000000,0 99.438639000000,38.258459000000,0 99.401603000000,38.256917000000,0 99.364019000000,38.247298000000,0 99.321379000000,38.265653000000,0 99.283932000000,38.274535000000,0 99.250312000000,38.301836000000,0 99.259742000000,38.315408000000,0 99.247442000000,38.328685000000,0 99.223662000000,38.328465000000,0 99.212456000000,38.316215000000,0 99.172686000000,38.308219000000,0 99.168176000000,38.288040000000,0 99.146719000000,38.290682000000,0 99.122939000000,38.273214000000,0 99.089319000000,38.263010000000,0 99.039982000000,38.256990000000,0 99.013059000000,38.267195000000,0 99.002945000000,38.278499000000,0 98.947459000000,38.271599000000,0 98.907825000000,38.288700000000,0 98.908235000000,38.298974000000,0 98.938712000000,38.324871000000,0 98.936389000000,38.341813000000,0 98.909739000000,38.350246000000,0 98.909192000000,38.363517000000,0 98.955249000000,38.390344000000,0 98.979849000000,38.389318000000,0 98.983539000000,38.396866000000,0 98.969462000000,38.422655000000,0 98.948142000000,38.444041000000,0 98.881859000000,38.475011000000,0 98.816395000000,38.482257000000,0 98.778402000000,38.477792000000,0 98.735625000000,38.485258000000,0 98.717312000000,38.502675000000,0 98.711572000000,38.520892000000,0 98.683008000000,38.530328000000,0 98.637772000000,38.522135000000,0 98.608525000000,38.526890000000,0 98.562332000000,38.553145000000,0 98.538962000000,38.579536000000,0 98.508758000000,38.586187000000,0 98.468851000000,38.588160000000,0 98.418148000000,38.598391000000,0 98.368128000000,38.615634000000,0 98.295695000000,38.663250000000,0 98.275058000000,38.662520000000,0 98.273965000000,38.643025000000,0 98.246494000000,38.663689000000,0 98.182534000000,38.667558000000,0 98.157251000000,38.696023000000,0 98.136614000000,38.710616000000,0 98.141944000000,38.737387000000,0 98.128551000000,38.757003000000,0 98.112014000000,38.759336000000,0 98.093291000000,38.786307000000,0</coordinates></LinearRing></outerBoundaryIs></Polygon><Polygon><outerBoundaryIs><LinearRing><coordinates>92.560881000000,32.731876000000,0 92.581381000000,32.754840000000,0 92.594637000000,32.821416000000,0 92.596277000000,32.869961000000,0 92.629761000000,32.886843000000,0 92.649031000000,32.902702000000,0 92.656548000000,32.940845000000,0 92.674588000000,32.952615000000,0 92.697001000000,32.982972000000,0 92.689621000000,32.997951000000,0 92.703288000000,33.023511000000,0 92.729801000000,33.038248000000,0 92.731851000000,33.061132000000,0 92.718048000000,33.101635000000,0 92.673494000000,33.133038000000,0 92.670624000000,33.147287000000,0 92.711898000000,33.191349000000,0 92.710258000000,33.217948000000,0 92.721054000000,33.232105000000,0 92.708208000000,33.249935000000,0 92.679098000000,33.266979000000,0 92.633178000000,33.284880000000,0 92.620878000000,33.283551000000,0 92.598601000000,33.301604000000,0 92.610628000000,33.319029000000,0 92.599147000000,33.352150000000,0 92.620468000000,33.367534000000,0 92.655591000000,33.381979000000,0 92.657231000000,33.409145000000,0 92.684564000000,33.446444000000,0 92.698094000000,33.472965000000,0 92.734311000000,33.458224000000,0 92.760278000000,33.473979000000,0 92.793898000000,33.469378000000,0 92.815491000000,33.477333000000,0 92.848974000000,33.499167000000,0 92.855944000000,33.512732000000,0 92.851981000000,33.534167000000,0 92.819044000000,33.555208000000,0 92.807564000000,33.570790000000,0 92.815081000000,33.593768000000,0 92.812894000000,33.616429000000,0 92.784331000000,33.636827000000,0 92.797724000000,33.684610000000,0 92.756451000000,33.703747000000,0 92.773808000000,33.723579000000,0 92.756724000000,33.746362000000,0 92.752761000000,33.765329000000,0 92.761918000000,33.791597000000,0 92.746338000000,33.814827000000,0 92.741691000000,33.847448000000,0 92.752761000000,33.869421000000,0 92.741828000000,33.899149000000,0 92.742784000000,33.915755000000,0 92.723651000000,33.922816000000,0 92.706704000000,33.944925000000,0 92.739914000000,33.994629000000,0 92.758228000000,34.002535000000,0 92.782281000000,34.035704000000,0 92.829568000000,34.030513000000,0 92.852528000000,34.045234000000,0 92.868654000000,34.044149000000,0 92.878085000000,34.060572000000,0 92.902685000000,34.068705000000,0 92.911841000000,34.093253000000,0 92.870568000000,34.090001000000,0 92.833531000000,34.078695000000,0 92.826834000000,34.071106000000,0 92.803464000000,34.082568000000,0 92.753854000000,34.068008000000,0 92.735268000000,34.076837000000,0 92.713401000000,34.070331000000,0 92.690578000000,34.083497000000,0 92.690851000000,34.092789000000,0 92.652584000000,34.121897000000,0 92.661604000000,34.138460000000,0 92.644658000000,34.173045000000,0 92.631811000000,34.187123000000,0 92.612814000000,34.239545000000,0 92.592861000000,34.276406000000,0 92.578647000000,34.290390000000,0 92.554457000000,34.342053000000,0 92.540791000000,34.379950000000,0 92.546394000000,34.401939000000,0 92.513731000000,34.415901000000,0 92.491317000000,34.378252000000,0 92.438701000000,34.380799000000,0 92.424214000000,34.389749000000,0 92.365311000000,34.379332000000,0 92.298617000000,34.382650000000,0 92.232060000000,34.377635000000,0 92.204864000000,34.398545000000,0 92.167007000000,34.403019000000,0 92.099357000000,34.434719000000,0 92.066284000000,34.442431000000,0 92.004920000000,34.473885000000,0 91.940277000000,34.487218000000,0 91.930573000000,34.517577000000,0 91.966380000000,34.555318000000,0 91.958590000000,34.576568000000,0 91.879597000000,34.585113000000,0 91.853630000000,34.592656000000,0 91.828620000000,34.620745000000,0 91.808257000000,34.625054000000,0 91.760833000000,34.625131000000,0 91.738556000000,34.646363000000,0 91.726530000000,34.667206000000,0 91.704116000000,34.670513000000,0 91.675416000000,34.661746000000,0 91.591776000000,34.695347000000,0 91.545720000000,34.708491000000,0 91.453469000000,34.724323000000,0 91.350013000000,34.761969000000,0 91.321586000000,34.789924000000,0 91.263776000000,34.789387000000,0 91.232752000000,34.802823000000,0 91.166606000000,34.799522000000,0 91.126426000000,34.781017000000,0 91.096496000000,34.796220000000,0 91.059186000000,34.796451000000,0 91.060006000000,34.762430000000,0 91.024336000000,34.766271000000,0 91.003836000000,34.745146000000,0 90.961059000000,34.755747000000,0 90.942062000000,34.773260000000,0 90.948212000000,34.798140000000,0 90.923885000000,34.811729000000,0 90.918829000000,34.834448000000,0 90.876872000000,34.853095000000,0 90.846395000000,34.860921000000,0 90.781342000000,34.890453000000,0 90.728589000000,34.887538000000,0 90.717108000000,34.900115000000,0 90.679798000000,34.903183000000,0 90.653832000000,34.895898000000,0 90.638252000000,34.919284000000,0 90.607365000000,34.925417000000,0 90.570602000000,34.921124000000,0 90.535888000000,34.924344000000,0 90.443365000000,34.927027000000,0 90.422455000000,34.939598000000,0 90.375031000000,34.931549000000,0 90.340591000000,34.936455000000,0 90.305058000000,34.922887000000,0 90.272395000000,34.927180000000,0 90.252578000000,34.943200000000,0 90.221145000000,34.942280000000,0 90.203241000000,34.932009000000,0 90.183425000000,34.907783000000,0 90.185065000000,34.892447000000,0 90.167708000000,34.879408000000,0 90.121241000000,34.866291000000,0 90.105388000000,34.877414000000,0 90.089808000000,34.902876000000,0 90.019834000000,34.913380000000,0 89.968721000000,34.900499000000,0 89.946581000000,34.890989000000,0 89.928131000000,34.872505000000,0 89.904487000000,34.871738000000,0 89.866084000000,34.900192000000,0 89.867451000000,34.906786000000,0 89.830687000000,34.898428000000,0 89.821394000000,34.902876000000,0 89.823307000000,34.882323000000,0 89.811554000000,34.871047000000,0 89.846267000000,34.857315000000,0 89.851597000000,34.821401000000,0 89.867724000000,34.810577000000,0 89.825904000000,34.796835000000,0 89.828364000000,34.782629000000,0 89.807591000000,34.768805000000,0 89.808274000000,34.748910000000,0 89.770964000000,34.749525000000,0 89.763037000000,34.739998000000,0 89.732561000000,34.732238000000,0 89.736387000000,34.713948000000,0 89.723541000000,34.704033000000,0 89.737754000000,34.679817000000,0 89.726001000000,34.663207000000,0 89.743357000000,34.644748000000,0 89.774381000000,34.636440000000,0 89.785861000000,34.641133000000,0 89.798707000000,34.628824000000,0 89.792831000000,34.601122000000,0 89.777797000000,34.593888000000,0 89.777934000000,34.574412000000,0 89.814971000000,34.548772000000,0 89.811691000000,34.504249000000,0 89.818387000000,34.485908000000,0 89.808137000000,34.474733000000,0 89.823307000000,34.455384000000,0 89.818797000000,34.419758000000,0 89.799527000000,34.396230000000,0 89.823991000000,34.384425000000,0 89.820574000000,34.369069000000,0 89.841074000000,34.356256000000,0 89.862121000000,34.356256000000,0 89.871551000000,34.341435000000,0 89.864991000000,34.322905000000,0 89.825494000000,34.293711000000,0 89.837931000000,34.264276000000,0 89.822351000000,34.225476000000,0 89.826451000000,34.200657000000,0 89.805267000000,34.189830000000,0 89.817021000000,34.169487000000,0 89.785587000000,34.149990000000,0 89.760441000000,34.152466000000,0 89.756887000000,34.125303000000,0 89.712061000000,34.131882000000,0 89.693201000000,34.126077000000,0 89.681037000000,34.105796000000,0 89.656164000000,34.096892000000,0 89.651107000000,34.083342000000,0 89.656437000000,34.057861000000,0 89.634980000000,34.049340000000,0 89.651381000000,34.036634000000,0 89.679534000000,33.995404000000,0 89.691697000000,33.957954000000,0 89.718621000000,33.946786000000,0 89.731877000000,33.921730000000,0 89.765634000000,33.909315000000,0 89.763994000000,33.898528000000,0 89.795017000000,33.865539000000,0 89.837247000000,33.869033000000,0 89.862394000000,33.853039000000,0 89.874147000000,33.827566000000,0 89.895194000000,33.821120000000,0 89.899841000000,33.807680000000,0 89.925808000000,33.809156000000,0 89.933598000000,33.797036000000,0 89.902301000000,33.758411000000,0 89.907357000000,33.741075000000,0 89.939474000000,33.741230000000,0 89.983754000000,33.725834000000,0 89.981294000000,33.703280000000,0 90.004254000000,33.693712000000,0 89.992774000000,33.668115000000,0 90.000974000000,33.659243000000,0 89.984028000000,33.612147000000,0 89.988128000000,33.583643000000,0 90.008218000000,33.556766000000,0 90.024208000000,33.546714000000,0 90.081061000000,33.530582000000,0 90.091858000000,33.469768000000,0 90.107711000000,33.461110000000,0 90.188071000000,33.440983000000,0 90.225655000000,33.436302000000,0 90.246428000000,33.424051000000,0 90.333075000000,33.310747000000,0 90.367378000000,33.281440000000,0 90.387878000000,33.277141000000,0 90.407148000000,33.260490000000,0 90.480948000000,33.265806000000,0 90.519898000000,33.242975000000,0 90.543678000000,33.238440000000,0 90.564315000000,33.221155000000,0 90.595885000000,33.206997000000,0 90.632238000000,33.174525000000,0 90.682122000000,33.151123000000,0 90.705628000000,33.135778000000,0 90.740205000000,33.142276000000,0 90.763165000000,33.136013000000,0 90.804302000000,33.114401000000,0 90.843935000000,33.110799000000,0 90.884252000000,33.119178000000,0 90.902292000000,33.083149000000,0 90.911449000000,33.110172000000,0 90.927575000000,33.120275000000,0 90.952859000000,33.115811000000,0 91.011899000000,33.121528000000,0 91.037592000000,33.098659000000,0 91.071486000000,33.113227000000,0 91.133669000000,33.074061000000,0 91.147746000000,33.072337000000,0 91.162369000000,33.109389000000,0 91.188062000000,33.106491000000,0 91.194759000000,33.123485000000,0 91.215396000000,33.126931000000,0 91.225919000000,33.141415000000,0 91.261453000000,33.141337000000,0 91.311609000000,33.107980000000,0 91.373929000000,33.099677000000,0 91.404816000000,33.080564000000,0 91.426956000000,33.079075000000,0 91.435976000000,33.066147000000,0 91.458799000000,33.073826000000,0 91.461806000000,33.091766000000,0 91.501303000000,33.107588000000,0 91.511006000000,33.098659000000,0 91.535606000000,33.099991000000,0 91.560070000000,33.076176000000,0 91.554193000000,33.061603000000,0 91.580706000000,33.039424000000,0 91.664483000000,33.013084000000,0 91.664756000000,32.999755000000,0 91.683206000000,32.990109000000,0 91.725573000000,32.983992000000,0 91.730220000000,32.972541000000,0 91.751266000000,32.969638000000,0 91.780786000000,32.946103000000,0 91.799237000000,32.941944000000,0 91.811810000000,32.954655000000,0 91.838323000000,32.949398000000,0 91.860053000000,32.902231000000,0 91.896953000000,32.907255000000,0 91.893947000000,32.885901000000,0 91.922510000000,32.869490000000,0 91.940960000000,32.836187000000,0 91.957770000000,32.819609000000,0 91.992620000000,32.824480000000,0 91.997677000000,32.835165000000,0 92.019680000000,32.829430000000,0 92.026650000000,32.851190000000,0 92.039770000000,32.861479000000,0 92.102090000000,32.860380000000,0 92.118627000000,32.876793000000,0 92.145687000000,32.885744000000,0 92.153477000000,32.873573000000,0 92.205274000000,32.866191000000,0 92.205000000000,32.857788000000,0 92.230694000000,32.840272000000,0 92.227414000000,32.820945000000,0 92.193794000000,32.802085000000,0 92.209510000000,32.792339000000,0 92.198714000000,32.754840000000,0 92.220444000000,32.734000000000,0 92.234110000000,32.738483000000,0 92.255294000000,32.720785000000,0 92.290964000000,32.729280000000,0 92.301077000000,32.749335000000,0 92.330870000000,32.747448000000,0 92.336337000000,32.738719000000,0 92.358341000000,32.749650000000,0 92.355881000000,32.764589000000,0 92.410957000000,32.747841000000,0 92.453871000000,32.764668000000,0 92.488037000000,32.743830000000,0 92.506214000000,32.744774000000,0 92.524664000000,32.734157000000,0 92.560881000000,32.731876000000,0</coordinates></LinearRing></outerBoundaryIs></Polygon></MultiGeometry>
    </Placemark>
  </Document>
</kml>
