<?xml version="1.0" encoding="UTF-8"?>
<kml xmlns="http://www.opengis.net/kml/2.2">
  <Document>
    <name>玉树藏族自治州</name>
    <Placemark>
      <name>玉树藏族自治州</name>
      <Polygon><outerBoundaryIs><LinearRing><coordinates>92.560881000000,32.731876000000,0 92.600104000000,32.743594000000,0 92.609398000000,32.728022000000,0 92.624431000000,32.732505000000,0 92.636184000000,32.720471000000,0 92.667754000000,32.731876000000,0 92.687981000000,32.766005000000,0 92.711761000000,32.753817000000,0 92.756314000000,32.743201000000,0 92.789388000000,32.720077000000,0 92.822734000000,32.729752000000,0 92.876991000000,32.696948000000,0 92.879178000000,32.710795000000,0 92.913891000000,32.704579000000,0 92.938355000000,32.720077000000,0 92.964458000000,32.714650000000,0 92.983455000000,32.721965000000,0 93.000538000000,32.740842000000,0 93.020901000000,32.734472000000,0 93.023771000000,32.703085000000,0 93.047551000000,32.693958000000,0 93.048645000000,32.670113000000,0 93.067231000000,32.626498000000,0 93.107411000000,32.637286000000,0 93.117251000000,32.647442000000,0 93.159618000000,32.644765000000,0 93.175335000000,32.670427000000,0 93.210458000000,32.655314000000,0 93.239705000000,32.662320000000,0 93.262802000000,32.625238000000,0 93.302982000000,32.617915000000,0 93.313368000000,32.602950000000,0 93.308448000000,32.580421000000,0 93.338378000000,32.571202000000,0 93.385665000000,32.525175000000,0 93.393045000000,32.540940000000,0 93.413955000000,32.557806000000,0 93.446892000000,32.561983000000,0 93.463565000000,32.554812000000,0 93.474635000000,32.530457000000,0 93.477095000000,32.503966000000,0 93.501695000000,32.503414000000,0 93.516455000000,32.475969000000,0 93.534359000000,32.486380000000,0 93.554995000000,32.485986000000,0 93.572489000000,32.501206000000,0 93.620459000000,32.523992000000,0 93.651482000000,32.571675000000,0 93.678679000000,32.568050000000,0 93.722002000000,32.578136000000,0 93.751659000000,32.563086000000,0 93.763002000000,32.568602000000,0 93.822589000000,32.547561000000,0 93.827782000000,32.520997000000,0 93.850469000000,32.510905000000,0 93.868646000000,32.473918000000,0 93.898029000000,32.472656000000,0 93.913199000000,32.462085000000,0 93.929052000000,32.476679000000,0 93.959939000000,32.484960000000,0 93.978799000000,32.459876000000,0 93.996293000000,32.463269000000,0 94.011189000000,32.446148000000,0 94.031826000000,32.449147000000,0 94.052736000000,32.470605000000,0 94.091823000000,32.463348000000,0 94.102346000000,32.447726000000,0 94.137606000000,32.433839000000,0 94.153049000000,32.454512000000,0 94.180793000000,32.455932000000,0 94.187899000000,32.470132000000,0 94.177649000000,32.483146000000,0 94.196783000000,32.516187000000,0 94.232453000000,32.510037000000,0 94.244753000000,32.516976000000,0 94.292176000000,32.502783000000,0 94.294226000000,32.519814000000,0 94.353540000000,32.532900000000,0 94.371306000000,32.524860000000,0 94.383470000000,32.549531000000,0 94.376910000000,32.562219000000,0 94.395223000000,32.594207000000,0 94.434173000000,32.563165000000,0 94.463420000000,32.572463000000,0 94.462190000000,32.605235000000,0 94.479273000000,32.607283000000,0 94.485697000000,32.594758000000,0 94.508930000000,32.603738000000,0 94.535443000000,32.598224000000,0 94.565647000000,32.627443000000,0 94.593800000000,32.628939000000,0 94.601180000000,32.663344000000,0 94.614573000000,32.673576000000,0 94.638490000000,32.645474000000,0 94.690833000000,32.612638000000,0 94.703680000000,32.598303000000,0 94.717210000000,32.604132000000,0 94.737573000000,32.587432000000,0 94.743997000000,32.562298000000,0 94.772014000000,32.555284000000,0 94.757664000000,32.546063000000,0 94.760260000000,32.527146000000,0 94.785817000000,32.524465000000,0 94.806864000000,32.486301000000,0 94.842124000000,32.475890000000,0 94.854287000000,32.463348000000,0 94.889957000000,32.472340000000,0 94.903487000000,32.453170000000,0 94.912507000000,32.415686000000,0 94.944214000000,32.404320000000,0 94.980704000000,32.409609000000,0 94.994234000000,32.420659000000,0 95.057237000000,32.394610000000,0 95.075277000000,32.376055000000,0 95.081701000000,32.384741000000,0 95.131721000000,32.387109000000,0 95.131037000000,32.398873000000,0 95.154544000000,32.401715000000,0 95.153041000000,32.387188000000,0 95.172721000000,32.393425000000,0 95.207707000000,32.388215000000,0 95.218367000000,32.396978000000,0 95.228754000000,32.363104000000,0 95.242967000000,32.363735000000,0 95.261691000000,32.348097000000,0 95.227251000000,32.344937000000,0 95.193494000000,32.332298000000,0 95.153997000000,32.332456000000,0 95.136641000000,32.323923000000,0 95.096871000000,32.322185000000,0 95.081017000000,32.297925000000,0 95.079514000000,32.280615000000,0 95.105481000000,32.259507000000,0 95.132951000000,32.264646000000,0 95.139237000000,32.274291000000,0 95.178051000000,32.282117000000,0 95.207434000000,32.297688000000,0 95.214541000000,32.321474000000,0 95.241054000000,32.320526000000,0 95.239414000000,32.286939000000,0 95.256497000000,32.254288000000,0 95.263877000000,32.211817000000,0 95.280824000000,32.200900000000,0 95.269891000000,32.194807000000,0 95.285744000000,32.172413000000,0 95.308021000000,32.164023000000,0 95.312804000000,32.148905000000,0 95.345194000000,32.154762000000,0 95.367061000000,32.151913000000,0 95.365284000000,32.176686000000,0 95.389064000000,32.186103000000,0 95.407924000000,32.179852000000,0 95.424734000000,32.159591000000,0 95.440178000000,32.157533000000,0 95.434164000000,32.124361000000,0 95.445644000000,32.117630000000,0 95.454664000000,32.062497000000,0 95.423504000000,32.051720000000,0 95.421318000000,32.033888000000,0 95.454391000000,32.007886000000,0 95.431431000000,31.999244000000,0 95.395624000000,32.001464000000,0 95.376491000000,31.990046000000,0 95.377311000000,31.977832000000,0 95.361048000000,31.959193000000,0 95.371434000000,31.944992000000,0 95.368428000000,31.929123000000,0 95.408744000000,31.918648000000,0 95.405738000000,31.899440000000,0 95.422138000000,31.881896000000,0 95.419268000000,31.872209000000,0 95.441818000000,31.830037000000,0 95.461088000000,31.815896000000,0 95.456031000000,31.803739000000,0 95.480084000000,31.795713000000,0 95.500994000000,31.774096000000,0 95.512884000000,31.749133000000,0 95.546504000000,31.739831000000,0 95.578621000000,31.748815000000,0 95.581491000000,31.768452000000,0 95.605818000000,31.768929000000,0 95.614701000000,31.783395000000,0 95.653651000000,31.778944000000,0 95.716518000000,31.763682000000,0 95.736198000000,31.764080000000,0 95.779658000000,31.749054000000,0 95.801935000000,31.703485000000,0 95.825031000000,31.682004000000,0 95.853322000000,31.714143000000,0 95.846215000000,31.736411000000,0 95.857832000000,31.742614000000,0 95.868628000000,31.772903000000,0 95.886805000000,31.792296000000,0 95.899242000000,31.817167000000,0 95.943522000000,31.819630000000,0 95.983292000000,31.816452000000,0 95.988895000000,31.787448000000,0 96.046432000000,31.732038000000,0 96.064882000000,31.720586000000,0 96.106975000000,31.710246000000,0 96.108479000000,31.699428000000,0 96.135675000000,31.702053000000,0 96.148385000000,31.686540000000,0 96.153032000000,31.652322000000,0 96.148385000000,31.631148000000,0 96.160412000000,31.601051000000,0 96.193485000000,31.605670000000,0 96.204965000000,31.598981000000,0 96.225192000000,31.624939000000,0 96.222869000000,31.653038000000,0 96.248972000000,31.661395000000,0 96.252662000000,31.696166000000,0 96.222322000000,31.736173000000,0 96.230932000000,31.749769000000,0 96.206742000000,31.765749000000,0 96.177905000000,31.775606000000,0 96.183099000000,31.835836000000,0 96.202505000000,31.840761000000,0 96.214532000000,31.876497000000,0 96.189112000000,31.902853000000,0 96.218769000000,31.905393000000,0 96.253072000000,31.929758000000,0 96.294072000000,31.919282000000,0 96.351882000000,31.916108000000,0 96.368556000000,31.924520000000,0 96.389329000000,31.919917000000,0 96.408326000000,31.863713000000,0 96.407779000000,31.845764000000,0 96.431969000000,31.817247000000,0 96.433336000000,31.799687000000,0 96.465042000000,31.776639000000,0 96.519162000000,31.749213000000,0 96.526952000000,31.738558000000,0 96.565219000000,31.713189000000,0 96.576016000000,31.712950000000,0 96.616059000000,31.736809000000,0 96.632322000000,31.718120000000,0 96.661159000000,31.705712000000,0 96.668403000000,31.725039000000,0 96.691773000000,31.722256000000,0 96.722796000000,31.687017000000,0 96.753956000000,31.673888000000,0 96.775139000000,31.673888000000,0 96.790583000000,31.698394000000,0 96.821879000000,31.700303000000,0 96.837186000000,31.715495000000,0 96.833769000000,31.739194000000,0 96.819283000000,31.744442000000,0 96.802473000000,31.772426000000,0 96.798373000000,31.793806000000,0 96.766119000000,31.818915000000,0 96.760379000000,31.860457000000,0 96.794409000000,31.869271000000,0 96.809579000000,31.898170000000,0 96.782246000000,31.916187000000,0 96.774729000000,31.937137000000,0 96.755186000000,31.943405000000,0 96.741246000000,31.973867000000,0 96.743023000000,32.000750000000,0 96.721019000000,32.017955000000,0 96.732773000000,32.026754000000,0 96.747123000000,32.013674000000,0 96.783203000000,32.011058000000,0 96.796869000000,32.018272000000,0 96.840466000000,31.997737000000,0 96.847299000000,31.978784000000,0 96.868619000000,31.964904000000,0 96.863153000000,31.995676000000,0 96.889119000000,32.002891000000,0 96.894449000000,32.013753000000,0 96.942830000000,31.986953000000,0 96.966200000000,32.009393000000,0 96.946656000000,32.022394000000,0 96.935860000000,32.048154000000,0 96.957180000000,32.062577000000,0 97.006653000000,32.067806000000,0 97.028793000000,32.048788000000,0 97.075123000000,32.048947000000,0 97.099586000000,32.037296000000,0 97.130746000000,32.043875000000,0 97.169560000000,32.024218000000,0 97.188420000000,32.055128000000,0 97.213293000000,32.042924000000,0 97.231880000000,32.044826000000,0 97.232973000000,32.065033000000,0 97.201813000000,32.092048000000,0 97.219717000000,32.109077000000,0 97.256070000000,32.072877000000,0 97.307867000000,32.073907000000,0 97.293243000000,32.096722000000,0 97.313743000000,32.128953000000,0 97.271377000000,32.141226000000,0 97.275887000000,32.156108000000,0 97.264133000000,32.182622000000,0 97.276707000000,32.208495000000,0 97.281627000000,32.244008000000,0 97.299667000000,32.295001000000,0 97.319210000000,32.302825000000,0 97.344357000000,32.296897000000,0 97.342307000000,32.279904000000,0 97.367043000000,32.273817000000,0 97.417883000000,32.300928000000,0 97.413100000000,32.327478000000,0 97.416243000000,32.360260000000,0 97.386587000000,32.428078000000,0 97.341487000000,32.439757000000,0 97.349003000000,32.463032000000,0 97.366907000000,32.473445000000,0 97.388773000000,32.500102000000,0 97.350780000000,32.517055000000,0 97.334517000000,32.514532000000,0 97.331100000000,32.537551000000,0 97.341760000000,32.557412000000,0 97.356110000000,32.563638000000,0 97.374287000000,32.546300000000,0 97.411733000000,32.563480000000,0 97.411870000000,32.575063000000,0 97.448634000000,32.586723000000,0 97.464624000000,32.570966000000,0 97.463940000000,32.554733000000,0 97.502207000000,32.531008000000,0 97.531864000000,32.525490000000,0 97.540884000000,32.536999000000,0 97.584070000000,32.522494000000,0 97.591314000000,32.530693000000,0 97.620970000000,32.519183000000,0 97.629990000000,32.524387000000,0 97.669624000000,32.517212000000,0 97.684384000000,32.530457000000,0 97.703380000000,32.523362000000,0 97.731124000000,32.527303000000,0 97.705567000000,32.532900000000,0 97.631357000000,32.575457000000,0 97.610584000000,32.596019000000,0 97.606347000000,32.615237000000,0 97.543754000000,32.621695000000,0 97.530087000000,32.639412000000,0 97.501524000000,32.646497000000,0 97.470774000000,32.664131000000,0 97.423760000000,32.704973000000,0 97.424853000000,32.727786000000,0 97.385767000000,32.780234000000,0 97.380163000000,32.826287000000,0 97.391233000000,32.827623000000,0 97.382760000000,32.855353000000,0 97.387133000000,32.866427000000,0 97.375927000000,32.886137000000,0 97.354333000000,32.887471000000,0 97.350097000000,32.903958000000,0 97.361850000000,32.907019000000,0 97.369640000000,32.926563000000,0 97.362397000000,32.941002000000,0 97.375790000000,32.956694000000,0 97.410093000000,32.961951000000,0 97.447404000000,32.976306000000,0 97.465034000000,32.972070000000,0 97.523800000000,32.988619000000,0 97.500157000000,33.011595000000,0 97.541977000000,33.037464000000,0 97.537330000000,33.058233000000,0 97.516967000000,33.097484000000,0 97.487720000000,33.106726000000,0 97.497970000000,33.137892000000,0 97.485944000000,33.147600000000,0 97.487994000000,33.168186000000,0 97.518060000000,33.182586000000,0 97.529677000000,33.204102000000,0 97.546760000000,33.203711000000,0 97.576554000000,33.223345000000,0 97.577647000000,33.234451000000,0 97.606620000000,33.262601000000,0 97.605937000000,33.283395000000,0 97.621654000000,33.334263000000,0 97.636824000000,33.344574000000,0 97.676047000000,33.341059000000,0 97.676320000000,33.357539000000,0 97.702287000000,33.359725000000,0 97.722104000000,33.387210000000,0 97.749984000000,33.397358000000,0 97.753537000000,33.410159000000,0 97.711307000000,33.426470000000,0 97.674817000000,33.433024000000,0 97.664977000000,33.447692000000,0 97.645160000000,33.449019000000,0 97.625480000000,33.461500000000,0 97.604570000000,33.451827000000,0 97.582294000000,33.468754000000,0 97.552637000000,33.465634000000,0 97.542114000000,33.492695000000,0 97.512047000000,33.519436000000,0 97.518607000000,33.532141000000,0 97.525167000000,33.575776000000,0 97.472824000000,33.587382000000,0 97.450274000000,33.582007000000,0 97.437153000000,33.600232000000,0 97.415833000000,33.605528000000,0 97.405993000000,33.628497000000,0 97.435513000000,33.680331000000,0 97.417883000000,33.728556000000,0 97.423213000000,33.754913000000,0 97.409820000000,33.767661000000,0 97.406403000000,33.795171000000,0 97.368820000000,33.824149000000,0 97.371827000000,33.842012000000,0 97.398067000000,33.848302000000,0 97.388773000000,33.886111000000,0 97.460660000000,33.887352000000,0 97.468450000000,33.902098000000,0 97.482800000000,33.896976000000,0 97.504804000000,33.912264000000,0 97.525030000000,33.902564000000,0 97.601837000000,33.930031000000,0 97.633954000000,33.919092000000,0 97.644477000000,33.943373000000,0 97.659784000000,33.956326000000,0 97.661560000000,33.975092000000,0 97.652814000000,33.998427000000,0 97.661424000000,34.013696000000,0 97.687390000000,34.016641000000,0 97.702287000000,34.036711000000,0 97.695044000000,34.076605000000,0 97.681787000000,34.081948000000,0 97.664020000000,34.119498000000,0 97.637644000000,34.158501000000,0 97.627667000000,34.199651000000,0 97.607167000000,34.217668000000,0 97.588717000000,34.205451000000,0 97.582567000000,34.174051000000,0 97.567944000000,34.168249000000,0 97.541157000000,34.178305000000,0 97.526944000000,34.199342000000,0 97.496330000000,34.205760000000,0 97.479520000000,34.237303000000,0 97.474874000000,34.266826000000,0 97.452734000000,34.286759000000,0 97.413100000000,34.294793000000,0 97.404080000000,34.322519000000,0 97.360210000000,34.362508000000,0 97.338343000000,34.375242000000,0 97.316203000000,34.375937000000,0 97.303630000000,34.396693000000,0 97.317570000000,34.413356000000,0 97.346953000000,34.428627000000,0 97.327410000000,34.448907000000,0 97.324403000000,34.465560000000,0 97.302127000000,34.479897000000,0 97.275203000000,34.481207000000,0 97.225047000000,34.497237000000,0 97.209603000000,34.498007000000,0 97.177897000000,34.485292000000,0 97.146326000000,34.503401000000,0 97.158900000000,34.518810000000,0 97.181587000000,34.525897000000,0 97.200037000000,34.563711000000,0 97.197167000000,34.607433000000,0 97.148923000000,34.620053000000,0 97.129106000000,34.633209000000,0 97.105463000000,34.630363000000,0 97.073620000000,34.645210000000,0 97.064736000000,34.656901000000,0 97.073483000000,34.674665000000,0 97.118446000000,34.684737000000,0 97.138536000000,34.725168000000,0 97.113116000000,34.723401000000,0 97.075123000000,34.745914000000,0 97.011573000000,34.756208000000,0 97.000640000000,34.739537000000,0 97.003373000000,34.723939000000,0 96.980960000000,34.728473000000,0 96.951440000000,34.748680000000,0 96.935313000000,34.785471000000,0 96.956086000000,34.812036000000,0 96.995993000000,34.823933000000,0 96.996813000000,34.841201000000,0 97.017996000000,34.856624000000,0 97.023053000000,34.873042000000,0 97.007200000000,34.898658000000,0 97.047653000000,34.913840000000,0 97.079496000000,34.911617000000,0 97.121316000000,34.950557000000,0 97.220400000000,35.005257000000,0 97.217530000000,35.027694000000,0 97.204000000000,35.036728000000,0 97.225593000000,35.074537000000,0 97.241720000000,35.077292000000,0 97.276160000000,35.148728000000,0 97.338207000000,35.210400000000,0 97.371143000000,35.232398000000,0 97.370733000000,35.243319000000,0 97.343400000000,35.262712000000,0 97.348183000000,35.298814000000,0 97.321260000000,35.298814000000,0 97.311283000000,35.332536000000,0 97.296660000000,35.338104000000,0 97.278073000000,35.318729000000,0 97.240490000000,35.321704000000,0 97.217940000000,35.334367000000,0 97.177350000000,35.333451000000,0 97.127740000000,35.342604000000,0 97.097946000000,35.355645000000,0 97.076900000000,35.381872000000,0 97.056263000000,35.390791000000,0 97.043416000000,35.407863000000,0 97.044783000000,35.432855000000,0 97.017723000000,35.452507000000,0 97.000366000000,35.472688000000,0 96.963603000000,35.486013000000,0 96.946110000000,35.466520000000,0 96.941053000000,35.490504000000,0 96.929846000000,35.498497000000,0 96.894449000000,35.481064000000,0 96.850989000000,35.496975000000,0 96.843883000000,35.509991000000,0 96.825569000000,35.500933000000,0 96.787576000000,35.505881000000,0 96.771996000000,35.527113000000,0 96.712546000000,35.565151000000,0 96.707626000000,35.585000000000,0 96.674963000000,35.592071000000,0 96.662936000000,35.583327000000,0 96.640113000000,35.589410000000,0 96.617289000000,35.582414000000,0 96.581346000000,35.581350000000,0 96.566449000000,35.602182000000,0 96.542942000000,35.614573000000,0 96.526816000000,35.611381000000,0 96.465999000000,35.622326000000,0 96.441672000000,35.636005000000,0 96.429509000000,35.634181000000,0 96.354342000000,35.652493000000,0 96.338625000000,35.634485000000,0 96.293252000000,35.648390000000,0 96.265645000000,35.642616000000,0 96.242139000000,35.647783000000,0 96.224099000000,35.629394000000,0 96.203599000000,35.636309000000,0 96.179819000000,35.632585000000,0 96.134172000000,35.647707000000,0 96.117499000000,35.625062000000,0 96.072672000000,35.613433000000,0 96.052445000000,35.554655000000,0 95.993405000000,35.532364000000,0 95.979875000000,35.533049000000,0 95.968122000000,35.553209000000,0 95.948988000000,35.569182000000,0 95.945298000000,35.590854000000,0 95.925755000000,35.620426000000,0 95.917008000000,35.617461000000,0 95.885165000000,35.636157000000,0 95.773235000000,35.641856000000,0 95.745491000000,35.633801000000,0 95.736745000000,35.650442000000,0 95.687818000000,35.648618000000,0 95.664311000000,35.653937000000,0 95.649005000000,35.646415000000,0 95.633015000000,35.659255000000,0 95.571105000000,35.653329000000,0 95.478991000000,35.657887000000,0 95.468604000000,35.646947000000,0 95.460268000000,35.617309000000,0 95.433754000000,35.601270000000,0 95.396991000000,35.597773000000,0 95.371708000000,35.602791000000,0 95.357631000000,35.626050000000,0 95.321004000000,35.640488000000,0 95.279047000000,35.637677000000,0 95.249801000000,35.647175000000,0 95.211944000000,35.639652000000,0 95.175181000000,35.647707000000,0 95.166707000000,35.672700000000,0 95.155637000000,35.656748000000,0 95.174634000000,35.636385000000,0 95.143201000000,35.629926000000,0 95.156184000000,35.595872000000,0 95.148257000000,35.577167000000,0 95.118737000000,35.579601000000,0 95.126937000000,35.535331000000,0 95.113407000000,35.511665000000,0 95.099331000000,35.516840000000,0 95.090311000000,35.545298000000,0 95.021294000000,35.552068000000,0 95.009814000000,35.546135000000,0 94.976604000000,35.572224000000,0 94.941480000000,35.566748000000,0 94.931640000000,35.579068000000,0 94.894604000000,35.589562000000,0 94.852100000000,35.586292000000,0 94.838297000000,35.573821000000,0 94.828184000000,35.583099000000,0 94.815884000000,35.616473000000,0 94.786774000000,35.590930000000,0 94.768324000000,35.608036000000,0 94.718030000000,35.607352000000,0 94.711607000000,35.594124000000,0 94.686870000000,35.587889000000,0 94.649013000000,35.597469000000,0 94.642317000000,35.606287000000,0 94.591613000000,35.592831000000,0 94.579860000000,35.601726000000,0 94.506470000000,35.609708000000,0 94.488840000000,35.602182000000,0 94.461370000000,35.606135000000,0 94.434036000000,35.623618000000,0 94.407386000000,35.614041000000,0 94.384290000000,35.617081000000,0 94.363516000000,35.628862000000,0 94.343836000000,35.628482000000,0 94.313770000000,35.638285000000,0 94.280423000000,35.633041000000,0 94.253500000000,35.653861000000,0 94.267576000000,35.660774000000,0 94.239013000000,35.661002000000,0 94.214003000000,35.648846000000,0 94.196099000000,35.661837000000,0 94.155236000000,35.669434000000,0 94.122436000000,35.640412000000,0 94.092916000000,35.642160000000,0 94.062029000000,35.636461000000,0 94.032373000000,35.648694000000,0 94.008456000000,35.673611000000,0 93.963493000000,35.688649000000,0 93.933972000000,35.706568000000,0 93.889146000000,35.702165000000,0 93.850332000000,35.709681000000,0 93.835846000000,35.722207000000,0 93.781452000000,35.730556000000,0 93.761909000000,35.756282000000,0 93.726922000000,35.750743000000,0 93.697539000000,35.751881000000,0 93.681412000000,35.765008000000,0 93.660639000000,35.753703000000,0 93.627565000000,35.755903000000,0 93.587112000000,35.771001000000,0 93.539415000000,35.781241000000,0 93.531079000000,35.761290000000,0 93.516045000000,35.757117000000,0 93.448532000000,35.773580000000,0 93.408488000000,35.772139000000,0 93.385528000000,35.777070000000,0 93.265398000000,35.777525000000,0 93.225492000000,35.790571000000,0 93.174105000000,35.791329000000,0 93.147045000000,35.800050000000,0 93.086911000000,35.807178000000,0 93.067095000000,35.841521000000,0 93.016255000000,35.849175000000,0 92.993978000000,35.833334000000,0 92.915531000000,35.847963000000,0 92.839818000000,35.867893000000,0 92.756178000000,35.869181000000,0 92.695498000000,35.877439000000,0 92.591904000000,35.878499000000,0 92.497057000000,35.894256000000,0 92.452231000000,35.898270000000,0 92.406311000000,35.915158000000,0 92.369411000000,35.910236000000,0 92.351234000000,35.896528000000,0 92.314334000000,35.911372000000,0 92.258027000000,35.907813000000,0 92.151017000000,35.928333000000,0 92.141314000000,35.935147000000,0 92.033620000000,35.961639000000,0 91.974307000000,35.988500000000,0 91.967747000000,36.006579000000,0 91.909937000000,36.015579000000,0 91.885473000000,36.024957000000,0 91.793223000000,36.005520000000,0 91.763566000000,36.008773000000,0 91.719560000000,36.020571000000,0 91.679516000000,36.037130000000,0 91.646033000000,36.043405000000,0 91.632640000000,36.037735000000,0 91.582893000000,36.060792000000,0 91.548863000000,36.095250000000,0 91.571413000000,36.155064000000,0 91.527680000000,36.133017000000,0 91.523579000000,36.120556000000,0 91.477249000000,36.091699000000,0 91.391969000000,36.065327000000,0 91.316393000000,36.074320000000,0 91.291929000000,36.081348000000,0 91.255029000000,36.107942000000,0 91.229882000000,36.117761000000,0 91.146652000000,36.139813000000,0 91.122599000000,36.154913000000,0 91.104832000000,36.156725000000,0 91.124786000000,36.115495000000,0 91.111939000000,36.095024000000,0 91.081326000000,36.088375000000,0 91.039642000000,36.093890000000,0 91.033219000000,36.100010000000,0 90.979235000000,36.106809000000,0 90.964612000000,36.095250000000,0 90.949989000000,36.059129000000,0 90.927302000000,36.031308000000,0 90.872225000000,36.026393000000,0 90.852409000000,36.017168000000,0 90.815919000000,36.035769000000,0 90.787355000000,36.065175000000,0 90.776285000000,36.086335000000,0 90.742392000000,36.095930000000,0 90.714238000000,36.115118000000,0 90.662988000000,36.133923000000,0 90.615565000000,36.126447000000,0 90.568825000000,36.132413000000,0 90.550922000000,36.145098000000,0 90.527005000000,36.148496000000,0 90.490788000000,36.141172000000,0 90.479718000000,36.132262000000,0 90.423958000000,36.133998000000,0 90.373938000000,36.147514000000,0 90.345375000000,36.143286000000,0 90.329248000000,36.157857000000,0 90.236725000000,36.160575000000,0 90.198185000000,36.187444000000,0 90.151854000000,36.196197000000,0 90.130124000000,36.207816000000,0 90.133541000000,36.227278000000,0 90.145704000000,36.238967000000,0 90.128484000000,36.246735000000,0 90.058374000000,36.255556000000,0 90.043478000000,36.276589000000,0 90.003571000000,36.278549000000,0 90.027761000000,36.259854000000,0 90.019971000000,36.213700000000,0 90.009038000000,36.184274000000,0 89.982388000000,36.155970000000,0 89.946581000000,36.141549000000,0 89.937288000000,36.130072000000,0 89.946308000000,36.111492000000,0 89.947128000000,36.069937000000,0 89.912277000000,36.079232000000,0 89.859661000000,36.081726000000,0 89.848181000000,36.075907000000,0 89.812237000000,36.079534000000,0 89.794197000000,36.070995000000,0 89.730921000000,36.083464000000,0 89.712334000000,36.092757000000,0 89.689374000000,36.091246000000,0 89.658897000000,36.069483000000,0 89.643727000000,36.068274000000,0 89.637850000000,36.050134000000,0 89.605187000000,36.038264000000,0 89.562547000000,36.035543000000,0 89.514167000000,36.025335000000,0 89.474124000000,36.022613000000,0 89.440367000000,36.031762000000,0 89.417544000000,36.044766000000,0 89.404697000000,36.021554000000,0 89.434900000000,35.993191000000,0 89.426974000000,35.966860000000,0 89.434490000000,35.947107000000,0 89.421507000000,35.932497000000,0 89.428067000000,35.917430000000,0 89.472757000000,35.900466000000,0 89.489977000000,35.903496000000,0 89.541637000000,35.882060000000,0 89.531797000000,35.874408000000,0 89.550520000000,35.857133000000,0 89.607237000000,35.861149000000,0 89.660264000000,35.848190000000,0 89.707551000000,35.849251000000,0 89.741171000000,35.858800000000,0 89.778754000000,35.861528000000,0 89.801987000000,35.847811000000,0 89.786681000000,35.833638000000,0 89.781624000000,35.807709000000,0 89.767684000000,35.798989000000,0 89.781624000000,35.777904000000,0 89.779984000000,35.763414000000,0 89.763857000000,35.765766000000,0 89.746911000000,35.754689000000,0 89.752514000000,35.731771000000,0 89.740761000000,35.715527000000,0 89.748824000000,35.662749000000,0 89.725317000000,35.649834000000,0 89.742401000000,35.621794000000,0 89.765907000000,35.599750000000,0 89.764267000000,35.587357000000,0 89.744587000000,35.579753000000,0 89.719167000000,35.583935000000,0 89.709191000000,35.576863000000,0 89.700034000000,35.537461000000,0 89.705364000000,35.507403000000,0 89.720124000000,35.501770000000,0 89.741034000000,35.507327000000,0 89.765224000000,35.482510000000,0 89.744177000000,35.479769000000,0 89.738984000000,35.468653000000,0 89.686367000000,35.414721000000,0 89.658487000000,35.425541000000,0 89.617487000000,35.410835000000,0 89.599310000000,35.391934000000,0 89.536034000000,35.369141000000,0 89.507334000000,35.372496000000,0 89.497220000000,35.361364000000,0 89.516217000000,35.333299000000,0 89.495170000000,35.293549000000,0 89.531797000000,35.276376000000,0 89.485740000000,35.256757000000,0 89.458680000000,35.238508000000,0 89.450480000000,35.223921000000,0 89.469067000000,35.214602000000,0 89.482597000000,35.189848000000,0 89.504464000000,35.165698000000,0 89.513074000000,35.139324000000,0 89.540817000000,35.120972000000,0 89.583047000000,35.116613000000,0 89.593024000000,35.104222000000,0 89.590700000000,35.057931000000,0 89.581544000000,35.019501000000,0 89.569244000000,35.014524000000,0 89.576760000000,34.999590000000,0 89.561180000000,34.931089000000,0 89.584414000000,34.907783000000,0 89.579084000000,34.895207000000,0 89.624320000000,34.892370000000,0 89.621177000000,34.881556000000,0 89.641540000000,34.882246000000,0 89.699214000000,34.906633000000,0 89.711787000000,34.920587000000,0 89.747047000000,34.903566000000,0 89.787501000000,34.921737000000,0 89.821394000000,34.902876000000,0 89.830687000000,34.898428000000,0 89.867451000000,34.906786000000,0 89.866084000000,34.900192000000,0 89.904487000000,34.871738000000,0 89.928131000000,34.872505000000,0 89.946581000000,34.890989000000,0 89.968721000000,34.900499000000,0 90.019834000000,34.913380000000,0 90.089808000000,34.902876000000,0 90.105388000000,34.877414000000,0 90.121241000000,34.866291000000,0 90.167708000000,34.879408000000,0 90.185065000000,34.892447000000,0 90.183425000000,34.907783000000,0 90.203241000000,34.932009000000,0 90.221145000000,34.942280000000,0 90.252578000000,34.943200000000,0 90.272395000000,34.927180000000,0 90.305058000000,34.922887000000,0 90.340591000000,34.936455000000,0 90.375031000000,34.931549000000,0 90.422455000000,34.939598000000,0 90.443365000000,34.927027000000,0 90.535888000000,34.924344000000,0 90.570602000000,34.921124000000,0 90.607365000000,34.925417000000,0 90.638252000000,34.919284000000,0 90.653832000000,34.895898000000,0 90.679798000000,34.903183000000,0 90.717108000000,34.900115000000,0 90.728589000000,34.887538000000,0 90.781342000000,34.890453000000,0 90.846395000000,34.860921000000,0 90.876872000000,34.853095000000,0 90.918829000000,34.834448000000,0 90.923885000000,34.811729000000,0 90.948212000000,34.798140000000,0 90.942062000000,34.773260000000,0 90.961059000000,34.755747000000,0 91.003836000000,34.745146000000,0 91.024336000000,34.766271000000,0 91.060006000000,34.762430000000,0 91.059186000000,34.796451000000,0 91.096496000000,34.796220000000,0 91.126426000000,34.781017000000,0 91.166606000000,34.799522000000,0 91.232752000000,34.802823000000,0 91.263776000000,34.789387000000,0 91.321586000000,34.789924000000,0 91.350013000000,34.761969000000,0 91.453469000000,34.724323000000,0 91.545720000000,34.708491000000,0 91.591776000000,34.695347000000,0 91.675416000000,34.661746000000,0 91.704116000000,34.670513000000,0 91.726530000000,34.667206000000,0 91.738556000000,34.646363000000,0 91.760833000000,34.625131000000,0 91.808257000000,34.625054000000,0 91.828620000000,34.620745000000,0 91.853630000000,34.592656000000,0 91.879597000000,34.585113000000,0 91.958590000000,34.576568000000,0 91.966380000000,34.555318000000,0 91.930573000000,34.517577000000,0 91.940277000000,34.487218000000,0 92.004920000000,34.473885000000,0 92.066284000000,34.442431000000,0 92.099357000000,34.434719000000,0 92.167007000000,34.403019000000,0 92.204864000000,34.398545000000,0 92.232060000000,34.377635000000,0 92.298617000000,34.382650000000,0 92.365311000000,34.379332000000,0 92.424214000000,34.389749000000,0 92.438701000000,34.380799000000,0 92.491317000000,34.378252000000,0 92.513731000000,34.415901000000,0 92.546394000000,34.401939000000,0 92.540791000000,34.379950000000,0 92.554457000000,34.342053000000,0 92.578647000000,34.290390000000,0 92.592861000000,34.276406000000,0 92.612814000000,34.239545000000,0 92.631811000000,34.187123000000,0 92.644658000000,34.173045000000,0 92.661604000000,34.138460000000,0 92.652584000000,34.121897000000,0 92.690851000000,34.092789000000,0 92.690578000000,34.083497000000,0 92.713401000000,34.070331000000,0 92.735268000000,34.076837000000,0 92.753854000000,34.068008000000,0 92.803464000000,34.082568000000,0 92.826834000000,34.071106000000,0 92.833531000000,34.078695000000,0 92.870568000000,34.090001000000,0 92.911841000000,34.093253000000,0 92.902685000000,34.068705000000,0 92.878085000000,34.060572000000,0 92.868654000000,34.044149000000,0 92.852528000000,34.045234000000,0 92.829568000000,34.030513000000,0 92.782281000000,34.035704000000,0 92.758228000000,34.002535000000,0 92.739914000000,33.994629000000,0 92.706704000000,33.944925000000,0 92.723651000000,33.922816000000,0 92.742784000000,33.915755000000,0 92.741828000000,33.899149000000,0 92.752761000000,33.869421000000,0 92.741691000000,33.847448000000,0 92.746338000000,33.814827000000,0 92.761918000000,33.791597000000,0 92.752761000000,33.765329000000,0 92.756724000000,33.746362000000,0 92.773808000000,33.723579000000,0 92.756451000000,33.703747000000,0 92.797724000000,33.684610000000,0 92.784331000000,33.636827000000,0 92.812894000000,33.616429000000,0 92.815081000000,33.593768000000,0 92.807564000000,33.570790000000,0 92.819044000000,33.555208000000,0 92.851981000000,33.534167000000,0 92.855944000000,33.512732000000,0 92.848974000000,33.499167000000,0 92.815491000000,33.477333000000,0 92.793898000000,33.469378000000,0 92.760278000000,33.473979000000,0 92.734311000000,33.458224000000,0 92.698094000000,33.472965000000,0 92.684564000000,33.446444000000,0 92.657231000000,33.409145000000,0 92.655591000000,33.381979000000,0 92.620468000000,33.367534000000,0 92.599147000000,33.352150000000,0 92.610628000000,33.319029000000,0 92.598601000000,33.301604000000,0 92.620878000000,33.283551000000,0 92.633178000000,33.284880000000,0 92.679098000000,33.266979000000,0 92.708208000000,33.249935000000,0 92.721054000000,33.232105000000,0 92.710258000000,33.217948000000,0 92.711898000000,33.191349000000,0 92.670624000000,33.147287000000,0 92.673494000000,33.133038000000,0 92.718048000000,33.101635000000,0 92.731851000000,33.061132000000,0 92.729801000000,33.038248000000,0 92.703288000000,33.023511000000,0 92.689621000000,32.997951000000,0 92.697001000000,32.982972000000,0 92.674588000000,32.952615000000,0 92.656548000000,32.940845000000,0 92.649031000000,32.902702000000,0 92.629761000000,32.886843000000,0 92.596277000000,32.869961000000,0 92.594637000000,32.821416000000,0 92.581381000000,32.754840000000,0 92.560881000000,32.731876000000,0</coordinates></LinearRing></outerBoundaryIs></Polygon>
    </Placemark>
  </Document>
</kml>
