<?xml version="1.0" encoding="UTF-8"?>
<kml xmlns="http://www.opengis.net/kml/2.2">
  <Document>
    <name><![CDATA[兰州市]]></name>
    <Placemark>
      <name><![CDATA[兰州市]]></name>
      <description><![CDATA[省级目录：甘肃省]]></description>
      <ExtendedData>
        <Data name="adcode"><value>620100</value></Data>
      </ExtendedData>
      <MultiGeometry>
      <Polygon>
        <outerBoundaryIs><LinearRing><coordinates>103.564881,36.973787,0 103.528532,36.970481,0 103.511832,36.961493,0 103.483669,36.966452,0 103.450104,36.981946,0 103.440607,36.995992,0 103.404586,36.999193,0 103.359396,36.996715,0 103.317152,36.986697,0 103.309457,36.949818,0 103.323702,36.946718,0 103.348098,36.958291,0 103.348589,36.926773,0 103.368237,36.907856,0 103.383464,36.920364,0 103.407861,36.923465,0 103.44159,36.950542,0 103.455998,36.935868,0 103.479576,36.940208,0 103.499879,36.913335,0 103.501353,36.895448,0 103.519691,36.902686,0 103.541631,36.878799,0 103.518053,36.849938,0 103.47319,36.874248,0 103.472535,36.861732,0 103.450759,36.831209,0 103.399019,36.826034,0 103.377897,36.853352,0 103.380353,36.878902,0 103.348425,36.895862,0 103.347607,36.916126,0 103.313223,36.907132,0 103.281131,36.915196,0 103.26574,36.907959,0 103.248057,36.916643,0 103.276219,36.954158,0 103.258208,36.958704,0 103.230537,36.937211,0 103.206141,36.941242,0 103.201393,36.92977,0 103.176833,36.932974,0 103.180271,36.945685,0 103.128695,36.951678,0 103.074336,36.945272,0 103.068114,36.959737,0 103.004421,36.946925,0 102.975932,36.947855,0 102.954974,36.92884,0 102.919607,36.935454,0 102.883095,36.901342,0 102.903398,36.878695,0 102.902415,36.865146,0 102.877855,36.856042,0 102.863447,36.838142,0 102.843471,36.845179,0 102.810397,36.841143,0 102.846255,36.808645,0 102.822677,36.794876,0 102.84298,36.77458,0 102.833156,36.762358,0 102.813508,36.762773,0 102.807614,36.773544,0 102.778305,36.761737,0 102.756856,36.717598,0 102.778142,36.691579,0 102.772575,36.673434,0 102.730659,36.672811,0 102.688743,36.684218,0 102.666475,36.707648,0 102.684977,36.743918,0 102.715268,36.745576,0 102.731477,36.762358,0 102.720671,36.770023,0 102.692509,36.775305,0 102.636676,36.733143,0 102.613426,36.738634,0 102.601309,36.709928,0 102.609005,36.6781,0 102.630618,36.650927,0 102.66582,36.633913,0 102.684486,36.618971,0 102.724273,36.61399,0 102.714777,36.600289,0 102.764552,36.575477,0 102.737699,36.57122,0 102.734425,36.562289,0 102.75309,36.525933,0 102.777323,36.516893,0 102.779124,36.502136,0 102.793041,36.499434,0 102.788784,36.481867,0 102.76668,36.465543,0 102.787966,36.447448,0 102.793532,36.427061,0 102.809742,36.407916,0 102.826279,36.406251,0 102.813017,36.388455,0 102.829718,36.365345,0 102.831846,36.365345,0 102.847401,36.355974,0 102.838887,36.345769,0 102.836431,36.344623,0 102.845436,36.332229,0 102.896685,36.331812,0 102.915841,36.315145,0 102.923701,36.29764,0 102.971347,36.283571,0 102.99165,36.264392,0 103.023578,36.257407,0 103.02145,36.232693,0 103.048302,36.226435,0 103.070897,36.206929,0 103.102661,36.211623,0 103.10741,36.221637,0 103.123128,36.195661,0 103.155711,36.19013,0 103.165863,36.176146,0 103.19075,36.180321,0 103.200902,36.170301,0 103.230374,36.168318,0 103.257881,36.15955,0 103.259846,36.146605,0 103.278184,36.151929,0 103.298323,36.145038,0 103.312895,36.152556,0 103.343022,36.125198,0 103.365617,36.119872,0 103.396727,36.128958,0 103.412282,36.123005,0 103.41048,36.07777,0 103.438315,36.069201,0 103.475646,36.110785,0 103.483342,36.098354,0 103.496604,36.108382,0 103.521819,36.101697,0 103.538848,36.105039,0 103.571267,36.091876,0 103.575033,36.06293,0 103.596318,36.069514,0 103.621697,36.025922,0 103.633322,36.017451,0 103.622352,35.99444,0 103.632831,35.982409,0 103.616785,35.959284,0 103.623989,35.934895,0 103.643801,35.931336,0 103.660993,35.914269,0 103.702581,35.927253,0 103.714697,35.909975,0 103.76742,35.89039,0 103.776425,35.896256,0 103.779863,35.848166,0 103.795909,35.852463,0 103.799184,35.841039,0 103.837334,35.841773,0 103.837498,35.815985,0 103.849614,35.803927,0 103.848959,35.774979,0 103.865005,35.794803,0 103.901354,35.774979,0 103.919855,35.757354,0 103.952111,35.746756,0 103.963736,35.735318,0 103.980928,35.735737,0 103.997956,35.716109,0 104.019569,35.713589,0 104.040036,35.68902,0 104.053135,35.68608,0 104.067543,35.664759,0 104.092431,35.657615,0 104.101436,35.636076,0 104.110769,35.638178,0 104.138931,35.618525,0 104.148591,35.635025,0 104.173151,35.649421,0 104.202787,35.614111,0 104.198039,35.598973,0 104.225382,35.578575,0 104.282198,35.571109,0 104.290057,35.589616,0 104.310196,35.601812,0 104.305939,35.643327,0 104.331809,35.658561,0 104.317564,35.66791,0 104.316746,35.705296,0 104.331154,35.732379,0 104.357351,35.74109,0 104.369959,35.766692,0 104.384695,35.767426,0 104.401068,35.793964,0 104.398612,35.808855,0 104.421371,35.865456,0 104.439055,35.864618,0 104.448879,35.875619,0 104.44282,35.89657,0 104.42612,35.916154,0 104.441019,35.974771,0 104.483754,35.993708,0 104.484572,36.020693,0 104.500618,36.02017,0 104.507331,36.037946,0 104.522722,36.043696,0 104.519284,36.060212,0 104.53795,36.08404,0 104.5612,36.09219,0 104.567422,36.112456,0 104.559399,36.130106,0 104.568895,36.139296,0 104.577246,36.168109,0 104.530909,36.168005,0 104.512571,36.202547,0 104.543025,36.237699,0 104.531728,36.26116,0 104.522231,36.262098,0 104.517155,36.290241,0 104.502419,36.316083,0 104.501764,36.350767,0 104.510442,36.373153,0 104.507168,36.428621,0 104.489812,36.44256,0 104.439382,36.408541,0 104.429067,36.386581,0 104.415477,36.391369,0 104.349165,36.375547,0 104.318055,36.377421,0 104.313962,36.363887,0 104.296279,36.354308,0 104.258948,36.362221,0 104.232095,36.359306,0 104.218178,36.349622,0 104.221453,36.337541,0 104.184121,36.341915,0 104.164965,36.32275,0 104.163327,36.305351,0 104.141551,36.293785,0 104.130253,36.250942,0 104.113389,36.26043,0 104.125669,36.29837,0 104.114371,36.306914,0 104.111096,36.327438,0 104.128616,36.335979,0 104.095214,36.371696,0 104.050024,36.414056,0 104.042492,36.457224,0 104.051825,36.464295,0 104.041018,36.481243,0 104.016622,36.4959,0 104.022025,36.520634,0 104.034141,36.535699,0 104.028575,36.554292,0 104.040855,36.573712,0 103.974051,36.58451,0 103.951456,36.61181,0 103.960789,36.62582,0 103.942123,36.635573,0 103.924767,36.656217,0 103.899225,36.671774,0 103.915435,36.693238,0 103.89726,36.704227,0 103.897424,36.715629,0 103.930662,36.719774,0 103.940813,36.748684,0 103.922639,36.751999,0 103.92051,36.766812,0 103.897097,36.77023,0 103.891366,36.787731,0 103.903482,36.803469,0 103.859765,36.803676,0 103.832422,36.812475,0 103.825709,36.7985,0 103.815066,36.82324,0 103.790015,36.829657,0 103.777244,36.85149,0 103.757923,36.844247,0 103.761853,36.828104,0 103.7964,36.80378,0 103.800494,36.791666,0 103.740895,36.799328,0 103.731234,36.805125,0 103.712078,36.7839,0 103.676875,36.790631,0 103.669507,36.812889,0 103.628246,36.822101,0 103.604505,36.847248,0 103.62317,36.86887,0 103.592388,36.882419,0 103.575196,36.923465,0 103.547689,36.950025,0 103.564881,36.973787,0</coordinates></LinearRing></outerBoundaryIs>
      </Polygon>
      <Polygon>
        <outerBoundaryIs><LinearRing><coordinates>102.831846,36.365345,0 102.829718,36.365345,0 102.836431,36.344623,0 102.838887,36.345769,0 102.831846,36.365345,0</coordinates></LinearRing></outerBoundaryIs>
      </Polygon>
    </MultiGeometry>
    </Placemark>
  </Document>
</kml>
