<?xml version="1.0" encoding="UTF-8"?>
<kml xmlns="http://www.opengis.net/kml/2.2">
  <Document>
    <name><![CDATA[嘉峪关市]]></name>
    <Placemark>
      <name><![CDATA[嘉峪关市]]></name>
      <description><![CDATA[省级目录：甘肃省]]></description>
      <ExtendedData>
        <Data name="adcode"><value>620200</value></Data>
      </ExtendedData>
      <MultiGeometry>
      <Polygon>
        <outerBoundaryIs><LinearRing><coordinates>97.862533,39.715005,0 97.857458,39.711823,0 97.855657,39.71043,0 97.939979,39.695807,0 97.969288,39.66277,0 98.038383,39.698593,0 98.157581,39.696902,0 98.166259,39.713116,0 98.188199,39.725945,0 98.217671,39.727436,0 98.246325,39.718884,0 98.243378,39.707943,0 98.281036,39.690932,0 98.320824,39.665258,0 98.33556,39.667547,0 98.370762,39.654309,0 98.381732,39.663765,0 98.391229,39.690733,0 98.413824,39.710331,0 98.406947,39.731016,0 98.361102,39.756169,0 98.355535,39.78002,0 98.456395,39.823429,0 98.491106,39.840705,0 98.484557,39.864428,0 98.518777,39.892905,0 98.520087,39.909469,0 98.497328,39.916114,0 98.497001,39.950219,0 98.474897,39.969247,0 98.444115,39.955769,0 98.420701,39.955373,0 98.392539,39.965779,0 98.371745,39.957454,0 98.329501,39.955868,0 98.296591,39.962806,0 98.162002,39.971625,0 98.062943,39.99976,0 98.068674,39.983217,0 98.066382,39.954084,0 98.024793,39.946551,0 98.004818,39.922956,0 98.036255,39.914725,0 97.990901,39.891913,0 97.98386,39.882785,0 98.031179,39.827996,0 97.99221,39.808631,0 97.974363,39.780616,0 97.862533,39.715005,0</coordinates></LinearRing></outerBoundaryIs>
      </Polygon>
    </MultiGeometry>
    </Placemark>
  </Document>
</kml>
