<?xml version="1.0" encoding="UTF-8"?>
<kml xmlns="http://www.opengis.net/kml/2.2">
  <Document>
    <name><![CDATA[定西市]]></name>
    <Placemark>
      <name><![CDATA[定西市]]></name>
      <description><![CDATA[省级目录：甘肃省]]></description>
      <ExtendedData>
        <Data name="adcode"><value>621100</value></Data>
      </ExtendedData>
      <MultiGeometry>
      <Polygon>
        <outerBoundaryIs><LinearRing><coordinates>105.638403,35.139396,0 105.648227,35.145845,0 105.63873,35.173117,0 105.617117,35.1821,0 105.614661,35.216438,0 105.607457,35.223304,0 105.573564,35.207459,0 105.545893,35.257941,0 105.549495,35.283697,0 105.559483,35.293301,0 105.532631,35.311873,0 105.54049,35.342148,0 105.506925,35.358915,0 105.489569,35.387591,0 105.47778,35.388435,0 105.477289,35.352166,0 105.456331,35.345101,0 105.440285,35.373782,0 105.427841,35.380107,0 105.426859,35.398342,0 105.404427,35.407406,0 105.393457,35.425003,0 105.383797,35.458921,0 105.345483,35.485351,0 105.319777,35.482824,0 105.303404,35.500299,0 105.271476,35.475138,0 105.232998,35.482719,0 105.1752,35.441858,0 105.135413,35.449126,0 105.117894,35.440278,0 105.123461,35.420156,0 105.083673,35.418575,0 105.070738,35.454814,0 105.044541,35.448916,0 105.000333,35.456183,0 104.996731,35.471347,0 104.975446,35.476402,0 104.966768,35.489983,0 104.946465,35.491562,0 104.933202,35.51293,0 104.937132,35.544602,0 104.95285,35.548179,0 104.954979,35.57216,0 104.967095,35.608435,0 104.986743,35.635025,0 104.985597,35.700361,0 104.980358,35.716634,0 104.937296,35.738256,0 104.891941,35.767112,0 104.884246,35.79344,0 104.864762,35.804031,0 104.865744,35.832444,0 104.853628,35.854873,0 104.807291,35.865875,0 104.811385,35.877924,0 104.768978,35.887457,0 104.769305,35.91741,0 104.738032,35.931754,0 104.72788,35.951958,0 104.709379,35.94955,0 104.676959,35.986804,0 104.646505,35.996533,0 104.648797,36.010758,0 104.676141,36.022994,0 104.680725,36.033764,0 104.663369,36.041501,0 104.633242,36.035541,0 104.61867,36.044846,0 104.584941,36.029477,0 104.561855,36.028013,0 104.532383,36.014627,0 104.500618,36.02017,0 104.484572,36.020693,0 104.483754,35.993708,0 104.441019,35.974771,0 104.42612,35.916154,0 104.44282,35.89657,0 104.448879,35.875619,0 104.439055,35.864618,0 104.421371,35.865456,0 104.398612,35.808855,0 104.401068,35.793964,0 104.384695,35.767426,0 104.369959,35.766692,0 104.357351,35.74109,0 104.331154,35.732379,0 104.316746,35.705296,0 104.317564,35.66791,0 104.331809,35.658561,0 104.305939,35.643327,0 104.310196,35.601812,0 104.290057,35.589616,0 104.282198,35.571109,0 104.225382,35.578575,0 104.198039,35.598973,0 104.202787,35.614111,0 104.173151,35.649421,0 104.148591,35.635025,0 104.138931,35.618525,0 104.110769,35.638178,0 104.101436,35.636076,0 104.092431,35.657615,0 104.067543,35.664759,0 104.053135,35.68608,0 104.040036,35.68902,0 104.019569,35.713589,0 103.997956,35.716109,0 103.980928,35.735737,0 103.963736,35.735318,0 103.952111,35.746756,0 103.919855,35.757354,0 103.901354,35.774979,0 103.865005,35.794803,0 103.848959,35.774979,0 103.849614,35.803927,0 103.837498,35.815985,0 103.837334,35.841773,0 103.799184,35.841039,0 103.795909,35.852463,0 103.779863,35.848166,0 103.776425,35.896256,0 103.76742,35.89039,0 103.714697,35.909975,0 103.702581,35.927253,0 103.660993,35.914269,0 103.643801,35.931336,0 103.623989,35.934895,0 103.595991,35.909452,0 103.558659,35.911127,0 103.542122,35.943898,0 103.509212,35.940967,0 103.498897,35.927253,0 103.476629,35.917306,0 103.471062,35.8818,0 103.515925,35.851729,0 103.547853,35.803193,0 103.56439,35.807177,0 103.59157,35.781063,0 103.595663,35.75704,0 103.621533,35.753577,0 103.640526,35.719993,0 103.694558,35.672952,0 103.719937,35.659191,0 103.785267,35.598973,0 103.793126,35.564378,0 103.8113,35.534186,0 103.830948,35.520928,0 103.832913,35.506825,0 103.854362,35.498089,0 103.854198,35.477349,0 103.828001,35.458605,0 103.822925,35.445018,0 103.800494,35.435117,0 103.811791,35.422685,0 103.814084,35.39634,0 103.780682,35.387486,0 103.77708,35.356912,0 103.74024,35.312717,0 103.731726,35.277787,0 103.699634,35.238512,0 103.689974,35.219818,0 103.691611,35.195626,0 103.721083,35.190237,0 103.716498,35.133263,0 103.748426,35.115074,0 103.735328,35.100477,0 103.748918,35.088417,0 103.738275,35.064927,0 103.743514,35.044817,0 103.758087,35.028302,0 103.786249,35.01549,0 103.784612,35.002676,0 103.816703,34.993038,0 103.834878,34.977996,0 103.860584,34.987106,0 103.911178,34.969096,0 103.942942,34.936138,0 103.952766,34.94981,0 103.981092,34.946737,0 103.984366,34.938046,0 104.017768,34.936774,0 104.024809,34.917057,0 104.011055,34.910165,0 104.027265,34.893411,0 104.021207,34.872411,0 103.964555,34.840581,0 103.997629,34.807678,0 103.999103,34.787717,0 104.02399,34.774868,0 104.004669,34.735244,0 103.989115,34.738219,0 103.963572,34.728656,0 103.909049,34.744701,0 103.881214,34.747357,0 103.853052,34.738644,0 103.833404,34.71686,0 103.862876,34.682526,0 103.850432,34.641369,0 103.841591,34.634667,0 103.834714,34.604768,0 103.839462,34.575497,0 103.828328,34.545364,0 103.779045,34.536524,0 103.768566,34.523316,0 103.794763,34.492524,0 103.810318,34.483572,0 103.804751,34.471102,0 103.8113,34.424508,0 103.802786,34.408722,0 103.753993,34.371592,0 103.733363,34.331883,0 103.698488,34.315011,0 103.69243,34.300166,0 103.70209,34.280617,0 103.745152,34.287561,0 103.77315,34.273245,0 103.792798,34.270574,0 103.821779,34.281258,0 103.83717,34.273673,0 103.879577,34.267369,0 103.924276,34.213605,0 103.936884,34.193609,0 103.990916,34.161733,0 104.028738,34.127276,0 104.060339,34.151782,0 104.067052,34.177993,0 104.105693,34.194143,0 104.153503,34.193074,0 104.165783,34.210397,0 104.162509,34.247492,0 104.136966,34.269399,0 104.116008,34.323127,0 104.148755,34.339036,0 104.14941,34.350779,0 104.202787,34.375113,0 104.269754,34.348644,0 104.28711,34.376287,0 104.328862,34.376607,0 104.353913,34.369564,0 104.366684,34.336687,0 104.406308,34.338929,0 104.417769,34.331028,0 104.437417,34.298137,0 104.445113,34.271108,0 104.435125,34.258713,0 104.452153,34.229214,0 104.472456,34.218202,0 104.511097,34.208045,0 104.527634,34.19147,0 104.536967,34.219592,0 104.552358,34.204196,0 104.571024,34.201629,0 104.623746,34.234986,0 104.665498,34.226114,0 104.689894,34.248026,0 104.720021,34.252942,0 104.741143,34.233383,0 104.779293,34.239583,0 104.789117,34.252515,0 104.814332,34.255187,0 104.821536,34.27613,0 104.844131,34.281472,0 104.863288,34.301768,0 104.852973,34.320457,0 104.855429,34.343199,0 104.844459,34.367856,0 104.856902,34.379382,0 104.895871,34.377995,0 104.938278,34.386318,0 104.96644,34.382583,0 104.991983,34.396134,0 104.983632,34.405735,0 104.989035,34.425574,0 104.966768,34.437198,0 104.918139,34.438691,0 104.88572,34.422908,0 104.837909,34.445622,0 104.791573,34.431866,0 104.793046,34.482293,0 104.783222,34.487089,0 104.748347,34.472914,0 104.753914,34.52747,0 104.738523,34.555587,0 104.716255,34.541423,0 104.695952,34.544725,0 104.671556,34.575816,0 104.690877,34.618176,0 104.685965,34.628497,0 104.699555,34.6737,0 104.646177,34.655941,0 104.595584,34.654027,0 104.601642,34.679017,0 104.589362,34.699535,0 104.601642,34.710058,0 104.577246,34.721218,0 104.591818,34.726106,0 104.60639,34.745763,0 104.584777,34.767221,0 104.584286,34.787292,0 104.597385,34.804387,0 104.598858,34.838883,0 104.620144,34.86456,0 104.657803,34.872304,0 104.697262,34.859574,0 104.728863,34.86212,0 104.740979,34.85289,0 104.757844,34.86212,0 104.794356,34.869334,0 104.850189,34.865833,0 104.878679,34.856073,0 104.895871,34.862439,0 104.909788,34.903909,0 104.898818,34.924584,0 104.920922,34.950022,0 104.933694,34.93635,0 104.971352,34.953202,0 104.970042,34.940484,0 105.006391,34.939636,0 105.007865,34.928718,0 105.035372,34.925432,0 105.070738,34.943452,0 105.073686,34.955639,0 105.058131,34.981915,0 105.092515,34.969096,0 105.130501,34.963904,0 105.16816,34.969308,0 105.193539,34.954897,0 105.192884,34.937516,0 105.217771,34.93211,0 105.254611,34.964646,0 105.259851,34.979797,0 105.249699,35.00956,0 105.261816,35.028196,0 105.27606,35.033596,0 105.290141,35.006806,0 105.299147,35.01962,0 105.297346,35.046722,0 105.321415,35.03836,0 105.336478,35.049369,0 105.354489,35.04831,0 105.379867,35.072017,0 105.391656,35.064927,0 105.396568,35.089475,0 105.41114,35.079424,0 105.42031,35.114334,0 105.456495,35.130831,0 105.484984,35.093178,0 105.505615,35.085561,0 105.52428,35.063339,0 105.541636,35.07244,0 105.559974,35.127659,0 105.535578,35.138762,0 105.539508,35.152717,0 105.558501,35.161385,0 105.558173,35.1821,0 105.572418,35.181361,0 105.609094,35.152929,0 105.638403,35.139396,0</coordinates></LinearRing></outerBoundaryIs>
      </Polygon>
    </MultiGeometry>
    </Placemark>
  </Document>
</kml>
