<?xml version="1.0" encoding="UTF-8"?>
<kml xmlns="http://www.opengis.net/kml/2.2">
  <Document>
    <name><![CDATA[平凉市]]></name>
    <Placemark>
      <name><![CDATA[平凉市]]></name>
      <description><![CDATA[省级目录：甘肃省]]></description>
      <ExtendedData>
        <Data name="adcode"><value>620800</value></Data>
      </ExtendedData>
      <MultiGeometry>
      <Polygon>
        <outerBoundaryIs><LinearRing><coordinates>106.083103,35.421842,0 106.072951,35.420788,0 106.067876,35.436065,0 106.072951,35.447546,0 106.072133,35.463555,0 106.053958,35.454709,0 106.034474,35.469241,0 106.017282,35.463766,0 106.00402,35.439014,0 105.965542,35.425635,0 105.930667,35.425846,0 105.894646,35.413834,0 105.889734,35.439436,0 105.897593,35.451549,0 105.925591,35.450812,0 105.988465,35.475559,0 106.048555,35.489036,0 106.047736,35.498089,0 106.020557,35.493878,0 106.016136,35.522191,0 105.913311,35.539657,0 105.902832,35.547337,0 105.868612,35.539973,0 105.862063,35.515035,0 105.846999,35.49051,0 105.83652,35.494826,0 105.834719,35.541025,0 105.816381,35.575105,0 105.798207,35.565745,0 105.777576,35.586777,0 105.785763,35.591929,0 105.762185,35.602968,0 105.759074,35.634395,0 105.742046,35.626303,0 105.744011,35.639964,0 105.714702,35.647004,0 105.722889,35.673477,0 105.704224,35.68587,0 105.69047,35.683979,0 105.723708,35.725871,0 105.728456,35.699626,0 105.737625,35.697421,0 105.758911,35.725032,0 105.734842,35.724402,0 105.707826,35.737941,0 105.679827,35.737626,0 105.668857,35.750009,0 105.595668,35.715584,0 105.570126,35.716319,0 105.575038,35.701306,0 105.564395,35.687655,0 105.561284,35.724612,0 105.530175,35.726921,0 105.509381,35.718943,0 105.485967,35.726396,0 105.457313,35.715374,0 105.456658,35.68902,0 105.520678,35.608014,0 105.476143,35.60034,0 105.473687,35.553859,0 105.451583,35.551124,0 105.447326,35.537553,0 105.414251,35.526821,0 105.406065,35.514403,0 105.415398,35.497457,0 105.384288,35.490088,0 105.355471,35.495668,0 105.345483,35.485351,0 105.383797,35.458921,0 105.393457,35.425003,0 105.404427,35.407406,0 105.426859,35.398342,0 105.427841,35.380107,0 105.440285,35.373782,0 105.456331,35.345101,0 105.477289,35.352166,0 105.47778,35.388435,0 105.489569,35.387591,0 105.506925,35.358915,0 105.54049,35.342148,0 105.532631,35.311873,0 105.559483,35.293301,0 105.549495,35.283697,0 105.545893,35.257941,0 105.573564,35.207459,0 105.607457,35.223304,0 105.614661,35.216438,0 105.617117,35.1821,0 105.63873,35.173117,0 105.648227,35.145845,0 105.638403,35.139396,0 105.635947,35.120362,0 105.646262,35.104391,0 105.706516,35.071805,0 105.707334,35.044076,0 105.725345,35.027349,0 105.738608,35.047781,0 105.75449,35.023749,0 105.774793,35.024385,0 105.784125,35.062916,0 105.803119,35.074028,0 105.844052,35.070959,0 105.849619,35.058789,0 105.887605,35.052015,0 105.898739,35.063445,0 105.92903,35.06027,0 105.934924,35.096352,0 105.961285,35.097516,0 105.991576,35.120785,0 106.006639,35.112747,0 106.004675,35.090216,0 106.018592,35.089581,0 106.064437,35.123958,0 106.087196,35.11444,0 106.116668,35.122371,0 106.147778,35.144471,0 106.157765,35.12142,0 106.177413,35.152294,0 106.191331,35.162654,0 106.211797,35.152294,0 106.27549,35.171638,0 106.302997,35.150603,0 106.315113,35.120997,0 106.330177,35.112642,0 106.365707,35.13284,0 106.370128,35.10492,0 106.398781,35.083127,0 106.382408,35.059318,0 106.405985,35.035395,0 106.446755,35.033807,0 106.46231,35.040583,0 106.488671,35.02089,0 106.503571,35.033807,0 106.521418,35.027773,0 106.545978,35.070536,0 106.543522,35.085032,0 106.575777,35.08937,0 106.615401,35.071065,0 106.640124,35.071488,0 106.706436,35.081858,0 106.714459,35.105555,0 106.777824,35.094236,0 106.838406,35.079847,0 106.856908,35.091274,0 106.900624,35.094553,0 106.911103,35.080694,0 106.945979,35.077414,0 106.950072,35.066938,0 106.990842,35.068525,0 107.012454,35.029361,0 107.032757,35.030102,0 107.050932,35.040794,0 107.048312,35.028302,0 107.088754,35.020785,0 107.097596,34.998228,0 107.089573,34.976724,0 107.119536,34.950234,0 107.162434,34.944088,0 107.179954,34.928294,0 107.189614,34.893305,0 107.201075,34.881639,0 107.223016,34.878138,0 107.231202,34.892563,0 107.251997,34.881108,0 107.262312,34.907515,0 107.282942,34.911756,0 107.286708,34.931898,0 107.322402,34.938152,0 107.350237,34.934124,0 107.372013,34.918011,0 107.392971,34.932428,0 107.426045,34.928718,0 107.455517,34.916739,0 107.474838,34.919389,0 107.523958,34.909847,0 107.536729,34.915361,0 107.537875,34.932534,0 107.551138,34.940272,0 107.562108,34.966553,0 107.572096,34.971427,0 107.605661,34.958712,0 107.619742,34.964646,0 107.633332,34.953943,0 107.6258,34.918965,0 107.639881,34.918753,0 107.637753,34.933276,0 107.65429,34.933594,0 107.675412,34.95087,0 107.74156,34.95352,0 107.778564,34.964752,0 107.804761,34.956805,0 107.80689,34.973652,0 107.842092,34.978949,0 107.863378,34.999181,0 107.84373,35.002252,0 107.848314,35.023855,0 107.82752,35.022161,0 107.80034,35.033384,0 107.759407,35.071171,0 107.754004,35.095082,0 107.722567,35.114863,0 107.727643,35.120151,0 107.715854,35.16815,0 107.6872,35.216649,0 107.670336,35.214431,0 107.651998,35.239779,0 107.66264,35.255407,0 107.69244,35.251183,0 107.720111,35.269237,0 107.737303,35.267442,0 107.736812,35.296151,0 107.718637,35.303221,0 107.745817,35.311662,0 107.737139,35.326748,0 107.744343,35.338034,0 107.736812,35.353643,0 107.721912,35.353432,0 107.707667,35.371251,0 107.690639,35.407195,0 107.700626,35.424581,0 107.678522,35.43459,0 107.665096,35.427637,0 107.634969,35.431851,0 107.636279,35.444281,0 107.617614,35.462186,0 107.594527,35.462397,0 107.598129,35.487141,0 107.585031,35.482508,0 107.592726,35.467135,0 107.570622,35.46345,0 107.542951,35.495247,0 107.53018,35.497984,0 107.504474,35.480087,0 107.500708,35.459974,0 107.479586,35.461659,0 107.482861,35.485983,0 107.451752,35.485351,0 107.423589,35.502089,0 107.405251,35.50051,0 107.383802,35.48114,0 107.352365,35.490931,0 107.332553,35.488825,0 107.290638,35.518192,0 107.255108,35.522085,0 107.256745,35.499878,0 107.233986,35.513561,0 107.198783,35.509562,0 107.189287,35.517981,0 107.171112,35.474401,0 107.126413,35.493141,0 107.096613,35.466609,0 107.064522,35.478929,0 107.056499,35.465451,0 107.052242,35.491036,0 106.990187,35.532187,0 106.989368,35.539131,0 106.926003,35.579101,0 106.90308,35.611168,0 106.876719,35.632188,0 106.823833,35.661607,0 106.754738,35.691225,0 106.737546,35.68944,0 106.674836,35.728076,0 106.662392,35.707605,0 106.633248,35.714849,0 106.620968,35.743818,0 106.6136,35.729755,0 106.599682,35.743713,0 106.597554,35.727971,0 106.566608,35.738781,0 106.530423,35.741824,0 106.506354,35.737521,0 106.504226,35.736157,0 106.498004,35.732484,0 106.4926,35.732799,0 106.465912,35.717999,0 106.44872,35.694166,0 106.434966,35.688495,0 106.439387,35.661817,0 106.459854,35.643852,0 106.454287,35.62914,0 106.482449,35.575526,0 106.460509,35.579417,0 106.451012,35.553544,0 106.454778,35.537658,0 106.440697,35.52661,0 106.462637,35.50272,0 106.465584,35.481034,0 106.490144,35.480403,0 106.483431,35.450601,0 106.503571,35.414993,0 106.494893,35.401399,0 106.496039,35.376101,0 106.509301,35.35881,0 106.493747,35.351955,0 106.490472,35.329596,0 106.472298,35.310712,0 106.430545,35.292985,0 106.417774,35.275992,0 106.38732,35.269764,0 106.368163,35.273459,0 106.375695,35.248544,0 106.363578,35.238301,0 106.335907,35.251078,0 106.318715,35.267125,0 106.32068,35.277681,0 106.285641,35.301532,0 106.275326,35.329174,0 106.261736,35.330334,0 106.241433,35.358493,0 106.24962,35.366823,0 106.237504,35.409513,0 106.191986,35.412253,0 106.17463,35.438382,0 106.166934,35.420999,0 106.134515,35.397815,0 106.123873,35.373465,0 106.106517,35.36714,0 106.100295,35.402031,0 106.08736,35.402347,0 106.083103,35.421842,0</coordinates></LinearRing></outerBoundaryIs>
      </Polygon>
      <Polygon>
        <outerBoundaryIs><LinearRing><coordinates>106.047736,35.498089,0 106.048555,35.489036,0 106.053958,35.454709,0 106.072133,35.463555,0 106.068858,35.489141,0 106.099476,35.499668,0 106.078518,35.509667,0 106.047736,35.498089,0</coordinates></LinearRing></outerBoundaryIs>
      </Polygon>
      <Polygon>
        <outerBoundaryIs><LinearRing><coordinates>106.072951,35.447546,0 106.067876,35.436065,0 106.072951,35.420788,0 106.083103,35.421842,0 106.072951,35.447546,0</coordinates></LinearRing></outerBoundaryIs>
      </Polygon>
      <Polygon>
        <outerBoundaryIs><LinearRing><coordinates>106.504226,35.736157,0 106.506354,35.737521,0 106.4926,35.732799,0 106.498004,35.732484,0 106.504226,35.736157,0</coordinates></LinearRing></outerBoundaryIs>
      </Polygon>
    </MultiGeometry>
    </Placemark>
  </Document>
</kml>
