<?xml version="1.0" encoding="UTF-8"?>
<kml xmlns="http://www.opengis.net/kml/2.2">
  <Document>
    <name><![CDATA[庆阳市]]></name>
    <Placemark>
      <name><![CDATA[庆阳市]]></name>
      <description><![CDATA[省级目录：甘肃省]]></description>
      <ExtendedData>
        <Data name="adcode"><value>621000</value></Data>
      </ExtendedData>
      <MultiGeometry>
      <Polygon>
        <outerBoundaryIs><LinearRing><coordinates>106.754738,35.691225,0 106.823833,35.661607,0 106.876719,35.632188,0 106.90308,35.611168,0 106.926003,35.579101,0 106.989368,35.539131,0 106.990187,35.532187,0 107.052242,35.491036,0 107.056499,35.465451,0 107.064522,35.478929,0 107.096613,35.466609,0 107.126413,35.493141,0 107.171112,35.474401,0 107.189287,35.517981,0 107.198783,35.509562,0 107.233986,35.513561,0 107.256745,35.499878,0 107.255108,35.522085,0 107.290638,35.518192,0 107.332553,35.488825,0 107.352365,35.490931,0 107.383802,35.48114,0 107.405251,35.50051,0 107.423589,35.502089,0 107.451752,35.485351,0 107.482861,35.485983,0 107.479586,35.461659,0 107.500708,35.459974,0 107.504474,35.480087,0 107.53018,35.497984,0 107.542951,35.495247,0 107.570622,35.46345,0 107.592726,35.467135,0 107.585031,35.482508,0 107.598129,35.487141,0 107.594527,35.462397,0 107.617614,35.462186,0 107.636279,35.444281,0 107.634969,35.431851,0 107.665096,35.427637,0 107.678522,35.43459,0 107.700626,35.424581,0 107.690639,35.407195,0 107.707667,35.371251,0 107.721912,35.353432,0 107.736812,35.353643,0 107.744343,35.338034,0 107.737139,35.326748,0 107.745817,35.311662,0 107.808036,35.287286,0 107.831122,35.27272,0 107.845039,35.275676,0 107.868617,35.256357,0 107.90251,35.261741,0 107.936075,35.253928,0 107.936894,35.266809,0 107.960635,35.26153,0 107.949829,35.24527,0 107.970132,35.241574,0 108.048724,35.253823,0 108.094897,35.280109,0 108.123878,35.281798,0 108.174635,35.30512,0 108.193792,35.306597,0 108.233252,35.286441,0 108.22703,35.276942,0 108.23931,35.256251,0 108.268618,35.268814,0 108.29809,35.268392,0 108.345409,35.300688,0 108.352777,35.285808,0 108.400096,35.282747,0 108.403043,35.27747,0 108.449052,35.27367,0 108.488021,35.274831,0 108.525025,35.288974,0 108.543527,35.303959,0 108.56825,35.290874,0 108.600342,35.308813,0 108.615406,35.331706,0 108.610821,35.35649,0 108.631124,35.418575,0 108.619499,35.443017,0 108.616552,35.477244,0 108.605909,35.502826,0 108.625721,35.537132,0 108.618517,35.55691,0 108.567596,35.585515,0 108.56383,35.597922,0 108.539761,35.605596,0 108.523224,35.661187,0 108.530428,35.680514,0 108.517002,35.716004,0 108.533866,35.746232,0 108.520113,35.766797,0 108.524861,35.774875,0 108.527808,35.824162,0 108.524534,35.839676,0 108.499482,35.872267,0 108.500956,35.885048,0 108.518639,35.905472,0 108.563011,35.921285,0 108.569233,35.939606,0 108.593793,35.950806,0 108.633744,35.944735,0 108.656503,35.953004,0 108.661742,35.993917,0 108.688595,36.021111,0 108.682536,36.055091,0 108.690887,36.088742,0 108.707424,36.10974,0 108.697764,36.117052,0 108.712336,36.138774,0 108.702839,36.160803,0 108.665017,36.214753,0 108.646024,36.254175,0 108.655029,36.273982,0 108.642094,36.311186,0 108.641603,36.359098,0 108.651263,36.384708,0 108.619008,36.433927,0 108.593629,36.431534,0 108.562684,36.438607,0 108.533048,36.454624,0 108.510616,36.474485,0 108.51471,36.445576,0 108.496863,36.422691,0 108.485565,36.429453,0 108.459368,36.42394,0 108.418762,36.448696,0 108.402552,36.4462,0 108.408119,36.459616,0 108.391582,36.505462,0 108.365385,36.519698,0 108.359654,36.547229,0 108.340661,36.558862,0 108.311189,36.561043,0 108.287447,36.553357,0 108.270255,36.567482,0 108.262396,36.549307,0 108.245532,36.571012,0 108.216551,36.571324,0 108.204762,36.596656,0 108.222936,36.630904,0 108.197885,36.62997,0 108.182331,36.590116,0 108.163665,36.563743,0 108.141397,36.562601,0 108.139105,36.576723,0 108.115691,36.586587,0 108.092932,36.587313,0 108.094897,36.604545,0 108.081143,36.615235,0 108.06215,36.592608,0 108.032023,36.606413,0 108.002715,36.636403,0 108.022363,36.647193,0 108.023345,36.6697,0 108.004843,36.683181,0 107.986178,36.6753,0 107.985687,36.652172,0 107.975044,36.666278,0 107.937385,36.658188,0 107.940987,36.694897,0 107.932473,36.711172,0 107.914299,36.721018,0 107.907422,36.750238,0 107.881879,36.74713,0 107.866652,36.766708,0 107.826701,36.785453,0 107.820316,36.776755,0 107.768248,36.792909,0 107.745326,36.810716,0 107.709632,36.80554,0 107.673283,36.832554,0 107.640373,36.818789,0 107.603532,36.825827,0 107.58896,36.836487,0 107.540168,36.828622,0 107.528543,36.853766,0 107.533618,36.867215,0 107.477949,36.908476,0 107.447167,36.899378,0 107.365464,36.905374,0 107.332881,36.925636,0 107.311759,36.913025,0 107.295386,36.929046,0 107.304391,36.951988,0 107.287363,36.992377,0 107.290965,37.004046,0 107.279995,37.041931,0 107.286217,37.055552,0 107.268697,37.099496,0 107.249704,37.106302,0 107.23546,37.096196,0 107.2276,37.106818,0 107.180445,37.143518,0 107.134108,37.134757,0 107.095795,37.115582,0 107.078275,37.12919,0 107.061738,37.124139,0 107.030629,37.140838,0 107.031448,37.115479,0 106.984783,37.107539,0 106.960878,37.113932,0 106.952528,37.128778,0 106.9057,37.15135,0 106.891292,37.14125,0 106.913396,37.132386,0 106.911922,37.11022,0 106.891292,37.098465,0 106.870989,37.115891,0 106.858872,37.113726,0 106.780771,37.158667,0 106.767182,37.132283,0 106.77324,37.123005,0 106.756539,37.102177,0 106.726903,37.108983,0 106.72854,37.121459,0 106.699723,37.11785,0 106.687771,37.129912,0 106.66976,37.111148,0 106.660755,37.126098,0 106.640124,37.118984,0 106.616874,37.135169,0 106.605249,37.127644,0 106.620804,37.095784,0 106.645528,37.065045,0 106.651913,37.033881,0 106.666813,37.016745,0 106.641598,37.011996,0 106.646674,37.000432,0 106.643235,36.96294,0 106.622932,36.959324,0 106.595425,36.969035,0 106.595753,36.940415,0 106.57987,36.934834,0 106.580525,36.947442,0 106.540411,36.984425,0 106.554983,36.953125,0 106.549089,36.942585,0 106.601974,36.91809,0 106.609997,36.90403,0 106.600665,36.891416,0 106.609506,36.878178,0 106.627026,36.89245,0 106.638651,36.870525,0 106.626698,36.861939,0 106.641925,36.853559,0 106.640616,36.834003,0 106.658463,36.819617,0 106.641762,36.802744,0 106.639469,36.771473,0 106.627517,36.75231,0 106.632265,36.723298,0 106.611471,36.730241,0 106.594934,36.749617,0 106.57545,36.746923,0 106.57283,36.733972,0 106.553837,36.737805,0 106.514377,36.715629,0 106.53075,36.68992,0 106.490963,36.685773,0 106.495056,36.646363,0 106.491291,36.628725,0 106.468532,36.620424,0 106.444627,36.624886,0 106.444299,36.600808,0 106.471315,36.580461,0 106.449702,36.577658,0 106.459199,36.568728,0 106.444954,36.5572,0 106.397471,36.574335,0 106.392232,36.556473,0 106.364233,36.577658,0 106.371765,36.548891,0 106.401565,36.546294,0 106.453796,36.497875,0 106.475408,36.495692,0 106.483759,36.480931,0 106.494729,36.494445,0 106.518143,36.480931,0 106.51978,36.456288,0 106.503407,36.441728,0 106.504717,36.41468,0 106.492273,36.422587,0 106.488507,36.400424,0 106.503898,36.401569,0 106.526985,36.390224,0 106.525183,36.372737,0 106.510284,36.378879,0 106.506354,36.328271,0 106.497349,36.313791,0 106.509792,36.30358,0 106.510447,36.286073,0 106.480157,36.316083,0 106.470824,36.306289,0 106.504717,36.26606,0 106.514541,36.272002,0 106.541229,36.253862,0 106.556293,36.260639,0 106.559895,36.292117,0 106.584291,36.287949,0 106.594279,36.270334,0 106.605904,36.295661,0 106.61098,36.273148,0 106.655352,36.258658,0 106.685315,36.273357,0 106.698741,36.243017,0 106.716588,36.231963,0 106.735745,36.237282,0 106.763579,36.214961,0 106.795344,36.223098,0 106.808442,36.210997,0 106.827763,36.21517,0 106.833821,36.229251,0 106.841353,36.206511,0 106.851504,36.207555,0 106.875082,36.176877,0 106.898168,36.169362,0 106.912413,36.153913,0 106.90701,36.136372,0 106.918471,36.128853,0 106.93026,36.138565,0 106.925676,36.116112,0 106.940084,36.126451,0 106.944014,36.099607,0 106.957604,36.091563,0 106.959405,36.075367,0 106.940575,36.064916,0 106.942376,36.033136,0 106.930588,36.028954,0 106.928623,36.011176,0 106.951218,36.004482,0 106.944178,35.984293,0 106.917653,35.961168,0 106.891783,35.966191,0 106.902589,35.943584,0 106.918963,35.940443,0 106.938447,35.953109,0 106.944832,35.940234,0 106.925184,35.926206,0 106.912904,35.932173,0 106.905373,35.912698,0 106.886052,35.917515,0 106.850195,35.887562,0 106.873117,35.878239,0 106.877865,35.852777,0 106.89997,35.827307,0 106.911267,35.831186,0 106.926331,35.811686,0 106.922237,35.803402,0 106.897677,35.80854,0 106.914378,35.791342,0 106.908975,35.767741,0 106.897677,35.759768,0 106.885233,35.771832,0 106.868533,35.772042,0 106.867059,35.738676,0 106.827763,35.745287,0 106.818103,35.739515,0 106.816465,35.717579,0 106.806314,35.7096,0 106.782409,35.723667,0 106.753101,35.726396,0 106.744586,35.700466,0 106.754738,35.691225,0</coordinates></LinearRing></outerBoundaryIs>
      </Polygon>
    </MultiGeometry>
    </Placemark>
  </Document>
</kml>
