<?xml version="1.0" encoding="UTF-8"?>
<kml xmlns="http://www.opengis.net/kml/2.2">
  <Document>
    <name><![CDATA[张掖市]]></name>
    <Placemark>
      <name><![CDATA[张掖市]]></name>
      <description><![CDATA[省级目录：甘肃省]]></description>
      <ExtendedData>
        <Data name="adcode"><value>620700</value></Data>
      </ExtendedData>
      <MultiGeometry>
      <Polygon>
        <outerBoundaryIs><LinearRing><coordinates>102.035283,37.627699,0 102.049691,37.639576,0 102.052966,37.682463,0 102.079163,37.693616,0 102.079327,37.709881,0 102.095864,37.728802,0 102.122225,37.77082,0 102.15137,37.78809,0 102.15972,37.819657,0 102.197706,37.841102,0 102.202454,37.854477,0 102.168398,37.84437,0 102.151533,37.851312,0 102.122061,37.888158,0 102.129266,37.903361,0 102.116986,37.917744,0 102.087514,37.920498,0 102.07507,37.929065,0 102.036265,37.933349,0 102.031517,37.941608,0 102.090788,37.955882,0 102.137616,37.982792,0 102.166597,37.99451,0 102.169217,38.004801,0 102.132049,38.005514,0 102.110109,38.011932,0 102.108471,38.026091,0 102.097501,38.032303,0 102.094554,38.034544,0 102.040522,38.029655,0 102.026113,38.043097,0 102.015798,38.081985,0 102.003682,38.094807,0 101.986654,38.096028,0 101.975192,38.085547,0 101.945393,38.080255,0 101.885794,38.103048,0 101.855339,38.099487,0 101.835036,38.075267,0 101.812277,38.064987,0 101.766596,38.07944,0 101.740071,38.096028,0 101.706342,38.091754,0 101.690623,38.066616,0 101.651327,38.090024,0 101.636755,38.071501,0 101.612523,38.059795,0 101.576665,38.056741,0 101.516083,38.061424,0 101.481208,38.055723,0 101.441257,38.040144,0 101.419153,38.058879,0 101.386243,38.071298,0 101.403599,38.102336,0 101.402452,38.132955,0 101.419481,38.164069,0 101.462706,38.201469,0 101.478261,38.207362,0 101.491196,38.228389,0 101.467946,38.250731,0 101.417188,38.273675,0 101.403599,38.284332,0 101.392301,38.316294,0 101.34711,38.317309,0 101.337778,38.369736,0 101.35628,38.36487,0 101.371179,38.37227,0 101.372162,38.388487,0 101.424065,38.394871,0 101.447315,38.388487,0 101.48743,38.412502,0 101.518539,38.436305,0 101.529673,38.462531,0 101.503967,38.463746,0 101.502494,38.487027,0 101.533603,38.489861,0 101.547357,38.498665,0 101.538188,38.525172,0 101.516247,38.548332,0 101.567168,38.57573,0 101.564385,38.608372,0 101.591401,38.642312,0 101.613014,38.655742,0 101.601716,38.655136,0 101.56242,38.712968,0 101.487266,38.736471,0 101.412276,38.7642,0 101.331228,38.777305,0 101.316656,38.783756,0 101.306341,38.801895,0 101.330082,38.807739,0 101.34138,38.822246,0 101.334012,38.848533,0 101.259677,38.855078,0 101.239865,38.86575,0 101.237736,38.907315,0 101.198604,38.943225,0 101.228567,39.020715,0 101.117229,38.975196,0 100.969213,38.946945,0 100.969377,38.996703,0 100.961518,39.006048,0 100.901755,39.030057,0 100.888984,39.007254,0 100.875394,39.002431,0 100.835116,39.026039,0 100.829549,39.035581,0 100.829385,39.074939,0 100.864424,39.106951,0 100.865734,39.124707,0 100.85329,39.151684,0 100.842811,39.200095,0 100.842156,39.405697,0 100.707895,39.404598,0 100.658775,39.392009,0 100.61997,39.387612,0 100.56954,39.395107,0 100.499135,39.400502,0 100.500608,39.481382,0 100.443301,39.485573,0 100.326232,39.509119,0 100.301017,39.572335,0 100.314116,39.606909,0 100.250096,39.685062,0 100.127951,39.702174,0 100.040681,39.757063,0 99.95865,39.769487,0 99.904454,39.785783,0 99.821933,39.860061,0 99.712067,39.877626,0 99.672608,39.888044,0 99.48808,39.876038,0 99.455988,39.877427,0 99.35873,39.86681,0 99.320581,39.847753,0 99.247719,39.838024,0 99.229872,39.851624,0 99.206295,39.829982,0 99.193196,39.809128,0 99.140965,39.80148,0 99.113785,39.835046,0 99.083331,39.837329,0 99.06925,39.850136,0 99.026843,39.854007,0 98.987055,39.832762,0 98.960039,39.788565,0 98.94956,39.701478,0 98.94956,39.66496,0 98.881447,39.665457,0 98.824632,39.676405,0 98.804492,39.627028,0 98.816118,39.592065,0 98.872114,39.594058,0 98.938099,39.577916,0 98.946613,39.594955,0 98.977886,39.619559,0 99.025205,39.629617,0 99.053695,39.623144,0 99.064665,39.609997,0 99.056478,39.587681,0 99.072852,39.554891,0 99.097575,39.530763,0 99.10609,39.514107,0 99.135234,39.503633,0 99.183372,39.475394,0 99.23593,39.458426,0 99.256233,39.427472,0 99.308137,39.357527,0 99.30519,39.33313,0 99.293073,39.30012,0 99.280793,39.289113,0 99.207277,39.283809,0 99.198927,39.275903,0 99.213663,39.226642,0 99.207113,39.205706,0 99.176331,39.171634,0 99.179115,39.181556,0 99.143585,39.208211,0 99.141292,39.24607,0 99.120498,39.261088,0 99.080711,39.267795,0 99.060244,39.257885,0 99.046491,39.285511,0 99.023568,39.30032,0 98.985418,39.312926,0 98.975758,39.33073,0 98.906498,39.33253,0 98.902078,39.316527,0 98.880956,39.33003,0 98.866547,39.324229,0 98.838713,39.34423,0 98.800235,39.360426,0 98.752589,39.389811,0 98.72852,39.399203,0 98.710509,39.414788,0 98.660407,39.43646,0 98.612269,39.444548,0 98.57019,39.460622,0 98.579686,39.481981,0 98.553325,39.470204,0 98.526473,39.467509,0 98.515503,39.480384,0 98.530566,39.486771,0 98.549723,39.509718,0 98.434127,39.577517,0 98.410058,39.550904,0 98.402035,39.514406,0 98.396632,39.535549,0 98.362412,39.542629,0 98.330156,39.569544,0 98.357009,39.630315,0 98.370762,39.654309,0 98.33556,39.667547,0 98.320824,39.665258,0 98.281036,39.690932,0 98.243378,39.707943,0 98.246325,39.718884,0 98.217671,39.727436,0 98.188199,39.725945,0 98.166259,39.713116,0 98.157581,39.696902,0 98.038383,39.698593,0 97.969288,39.66277,0 97.939979,39.695807,0 97.855657,39.71043,0 97.828968,39.68536,0 97.785579,39.680684,0 97.700273,39.697101,0 97.676532,39.679092,0 97.656229,39.632007,0 97.619062,39.630613,0 97.585333,39.603124,0 97.569942,39.564162,0 97.557825,39.554094,0 97.520494,39.53874,0 97.480216,39.472999,0 97.480543,39.406396,0 97.477268,39.373221,0 97.453855,39.352229,0 97.429295,39.347429,0 97.397039,39.318027,0 97.402115,39.293016,0 97.395074,39.240363,0 97.426347,39.173738,0 97.43306,39.126011,0 97.458767,39.118087,0 97.504939,39.076545,0 97.543417,39.067209,0 97.581403,39.052351,0 97.620208,39.031764,0 97.679152,39.010268,0 97.695034,38.988765,0 97.690449,38.9759,0 97.701583,38.963334,0 97.735967,38.958106,0 97.749721,38.94956,0 97.793274,38.942923,0 97.828968,38.93005,0 97.875796,38.898259,0 97.90887,38.884472,0 97.95537,38.873702,0 97.971907,38.863334,0 98.012022,38.858098,0 98.027741,38.835542,0 98.050991,38.819224,0 98.062452,38.819728,0 98.095035,38.786276,0 98.117303,38.805623,0 98.152342,38.820131,0 98.167733,38.840175,0 98.203427,38.856588,0 98.251237,38.891215,0 98.249763,38.911842,0 98.236173,38.920896,0 98.270066,38.954587,0 98.287586,38.992181,0 98.281036,39.027044,0 98.292334,39.037991,0 98.316894,39.040502,0 98.384025,39.029354,0 98.401053,39.001527,0 98.43249,38.9961,0 98.428233,38.976,0 98.457541,38.952979,0 98.526473,38.955593,0 98.550542,38.949359,0 98.572973,38.932363,0 98.590165,38.933168,0 98.597697,38.947649,0 98.614889,38.947348,0 98.624058,38.959212,0 98.614562,38.980523,0 98.663354,38.994493,0 98.691844,39.020816,0 98.705434,39.043314,0 98.730485,39.05717,0 98.743747,39.086882,0 98.759793,39.090294,0 98.81317,39.087685,0 98.817755,39.066507,0 98.857215,39.047531,0 98.887178,39.039196,0 98.902896,39.012578,0 98.94956,38.988463,0 98.984108,38.984845,0 98.993277,38.977407,0 99.013908,38.984644,0 99.056478,38.975598,0 99.065484,38.96263,0 99.108873,38.946342,0 99.062045,38.911641,0 99.068758,38.897052,0 99.110674,38.867965,0 99.141292,38.852762,0 99.169291,38.827283,0 99.222177,38.788896,0 99.257707,38.781639,0 99.290945,38.765914,0 99.362169,38.718214,0 99.371502,38.690567,0 99.412435,38.665535,0 99.426189,38.647361,0 99.432247,38.623425,0 99.450912,38.604431,0 99.496103,38.612918,0 99.514277,38.597661,0 99.514114,38.568452,0 99.529013,38.546107,0 99.548661,38.534275,0 99.555702,38.520418,0 99.585338,38.498564,0 99.63937,38.474578,0 99.659673,38.449167,0 99.679157,38.436609,0 99.715342,38.425164,0 99.73499,38.412603,0 99.75824,38.410475,0 99.830774,38.368621,0 99.909203,38.343375,0 99.937201,38.34155,0 99.959796,38.320656,0 100.001712,38.314975,0 100.050177,38.283215,0 100.071463,38.284535,0 100.099133,38.270325,0 100.116162,38.254183,0 100.127951,38.230624,0 100.160206,38.217013,0 100.183129,38.222397,0 100.180509,38.245451,0 100.169211,38.262001,0 100.157914,38.310511,0 100.164627,38.327452,0 100.135646,38.33516,0 100.116653,38.35027,0 100.111414,38.377338,0 100.091602,38.408449,0 100.047885,38.421518,0 100.047557,38.430229,0 100.022015,38.432558,0 100.025945,38.451293,0 100.001221,38.466986,0 100.025781,38.507974,0 100.064095,38.518597,0 100.090128,38.49229,0 100.112232,38.497248,0 100.12615,38.485206,0 100.151364,38.478323,0 100.164791,38.460507,0 100.205069,38.456254,0 100.241254,38.43985,0 100.259592,38.366391,0 100.274001,38.379163,0 100.300853,38.389095,0 100.331308,38.337493,0 100.318209,38.328365,0 100.359797,38.307874,0 100.373715,38.309091,0 100.396637,38.293262,0 100.424145,38.307163,0 100.435278,38.301279,0 100.437243,38.26799,0 100.461148,38.265858,0 100.474411,38.288696,0 100.496515,38.273675,0 100.520584,38.271035,0 100.546617,38.246872,0 100.574452,38.251442,0 100.595082,38.242303,0 100.618987,38.265757,0 100.673838,38.256214,0 100.686282,38.249614,0 100.714935,38.253574,0 100.751775,38.238749,0 100.780265,38.213559,0 100.789107,38.193543,0 100.810064,38.181247,0 100.822017,38.161934,0 100.843794,38.149123,0 100.860494,38.148412,0 100.911743,38.179214,0 100.938104,38.160409,0 100.925005,38.14892,0 100.916164,38.115053,0 100.922713,38.085547,0 100.894878,38.063256,0 100.887347,38.049614,0 100.89668,38.029757,0 100.894715,38.013562,0 100.917965,37.999707,0 100.964138,38.011015,0 100.980347,38.006838,0 100.997539,37.988396,0 101.020953,37.975454,0 101.034543,37.976575,0 101.077114,37.941812,0 101.102984,37.946503,0 101.114281,37.920192,0 101.130818,37.913664,0 101.152268,37.891117,0 101.150794,37.877749,0 101.172734,37.860908,0 101.202697,37.847535,0 101.23921,37.843144,0 101.258531,37.832831,0 101.279161,37.836712,0 101.319931,37.811281,0 101.362338,37.791257,0 101.376746,37.801066,0 101.382641,37.82221,0 101.402944,37.831708,0 101.443222,37.868155,0 101.482846,37.853558,0 101.500365,37.857948,0 101.542608,37.838958,0 101.598278,37.827419,0 101.619072,37.809851,0 101.640685,37.775827,0 101.67032,37.754261,0 101.659187,37.733301,0 101.791811,37.696071,0 101.813587,37.681644,0 101.816043,37.654318,0 101.854357,37.664656,0 101.872368,37.685737,0 101.90888,37.703641,0 101.946375,37.728086,0 101.999097,37.725018,0 102.033481,37.6885,0 102.0343,37.667522,0 102.047399,37.654318,0 102.035283,37.627699,0</coordinates></LinearRing></outerBoundaryIs>
      </Polygon>
    </MultiGeometry>
    </Placemark>
  </Document>
</kml>
