<?xml version="1.0" encoding="UTF-8"?>
<kml xmlns="http://www.opengis.net/kml/2.2">
  <Document>
    <name><![CDATA[甘南藏族自治州]]></name>
    <Placemark>
      <name><![CDATA[甘南藏族自治州]]></name>
      <description><![CDATA[省级目录：甘肃省]]></description>
      <ExtendedData>
        <Data name="adcode"><value>623000</value></Data>
      </ExtendedData>
      <MultiGeometry>
      <Polygon>
        <outerBoundaryIs><LinearRing><coordinates>104.028738,34.127276,0 103.990916,34.161733,0 103.936884,34.193609,0 103.924276,34.213605,0 103.879577,34.267369,0 103.83717,34.273673,0 103.821779,34.281258,0 103.792798,34.270574,0 103.77315,34.273245,0 103.745152,34.287561,0 103.70209,34.280617,0 103.69243,34.300166,0 103.698488,34.315011,0 103.733363,34.331883,0 103.753993,34.371592,0 103.802786,34.408722,0 103.8113,34.424508,0 103.804751,34.471102,0 103.810318,34.483572,0 103.794763,34.492524,0 103.768566,34.523316,0 103.779045,34.536524,0 103.828328,34.545364,0 103.839462,34.575497,0 103.834714,34.604768,0 103.841591,34.634667,0 103.850432,34.641369,0 103.862876,34.682526,0 103.833404,34.71686,0 103.853052,34.738644,0 103.881214,34.747357,0 103.909049,34.744701,0 103.963572,34.728656,0 103.989115,34.738219,0 104.004669,34.735244,0 104.02399,34.774868,0 103.999103,34.787717,0 103.997629,34.807678,0 103.964555,34.840581,0 104.021207,34.872411,0 104.027265,34.893411,0 104.011055,34.910165,0 104.024809,34.917057,0 104.017768,34.936774,0 103.984366,34.938046,0 103.981092,34.946737,0 103.952766,34.94981,0 103.942942,34.936138,0 103.911178,34.969096,0 103.860584,34.987106,0 103.834878,34.977996,0 103.848468,34.953732,0 103.833732,34.91483,0 103.803932,34.929142,0 103.757104,34.927128,0 103.703563,34.915997,0 103.685717,34.907939,0 103.668524,34.932958,0 103.686699,34.954473,0 103.712733,34.960196,0 103.733036,34.978419,0 103.729761,35.004159,0 103.691938,34.987212,0 103.677857,34.992826,0 103.70078,35.006383,0 103.729597,35.010831,0 103.708312,35.039736,0 103.680477,35.036772,0 103.676875,35.052332,0 103.651824,35.067043,0 103.624971,35.094025,0 103.573068,35.115391,0 103.5359,35.141088,0 103.490874,35.152294,0 103.488745,35.133475,0 103.457145,35.128399,0 103.408024,35.143414,0 103.36398,35.142674,0 103.297996,35.18284,0 103.269833,35.232704,0 103.262138,35.236928,0 103.211217,35.2364,0 103.165371,35.226895,0 103.114778,35.236717,0 103.099059,35.246115,0 103.08023,35.275676,0 103.060091,35.273459,0 103.019485,35.288552,0 102.989849,35.283064,0 102.983463,35.260685,0 102.97102,35.252978,0 102.955137,35.259946,0 102.951699,35.30417,0 102.959395,35.356912,0 102.949079,35.4073,0 102.926975,35.428163,0 102.907655,35.425846,0 102.889317,35.411199,0 102.871142,35.408565,0 102.853132,35.420577,0 102.820385,35.460922,0 102.747687,35.487351,0 102.742448,35.495247,0 102.695292,35.528504,0 102.63553,35.534397,0 102.571182,35.548074,0 102.531395,35.580468,0 102.503233,35.584254,0 102.514203,35.569426,0 102.49783,35.571845,0 102.498648,35.545233,0 102.482603,35.51293,0 102.463446,35.507773,0 102.460826,35.478823,0 102.451002,35.478718,0 102.438067,35.45534,0 102.447564,35.437329,0 102.408595,35.41004,0 102.314776,35.434379,0 102.292672,35.422579,0 102.282193,35.385062,0 102.286613,35.366507,0 102.306589,35.359864,0 102.317723,35.342886,0 102.311665,35.314405,0 102.284485,35.313244,0 102.280883,35.303115,0 102.312156,35.282431,0 102.335242,35.283486,0 102.369954,35.263958,0 102.365697,35.235555,0 102.400081,35.19552,0 102.403519,35.17819,0 102.37372,35.16128,0 102.343429,35.161702,0 102.339499,35.141088,0 102.313138,35.130937,0 102.301841,35.105872,0 102.295128,35.070641,0 102.2799,35.056672,0 102.252393,35.048734,0 102.224067,35.059,0 102.213916,35.03656,0 102.17462,35.032537,0 102.157428,35.010831,0 102.133686,35.014643,0 102.107489,34.989331,0 102.095045,34.986788,0 102.061807,34.94271,0 102.04789,34.910802,0 102.068357,34.887684,0 102.028242,34.896274,0 101.985999,34.89988,0 101.959801,34.887154,0 101.939662,34.888639,0 101.916903,34.87379,0 101.93344,34.845887,0 101.923289,34.835912,0 101.927546,34.803007,0 101.920178,34.799822,0 101.917394,34.706232,0 101.930002,34.681888,0 101.918213,34.667108,0 101.91985,34.625198,0 101.934586,34.587526,0 101.956035,34.582949,0 101.974374,34.548878,0 101.999589,34.539186,0 102.040849,34.534713,0 102.09308,34.536417,0 102.106998,34.521824,0 102.121406,34.522996,0 102.139581,34.503713,0 102.15579,34.507548,0 102.172327,34.476218,0 102.16938,34.458203,0 102.191157,34.438691,0 102.222594,34.384717,0 102.234055,34.382796,0 102.25927,34.355582,0 102.220956,34.339356,0 102.186572,34.352807,0 102.16938,34.324942,0 102.169871,34.310633,0 102.150878,34.292048,0 102.148259,34.271322,0 102.133359,34.272925,0 102.085058,34.291727,0 102.067865,34.293543,0 102.060334,34.278801,0 102.059843,34.227183,0 102.038721,34.229962,0 102.014161,34.218523,0 102.030862,34.190507,0 102.018254,34.190293,0 102.003191,34.161947,0 101.965368,34.167403,0 101.967497,34.155634,0 101.955053,34.109614,0 101.895618,34.134019,0 101.872531,34.13327,0 101.865982,34.15007,0 101.838147,34.124707,0 101.788372,34.131664,0 101.763812,34.122674,0 101.757427,34.099658,0 101.736141,34.080063,0 101.728282,34.099658,0 101.710926,34.086809,0 101.713219,34.109079,0 101.703067,34.119249,0 101.67032,34.11197,0 101.643304,34.138728,0 101.65231,34.148786,0 101.627586,34.165477,0 101.624966,34.176923,0 101.600243,34.179277,0 101.576665,34.197031,0 101.561274,34.191042,0 101.540644,34.21168,0 101.492506,34.195534,0 101.482354,34.218737,0 101.418171,34.228038,0 101.371671,34.247706,0 101.323205,34.246744,0 101.327626,34.264911,0 101.295698,34.268544,0 101.262951,34.285745,0 101.265735,34.292903,0 101.229059,34.298457,0 101.23528,34.325156,0 101.193856,34.336687,0 101.169132,34.319176,0 101.156033,34.329961,0 101.140479,34.324729,0 101.070728,34.328893,0 101.054519,34.32302,0 101.051408,34.337221,0 101.024064,34.342986,0 100.986897,34.37458,0 100.975435,34.369884,0 100.950875,34.383757,0 100.916164,34.373833,0 100.897171,34.375754,0 100.868517,34.332737,0 100.822672,34.318642,0 100.808427,34.274314,0 100.799422,34.26224,0 100.809737,34.247064,0 100.782394,34.197779,0 100.764383,34.178956,0 100.806299,34.15542,0 100.839209,34.114432,0 100.849033,34.089593,0 100.870155,34.083918,0 100.879979,34.058,0 100.879324,34.039038,0 100.89668,34.035931,0 100.909451,34.007425,0 100.934829,33.989846,0 100.927625,33.975157,0 100.966594,33.945881,0 100.975763,33.919384,0 100.999013,33.889659,0 101.023246,33.896098,0 101.048461,33.878818,0 101.052226,33.864325,0 101.153577,33.844461,0 101.149812,33.828566,0 101.171261,33.804504,0 101.189763,33.793115,0 101.184196,33.765173,0 101.188944,33.744641,0 101.16291,33.719587,0 101.164711,33.692912,0 101.178301,33.683767,0 101.166676,33.659987,0 101.217761,33.66978,0 101.237082,33.685596,0 101.259677,33.669565,0 101.302902,33.65805,0 101.351368,33.657512,0 101.391155,33.645242,0 101.423083,33.654283,0 101.427504,33.678388,0 101.469911,33.686242,0 101.491687,33.699904,0 101.542117,33.695171,0 101.557999,33.669672,0 101.582559,33.675052,0 101.588617,33.638138,0 101.605973,33.628988,0 101.616943,33.598839,0 101.611868,33.590115,0 101.614651,33.538617,0 101.622674,33.502291,0 101.635281,33.491616,0 101.650018,33.502183,0 101.677197,33.496468,0 101.702249,33.501428,0 101.735814,33.496361,0 101.749404,33.506064,0 101.759064,33.535599,0 101.782314,33.556289,0 101.806056,33.5481,0 101.830288,33.554457,0 101.830779,33.578805,0 101.844369,33.6025,0 101.882028,33.579344,0 101.907079,33.542065,0 101.89791,33.517707,0 101.907407,33.480186,0 101.929019,33.469617,0 101.924435,33.449985,0 101.946375,33.442757,0 101.915921,33.425708,0 101.91412,33.405851,0 101.887267,33.383829,0 101.876297,33.351111,0 101.87597,33.314166,0 101.857959,33.312005,0 101.832253,33.291689,0 101.823903,33.27126,0 101.809658,33.288231,0 101.76987,33.268774,0 101.770362,33.249637,0 101.788045,33.225846,0 101.797541,33.232984,0 101.829797,33.213948,0 101.841258,33.189064,0 101.840603,33.160386,0 101.82554,33.119462,0 101.865982,33.103001,0 101.88563,33.134405,0 101.921815,33.154,0 101.935569,33.1869,0 101.957345,33.186684,0 101.993858,33.199992,0 102.010559,33.191661,0 102.055094,33.190038,0 102.089642,33.204969,0 102.089478,33.227576,0 102.10929,33.264017,0 102.112728,33.286825,0 102.144165,33.274395,0 102.152679,33.253097,0 102.174947,33.233633,0 102.203437,33.22325,0 102.217518,33.248123,0 102.202291,33.300983,0 102.205565,33.320108,0 102.1869,33.332532,0 102.21981,33.351435,0 102.238148,33.388579,0 102.261071,33.396352,0 102.263363,33.417075,0 102.275152,33.408657,0 102.292017,33.413945,0 102.310682,33.397971,0 102.347522,33.409736,0 102.370118,33.394193,0 102.36717,33.408981,0 102.396151,33.405311,0 102.403519,33.424521,0 102.434301,33.439412,0 102.442324,33.453113,0 102.462463,33.449661,0 102.453785,33.483637,0 102.460498,33.509406,0 102.445762,33.529456,0 102.475889,33.531072,0 102.473433,33.547669,0 102.454604,33.555104,0 102.440359,33.574819,0 102.406466,33.581498,0 102.386655,33.598731,0 102.344575,33.606808,0 102.333605,33.642013,0 102.315267,33.665153,0 102.328366,33.706358,0 102.341628,33.720877,0 102.325418,33.735287,0 102.30135,33.709907,0 102.287105,33.716575,0 102.288087,33.733029,0 102.322799,33.746038,0 102.323126,33.757541,0 102.300203,33.782369,0 102.243552,33.78699,0 102.234546,33.794619,0 102.261235,33.82137,0 102.253376,33.861534,0 102.233891,33.87023,0 102.204583,33.905649,0 102.136306,33.965185,0 102.166924,33.982877,0 102.198525,33.978374,0 102.202618,33.967115,0 102.237985,33.963577,0 102.241587,33.981483,0 102.258124,33.975694,0 102.277772,33.99006,0 102.287268,33.977516,0 102.316249,33.994026,0 102.313138,33.974407,0 102.350633,33.977409,0 102.39304,33.973227,0 102.39959,34.017714,0 102.417764,34.042252,0 102.437576,34.087238,0 102.467212,34.073851,0 102.516823,34.087452,0 102.557429,34.091521,0 102.585263,34.10105,0 102.616045,34.099765,0 102.649447,34.080063,0 102.660417,34.085096,0 102.655833,34.113468,0 102.64126,34.127062,0 102.598362,34.147823,0 102.625378,34.16751,0 102.650429,34.165584,0 102.647482,34.178314,0 102.665002,34.192753,0 102.701187,34.196924,0 102.731805,34.237445,0 102.777978,34.235628,0 102.783872,34.258072,0 102.798281,34.273032,0 102.856734,34.270681,0 102.861154,34.302409,0 102.879165,34.312128,0 102.911748,34.312982,0 102.93991,34.299952,0 102.956447,34.269399,0 102.980189,34.241293,0 102.977078,34.198314,0 103.007532,34.184839,0 103.039788,34.185801,0 103.05043,34.194678,0 103.071552,34.184839,0 103.100369,34.181951,0 103.124111,34.16184,0 103.132625,34.128989,0 103.121818,34.112719,0 103.135408,34.1003,0 103.149817,34.10287,0 103.178306,34.080384,0 103.170283,34.065712,0 103.130824,34.06689,0 103.119198,34.039573,0 103.147197,34.036466,0 103.157185,33.998743,0 103.136718,33.973656,0 103.123947,33.968188,0 103.120508,33.9506,0 103.134426,33.930327,0 103.164716,33.929361,0 103.181254,33.900713,0 103.153419,33.819114,0 103.161278,33.80719,0 103.20303,33.795371,0 103.228081,33.794834,0 103.250022,33.814065,0 103.284733,33.802033,0 103.278347,33.775383,0 103.3201,33.752059,0 103.349572,33.743458,0 103.431766,33.750769,0 103.464513,33.802462,0 103.506428,33.81009,0 103.518381,33.807082,0 103.539994,33.766785,0 103.531316,33.749049,0 103.54949,33.74034,0 103.545069,33.718941,0 103.520509,33.678603,0 103.55211,33.671501,0 103.565045,33.700657,0 103.598774,33.717866,0 103.643473,33.708939,0 103.65166,33.721415,0 103.669016,33.712381,0 103.650023,33.700119,0 103.666887,33.699366,0 103.667706,33.685812,0 103.689155,33.69345,0 103.778226,33.658803,0 103.800494,33.67021,0 103.86173,33.682154,0 103.926732,33.679679,0 103.96652,33.670425,0 104.013184,33.683337,0 104.052316,33.685274,0 104.103564,33.663538,0 104.169385,33.610792,0 104.179701,33.575681,0 104.168076,33.571049,0 104.155632,33.541311,0 104.169058,33.51361,0 104.180683,33.473068,0 104.213102,33.446856,0 104.221944,33.42873,0 104.220798,33.404663,0 104.249779,33.407038,0 104.270573,33.393329,0 104.295788,33.332856,0 104.328043,33.333072,0 104.367667,33.345062,0 104.437253,33.323242,0 104.467217,33.333721,0 104.487683,33.329507,0 104.501273,33.340742,0 104.540078,33.274071,0 104.532219,33.251259,0 104.539096,33.226927,0 104.567585,33.221411,0 104.627676,33.226927,0 104.639628,33.238824,0 104.646341,33.269314,0 104.661405,33.29612,0 104.675322,33.302388,0 104.727226,33.299686,0 104.759481,33.308007,0 104.729682,33.328859,0 104.715764,33.346142,0 104.713636,33.401101,0 104.730828,33.408333,0 104.714454,33.415672,0 104.698081,33.439843,0 104.699391,33.457428,0 104.657148,33.482774,0 104.60508,33.50283,0 104.583631,33.516413,0 104.57217,33.536461,0 104.584122,33.534845,0 104.581011,33.575789,0 104.570041,33.576543,0 104.555797,33.598623,0 104.542698,33.590761,0 104.521412,33.611869,0 104.548592,33.64309,0 104.50553,33.642013,0 104.501437,33.660202,0 104.514536,33.658803,0 104.509296,33.675806,0 104.486373,33.69076,0 104.490139,33.705497,0 104.528944,33.7412,0 104.531073,33.763238,0 104.469181,33.771084,0 104.450188,33.785593,0 104.446259,33.80719,0 104.410892,33.838984,0 104.385186,33.847897,0 104.341961,33.853803,0 104.330827,33.867653,0 104.248305,33.922817,0 104.194764,33.949099,0 104.077858,34.022643,0 104.064432,34.043966,0 104.03627,34.056714,0 104.02661,34.084989,0 104.028738,34.127276,0</coordinates></LinearRing></outerBoundaryIs>
      </Polygon>
    </MultiGeometry>
    </Placemark>
  </Document>
</kml>
