<?xml version="1.0" encoding="UTF-8"?>
<kml xmlns="http://www.opengis.net/kml/2.2">
  <Document>
    <name><![CDATA[白银市]]></name>
    <Placemark>
      <name><![CDATA[白银市]]></name>
      <description><![CDATA[省级目录：甘肃省]]></description>
      <ExtendedData>
        <Data name="adcode"><value>620400</value></Data>
      </ExtendedData>
      <MultiGeometry>
      <Polygon>
        <outerBoundaryIs><LinearRing><coordinates>105.485967,35.726396,0 105.472704,35.750639,0 105.453875,35.747596,0 105.457313,35.771623,0 105.431771,35.787566,0 105.430625,35.813049,0 105.408684,35.822275,0 105.383961,35.792496,0 105.374955,35.804346,0 105.386253,35.817662,0 105.371026,35.844288,0 105.398369,35.855187,0 105.390838,35.866504,0 105.350232,35.875934,0 105.334513,35.88641,0 105.329274,35.907881,0 105.340244,35.909242,0 105.325017,35.941804,0 105.33173,35.951434,0 105.333203,36.000612,0 105.341881,36.005947,0 105.34401,36.033868,0 105.36595,36.034705,0 105.360383,36.044219,0 105.391329,36.074844,0 105.40803,36.075785,0 105.43128,36.104099,0 105.49137,36.10107,0 105.514948,36.147335,0 105.502013,36.157671,0 105.47909,36.212875,0 105.462062,36.222159,0 105.465827,36.251985,0 105.459769,36.264496,0 105.473195,36.275546,0 105.475324,36.295035,0 105.454202,36.32275,0 105.425713,36.330146,0 105.401644,36.369926,0 105.419491,36.377317,0 105.402135,36.385124,0 105.399515,36.428829,0 105.384779,36.44048,0 105.368242,36.432158,0 105.371026,36.461696,0 105.361365,36.498186,0 105.320105,36.53601,0 105.303895,36.524686,0 105.281136,36.522608,0 105.260178,36.533621,0 105.252155,36.55315,0 105.275897,36.56312,0 105.261161,36.602677,0 105.250027,36.601431,0 105.241513,36.62582,0 105.221865,36.62997,0 105.225467,36.664515,0 105.208602,36.680174,0 105.200907,36.702154,0 105.215315,36.727858,0 105.240039,36.741432,0 105.272294,36.73936,0 105.275897,36.75231,0 105.319613,36.742882,0 105.341063,36.764741,0 105.332712,36.806057,0 105.300129,36.824171,0 105.296691,36.844247,0 105.27868,36.852628,0 105.274587,36.870835,0 105.240694,36.896793,0 105.226285,36.886452,0 105.207783,36.897516,0 105.178966,36.892243,0 105.184042,36.902376,0 105.177656,36.92915,0 105.185679,36.942068,0 105.168651,36.967279,0 105.165376,36.994856,0 105.129355,36.996302,0 105.075978,37.013132,0 105.059605,37.022836,0 105.039793,37.007247,0 105.010976,37.017261,0 105.004426,37.035429,0 104.965294,37.031713,0 104.954488,37.04028,0 104.953833,37.077321,0 104.9147,37.097846,0 104.915519,37.116201,0 104.898982,37.127129,0 104.887521,37.159182,0 104.866072,37.17134,0 104.856411,37.211715,0 104.806636,37.234675,0 104.793701,37.229219,0 104.775199,37.246821,0 104.717238,37.208523,0 104.683181,37.202962,0 104.663697,37.208317,0 104.626038,37.205846,0 104.60066,37.242704,0 104.603607,37.262463,0 104.619816,37.29055,0 104.632424,37.298882,0 104.644376,37.291168,0 104.664679,37.299602,0 104.665989,37.310812,0 104.714618,37.330348,0 104.717729,37.350393,0 104.702829,37.34546,0 104.668281,37.356046,0 104.661405,37.376598,0 104.679907,37.407827,0 104.605244,37.426208,0 104.564802,37.430418,0 104.544335,37.42323,0 104.521085,37.434833,0 104.499472,37.421177,0 104.45068,37.423641,0 104.437745,37.445817,0 104.404834,37.438323,0 104.365538,37.418096,0 104.345071,37.420458,0 104.298407,37.413988,0 104.285309,37.43052,0 104.237826,37.411935,0 104.18363,37.406799,0 104.082934,37.469321,0 103.933609,37.574123,0 103.87139,37.605781,0 103.850269,37.633126,0 103.79067,37.586317,0 103.762671,37.541939,0 103.759233,37.521843,0 103.771513,37.506767,0 103.773478,37.473836,0 103.764472,37.44633,0 103.767747,37.425489,0 103.746953,37.421793,0 103.732708,37.394782,0 103.735983,37.378242,0 103.770039,37.355018,0 103.763654,37.34217,0 103.775934,37.329731,0 103.765127,37.30207,0 103.747608,37.307418,0 103.757596,37.27728,0 103.743351,37.283555,0 103.723048,37.261331,0 103.746298,37.242806,0 103.725013,37.229425,0 103.692757,37.238277,0 103.675565,37.209553,0 103.65559,37.148568,0 103.64642,37.133004,0 103.622188,37.125479,0 103.634304,37.113211,0 103.634959,37.084851,0 103.618586,37.0636,0 103.590587,37.068759,0 103.581418,37.047607,0 103.559642,37.027275,0 103.580927,37.002497,0 103.578471,36.985974,0 103.564881,36.973787,0 103.547689,36.950025,0 103.575196,36.923465,0 103.592388,36.882419,0 103.62317,36.86887,0 103.604505,36.847248,0 103.628246,36.822101,0 103.669507,36.812889,0 103.676875,36.790631,0 103.712078,36.7839,0 103.731234,36.805125,0 103.740895,36.799328,0 103.800494,36.791666,0 103.7964,36.80378,0 103.761853,36.828104,0 103.757923,36.844247,0 103.777244,36.85149,0 103.790015,36.829657,0 103.815066,36.82324,0 103.825709,36.7985,0 103.832422,36.812475,0 103.859765,36.803676,0 103.903482,36.803469,0 103.891366,36.787731,0 103.897097,36.77023,0 103.92051,36.766812,0 103.922639,36.751999,0 103.940813,36.748684,0 103.930662,36.719774,0 103.897424,36.715629,0 103.89726,36.704227,0 103.915435,36.693238,0 103.899225,36.671774,0 103.924767,36.656217,0 103.942123,36.635573,0 103.960789,36.62582,0 103.951456,36.61181,0 103.974051,36.58451,0 104.040855,36.573712,0 104.028575,36.554292,0 104.034141,36.535699,0 104.022025,36.520634,0 104.016622,36.4959,0 104.041018,36.481243,0 104.051825,36.464295,0 104.042492,36.457224,0 104.050024,36.414056,0 104.095214,36.371696,0 104.128616,36.335979,0 104.111096,36.327438,0 104.114371,36.306914,0 104.125669,36.29837,0 104.113389,36.26043,0 104.130253,36.250942,0 104.141551,36.293785,0 104.163327,36.305351,0 104.164965,36.32275,0 104.184121,36.341915,0 104.221453,36.337541,0 104.218178,36.349622,0 104.232095,36.359306,0 104.258948,36.362221,0 104.296279,36.354308,0 104.313962,36.363887,0 104.318055,36.377421,0 104.349165,36.375547,0 104.415477,36.391369,0 104.429067,36.386581,0 104.439382,36.408541,0 104.489812,36.44256,0 104.507168,36.428621,0 104.510442,36.373153,0 104.501764,36.350767,0 104.502419,36.316083,0 104.517155,36.290241,0 104.522231,36.262098,0 104.531728,36.26116,0 104.543025,36.237699,0 104.512571,36.202547,0 104.530909,36.168005,0 104.577246,36.168109,0 104.568895,36.139296,0 104.559399,36.130106,0 104.567422,36.112456,0 104.5612,36.09219,0 104.53795,36.08404,0 104.519284,36.060212,0 104.522722,36.043696,0 104.507331,36.037946,0 104.500618,36.02017,0 104.532383,36.014627,0 104.561855,36.028013,0 104.584941,36.029477,0 104.61867,36.044846,0 104.633242,36.035541,0 104.663369,36.041501,0 104.680725,36.033764,0 104.676141,36.022994,0 104.648797,36.010758,0 104.646505,35.996533,0 104.676959,35.986804,0 104.709379,35.94955,0 104.72788,35.951958,0 104.738032,35.931754,0 104.769305,35.91741,0 104.768978,35.887457,0 104.811385,35.877924,0 104.807291,35.865875,0 104.853628,35.854873,0 104.865744,35.832444,0 104.864762,35.804031,0 104.884246,35.79344,0 104.891941,35.767112,0 104.937296,35.738256,0 104.980358,35.716634,0 104.985597,35.700361,0 104.986743,35.635025,0 104.967095,35.608435,0 104.954979,35.57216,0 104.95285,35.548179,0 104.937132,35.544602,0 104.933202,35.51293,0 104.946465,35.491562,0 104.966768,35.489983,0 104.975446,35.476402,0 104.996731,35.471347,0 105.000333,35.456183,0 105.044541,35.448916,0 105.070738,35.454814,0 105.083673,35.418575,0 105.123461,35.420156,0 105.117894,35.440278,0 105.135413,35.449126,0 105.1752,35.441858,0 105.232998,35.482719,0 105.271476,35.475138,0 105.303404,35.500299,0 105.319777,35.482824,0 105.345483,35.485351,0 105.355471,35.495668,0 105.384288,35.490088,0 105.415398,35.497457,0 105.406065,35.514403,0 105.414251,35.526821,0 105.447326,35.537553,0 105.451583,35.551124,0 105.473687,35.553859,0 105.476143,35.60034,0 105.520678,35.608014,0 105.456658,35.68902,0 105.457313,35.715374,0 105.485967,35.726396,0</coordinates></LinearRing></outerBoundaryIs>
      </Polygon>
    </MultiGeometry>
    </Placemark>
  </Document>
</kml>
