<?xml version="1.0" encoding="UTF-8"?>
<kml xmlns="http://www.opengis.net/kml/2.2">
  <Document>
    <name><![CDATA[金昌市]]></name>
    <Placemark>
      <name><![CDATA[金昌市]]></name>
      <description><![CDATA[省级目录：甘肃省]]></description>
      <ExtendedData>
        <Data name="adcode"><value>620300</value></Data>
      </ExtendedData>
      <MultiGeometry>
      <Polygon>
        <outerBoundaryIs><LinearRing><coordinates>102.071959,38.892926,0 102.07507,38.891517,0 102.00974,38.854474,0 101.996478,38.842491,0 101.941463,38.808848,0 101.874005,38.733949,0 101.775601,38.660588,0 101.744328,38.679062,0 101.731393,38.674721,0 101.678998,38.690971,0 101.64969,38.686127,0 101.613014,38.655742,0 101.591401,38.642312,0 101.564385,38.608372,0 101.567168,38.57573,0 101.516247,38.548332,0 101.538188,38.525172,0 101.547357,38.498665,0 101.533603,38.489861,0 101.502494,38.487027,0 101.503967,38.463746,0 101.529673,38.462531,0 101.518539,38.436305,0 101.48743,38.412502,0 101.447315,38.388487,0 101.424065,38.394871,0 101.372162,38.388487,0 101.371179,38.37227,0 101.35628,38.36487,0 101.337778,38.369736,0 101.34711,38.317309,0 101.392301,38.316294,0 101.403599,38.284332,0 101.417188,38.273675,0 101.467946,38.250731,0 101.491196,38.228389,0 101.478261,38.207362,0 101.462706,38.201469,0 101.419481,38.164069,0 101.402452,38.132955,0 101.403599,38.102336,0 101.386243,38.071298,0 101.419153,38.058879,0 101.441257,38.040144,0 101.481208,38.055723,0 101.516083,38.061424,0 101.576665,38.056741,0 101.612523,38.059795,0 101.636755,38.071501,0 101.651327,38.090024,0 101.690623,38.066616,0 101.706342,38.091754,0 101.740071,38.096028,0 101.766596,38.07944,0 101.812277,38.064987,0 101.835036,38.075267,0 101.855339,38.099487,0 101.885794,38.103048,0 101.945393,38.080255,0 101.975192,38.085547,0 101.986654,38.096028,0 102.003682,38.094807,0 102.015798,38.081985,0 102.026113,38.043097,0 102.040522,38.029655,0 102.094554,38.034544,0 102.10929,38.042996,0 102.135979,38.045338,0 102.162503,38.061729,0 102.17462,38.050938,0 102.185917,38.062645,0 102.207039,38.055519,0 102.218337,38.088905,0 102.232254,38.109255,0 102.223412,38.113832,0 102.253867,38.12492,0 102.305115,38.134582,0 102.344248,38.146988,0 102.388947,38.143124,0 102.409414,38.130514,0 102.409905,38.11607,0 102.431681,38.110882,0 102.447236,38.115969,0 102.458206,38.134175,0 102.519934,38.170269,0 102.531886,38.184905,0 102.557265,38.183076,0 102.575276,38.173522,0 102.612443,38.173116,0 102.649938,38.158172,0 102.678592,38.157867,0 102.675153,38.188666,0 102.706754,38.186836,0 102.719361,38.19588,0 102.723782,38.238241,0 102.700859,38.277938,0 102.686942,38.289508,0 102.695784,38.335972,0 102.693328,38.347735,0 102.704134,38.396594,0 102.700859,38.411488,0 102.622431,38.417769,0 102.572656,38.416149,0 102.616209,38.470023,0 102.536143,38.500183,0 102.496684,38.545804,0 102.478509,38.58513,0 102.459025,38.595943,0 102.447072,38.631606,0 102.397789,38.665232,0 102.408922,38.727192,0 102.411378,38.773475,0 102.439868,38.808545,0 102.425132,38.877527,0 102.412361,38.885378,0 102.43643,38.918281,0 102.376503,38.926127,0 102.336716,38.940007,0 102.283666,38.948052,0 102.269421,38.913955,0 102.144984,38.939906,0 102.094718,38.960218,0 102.087514,38.981026,0 101.96062,38.996804,0 102.071959,38.892926,0</coordinates></LinearRing></outerBoundaryIs>
      </Polygon>
    </MultiGeometry>
    </Placemark>
  </Document>
</kml>
