<?xml version="1.0" encoding="UTF-8"?>
<kml xmlns="http://www.opengis.net/kml/2.2">
  <Document>
    <name><![CDATA[陇南市]]></name>
    <Placemark>
      <name><![CDATA[陇南市]]></name>
      <description><![CDATA[省级目录：甘肃省]]></description>
      <ExtendedData>
        <Data name="adcode"><value>621200</value></Data>
      </ExtendedData>
      <MultiGeometry>
      <Polygon>
        <outerBoundaryIs><LinearRing><coordinates>106.494238,34.241827,0 106.494238,34.201415,0 106.475081,34.180025,0 106.472298,34.154885,0 106.453959,34.135517,0 106.402874,34.109829,0 106.363087,34.100622,0 106.336562,34.109829,0 106.327393,34.140868,0 106.344585,34.179277,0 106.330177,34.203447,0 106.323627,34.230497,0 106.282039,34.225472,0 106.270742,34.206869,0 106.276963,34.191256,0 106.266648,34.161412,0 106.244708,34.152638,0 106.246836,34.132199,0 106.229972,34.118071,0 106.189693,34.110471,0 106.14876,34.124279,0 106.139755,34.113575,0 106.117323,34.111434,0 106.100622,34.125457,0 106.082121,34.124814,0 106.071805,34.146646,0 106.041351,34.158737,0 106.017773,34.159058,0 105.9716,34.146111,0 105.945076,34.144185,0 105.90316,34.119034,0 105.86501,34.125136,0 105.86108,34.15328,0 105.815235,34.147502,0 105.781997,34.11957,0 105.772664,34.136694,0 105.771027,34.164407,0 105.740409,34.176602,0 105.72338,34.174035,0 105.718141,34.158844,0 105.704715,34.162054,0 105.667711,34.144613,0 105.651665,34.119034,0 105.640859,34.081241,0 105.61548,34.081348,0 105.623994,34.096232,0 105.596978,34.105868,0 105.591739,34.084453,0 105.563576,34.086381,0 105.552606,34.113682,0 105.563085,34.137229,0 105.547858,34.152745,0 105.555226,34.197245,0 105.540163,34.248668,0 105.554899,34.258072,0 105.530338,34.273245,0 105.527391,34.28457,0 105.547039,34.291621,0 105.558009,34.306788,0 105.546384,34.319496,0 105.522807,34.304972,0 105.501521,34.328786,0 105.491861,34.352166,0 105.460261,34.391653,0 105.408193,34.420988,0 105.384943,34.408615,0 105.350887,34.43144,0 105.31159,34.442423,0 105.312082,34.43048,0 105.291615,34.428667,0 105.290633,34.439331,0 105.260342,34.452979,0 105.254284,34.49977,0 105.24053,34.512343,0 105.243969,34.528429,0 105.227759,34.533009,0 105.20631,34.518948,0 105.160792,34.527364,0 105.128373,34.508401,0 105.108725,34.460975,0 105.084001,34.460548,0 105.06861,34.44189,0 105.038974,34.423441,0 105.013104,34.420455,0 104.989035,34.425574,0 104.983632,34.405735,0 104.991983,34.396134,0 104.96644,34.382583,0 104.938278,34.386318,0 104.895871,34.377995,0 104.856902,34.379382,0 104.844459,34.367856,0 104.855429,34.343199,0 104.852973,34.320457,0 104.863288,34.301768,0 104.844131,34.281472,0 104.821536,34.27613,0 104.814332,34.255187,0 104.789117,34.252515,0 104.779293,34.239583,0 104.741143,34.233383,0 104.720021,34.252942,0 104.689894,34.248026,0 104.665498,34.226114,0 104.623746,34.234986,0 104.571024,34.201629,0 104.552358,34.204196,0 104.536967,34.219592,0 104.527634,34.19147,0 104.511097,34.208045,0 104.472456,34.218202,0 104.452153,34.229214,0 104.435125,34.258713,0 104.445113,34.271108,0 104.437417,34.298137,0 104.417769,34.331028,0 104.406308,34.338929,0 104.366684,34.336687,0 104.353913,34.369564,0 104.328862,34.376607,0 104.28711,34.376287,0 104.269754,34.348644,0 104.202787,34.375113,0 104.14941,34.350779,0 104.148755,34.339036,0 104.116008,34.323127,0 104.136966,34.269399,0 104.162509,34.247492,0 104.165783,34.210397,0 104.153503,34.193074,0 104.105693,34.194143,0 104.067052,34.177993,0 104.060339,34.151782,0 104.028738,34.127276,0 104.02661,34.084989,0 104.03627,34.056714,0 104.064432,34.043966,0 104.077858,34.022643,0 104.194764,33.949099,0 104.248305,33.922817,0 104.330827,33.867653,0 104.341961,33.853803,0 104.385186,33.847897,0 104.410892,33.838984,0 104.446259,33.80719,0 104.450188,33.785593,0 104.469181,33.771084,0 104.531073,33.763238,0 104.528944,33.7412,0 104.490139,33.705497,0 104.486373,33.69076,0 104.509296,33.675806,0 104.514536,33.658803,0 104.501437,33.660202,0 104.50553,33.642013,0 104.548592,33.64309,0 104.521412,33.611869,0 104.542698,33.590761,0 104.555797,33.598623,0 104.570041,33.576543,0 104.581011,33.575789,0 104.584122,33.534845,0 104.57217,33.536461,0 104.583631,33.516413,0 104.60508,33.50283,0 104.657148,33.482774,0 104.699391,33.457428,0 104.698081,33.439843,0 104.714454,33.415672,0 104.730828,33.408333,0 104.713636,33.401101,0 104.715764,33.346142,0 104.729682,33.328859,0 104.759481,33.308007,0 104.727226,33.299686,0 104.675322,33.302388,0 104.661405,33.29612,0 104.646341,33.269314,0 104.639628,33.238824,0 104.627676,33.226927,0 104.567585,33.221411,0 104.539096,33.226927,0 104.532219,33.251259,0 104.540078,33.274071,0 104.501273,33.340742,0 104.487683,33.329507,0 104.467217,33.333721,0 104.437253,33.323242,0 104.393537,33.310924,0 104.41253,33.281745,0 104.385841,33.298606,0 104.349165,33.300659,0 104.33623,33.314274,0 104.302828,33.302604,0 104.329026,33.252989,0 104.328371,33.224115,0 104.350966,33.159087,0 104.377818,33.109174,0 104.36079,33.099318,0 104.367175,33.086753,0 104.33754,33.038208,0 104.360135,33.028452,0 104.391408,33.03539,0 104.421044,33.024225,0 104.42612,33.010781,0 104.383549,32.994299,0 104.378473,32.95319,0 104.349329,32.940495,0 104.305939,32.951562,0 104.286127,32.939085,0 104.276958,32.888504,0 104.288911,32.870371,0 104.294314,32.835722,0 104.330172,32.82464,0 104.359807,32.823988,0 104.422026,32.768776,0 104.447569,32.761709,0 104.45903,32.748552,0 104.510279,32.754424,0 104.526652,32.728432,0 104.555142,32.73387,0 104.582813,32.722232,0 104.591327,32.697101,0 104.619653,32.68339,0 104.64192,32.662711,0 104.667954,32.662494,0 104.696771,32.673487,0 104.738032,32.636148,0 104.76603,32.645512,0 104.79583,32.643552,0 104.820717,32.662929,0 104.845769,32.653894,0 104.873603,32.622973,0 104.88179,32.601191,0 104.927799,32.608924,0 104.972007,32.632882,0 105.014905,32.640177,0 105.030296,32.650411,0 105.079416,32.637237,0 105.096608,32.606092,0 105.110853,32.59411,0 105.184697,32.617419,0 105.214988,32.636802,0 105.219736,32.666412,0 105.241185,32.668916,0 105.263289,32.65237,0 105.297673,32.657051,0 105.308807,32.671092,0 105.340899,32.679581,0 105.365623,32.710375,0 105.394276,32.714291,0 105.425385,32.733979,0 105.446507,32.732239,0 105.459442,32.752358,0 105.45322,32.767689,0 105.425713,32.774212,0 105.413105,32.812362,0 105.392966,32.833115,0 105.395095,32.864723,0 105.380686,32.877103,0 105.407866,32.88579,0 105.413105,32.918899,0 105.425549,32.931163,0 105.456331,32.932682,0 105.499065,32.911844,0 105.527882,32.918899,0 105.534104,32.909456,0 105.565541,32.906851,0 105.590592,32.876777,0 105.638239,32.879275,0 105.656577,32.895344,0 105.699475,32.903486,0 105.735497,32.905331,0 105.785599,32.926822,0 105.827024,32.950803,0 105.861735,32.938976,0 105.917405,32.993866,0 105.928047,33.04146,0 105.913311,33.053164,0 105.915112,33.066276,0 105.933287,33.077003,0 105.918714,33.105384,0 105.936889,33.113614,0 105.920188,33.132131,0 105.923463,33.147721,0 105.896447,33.142741,0 105.924609,33.167529,0 105.916913,33.177811,0 105.92772,33.198478,0 105.945567,33.188091,0 105.946877,33.153567,0 105.968326,33.154108,0 105.962595,33.207565,0 105.906598,33.240121,0 105.862554,33.234282,0 105.835538,33.251151,0 105.792803,33.26272,0 105.791493,33.278611,0 105.767425,33.282502,0 105.747777,33.298822,0 105.755145,33.328859,0 105.728947,33.353163,0 105.708972,33.380698,0 105.732877,33.391062,0 105.743192,33.385341,0 105.802627,33.378755,0 105.829643,33.382858,0 105.837994,33.410816,0 105.830953,33.456457,0 105.841923,33.490107,0 105.877945,33.517707,0 105.884167,33.535707,0 105.902669,33.556181,0 105.919533,33.55478,0 105.954081,33.587099,0 105.962104,33.606485,0 105.979787,33.612407,0 105.998944,33.604115,0 106.019083,33.609715,0 106.029562,33.595931,0 106.045772,33.609715,0 106.063946,33.604115,0 106.086705,33.617145,0 106.119452,33.602392,0 106.108482,33.569756,0 106.141392,33.574927,0 106.143684,33.564908,0 106.187237,33.546483,0 106.237504,33.564046,0 106.277455,33.5969,0 106.303325,33.604331,0 106.335089,33.586991,0 106.351462,33.587207,0 106.384864,33.612084,0 106.431364,33.619083,0 106.446919,33.613268,0 106.452813,33.591838,0 106.456088,33.53797,0 106.477537,33.519431,0 106.494238,33.530426,0 106.541066,33.513071,0 106.563006,33.543035,0 106.559731,33.570834,0 106.580525,33.575897,0 106.581672,33.609823,0 106.575613,33.631679,0 106.534844,33.695171,0 106.482613,33.707326,0 106.48818,33.758186,0 106.479829,33.780757,0 106.461819,33.789676,0 106.468695,33.820081,0 106.491291,33.834473,0 106.493419,33.846179,0 106.474262,33.876671,0 106.428253,33.866472,0 106.410897,33.90919,0 106.444627,33.935905,0 106.476063,33.973764,0 106.478683,33.997885,0 106.471643,34.024037,0 106.505535,34.0565,0 106.501933,34.104904,0 106.561205,34.110899,0 106.584782,34.149428,0 106.574958,34.163765,0 106.557766,34.229748,0 106.53206,34.254011,0 106.512903,34.239369,0 106.494238,34.241827,0</coordinates></LinearRing></outerBoundaryIs>
      </Polygon>
    </MultiGeometry>
    </Placemark>
  </Document>
</kml>
