<?xml version="1.0" encoding="UTF-8"?>
<kml xmlns="http://www.opengis.net/kml/2.2">
<Document>
<name>吉安市</name>
<Placemark><name>吉安市</name><MultiGeometry><Polygon><outerBoundaryIs><LinearRing><coordinates>114.281936000000002,27.578064000000001,0 114.266570999999999,27.570865999999999,0 114.261368000000004,27.563276999999999,0 114.247622000000007,27.557362000000001,0 114.240357000000003,27.558198999999998,0 114.226121000000006,27.547651999999999,0 114.226268000000005,27.539280000000002,0 114.219003000000001,27.525604000000001,0 114.202116000000004,27.520189999999999,0 114.198139999999995,27.505172000000002,0 114.205012999999994,27.496797000000001,0 114.195488999999995,27.473566999999999,0 114.181449999999998,27.466529999999999,0 114.177914999999999,27.450109000000001,0 114.173496999999998,27.444801999999999,0 114.155923000000001,27.439215999999998,0 114.144042999999996,27.430947,0 114.122345999999993,27.429383000000001,0 114.112870999999998,27.436869000000002,0 114.082042999999999,27.428153999999999,0 114.070261000000002,27.435863999999999,0 114.062849,27.431674000000001,0 114.041347999999999,27.434244,0 114.030056999999999,27.426086999999999,0 114.030646000000004,27.417034999999998,0 114.023184000000001,27.401892,0 114.021810000000002,27.391665,0 114.031970999999999,27.379648,0 114.038696999999999,27.381381000000001,0 114.049496000000005,27.375791,0 114.054552999999999,27.360026999999999,0 114.074336000000002,27.353206,0 114.071095999999997,27.340626,0 114.082680999999994,27.332574000000001,0 114.100648000000007,27.329387000000001,0 114.116748999999999,27.309757000000001,0 114.142227000000005,27.318594000000001,0 114.138840000000002,27.303325000000001,0 114.144829000000001,27.289285,0 114.148510000000002,27.265284000000001,0 114.157837000000001,27.253142,0 114.157640999999998,27.242844999999999,0 114.122787000000002,27.218274000000001,0 114.113410999999999,27.223704000000001,0 114.095394999999996,27.208981999999999,0 114.097309999999993,27.196384999999999,0 114.091320999999994,27.190898000000001,0 114.085970000000003,27.168948,0 114.073206999999996,27.153490999999999,0 114.050527000000002,27.158474999999999,0 114.037419999999997,27.150130000000001,0 114.013416000000007,27.122626,0 114.003990000000002,27.094778000000002,0 113.995840999999999,27.085476,0 113.994860000000003,27.076733000000001,0 114.001093999999995,27.068718000000001,0 113.996823000000006,27.056386,0 113.987840000000006,27.051227999999998,0 113.97542,27.033736000000001,0 113.966583999999997,27.033624,0 113.959810000000004,27.021401000000001,0 113.961184000000003,26.999023999999999,0 113.948323000000002,26.998576,0 113.932711999999995,26.981973,0 113.921420999999995,26.960038000000001,0 113.926379999999995,26.947189000000002,0 113.902178000000006,26.925809000000001,0 113.903013000000001,26.910654999999998,0 113.891379000000001,26.897856000000001,0 113.892066,26.860519,0 113.877437,26.859508999999999,0 113.859027999999995,26.833787000000001,0 113.857947999999993,26.826822,0 113.835759999999993,26.806373000000001,0 113.836791000000005,26.796147999999999,0 113.845922000000002,26.788169,0 113.853530000000006,26.769400000000001,0 113.852842999999993,26.750008999999999,0 113.856769999999997,26.735619,0 113.856426999999996,26.714759999999998,0 113.861384999999999,26.705932000000001,0 113.862661000000003,26.689512000000001,0 113.860500999999999,26.664088,0 113.868011999999993,26.653006000000001,0 113.881461999999999,26.654356,0 113.884947999999994,26.63579,0 113.901343999999995,26.627912999999999,0 113.906448999999995,26.615701999999999,0 113.934774000000004,26.613,0 113.953181999999998,26.613731999999999,0 113.960006000000007,26.618120999999999,0 113.984403999999998,26.614576,0 113.996381,26.615589,0 114.017685999999998,26.599606000000001,0 114.019748000000007,26.587447999999998,0 114.033100000000005,26.58559,0 114.042574999999999,26.579905,0 114.060884999999999,26.580635999999998,0 114.069671999999997,26.575851,0 114.084693999999999,26.577764999999999,0 114.108109999999996,26.575006999999999,0 114.105901000000003,26.559692999999999,0 114.096278999999996,26.548262999999999,0 114.097505999999996,26.541224,0 114.086264999999997,26.525736999999999,0 114.084203000000002,26.505009999999999,0 114.072716,26.479883999999998,0 114.086755999999994,26.478193999999998,0 114.098095000000001,26.484165999999998,0 114.110122000000004,26.482983000000001,0 114.090535000000003,26.45571,0 114.086411999999996,26.439592000000001,0 114.085774000000001,26.423470999999999,0 114.089062999999996,26.418060000000001,0 114.085430000000002,26.406276999999999,0 114.071685000000002,26.409828999999998,0 114.062505000000002,26.406108,0 114.049888999999993,26.391110000000001,0 114.042968000000002,26.390263999999998,0 114.031873000000004,26.369287,0 114.039679000000007,26.361391000000001,0 114.039777000000001,26.345654,0 114.047582000000006,26.337361999999999,0 114.035604000000006,26.323371000000002,0 114.041788999999994,26.309546999999998,0 114.025737000000007,26.296794999999999,0 114.021220999999997,26.283024000000001,0 114.029320999999996,26.266373999999999,0 114.011256000000003,26.258527000000001,0 114.002713999999997,26.251358,0 113.989115999999996,26.246672,0 113.978904999999997,26.237752,0 113.980181999999999,26.226458999999998,0 113.971541999999999,26.219344,0 113.970068999999995,26.202120000000001,0 113.949500999999998,26.192686999999999,0 113.946113999999994,26.184497,0 113.951170000000005,26.169584,0 113.944494000000006,26.163765000000001,0 113.962656999999993,26.150825999999999,0 113.972179999999994,26.154724999999999,0 113.985483000000002,26.166364000000002,0 113.992110999999994,26.167833000000002,0 114.013366000000005,26.184045000000001,0 114.027896999999996,26.180035,0 114.036389999999997,26.188564,0 114.040954999999997,26.177379999999999,0 114.055338000000006,26.181334,0 114.059117999999998,26.166138,0 114.074679000000003,26.171786999999998,0 114.088571999999999,26.168396999999999,0 114.100352999999998,26.178397,0 114.102807999999996,26.187830000000002,0 114.141931999999997,26.203361999999998,0 114.153222999999997,26.204378999999999,0 114.181302000000002,26.214487999999999,0 114.183757,26.201046999999999,0 114.192249000000004,26.196698000000001,0 114.216793999999993,26.203136000000001,0 114.222144999999998,26.188846999999999,0 114.232208,26.179922000000001,0 114.218463,26.168510000000001,0 114.225385000000003,26.159641000000001,0 114.235693999999995,26.160093,0 114.237264999999994,26.152182,0 114.225335999999999,26.147718999999999,0 114.214978000000002,26.137435,0 114.188911000000004,26.121272000000001,0 114.171042999999997,26.123249999999999,0 114.156707999999995,26.115788999999999,0 114.108748000000006,26.100301999999999,0 114.107471000000004,26.095158000000001,0 114.118958000000006,26.089901000000001,0 114.120186000000004,26.084247000000001,0 114.106931000000003,26.069434000000001,0 114.100059000000002,26.071808999999998,0 114.085577000000001,26.066324000000002,0 114.069868999999997,26.078537000000001,0 114.043801999999999,26.076671000000001,0 114.045863999999995,26.070678000000001,0 114.035211000000004,26.058973000000002,0 114.036586,26.046814999999999,0 114.028092999999998,26.031148999999999,0 114.008457000000007,26.015650000000001,0 114.009046999999995,26.004166000000001,0 114.017588000000003,25.992908,0 114.027062000000001,25.991492999999998,0 114.028240999999994,25.981365,0 114.02073,25.972197999999999,0 114.038990999999996,25.986796999999999,0 114.054503999999994,25.990870999999999,0 114.075612000000007,25.986684,0 114.082828000000006,25.992228999999998,0 114.105065999999994,25.990701000000001,0 114.122296000000006,26.004562,0 114.133587000000006,26.002355999999999,0 114.150867000000005,26.011634000000001,0 114.151554000000004,26.018535,0 114.161322999999996,26.025379999999998,0 114.190089,26.029339,0 114.221359000000007,26.018875000000001,0 114.231078999999994,26.026679999999999,0 114.257686000000007,26.026171000000001,0 114.277420000000006,26.035504,0 114.281789000000003,26.031884000000002,0 114.294503000000006,26.036860999999998,0 114.292000000000002,26.048568,0 114.317183,26.069717000000001,0 114.333479999999994,26.076502000000001,0 114.344575000000006,26.088374000000002,0 114.356944999999996,26.090862000000001,0 114.375058999999993,26.116523999999998,0 114.393614999999997,26.112116,0 114.401813000000004,26.113697999999999,0 114.412073000000007,26.107142,0 114.426309000000003,26.10782,0 114.424295999999998,26.099284999999998,0 114.428713999999999,26.082042000000001,0 114.445012000000006,26.110475999999998,0 114.456547999999998,26.114376,0 114.452816999999996,26.142859000000001,0 114.466414999999998,26.144950000000001,0 114.480699999999999,26.152182,0 114.486099999999993,26.161787,0 114.502348999999995,26.171448000000002,0 114.520021,26.192744000000001,0 114.522818999999998,26.207484999999998,0 114.518450000000001,26.213245000000001,0 114.532932000000002,26.22053,0 114.543092999999999,26.213415000000001,0 114.552223999999995,26.226289999999999,0 114.565331,26.228943999999998,0 114.576327000000006,26.23555,0 114.594538999999997,26.232218,0 114.598663000000002,26.224709000000001,0 114.607499000000004,26.223184,0 114.610051999999996,26.216125000000002,0 114.606468000000007,26.201554999999999,0 114.636020000000002,26.202345999999999,0 114.641812999999999,26.191331999999999,0 114.653987000000001,26.198505000000001,0 114.668959000000001,26.194324999999999,0 114.667192,26.185119,0 114.685601000000005,26.181954999999999,0 114.698314999999994,26.169357999999999,0 114.714809000000002,26.162578,0 114.726050999999998,26.174160000000001,0 114.728161,26.184214999999998,0 114.739746999999994,26.185966000000001,0 114.766009999999994,26.176137000000001,0 114.765764000000004,26.182351000000001,0 114.775041999999999,26.192630999999999,0 114.798556000000005,26.183423999999999,0 114.817456000000007,26.182576999999998,0 114.825751999999994,26.190314999999998,0 114.834980999999999,26.189411,0 114.851573000000002,26.199183000000001,0 114.861096000000003,26.194324999999999,0 114.860457999999994,26.185119,0 114.871257999999997,26.184667000000001,0 114.889764999999997,26.203700999999999,0 114.901301000000004,26.201893999999999,0 114.909008,26.211777000000001,0 114.930509000000001,26.208276000000001,0 114.939051000000006,26.199691000000001,0 114.945088999999996,26.201668000000002,0 114.965509999999995,26.197883999999998,0 114.974198999999999,26.201442,0 114.984703999999994,26.195962999999999,0 114.997320000000002,26.19811,0 115.008561999999998,26.189015999999999,0 115.013863000000001,26.168906,0 115.021569999999997,26.175459,0 115.028442999999996,26.160488000000001,0 115.046409999999995,26.157211,0 115.054117000000005,26.148001000000001,0 115.063837000000007,26.143424,0 115.078269000000006,26.144553999999999,0 115.095253999999997,26.154216999999999,0 115.099131999999997,26.167888999999999,0 115.086417999999995,26.172408000000001,0 115.081607000000005,26.187038999999999,0 115.065211000000005,26.193252000000001,0 115.046017000000006,26.195962999999999,0 115.051466000000005,26.203361999999998,0 115.047195000000002,26.21172,0 115.061333000000005,26.227871,0 115.070366000000007,26.230298999999999,0 115.078613000000004,26.247350000000001,0 115.079153000000005,26.256269,0 115.091131000000004,26.266938,0 115.071347000000003,26.286636000000001,0 115.069874999999996,26.296004,0 115.074489,26.311014,0 115.067469000000003,26.323990999999999,0 115.050239000000005,26.339731,0 115.045378999999997,26.340916,0 115.026528999999996,26.359473000000001,0 115.037082999999996,26.367708,0 115.031683000000001,26.382539000000001,0 115.032763000000003,26.392802,0 115.043514000000002,26.397988999999999,0 115.037769999999995,26.410053999999999,0 115.044642999999994,26.426290000000002,0 115.054755,26.431137,0 115.060940000000002,26.446861999999999,0 115.073605999999998,26.457232000000001,0 115.096137999999996,26.487715000000001,0 115.114939000000007,26.503996000000001,0 115.165893999999994,26.522752000000001,0 115.185136999999997,26.520669000000002,0 115.192599000000001,26.522808999999999,0 115.217291000000003,26.513572,0 115.226912999999996,26.517064000000001,0 115.230790999999996,26.527426999999999,0 115.218715000000003,26.532045,0 115.235355999999996,26.558904999999999,0 115.251407999999998,26.572247999999998,0 115.269130000000004,26.60332,0 115.283906000000002,26.611198999999999,0 115.286017000000001,26.620429000000001,0 115.302069000000003,26.632583,0 115.299614000000005,26.654862999999999,0 115.317335999999997,26.661726000000002,0 115.328872000000004,26.662907000000001,0 115.336333999999994,26.673819999999999,0 115.347329999999999,26.673538000000001,0 115.357786000000004,26.661895000000001,0 115.357490999999996,26.656269000000002,0 115.368536000000006,26.652668999999999,0 115.390675999999999,26.655988000000001,0 115.406285999999994,26.661612999999999,0 115.410803000000001,26.659082000000001,0 115.427836999999997,26.671289000000002,0 115.426708000000005,26.675281999999999,0 115.449484999999996,26.687823999999999,0 115.461119999999994,26.678882000000002,0 115.462739999999997,26.672526000000001,0 115.475896000000006,26.675113,0 115.488658999999998,26.681806000000002,0 115.501863999999998,26.677475999999999,0 115.508196999999996,26.686530999999999,0 115.526702999999998,26.695416999999999,0 115.534754000000007,26.687712000000001,0 115.537405000000007,26.656438000000001,0 115.554635000000005,26.646311000000001,0 115.591845000000006,26.650531000000001,0 115.592384999999993,26.660657,0 115.607062999999997,26.657957,0 115.618796000000003,26.662231999999999,0 115.643979000000002,26.661162999999998,0 115.649968000000001,26.653569000000001,0 115.665724999999995,26.648674,0 115.670339999999996,26.641811000000001,0 115.675788999999995,26.652837999999999,0 115.683004999999994,26.654188000000001,0 115.687766999999994,26.666281999999999,0 115.698812000000004,26.672695000000001,0 115.704408000000001,26.68535,0 115.715159,26.689399000000002,0 115.701707999999996,26.700759000000001,0 115.708629999999999,26.708293999999999,0 115.721491,26.705482,0 115.731555,26.711274,0 115.728069000000005,26.745456000000001,0 115.724485999999999,26.758609,0 115.705341000000004,26.754225000000002,0 115.687422999999995,26.765072,0 115.680942999999999,26.765297,0 115.676868999999996,26.776705,0 115.691153999999997,26.780808,0 115.688699,26.792719999999999,0 115.695817000000005,26.800418000000001,0 115.687422999999995,26.803227,0 115.691104999999993,26.815137,0 115.688061000000005,26.823058,0 115.705292,26.841313,0 115.708139000000003,26.852713999999999,0 115.721785999999994,26.848220999999999,0 115.728904,26.839347,0 115.748834000000002,26.832606999999999,0 115.760812000000001,26.813958,0 115.785405999999995,26.804126,0 115.789873,26.824518999999999,0 115.793457000000004,26.828282000000002,0 115.807055000000005,26.857880000000002,0 115.823205000000002,26.858834999999999,0 115.832826999999995,26.883147999999998,0 115.835477999999995,26.897518999999999,0 115.864538999999994,26.909700000000001,0 115.882504999999995,26.924630000000001,0 115.904252,26.951060999999999,0 115.920451999999997,26.956783999999999,0 115.928894999999997,26.955269000000001,0 115.935374999999993,26.965031,0 115.930908000000002,26.971988,0 115.913775999999999,26.984666000000001,0 115.894728999999998,26.979281,0 115.883437999999998,26.989937999999999,0 115.885401999999999,26.999866000000001,0 115.874748999999994,26.997118,0 115.861003999999994,27.005866999999999,0 115.862870000000001,27.021457000000002,0 115.853493,27.035867,0 115.852609999999999,27.055993000000001,0 115.845639000000006,27.056273999999998,0 115.848094000000003,27.068325000000002,0 115.826445000000007,27.081160000000001,0 115.819424999999995,27.105985,0 115.814172999999997,27.110468000000001,0 115.792377000000002,27.115286000000001,0 115.772347999999994,27.110075999999999,0 115.756491999999994,27.110355999999999,0 115.741618000000003,27.104247999999998,0 115.718399000000005,27.100325999999999,0 115.711673000000005,27.114557999999999,0 115.698468000000005,27.120441,0 115.695768000000001,27.127164,0 115.681532000000004,27.13523,0 115.675200000000004,27.154499000000001,0 115.665184999999994,27.169115999999999,0 115.667001999999997,27.179084,0 115.659491000000003,27.191682,0 115.640394999999998,27.187819000000001,0 115.630037000000002,27.213291999999999,0 115.627926000000002,27.247042,0 115.641818999999998,27.254932,0 115.645059000000003,27.260808000000001,0 115.670782000000003,27.265732,0 115.675788999999995,27.263884999999998,0 115.694982999999993,27.271326999999999,0 115.693460999999999,27.285312999999999,0 115.686441000000002,27.289956,0 115.681876000000003,27.31082,0 115.681925000000007,27.32413,0 115.676721000000001,27.336880000000001,0 115.683349000000007,27.356337,0 115.689729999999997,27.365282000000001,0 115.701217,27.369363,0 115.702003000000005,27.384343000000001,0 115.696111999999999,27.401164999999999,0 115.712605999999994,27.415303000000002,0 115.719821999999994,27.425080999999999,0 115.724976999999996,27.440445,0 115.713292999999993,27.452286999999998,0 115.702738999999994,27.455248000000001,0 115.683840000000004,27.448098000000002,0 115.675935999999993,27.451170000000001,0 115.668424999999999,27.446645,0 115.651048000000003,27.451281999999999,0 115.630724000000001,27.469099,0 115.627092000000005,27.479543,0 115.619924999999995,27.484065999999999,0 115.604608999999996,27.511537000000001,0 115.591943999999998,27.523707000000002,0 115.604804999999999,27.533418999999999,0 115.609026999999998,27.567964,0 115.607014000000007,27.575776000000001,0 115.621986000000007,27.593239000000001,0 115.634652000000003,27.612093000000002,0 115.634602999999998,27.616275999999999,0 115.653403999999995,27.638138000000001,0 115.681925000000007,27.657039999999999,0 115.694737000000003,27.677332,0 115.712410000000006,27.692381999999998,0 115.725468000000006,27.709769999999999,0 115.735089000000002,27.729607000000001,0 115.730327000000003,27.757964000000001,0 115.697732000000002,27.769715999999999,0 115.686785,27.798563000000001,0 115.673873999999998,27.821335000000001,0 115.654139999999998,27.828348999999999,0 115.645402000000004,27.821055999999999,0 115.630134999999996,27.821836000000001,0 115.613347000000005,27.827959,0 115.591157999999993,27.841819000000001,0 115.578248000000002,27.863302000000001,0 115.560918999999998,27.861131,0 115.543589999999995,27.870536000000001,0 115.531711000000001,27.884779999999999,0 115.524248999999998,27.885392,0 115.510553000000002,27.896740999999999,0 115.516198000000003,27.906699,0 115.513841999999997,27.915654,0 115.529010999999997,27.924831000000001,0 115.537109999999998,27.940291999999999,0 115.527439999999999,27.949078,0 115.510897,27.948354999999999,0 115.485517000000002,27.957307,0 115.464309999999998,27.941514999999999,0 115.474520999999996,27.935842999999998,0 115.471232000000001,27.926221999999999,0 115.459991000000002,27.921605,0 115.451595999999995,27.924108,0 115.450320000000005,27.932617,0 115.439373000000003,27.935953999999999,0 115.443987000000007,27.955082999999998,0 115.428475000000006,27.960308999999999,0 115.429653000000002,27.944240000000001,0 115.425284000000005,27.943684000000001,0 115.413354999999996,27.954749,0 115.393620999999996,27.945574000000001,0 115.393620999999996,27.935953999999999,0 115.408201000000005,27.928668999999999,0 115.405647999999999,27.912984000000002,0 115.391265000000004,27.903361,0 115.382478000000006,27.893402999999999,0 115.392197999999993,27.883610999999998,0 115.407661000000004,27.877935999999998,0 115.405794999999998,27.872539,0 115.392540999999994,27.869644999999998,0 115.388662999999994,27.85885,0 115.382625000000004,27.864747999999999,0 115.360534999999999,27.861575999999999,0 115.360681999999997,27.845827,0 115.350814999999997,27.830908999999998,0 115.324355999999995,27.812037,0 115.319249999999997,27.798228999999999,0 115.297601999999998,27.777736000000001,0 115.280224000000004,27.767377,0 115.250279000000006,27.761082999999999,0 115.240069000000005,27.760749000000001,0 115.225635999999994,27.754788999999999,0 115.198097000000004,27.750610999999999,0 115.191175000000001,27.742978999999998,0 115.172569999999993,27.733284999999999,0 115.165796,27.733117,0 115.158824999999993,27.724202999999999,0 115.160053000000005,27.717182000000001,0 115.139189000000002,27.709323999999999,0 115.135458999999997,27.718909,0 115.139042000000003,27.726375999999998,0 115.129125999999999,27.741474,0 115.118572,27.738689000000001,0 115.119014000000007,27.731000000000002,0 115.111208000000005,27.726542999999999,0 115.102862999999999,27.710940999999998,0 115.082884000000007,27.704029999999999,0 115.079104000000001,27.716958999999999,0 115.069433000000004,27.721527999999999,0 115.058535000000006,27.732559999999999,0 115.054608000000002,27.723367,0 115.023092000000005,27.708376999999999,0 115.025644999999997,27.696116,0 115.015581999999995,27.689205000000001,0 115.015140000000002,27.668189999999999,0 115.019951000000006,27.665123999999999,0 115.019214000000005,27.654364000000001,0 115.009985,27.650628000000001,0 114.997664,27.655479,0 114.980334999999997,27.674322,0 114.976015000000004,27.674712,0 114.960747999999995,27.661110000000001,0 114.971303000000006,27.654698,0 114.970370000000003,27.649958999999999,0 114.954071999999996,27.639420000000001,0 114.943714,27.639866000000001,0 114.926091,27.630944,0 114.926385999999994,27.624140000000001,0 114.913179999999997,27.615216,0 114.888487999999995,27.608467000000001,0 114.879603000000003,27.591453000000001,0 114.865268999999998,27.591899999999999,0 114.848431000000005,27.582639,0 114.847105999999997,27.587603999999999,0 114.826783000000006,27.590727999999999,0 114.819222999999994,27.606681999999999,0 114.808374000000001,27.614882000000001,0 114.793892999999997,27.617113,0 114.792420000000007,27.623750000000001,0 114.781620000000004,27.628155,0 114.772440000000003,27.613765999999998,0 114.759726000000001,27.605454999999999,0 114.745343000000005,27.604061000000002,0 114.735819000000006,27.589668,0 114.730468999999999,27.600155999999998,0 114.692473000000007,27.594522000000001,0 114.671756999999999,27.586544,0 114.666995999999997,27.567685000000001,0 114.660613999999995,27.563946999999999,0 114.651826999999997,27.542293999999998,0 114.634743999999998,27.530238000000001,0 114.623502000000002,27.535260999999998,0 114.620114999999998,27.550163000000001,0 114.601804999999999,27.549157999999998,0 114.593655999999996,27.555631999999999,0 114.590710000000001,27.56484,0 114.572989000000007,27.565007000000001,0 114.540148000000002,27.559929,0 114.533275000000003,27.567350999999999,0 114.534943999999996,27.586098,0 114.529937000000004,27.591173999999999,0 114.530918999999997,27.60116,0 114.517616000000004,27.607462999999999,0 114.502791000000002,27.595526,0 114.503771999999998,27.585540000000002,0 114.483891,27.57572,0 114.464599000000007,27.557863999999999,0 114.447614000000002,27.568076000000001,0 114.424689000000001,27.559148,0 114.416982000000004,27.548154,0 114.386349999999993,27.550386,0 114.385122999999993,27.555966999999999,0 114.375157000000002,27.555744000000001,0 114.372800999999995,27.546647,0 114.365093999999999,27.546759000000002,0 114.348354,27.564226000000001,0 114.334756999999996,27.557306000000001,0 114.308788000000007,27.57572,0 114.281936000000002,27.578064000000001,0</coordinates></LinearRing></outerBoundaryIs></Polygon></MultiGeometry></Placemark>
</Document>
</kml>