<?xml version="1.0" encoding="UTF-8"?>
<kml xmlns="http://www.opengis.net/kml/2.2">
  <Document>
    <name>宜春市</name>
    <Placemark>
      <name>宜春市</name>
      <Polygon><outerBoundaryIs><LinearRing><coordinates>114.530919000000,27.601160000000,0 114.538528000000,27.608021000000,0 114.535632000000,27.618563000000,0 114.528121000000,27.627207000000,0 114.533423000000,27.641093000000,0 114.541768000000,27.646836000000,0 114.540884000000,27.659103000000,0 114.557869000000,27.693943000000,0 114.569553000000,27.699795000000,0 114.584181000000,27.723645000000,0 114.578291000000,27.741586000000,0 114.583200000000,27.753340000000,0 114.575345000000,27.768936000000,0 114.577407000000,27.775286000000,0 114.567736000000,27.771721000000,0 114.565429000000,27.762977000000,0 114.559293000000,27.771053000000,0 114.567491000000,27.778404000000,0 114.566460000000,27.790211000000,0 114.582807000000,27.801681000000,0 114.585114000000,27.807973000000,0 114.581481000000,27.830019000000,0 114.568865000000,27.843378000000,0 114.551291000000,27.832913000000,0 114.547315000000,27.816658000000,0 114.525863000000,27.827235000000,0 114.513001000000,27.827792000000,0 114.505147000000,27.836698000000,0 114.490518000000,27.866919000000,0 114.485609000000,27.895183000000,0 114.492187000000,27.917323000000,0 114.506865000000,27.923496000000,0 114.511627000000,27.920271000000,0 114.521494000000,27.925165000000,0 114.520757000000,27.934453000000,0 114.513099000000,27.944796000000,0 114.523703000000,27.955138000000,0 114.556397000000,27.958029000000,0 114.565969000000,27.953137000000,0 114.591152000000,27.966147000000,0 114.600774000000,27.980100000000,0 114.611132000000,27.984492000000,0 114.600332000000,27.985492000000,0 114.601903000000,27.994830000000,0 114.594588000000,28.001944000000,0 114.588599000000,28.026007000000,0 114.580451000000,28.046897000000,0 114.567736000000,28.056174000000,0 114.580549000000,28.064117000000,0 114.588894000000,28.079835000000,0 114.615402000000,28.078058000000,0 114.636462000000,28.089165000000,0 114.644611000000,28.096939000000,0 114.654969000000,28.096773000000,0 114.666947000000,28.104158000000,0 114.679612000000,28.105379000000,0 114.686533000000,28.099549000000,0 114.693848000000,28.101326000000,0 114.701358000000,28.094052000000,0 114.720847000000,28.103214000000,0 114.729732000000,28.100104000000,0 114.740925000000,28.107656000000,0 114.751234000000,28.107156000000,0 114.759922000000,28.101548000000,0 114.782700000000,28.107600000000,0 114.784762000000,28.099827000000,0 114.778331000000,28.088110000000,0 114.787511000000,28.085111000000,0 114.783142000000,28.062951000000,0 114.775337000000,28.059174000000,0 114.779804000000,28.044841000000,0 114.785645000000,28.045286000000,0 114.796249000000,28.030063000000,0 114.814805000000,28.034063000000,0 114.824475000000,28.045730000000,0 114.852751000000,28.043897000000,0 114.861636000000,28.047730000000,0 114.879210000000,28.045897000000,0 114.882794000000,28.022284000000,0 114.900024000000,28.027840000000,0 114.905375000000,28.034896000000,0 114.912199000000,28.025117000000,0 114.914997000000,28.038619000000,0 114.910579000000,28.042897000000,0 114.920888000000,28.057896000000,0 114.950390000000,28.066117000000,0 114.963105000000,28.090498000000,0 114.982790000000,28.093052000000,0 114.995258000000,28.073726000000,0 115.012391000000,28.074726000000,0 115.018281000000,28.081501000000,0 115.027805000000,28.080835000000,0 115.036003000000,28.073282000000,0 115.047539000000,28.075281000000,0 115.051613000000,28.080779000000,0 115.061530000000,28.066561000000,0 115.091081000000,28.082279000000,0 115.103747000000,28.082556000000,0 115.115037000000,28.076781000000,0 115.126426000000,28.082001000000,0 115.152051000000,28.075059000000,0 115.158776000000,28.067561000000,0 115.154604000000,28.055841000000,0 115.166974000000,28.048786000000,0 115.146356000000,28.040675000000,0 115.152738000000,28.032841000000,0 115.147584000000,28.010336000000,0 115.129715000000,28.002556000000,0 115.133200000000,27.994274000000,0 115.127801000000,27.985992000000,0 115.139091000000,27.974930000000,0 115.133937000000,27.968871000000,0 115.117001000000,27.959975000000,0 115.119554000000,27.941682000000,0 115.127310000000,27.935009000000,0 115.133053000000,27.921439000000,0 115.136833000000,27.901970000000,0 115.149351000000,27.895183000000,0 115.144197000000,27.893236000000,0 115.165551000000,27.890343000000,0 115.180867000000,27.880217000000,0 115.190292000000,27.877936000000,0 115.206540000000,27.882165000000,0 115.217340000000,27.874820000000,0 115.226275000000,27.878882000000,0 115.225391000000,27.888007000000,0 115.235749000000,27.889286000000,0 115.250378000000,27.873763000000,0 115.263386000000,27.876712000000,0 115.267755000000,27.867809000000,0 115.290827000000,27.880551000000,0 115.300400000000,27.881052000000,0 115.314832000000,27.870591000000,0 115.331572000000,27.876489000000,0 115.339034000000,27.866807000000,0 115.350030000000,27.871426000000,0 115.363235000000,27.868143000000,0 115.367456000000,27.873930000000,0 115.378649000000,27.871092000000,0 115.388860000000,27.876434000000,0 115.405795000000,27.872539000000,0 115.407661000000,27.877936000000,0 115.392198000000,27.883611000000,0 115.382478000000,27.893403000000,0 115.391265000000,27.903361000000,0 115.405648000000,27.912984000000,0 115.408201000000,27.928669000000,0 115.393621000000,27.935954000000,0 115.393621000000,27.945574000000,0 115.413355000000,27.954749000000,0 115.425284000000,27.943684000000,0 115.429653000000,27.944240000000,0 115.428475000000,27.960309000000,0 115.443987000000,27.955083000000,0 115.439373000000,27.935954000000,0 115.450320000000,27.932617000000,0 115.451596000000,27.924108000000,0 115.459991000000,27.921605000000,0 115.471232000000,27.926222000000,0 115.474521000000,27.935843000000,0 115.464310000000,27.941515000000,0 115.485517000000,27.957307000000,0 115.510897000000,27.948355000000,0 115.527440000000,27.949078000000,0 115.537110000000,27.940292000000,0 115.529011000000,27.924831000000,0 115.513842000000,27.915654000000,0 115.516198000000,27.906699000000,0 115.510553000000,27.896741000000,0 115.524249000000,27.885392000000,0 115.531711000000,27.884780000000,0 115.543590000000,27.870536000000,0 115.560919000000,27.861131000000,0 115.578248000000,27.863302000000,0 115.591158000000,27.841819000000,0 115.613347000000,27.827959000000,0 115.630135000000,27.821836000000,0 115.645402000000,27.821056000000,0 115.654140000000,27.828349000000,0 115.673874000000,27.821335000000,0 115.686785000000,27.798563000000,0 115.697732000000,27.769716000000,0 115.730327000000,27.757964000000,0 115.735089000000,27.729607000000,0 115.752320000000,27.737686000000,0 115.761205000000,27.745764000000,0 115.785946000000,27.739636000000,0 115.807447000000,27.727936000000,0 115.826347000000,27.735513000000,0 115.831305000000,27.726877000000,0 115.842645000000,27.730332000000,0 115.851775000000,27.752839000000,0 115.848241000000,27.764425000000,0 115.858402000000,27.780632000000,0 115.859139000000,27.796280000000,0 115.865570000000,27.811480000000,0 115.859581000000,27.830353000000,0 115.865520000000,27.855010000000,0 115.886138000000,27.854731000000,0 115.901552000000,27.866473000000,0 115.906805000000,27.880829000000,0 115.920255000000,27.882554000000,0 115.944898000000,27.894126000000,0 115.960460000000,27.891122000000,0 115.969345000000,27.896352000000,0 115.979703000000,27.895962000000,0 115.995019000000,27.900580000000,0 116.003413000000,27.897576000000,0 116.027026000000,27.908201000000,0 116.041458000000,27.924220000000,0 116.057707000000,27.928613000000,0 116.059572000000,27.934731000000,0 116.079061000000,27.947076000000,0 116.080091000000,27.959253000000,0 116.086620000000,27.962033000000,0 116.091088000000,27.979044000000,0 116.104391000000,27.985937000000,0 116.104784000000,27.994330000000,0 116.119412000000,28.007557000000,0 116.120198000000,28.022895000000,0 116.116565000000,28.029840000000,0 116.121376000000,28.041619000000,0 116.135121000000,28.042452000000,0 116.144154000000,28.061895000000,0 116.137085000000,28.069505000000,0 116.149357000000,28.076503000000,0 116.143859000000,28.090276000000,0 116.134925000000,28.100548000000,0 116.140521000000,28.111431000000,0 116.139834000000,28.119981000000,0 116.150781000000,28.128808000000,0 116.133599000000,28.134914000000,0 116.124518000000,28.131916000000,0 116.107189000000,28.135746000000,0 116.094573000000,28.144960000000,0 116.081810000000,28.148013000000,0 116.077441000000,28.156615000000,0 116.085491000000,28.174040000000,0 116.082841000000,28.178701000000,0 116.098353000000,28.203944000000,0 116.116025000000,28.237167000000,0 116.111362000000,28.246095000000,0 116.101151000000,28.249477000000,0 116.098107000000,28.264447000000,0 116.083626000000,28.275812000000,0 116.073513000000,28.289005000000,0 116.044305000000,28.295989000000,0 116.021135000000,28.283905000000,0 115.996590000000,28.281743000000,0 115.994577000000,28.287785000000,0 115.979949000000,28.291056000000,0 115.973861000000,28.278861000000,0 115.966105000000,28.275978000000,0 115.949709000000,28.281300000000,0 115.960018000000,28.292774000000,0 115.957662000000,28.300644000000,0 115.940284000000,28.307350000000,0 115.929779000000,28.315164000000,0 115.922121000000,28.314942000000,0 115.916525000000,28.302695000000,0 115.908818000000,28.315108000000,0 115.879364000000,28.286899000000,0 115.872049000000,28.303249000000,0 115.859875000000,28.312726000000,0 115.863213000000,28.343145000000,0 115.847897000000,28.381585000000,0 115.836067000000,28.392328000000,0 115.814222000000,28.402960000000,0 115.800575000000,28.398586000000,0 115.801409000000,28.380422000000,0 115.790757000000,28.376269000000,0 115.777650000000,28.362145000000,0 115.768470000000,28.361591000000,0 115.757278000000,28.368515000000,0 115.727038000000,28.350457000000,0 115.721688000000,28.360151000000,0 115.707304000000,28.367407000000,0 115.692332000000,28.367629000000,0 115.686883000000,28.363253000000,0 115.681238000000,28.374275000000,0 115.674218000000,28.374995000000,0 115.668278000000,28.363198000000,0 115.690958000000,28.362145000000,0 115.694296000000,28.354723000000,0 115.672549000000,28.337383000000,0 115.669996000000,28.346247000000,0 115.659000000000,28.344640000000,0 115.648888000000,28.334446000000,0 115.635535000000,28.337549000000,0 115.621986000000,28.345582000000,0 115.630332000000,28.348407000000,0 115.638530000000,28.366133000000,0 115.652324000000,28.375604000000,0 115.654582000000,28.381253000000,0 115.648249000000,28.392771000000,0 115.638824000000,28.397257000000,0 115.622085000000,28.398032000000,0 115.616685000000,28.409161000000,0 115.618108000000,28.418019000000,0 115.598522000000,28.417299000000,0 115.589931000000,28.409161000000,0 115.588311000000,28.399139000000,0 115.576529000000,28.396758000000,0 115.565926000000,28.399139000000,0 115.559348000000,28.389061000000,0 115.552721000000,28.387179000000,0 115.540645000000,28.393325000000,0 115.531661000000,28.392550000000,0 115.538730000000,28.407500000000,0 115.551003000000,28.409715000000,0 115.553408000000,28.430475000000,0 115.541823000000,28.442763000000,0 115.551150000000,28.453832000000,0 115.545750000000,28.481333000000,0 115.567791000000,28.497875000000,0 115.560133000000,28.503075000000,0 115.562343000000,28.514746000000,0 115.572406000000,28.514525000000,0 115.568626000000,28.530287000000,0 115.569411000000,28.542342000000,0 115.563030000000,28.559040000000,0 115.566319000000,28.565675000000,0 115.582126000000,28.568273000000,0 115.587329000000,28.573524000000,0 115.574811000000,28.589554000000,0 115.553457000000,28.580213000000,0 115.527538000000,28.582479000000,0 115.525673000000,28.607737000000,0 115.537454000000,28.611550000000,0 115.547076000000,28.621220000000,0 115.541676000000,28.631497000000,0 115.547076000000,28.632325000000,0 115.539761000000,28.642767000000,0 115.543738000000,28.649341000000,0 115.546879000000,28.673257000000,0 115.553703000000,28.683694000000,0 115.553850000000,28.695180000000,0 115.546094000000,28.708210000000,0 115.559495000000,28.729408000000,0 115.550905000000,28.732940000000,0 115.535589000000,28.732995000000,0 115.526654000000,28.739508000000,0 115.514824000000,28.731781000000,0 115.489052000000,28.734762000000,0 115.477025000000,28.731560000000,0 115.473392000000,28.724605000000,0 115.463672000000,28.724881000000,0 115.460187000000,28.733271000000,0 115.453167000000,28.732333000000,0 115.438686000000,28.759982000000,0 115.444871000000,28.760589000000,0 115.440109000000,28.771184000000,0 115.453167000000,28.773225000000,0 115.453756000000,28.766107000000,0 115.466470000000,28.787459000000,0 115.467943000000,28.795017000000,0 115.481639000000,28.797058000000,0 115.482130000000,28.810847000000,0 115.489690000000,28.823091000000,0 115.487333000000,28.829433000000,0 115.493764000000,28.844155000000,0 115.505791000000,28.832741000000,0 115.517818000000,28.842501000000,0 115.530581000000,28.861742000000,0 115.521402000000,28.883074000000,0 115.522580000000,28.892278000000,0 115.512173000000,28.896632000000,0 115.504073000000,28.913769000000,0 115.506233000000,28.922530000000,0 115.479872000000,28.960979000000,0 115.472067000000,28.966376000000,0 115.463427000000,28.983943000000,0 115.476092000000,28.994019000000,0 115.475552000000,29.006186000000,0 115.470054000000,29.012957000000,0 115.471330000000,29.023910000000,0 115.450614000000,29.029910000000,0 115.437851000000,29.041577000000,0 115.447374000000,29.054619000000,0 115.445951000000,29.060616000000,0 115.423517000000,29.066228000000,0 115.411441000000,29.063257000000,0 115.395536000000,29.067604000000,0 115.394701000000,29.076131000000,0 115.367555000000,29.084603000000,0 115.353171000000,29.086913000000,0 115.335008000000,29.095714000000,0 115.315078000000,29.099344000000,0 115.295147000000,29.095714000000,0 115.289453000000,29.099399000000,0 115.270455000000,29.096704000000,0 115.248610000000,29.090049000000,0 115.216653000000,29.094669000000,0 115.202859000000,29.086198000000,0 115.182683000000,29.083558000000,0 115.168692000000,29.078057000000,0 115.146258000000,29.073491000000,0 115.109294000000,29.051537000000,0 115.098641000000,29.050877000000,0 115.075962000000,29.039981000000,0 115.068697000000,29.033432000000,0 115.061039000000,29.036074000000,0 115.051270000000,29.031506000000,0 115.049208000000,29.020993000000,0 115.040568000000,29.012791000000,0 115.023730000000,29.009434000000,0 115.000118000000,29.009268000000,0 114.980630000000,28.994404000000,0 114.984459000000,28.984438000000,0 114.973855000000,28.978436000000,0 114.963890000000,28.967478000000,0 114.968848000000,28.959272000000,0 114.971106000000,28.943023000000,0 114.949458000000,28.923522000000,0 114.954023000000,28.913549000000,0 114.948280000000,28.906771000000,0 114.951372000000,28.896026000000,0 114.958245000000,28.891231000000,0 114.955299000000,28.878114000000,0 114.929478000000,28.867916000000,0 114.923833000000,28.868964000000,0 114.909499000000,28.854079000000,0 114.910579000000,28.843163000000,0 114.907535000000,28.819506000000,0 114.914604000000,28.814212000000,0 114.917206000000,28.800974000000,0 114.900761000000,28.784756000000,0 114.892612000000,28.769859000000,0 114.879947000000,28.774163000000,0 114.870080000000,28.768480000000,0 114.871209000000,28.752533000000,0 114.859771000000,28.754519000000,0 114.855647000000,28.746683000000,0 114.840233000000,28.741164000000,0 114.828697000000,28.753747000000,0 114.827175000000,28.760258000000,0 114.816474000000,28.769749000000,0 114.810583000000,28.767928000000,0 114.795905000000,28.753416000000,0 114.801501000000,28.744255000000,0 114.803465000000,28.729849000000,0 114.773078000000,28.712350000000,0 114.762622000000,28.713675000000,0 114.756437000000,28.705725000000,0 114.741759000000,28.699873000000,0 114.737096000000,28.687007000000,0 114.716331000000,28.690983000000,0 114.705826000000,28.685185000000,0 114.674703000000,28.691204000000,0 114.648243000000,28.686069000000,0 114.641911000000,28.692198000000,0 114.623699000000,28.695124000000,0 114.614862000000,28.710694000000,0 114.593165000000,28.722784000000,0 114.583838000000,28.732388000000,0 114.579861000000,28.762024000000,0 114.567295000000,28.771459000000,0 114.564055000000,28.764342000000,0 114.548150000000,28.766990000000,0 114.543584000000,28.760258000000,0 114.530772000000,28.760148000000,0 114.517861000000,28.754299000000,0 114.510203000000,28.757665000000,0 114.500876000000,28.753857000000,0 114.484137000000,28.753360000000,0 114.469753000000,28.732775000000,0 114.459886000000,28.727034000000,0 114.467642000000,28.701916000000,0 114.465482000000,28.696891000000,0 114.439759000000,28.707271000000,0 114.424100000000,28.716049000000,0 114.410060000000,28.706222000000,0 114.393026000000,28.704345000000,0 114.370347000000,28.714172000000,0 114.365290000000,28.701695000000,0 114.345556000000,28.705780000000,0 114.341187000000,28.713013000000,0 114.313943000000,28.728028000000,0 114.313255000000,28.734762000000,0 114.288465000000,28.757941000000,0 114.280414000000,28.757941000000,0 114.270498000000,28.767487000000,0 114.267946000000,28.785308000000,0 114.257342000000,28.807593000000,0 114.246886000000,28.809358000000,0 114.232846000000,28.800422000000,0 114.226023000000,28.806159000000,0 114.224992000000,28.820113000000,0 114.213358000000,28.828936000000,0 114.204424000000,28.820499000000,0 114.197551000000,28.807483000000,0 114.163728000000,28.785970000000,0 114.163826000000,28.775984000000,0 114.153518000000,28.770963000000,0 114.157150000000,28.761472000000,0 114.151996000000,28.742433000000,0 114.146596000000,28.734541000000,0 114.149345000000,28.723777000000,0 114.139969000000,28.702965000000,0 114.128236000000,28.701032000000,0 114.122395000000,28.689492000000,0 114.123327000000,28.682203000000,0 114.133096000000,28.671710000000,0 114.129414000000,28.662266000000,0 114.132802000000,28.641828000000,0 114.122296000000,28.623264000000,0 114.132114000000,28.607184000000,0 114.118713000000,28.586846000000,0 114.104575000000,28.583143000000,0 114.094806000000,28.570097000000,0 114.094708000000,28.562247000000,0 114.086166000000,28.558322000000,0 114.100648000000,28.540296000000,0 114.118517000000,28.538969000000,0 114.123229000000,28.534711000000,0 114.138103000000,28.533716000000,0 114.140607000000,28.523429000000,0 114.154647000000,28.507555000000,0 114.174675000000,28.497377000000,0 114.195587000000,28.498539000000,0 114.218807000000,28.482606000000,0 114.219298000000,28.470544000000,0 114.202313000000,28.459255000000,0 114.190040000000,28.441324000000,0 114.172368000000,28.432799000000,0 114.193378000000,28.430862000000,0 114.202264000000,28.424441000000,0 114.214634000000,28.403071000000,0 114.228134000000,28.395429000000,0 114.252482000000,28.395762000000,0 114.256017000000,28.392107000000,0 114.258079000000,28.372946000000,0 114.250617000000,28.368127000000,0 114.260140000000,28.355720000000,0 114.247132000000,28.338103000000,0 114.255526000000,28.326579000000,0 114.250617000000,28.318212000000,0 114.235154000000,28.310897000000,0 114.215665000000,28.293993000000,0 114.198140000000,28.290723000000,0 114.199122000000,28.272486000000,0 114.184640000000,28.267607000000,0 114.182137000000,28.250032000000,0 114.170699000000,28.253525000000,0 114.145025000000,28.247814000000,0 114.143798000000,28.238165000000,0 114.129660000000,28.228127000000,0 114.121216000000,28.213152000000,0 114.106637000000,28.201614000000,0 114.107275000000,28.182973000000,0 114.083761000000,28.179200000000,0 114.068691000000,28.171654000000,0 114.053473000000,28.171099000000,0 114.048024000000,28.176703000000,0 114.025001000000,28.172153000000,0 114.012336000000,28.175094000000,0 114.007377000000,28.166549000000,0 113.992651000000,28.161443000000,0 113.999916000000,28.147236000000,0 114.006003000000,28.144849000000,0 114.007181000000,28.125421000000,0 114.014790000000,28.123312000000,0 114.017343000000,28.102770000000,0 114.027013000000,28.092386000000,0 114.047140000000,28.057452000000,0 114.027553000000,28.041786000000,0 114.026817000000,28.031785000000,0 114.000554000000,28.040452000000,0 113.989263000000,28.038730000000,0 113.963344000000,28.039619000000,0 113.956962000000,28.028396000000,0 113.966339000000,28.019283000000,0 113.961920000000,28.015171000000,0 113.930650000000,28.015338000000,0 113.915825000000,27.993496000000,0 113.923630000000,27.984158000000,0 113.942235000000,27.989828000000,0 113.951710000000,27.987549000000,0 113.950286000000,27.979266000000,0 113.958239000000,27.969260000000,0 113.975371000000,27.967759000000,0 113.977138000000,27.975598000000,0 113.990785000000,27.973596000000,0 114.002959000000,27.955361000000,0 113.997658000000,27.941070000000,0 113.991423000000,27.940737000000,0 113.974046000000,27.923830000000,0 113.956275000000,27.913930000000,0 113.947095000000,27.899968000000,0 113.940223000000,27.900413000000,0 113.942383000000,27.909091000000,0 113.935559000000,27.911927000000,0 113.906842000000,27.889064000000,0 113.902571000000,27.878659000000,0 113.891182000000,27.870981000000,0 113.910769000000,27.863969000000,0 113.906498000000,27.856568000000,0 113.911014000000,27.849110000000,0 113.906695000000,27.841040000000,0 113.896582000000,27.843266000000,0 113.904240000000,27.834973000000,0 113.900166000000,27.829963000000,0 113.914353000000,27.832635000000,0 113.920292000000,27.828293000000,0 113.933792000000,27.830241000000,0 113.939388000000,27.802795000000,0 113.944346000000,27.810144000000,0 113.958337000000,27.814710000000,0 113.967124000000,27.808307000000,0 113.960153000000,27.791992000000,0 113.961871000000,27.779797000000,0 113.973555000000,27.775397000000,0 113.973800000000,27.761083000000,0 113.984453000000,27.762141000000,0 114.000996000000,27.752003000000,0 114.020386000000,27.761807000000,0 114.037322000000,27.754231000000,0 114.043655000000,27.743201000000,0 114.062603000000,27.745931000000,0 114.069672000000,27.743759000000,0 114.094708000000,27.756404000000,0 114.106146000000,27.752282000000,0 114.115620000000,27.756404000000,0 114.111202000000,27.764258000000,0 114.116308000000,27.770886000000,0 114.129120000000,27.768379000000,0 114.131574000000,27.761194000000,0 114.142276000000,27.761250000000,0 114.149247000000,27.751780000000,0 114.157837000000,27.748717000000,0 114.162894000000,27.737463000000,0 114.178062000000,27.733117000000,0 114.176688000000,27.722643000000,0 114.190237000000,27.709492000000,0 114.192298000000,27.694500000000,0 114.202264000000,27.680398000000,0 114.217089000000,27.665235000000,0 114.205700000000,27.644829000000,0 114.195882000000,27.641372000000,0 114.206878000000,27.637468000000,0 114.213112000000,27.627319000000,0 114.236479000000,27.604395000000,0 114.255526000000,27.589724000000,0 114.265246000000,27.587158000000,0 114.273247000000,27.576557000000,0 114.281936000000,27.578064000000,0 114.308788000000,27.575720000000,0 114.334757000000,27.557306000000,0 114.348354000000,27.564226000000,0 114.365094000000,27.546759000000,0 114.372801000000,27.546647000000,0 114.375157000000,27.555744000000,0 114.385123000000,27.555967000000,0 114.386350000000,27.550386000000,0 114.416982000000,27.548154000000,0 114.424689000000,27.559148000000,0 114.447614000000,27.568076000000,0 114.464599000000,27.557864000000,0 114.483891000000,27.575720000000,0 114.503772000000,27.585540000000,0 114.502791000000,27.595526000000,0 114.517616000000,27.607463000000,0 114.530919000000,27.601160000000,0</coordinates></LinearRing></outerBoundaryIs></Polygon>
    </Placemark>
  </Document>
</kml>
