<?xml version="1.0" encoding="UTF-8"?>
<kml xmlns="http://www.opengis.net/kml/2.2">
<Document>
<name>新余市</name>
<Placemark><name>新余市</name><MultiGeometry><Polygon><outerBoundaryIs><LinearRing><coordinates>114.530918999999997,27.60116,0 114.529937000000004,27.591173999999999,0 114.534943999999996,27.586098,0 114.533275000000003,27.567350999999999,0 114.540148000000002,27.559929,0 114.572989000000007,27.565007000000001,0 114.590710000000001,27.56484,0 114.593655999999996,27.555631999999999,0 114.601804999999999,27.549157999999998,0 114.620114999999998,27.550163000000001,0 114.623502000000002,27.535260999999998,0 114.634743999999998,27.530238000000001,0 114.651826999999997,27.542293999999998,0 114.660613999999995,27.563946999999999,0 114.666995999999997,27.567685000000001,0 114.671756999999999,27.586544,0 114.692473000000007,27.594522000000001,0 114.730468999999999,27.600155999999998,0 114.735819000000006,27.589668,0 114.745343000000005,27.604061000000002,0 114.759726000000001,27.605454999999999,0 114.772440000000003,27.613765999999998,0 114.781620000000004,27.628155,0 114.792420000000007,27.623750000000001,0 114.793892999999997,27.617113,0 114.808374000000001,27.614882000000001,0 114.819222999999994,27.606681999999999,0 114.826783000000006,27.590727999999999,0 114.847105999999997,27.587603999999999,0 114.848431000000005,27.582639,0 114.865268999999998,27.591899999999999,0 114.879603000000003,27.591453000000001,0 114.888487999999995,27.608467000000001,0 114.913179999999997,27.615216,0 114.926385999999994,27.624140000000001,0 114.926091,27.630944,0 114.943714,27.639866000000001,0 114.954071999999996,27.639420000000001,0 114.970370000000003,27.649958999999999,0 114.971303000000006,27.654698,0 114.960747999999995,27.661110000000001,0 114.976015000000004,27.674712,0 114.980334999999997,27.674322,0 114.997664,27.655479,0 115.009985,27.650628000000001,0 115.019214000000005,27.654364000000001,0 115.019951000000006,27.665123999999999,0 115.015140000000002,27.668189999999999,0 115.015581999999995,27.689205000000001,0 115.025644999999997,27.696116,0 115.023092000000005,27.708376999999999,0 115.054608000000002,27.723367,0 115.058535000000006,27.732559999999999,0 115.069433000000004,27.721527999999999,0 115.079104000000001,27.716958999999999,0 115.082884000000007,27.704029999999999,0 115.102862999999999,27.710940999999998,0 115.111208000000005,27.726542999999999,0 115.119014000000007,27.731000000000002,0 115.118572,27.738689000000001,0 115.129125999999999,27.741474,0 115.139042000000003,27.726375999999998,0 115.135458999999997,27.718909,0 115.139189000000002,27.709323999999999,0 115.160053000000005,27.717182000000001,0 115.158824999999993,27.724202999999999,0 115.165796,27.733117,0 115.172569999999993,27.733284999999999,0 115.191175000000001,27.742978999999998,0 115.198097000000004,27.750610999999999,0 115.225635999999994,27.754788999999999,0 115.240069000000005,27.760749000000001,0 115.250279000000006,27.761082999999999,0 115.280224000000004,27.767377,0 115.297601999999998,27.777736000000001,0 115.319249999999997,27.798228999999999,0 115.324355999999995,27.812037,0 115.350814999999997,27.830908999999998,0 115.360681999999997,27.845827,0 115.360534999999999,27.861575999999999,0 115.382625000000004,27.864747999999999,0 115.388662999999994,27.85885,0 115.392540999999994,27.869644999999998,0 115.405794999999998,27.872539,0 115.388859999999994,27.876434,0 115.378648999999996,27.871092000000001,0 115.367456000000004,27.873930000000001,0 115.363235000000003,27.868143,0 115.350030000000004,27.871426,0 115.339033999999998,27.866807000000001,0 115.331571999999994,27.876488999999999,0 115.314831999999996,27.870591000000001,0 115.300399999999996,27.881052,0 115.290826999999993,27.880551000000001,0 115.267754999999994,27.867809000000001,0 115.263385999999997,27.876712000000001,0 115.250377999999998,27.873763,0 115.235748999999998,27.889285999999998,0 115.225391000000002,27.888007000000002,0 115.226275000000001,27.878882000000001,0 115.217339999999993,27.87482,0 115.206540000000004,27.882165000000001,0 115.190291999999999,27.877935999999998,0 115.180867000000006,27.880216999999998,0 115.165550999999994,27.890343000000001,0 115.144197000000005,27.893236000000002,0 115.149350999999996,27.895182999999999,0 115.136832999999996,27.901969999999999,0 115.133053000000004,27.921438999999999,0 115.127309999999994,27.935009000000001,0 115.119553999999994,27.941682,0 115.117001000000002,27.959975,0 115.133937000000003,27.968871,0 115.139090999999993,27.974930000000001,0 115.127801000000005,27.985992,0 115.133200000000002,27.994274000000001,0 115.129715000000004,28.002555999999998,0 115.147583999999995,28.010335999999999,0 115.152737999999999,28.032841000000001,0 115.146355999999997,28.040675,0 115.166973999999996,28.048786,0 115.154604000000006,28.055841000000001,0 115.158776000000003,28.067561000000001,0 115.152051,28.075059,0 115.126425999999995,28.082001000000002,0 115.115037000000001,28.076781,0 115.103746999999998,28.082556,0 115.091081000000003,28.082279,0 115.061530000000005,28.066561,0 115.051613000000003,28.080779,0 115.047539,28.075281,0 115.036002999999994,28.073281999999999,0 115.027805000000001,28.080835,0 115.018281000000002,28.081500999999999,0 115.012390999999994,28.074725999999998,0 114.995258000000007,28.073726000000001,0 114.982789999999994,28.093052,0 114.963104999999999,28.090498,0 114.950389999999999,28.066116999999998,0 114.920888000000005,28.057896,0 114.910578999999998,28.042897,0 114.914997,28.038619000000001,0 114.912199000000001,28.025117000000002,0 114.905375000000006,28.034896,0 114.900024000000002,28.027840000000001,0 114.882794000000004,28.022283999999999,0 114.87921,28.045897,0 114.861636000000004,28.047730000000001,0 114.852750999999998,28.043897000000001,0 114.824475000000007,28.045729999999999,0 114.814805000000007,28.034063,0 114.796249000000003,28.030062999999998,0 114.785645000000002,28.045286000000001,0 114.779803999999999,28.044841000000002,0 114.775336999999993,28.059173999999999,0 114.783141999999998,28.062951000000002,0 114.787510999999995,28.085111000000001,0 114.778330999999994,28.08811,0 114.784762000000001,28.099827000000001,0 114.782700000000006,28.107600000000001,0 114.759922000000003,28.101548000000001,0 114.751233999999997,28.107156,0 114.740925000000004,28.107655999999999,0 114.729731999999998,28.100104000000002,0 114.720847000000006,28.103214000000001,0 114.701357999999999,28.094052000000001,0 114.693848000000003,28.101326,0 114.686532999999997,28.099549,0 114.679612000000006,28.105378999999999,0 114.666946999999993,28.104158000000002,0 114.654968999999994,28.096772999999999,0 114.644610999999998,28.096938999999999,0 114.636461999999995,28.089165000000001,0 114.615402000000003,28.078057999999999,0 114.588893999999996,28.079834999999999,0 114.580549000000005,28.064117,0 114.567735999999996,28.056173999999999,0 114.580450999999996,28.046897000000001,0 114.588599000000002,28.026007,0 114.594588000000002,28.001944000000002,0 114.601902999999993,27.99483,0 114.600331999999995,27.985492000000001,0 114.611131999999998,27.984491999999999,0 114.600774000000001,27.9801,0 114.591151999999994,27.966146999999999,0 114.565968999999996,27.953137000000002,0 114.556397000000004,27.958029,0 114.523702999999998,27.955138000000002,0 114.513098999999997,27.944796,0 114.520757000000003,27.934453000000001,0 114.521494000000004,27.925165,0 114.511627000000004,27.920271,0 114.506865000000005,27.923496,0 114.492187000000001,27.917323,0 114.485608999999997,27.895182999999999,0 114.490517999999994,27.866918999999999,0 114.505146999999994,27.836697999999998,0 114.513001000000003,27.827791999999999,0 114.525863000000001,27.827235000000002,0 114.547314999999998,27.816658,0 114.551291000000006,27.832913000000001,0 114.568865000000002,27.843378000000001,0 114.581480999999997,27.830019,0 114.585114000000004,27.807973,0 114.582807000000003,27.801680999999999,0 114.566460000000006,27.790210999999999,0 114.567491000000004,27.778403999999998,0 114.559292999999997,27.771052999999998,0 114.565428999999995,27.762976999999999,0 114.567735999999996,27.771720999999999,0 114.577406999999994,27.775286000000001,0 114.575344999999999,27.768936,0 114.583200000000005,27.753340000000001,0 114.578290999999993,27.741586000000002,0 114.584181000000001,27.723645000000001,0 114.569552999999999,27.699795000000002,0 114.557868999999997,27.693943000000001,0 114.540884000000005,27.659103000000002,0 114.541768000000005,27.646836,0 114.533422999999999,27.641093000000001,0 114.528120999999999,27.627206999999999,0 114.535632000000007,27.618563000000002,0 114.538527999999999,27.608021000000001,0 114.530918999999997,27.60116,0</coordinates></LinearRing></outerBoundaryIs></Polygon></MultiGeometry></Placemark>
</Document>
</kml>