<?xml version="1.0" encoding="UTF-8"?>
<kml xmlns="http://www.opengis.net/kml/2.2">
  <Document>
    <name>景德镇市</name>
    <Placemark>
      <name>景德镇市</name>
      <Polygon><outerBoundaryIs><LinearRing><coordinates>117.707660000000,29.548977000000,0 117.690479000000,29.555931000000,0 117.682968000000,29.568032000000,0 117.682232000000,29.587246000000,0 117.678992000000,29.595512000000,0 117.668977000000,29.596989000000,0 117.661418000000,29.611821000000,0 117.647967000000,29.614886000000,0 117.628282000000,29.606239000000,0 117.608744000000,29.591571000000,0 117.586458000000,29.584728000000,0 117.574038000000,29.591078000000,0 117.557986000000,29.590093000000,0 117.545959000000,29.594198000000,0 117.543357000000,29.588560000000,0 117.528974000000,29.609522000000,0 117.523427000000,29.629222000000,0 117.530545000000,29.654060000000,0 117.518910000000,29.662921000000,0 117.493776000000,29.659530000000,0 117.474239000000,29.668336000000,0 117.451854000000,29.695953000000,0 117.457254000000,29.725311000000,0 117.455094000000,29.749141000000,0 117.443165000000,29.758923000000,0 117.434721000000,29.761164000000,0 117.413564000000,29.787990000000,0 117.409146000000,29.802630000000,0 117.424805000000,29.834633000000,0 117.418816000000,29.850412000000,0 117.384061000000,29.843642000000,0 117.375961000000,29.818086000000,0 117.356227000000,29.813717000000,0 117.347931000000,29.822346000000,0 117.338604000000,29.847900000000,0 117.333253000000,29.850575000000,0 117.325693000000,29.843860000000,0 117.303014000000,29.840366000000,0 117.295454000000,29.833595000000,0 117.292460000000,29.822783000000,0 117.278174000000,29.825131000000,0 117.271204000000,29.830100000000,0 117.257410000000,29.831247000000,0 117.249359000000,29.846099000000,0 117.256820000000,29.859529000000,0 117.261779000000,29.880653000000,0 117.253679000000,29.908975000000,0 117.246217000000,29.915086000000,0 117.217058000000,29.926924000000,0 117.206209000000,29.927524000000,0 117.188929000000,29.921851000000,0 117.177590000000,29.921960000000,0 117.148823000000,29.911321000000,0 117.134685000000,29.903846000000,0 117.127960000000,29.895497000000,0 117.133065000000,29.874267000000,0 117.127715000000,29.861603000000,0 117.110435000000,29.855434000000,0 117.092763000000,29.836871000000,0 117.073323000000,29.832230000000,0 117.075581000000,29.822619000000,0 117.096150000000,29.807545000000,0 117.127960000000,29.795802000000,0 117.135569000000,29.780943000000,0 117.135471000000,29.772037000000,0 117.108668000000,29.751983000000,0 117.108275000000,29.745097000000,0 117.122462000000,29.728536000000,0 117.112988000000,29.712136000000,0 117.090848000000,29.699233000000,0 117.092468000000,29.691524000000,0 117.081030000000,29.666640000000,0 117.077643000000,29.650395000000,0 117.071212000000,29.641970000000,0 117.050987000000,29.631575000000,0 117.042397000000,29.619482000000,0 117.025853000000,29.607498000000,0 117.027326000000,29.599233000000,0 117.040188000000,29.577776000000,0 117.046569000000,29.543556000000,0 117.051135000000,29.532055000000,0 117.047698000000,29.512994000000,0 117.049171000000,29.485930000000,0 117.042888000000,29.471738000000,0 117.042348000000,29.454583000000,0 117.045882000000,29.441428000000,0 117.062622000000,29.434192000000,0 117.070918000000,29.426791000000,0 117.067285000000,29.412152000000,0 117.071311000000,29.397620000000,0 117.069101000000,29.392355000000,0 117.054276000000,29.384457000000,0 117.050104000000,29.370031000000,0 117.042691000000,29.364820000000,0 117.045342000000,29.349897000000,0 117.069543000000,29.332229000000,0 117.079459000000,29.309892000000,0 117.055798000000,29.302317000000,0 117.042249000000,29.302975000000,0 117.035819000000,29.291887000000,0 117.028062000000,29.287660000000,0 117.025363000000,29.279095000000,0 117.008378000000,29.281950000000,0 117.011421000000,29.264215000000,0 117.020159000000,29.252023000000,0 117.014465000000,29.243291000000,0 117.017508000000,29.229174000000,0 117.011225000000,29.225274000000,0 117.024037000000,29.191155000000,0 117.031891000000,29.180109000000,0 117.029339000000,29.167468000000,0 117.032922000000,29.161806000000,0 117.058400000000,29.148888000000,0 117.068905000000,29.136188000000,0 117.068660000000,29.130195000000,0 117.079999000000,29.123542000000,0 117.069838000000,29.112764000000,0 117.077447000000,29.103249000000,0 117.066696000000,29.104404000000,0 117.061394000000,29.096044000000,0 117.048582000000,29.093954000000,0 117.044655000000,29.082623000000,0 117.049466000000,29.051097000000,0 117.046717000000,29.043063000000,0 117.032824000000,29.027323000000,0 117.038371000000,29.009378000000,0 117.029879000000,29.002552000000,0 117.014072000000,28.998809000000,0 117.013483000000,28.975628000000,0 117.009310000000,28.959327000000,0 116.998658000000,28.948421000000,0 116.985747000000,28.949248000000,0 116.973671000000,28.929306000000,0 116.970873000000,28.916524000000,0 116.957079000000,28.904843000000,0 116.963608000000,28.898836000000,0 116.963853000000,28.886547000000,0 116.984225000000,28.869790000000,0 117.009997000000,28.856781000000,0 117.029928000000,28.838696000000,0 117.039746000000,28.818734000000,0 117.047551000000,28.808917000000,0 117.070427000000,28.815480000000,0 117.085105000000,28.811730000000,0 117.090308000000,28.801029000000,0 117.116866000000,28.801029000000,0 117.123149000000,28.795237000000,0 117.122315000000,28.781004000000,0 117.136502000000,28.797885000000,0 117.142785000000,28.799595000000,0 117.144307000000,28.786907000000,0 117.152259000000,28.775267000000,0 117.158690000000,28.782439000000,0 117.175430000000,28.770853000000,0 117.171110000000,28.759265000000,0 117.173515000000,28.752698000000,0 117.191826000000,28.741109000000,0 117.193298000000,28.747456000000,0 117.203460000000,28.741054000000,0 117.226581000000,28.749497000000,0 117.236890000000,28.747069000000,0 117.242977000000,28.737190000000,0 117.241652000000,28.726482000000,0 117.248377000000,28.719196000000,0 117.262809000000,28.726261000000,0 117.273118000000,28.723446000000,0 117.279500000000,28.736693000000,0 117.299332000000,28.745910000000,0 117.306401000000,28.759651000000,0 117.324711000000,28.764011000000,0 117.329424000000,28.773170000000,0 117.348618000000,28.774218000000,0 117.358387000000,28.768480000000,0 117.371641000000,28.766825000000,0 117.374488000000,28.772839000000,0 117.384601000000,28.773556000000,0 117.388135000000,28.782935000000,0 117.402322000000,28.783652000000,0 117.404777000000,28.804559000000,0 117.393339000000,28.812557000000,0 117.395842000000,28.829046000000,0 117.411011000000,28.824414000000,0 117.430402000000,28.830315000000,0 117.438109000000,28.837814000000,0 117.449939000000,28.841729000000,0 117.475613000000,28.837428000000,0 117.487984000000,28.829433000000,0 117.504085000000,28.830039000000,0 117.511449000000,28.825903000000,0 117.520776000000,28.810406000000,0 117.537172000000,28.812281000000,0 117.549051000000,28.807372000000,0 117.544879000000,28.817741000000,0 117.543112000000,28.843163000000,0 117.548511000000,28.866042000000,0 117.557053000000,28.891341000000,0 117.554353000000,28.899222000000,0 117.537466000000,28.902253000000,0 117.531968000000,28.913329000000,0 117.514836000000,28.917075000000,0 117.513020000000,28.929637000000,0 117.499913000000,28.936193000000,0 117.494120000000,28.943133000000,0 117.494120000000,28.955472000000,0 117.483026000000,28.963898000000,0 117.472030000000,28.959712000000,0 117.457057000000,28.970341000000,0 117.488327000000,28.982126000000,0 117.497213000000,28.988953000000,0 117.491469000000,28.992257000000,0 117.493924000000,29.000956000000,0 117.481111000000,29.015489000000,0 117.493973000000,29.022204000000,0 117.494513000000,29.040586000000,0 117.519303000000,29.057260000000,0 117.509927000000,29.067879000000,0 117.502563000000,29.070355000000,0 117.499324000000,29.081577000000,0 117.514590000000,29.097364000000,0 117.493580000000,29.107484000000,0 117.481995000000,29.133219000000,0 117.497704000000,29.143500000000,0 117.497262000000,29.158013000000,0 117.486904000000,29.163620000000,0 117.463292000000,29.158013000000,0 117.454161000000,29.160212000000,0 117.441054000000,29.156749000000,0 117.439974000000,29.142071000000,0 117.427603000000,29.136078000000,0 117.398493000000,29.147734000000,0 117.386025000000,29.168292000000,0 117.384208000000,29.181208000000,0 117.372770000000,29.190166000000,0 117.384699000000,29.206265000000,0 117.387890000000,29.219286000000,0 117.385386000000,29.229614000000,0 117.403402000000,29.246366000000,0 117.432954000000,29.259492000000,0 117.449154000000,29.271408000000,0 117.453032000000,29.281675000000,0 117.437078000000,29.297761000000,0 117.431825000000,29.310660000000,0 117.445374000000,29.322625000000,0 117.490291000000,29.346440000000,0 117.490389000000,29.352640000000,0 117.481160000000,29.361309000000,0 117.485677000000,29.378204000000,0 117.486266000000,29.396523000000,0 117.497654000000,29.403213000000,0 117.511547000000,29.405736000000,0 117.517438000000,29.411165000000,0 117.508061000000,29.429094000000,0 117.509927000000,29.436001000000,0 117.526323000000,29.445649000000,0 117.522494000000,29.439455000000,0 117.529366000000,29.430409000000,0 117.535503000000,29.430793000000,0 117.546499000000,29.447403000000,0 117.556415000000,29.455570000000,0 117.574087000000,29.457653000000,0 117.578358000000,29.461709000000,0 117.571289000000,29.468066000000,0 117.577474000000,29.484834000000,0 117.586016000000,29.485820000000,0 117.595932000000,29.469820000000,0 117.604768000000,29.475793000000,0 117.614292000000,29.500778000000,0 117.621311000000,29.512556000000,0 117.632749000000,29.504777000000,0 117.647034000000,29.515240000000,0 117.647280000000,29.523675000000,0 117.655723000000,29.534465000000,0 117.664461000000,29.527619000000,0 117.673592000000,29.527290000000,0 117.691362000000,29.535670000000,0 117.707660000000,29.548977000000,0</coordinates></LinearRing></outerBoundaryIs></Polygon>
    </Placemark>
  </Document>
</kml>
