<?xml version="1.0" encoding="UTF-8"?>
<kml xmlns="http://www.opengis.net/kml/2.2">
  <Document>
    <name>鹰潭市</name>
    <Placemark>
      <name>鹰潭市</name>
      <Polygon><outerBoundaryIs><LinearRing><coordinates>117.446356000000,27.932729000000,0 117.435458000000,27.936121000000,0 117.432218000000,27.942405000000,0 117.445767000000,27.964201000000,0 117.448270000000,27.986382000000,0 117.465795000000,28.019450000000,0 117.465599000000,28.039397000000,0 117.461230000000,28.053452000000,0 117.461230000000,28.066561000000,0 117.444834000000,28.090886000000,0 117.436832000000,28.107045000000,0 117.426082000000,28.112264000000,0 117.399966000000,28.115373000000,0 117.362363000000,28.132083000000,0 117.353282000000,28.133581000000,0 117.331437000000,28.130861000000,0 117.309543000000,28.143240000000,0 117.281316000000,28.146514000000,0 117.274345000000,28.150954000000,0 117.270664000000,28.162442000000,0 117.280973000000,28.173097000000,0 117.283771000000,28.187301000000,0 117.278420000000,28.193570000000,0 117.274051000000,28.209879000000,0 117.285440000000,28.223968000000,0 117.297319000000,28.230567000000,0 117.302719000000,28.240217000000,0 117.294767000000,28.252804000000,0 117.288336000000,28.274870000000,0 117.265411000000,28.278362000000,0 117.264724000000,28.289448000000,0 117.257311000000,28.309290000000,0 117.277978000000,28.309899000000,0 117.281365000000,28.326135000000,0 117.294620000000,28.338546000000,0 117.317692000000,28.348574000000,0 117.319508000000,28.363474000000,0 117.327411000000,28.384244000000,0 117.310181000000,28.397478000000,0 117.314108000000,28.414642000000,0 117.326184000000,28.430198000000,0 117.328050000000,28.450954000000,0 117.320981000000,28.462409000000,0 117.313863000000,28.506172000000,0 117.315875000000,28.534601000000,0 117.304290000000,28.543890000000,0 117.292950000000,28.564901000000,0 117.283231000000,28.576731000000,0 117.274493000000,28.601824000000,0 117.262711000000,28.613208000000,0 117.246561000000,28.617131000000,0 117.236939000000,28.626635000000,0 117.223292000000,28.624259000000,0 117.225109000000,28.609561000000,0 117.216125000000,28.595026000000,0 117.199091000000,28.589223000000,0 117.147694000000,28.562192000000,0 117.126340000000,28.576675000000,0 117.108717000000,28.581484000000,0 117.096346000000,28.589610000000,0 117.079116000000,28.606576000000,0 117.068954000000,28.608732000000,0 117.055307000000,28.603316000000,0 117.044949000000,28.591931000000,0 117.054522000000,28.565730000000,0 117.049613000000,28.549696000000,0 117.033953000000,28.531891000000,0 117.032186000000,28.526305000000,0 117.011127000000,28.514635000000,0 117.013434000000,28.509934000000,0 117.003861000000,28.496326000000,0 116.990165000000,28.512810000000,0 116.976518000000,28.534435000000,0 116.965179000000,28.527632000000,0 116.911131000000,28.522323000000,0 116.904406000000,28.504513000000,0 116.897337000000,28.502300000000,0 116.880744000000,28.507279000000,0 116.879272000000,28.492619000000,0 116.891004000000,28.474362000000,0 116.896011000000,28.458702000000,0 116.871466000000,28.427818000000,0 116.867392000000,28.413867000000,0 116.878093000000,28.399527000000,0 116.879026000000,28.388951000000,0 116.871417000000,28.382361000000,0 116.855021000000,28.379813000000,0 116.824389000000,28.378318000000,0 116.798715000000,28.358157000000,0 116.788652000000,28.341095000000,0 116.796850000000,28.329515000000,0 116.801317000000,28.312504000000,0 116.815897000000,28.295157000000,0 116.817615000000,28.287564000000,0 116.806864000000,28.255355000000,0 116.793856000000,28.251584000000,0 116.767200000000,28.255521000000,0 116.754535000000,28.262507000000,0 116.739268000000,28.264447000000,0 116.726455000000,28.260455000000,0 116.706869000000,28.249311000000,0 116.692338000000,28.231566000000,0 116.692191000000,28.216203000000,0 116.704561000000,28.206717000000,0 116.730530000000,28.203556000000,0 116.725965000000,28.189354000000,0 116.732346000000,28.181531000000,0 116.746091000000,28.179811000000,0 116.760818000000,28.173984000000,0 116.782123000000,28.179755000000,0 116.804361000000,28.176315000000,0 116.808141000000,28.166882000000,0 116.795426000000,28.142241000000,0 116.794690000000,28.125754000000,0 116.805441000000,28.114873000000,0 116.802544000000,28.108488000000,0 116.813050000000,28.101937000000,0 116.829053000000,28.108377000000,0 116.839509000000,28.107600000000,0 116.861059000000,28.091775000000,0 116.875246000000,28.088887000000,0 116.893704000000,28.073559000000,0 116.905338000000,28.072282000000,0 116.912947000000,28.077058000000,0 116.920114000000,28.096217000000,0 116.933221000000,28.093330000000,0 116.938130000000,28.068783000000,0 116.943039000000,28.063784000000,0 116.943923000000,28.051397000000,0 116.938768000000,28.042675000000,0 116.964786000000,28.049341000000,0 116.973769000000,28.045286000000,0 116.972837000000,28.033674000000,0 116.980200000000,28.015727000000,0 116.991982000000,28.006779000000,0 117.000523000000,27.995442000000,0 117.019668000000,27.987049000000,0 117.045440000000,27.966369000000,0 117.047404000000,27.944073000000,0 117.044851000000,27.935398000000,0 117.032186000000,27.925999000000,0 117.015741000000,27.903417000000,0 117.011028000000,27.890566000000,0 117.011912000000,27.880496000000,0 117.026639000000,27.854898000000,0 117.045146000000,27.848331000000,0 117.083141000000,27.890677000000,0 117.094530000000,27.890010000000,0 117.103808000000,27.879216000000,0 117.109257000000,27.898410000000,0 117.115442000000,27.907867000000,0 117.123542000000,27.909313000000,0 117.144258000000,27.892736000000,0 117.166201000000,27.900913000000,0 117.185837000000,27.884390000000,0 117.201496000000,27.880551000000,0 117.203067000000,27.890399000000,0 117.223096000000,27.894238000000,0 117.240375000000,27.881775000000,0 117.248573000000,27.869478000000,0 117.261779000000,27.867197000000,0 117.276604000000,27.848053000000,0 117.280776000000,27.871203000000,0 117.289023000000,27.868532000000,0 117.303357000000,27.872149000000,0 117.318084000000,27.894071000000,0 117.327706000000,27.894126000000,0 117.336149000000,27.878270000000,0 117.333008000000,27.862077000000,0 117.340715000000,27.856345000000,0 117.353920000000,27.859573000000,0 117.353871000000,27.864915000000,0 117.366585000000,27.882332000000,0 117.378416000000,27.888674000000,0 117.384355000000,27.886393000000,0 117.396039000000,27.893236000000,0 117.404580000000,27.893236000000,0 117.429960000000,27.913151000000,0 117.446356000000,27.932729000000,0</coordinates></LinearRing></outerBoundaryIs></Polygon>
    </Placemark>
  </Document>
</kml>
