<?xml version="1.0" encoding="UTF-8"?>
<kml xmlns="http://www.opengis.net/kml/2.2">
  <Document>
    <name><![CDATA[沧州市]]></name>
    <Placemark>
      <name><![CDATA[沧州市]]></name>
      <description><![CDATA[省级目录：河北省]]></description>
      <ExtendedData>
        <Data name="adcode"><value>130900</value></Data>
      </ExtendedData>
      <MultiGeometry>
      <Polygon>
        <outerBoundaryIs><LinearRing><coordinates>116.335916,37.581263,0 116.343541,37.566025,0 116.367696,37.566295,0 116.376858,37.546602,0 116.368913,37.526364,0 116.402167,37.509833,0 116.434139,37.473383,0 116.456115,37.513679,0 116.486421,37.524205,0 116.517048,37.557191,0 116.538512,37.568453,0 116.545816,37.582477,0 116.574648,37.609978,0 116.604506,37.62514,0 116.640834,37.666432,0 116.641027,37.682323,0 116.663964,37.687776,0 116.67979,37.728764,0 116.699332,37.730648,0 116.724512,37.744305,0 116.723167,37.766703,0 116.744182,37.757355,0 116.753793,37.770536,0 116.753665,37.792993,0 116.786149,37.82633,0 116.788136,37.843396,0 116.812739,37.843598,0 116.84375,37.834461,0 116.883795,37.844337,0 116.919355,37.845882,0 116.947675,37.840037,0 116.976635,37.841045,0 117.027188,37.832378,0 117.074345,37.848771,0 117.093759,37.849509,0 117.150142,37.839567,0 117.185317,37.849778,0 117.208832,37.843732,0 117.271366,37.839903,0 117.320124,37.861399,0 117.34428,37.862675,0 117.381954,37.854547,0 117.406301,37.843531,0 117.438593,37.853876,0 117.481137,37.914842,0 117.512789,37.943428,0 117.527974,37.996275,0 117.56033,38.040978,0 117.556486,38.05719,0 117.58378,38.070653,0 117.616713,38.069046,0 117.666048,38.072528,0 117.679504,38.07956,0 117.704492,38.076078,0 117.729223,38.093822,0 117.743191,38.123409,0 117.76882,38.131908,0 117.766962,38.15867,0 117.801625,38.173786,0 117.789195,38.180741,0 117.808544,38.228406,0 117.8475,38.25393,0 117.860891,38.274569,0 117.895682,38.301613,0 117.916698,38.32344,0 117.948349,38.346462,0 117.958024,38.376147,0 117.937457,38.38775,0 117.846411,38.36801,0 117.804764,38.367076,0 117.781186,38.373812,0 117.730505,38.424949,0 117.725123,38.457333,0 117.710899,38.467791,0 117.678799,38.477049,0 117.647852,38.508677,0 117.645161,38.527647,0 117.685975,38.532438,0 117.68527,38.539425,0 117.643367,38.54029,0 117.638562,38.570028,0 117.645033,38.593836,0 117.63901,38.626742,0 117.557831,38.613781,0 117.541429,38.60361,0 117.478895,38.617237,0 117.432442,38.601349,0 117.391949,38.572689,0 117.369075,38.564773,0 117.368883,38.582465,0 117.358055,38.57056,0 117.305644,38.556591,0 117.292189,38.562445,0 117.253169,38.556192,0 117.238369,38.581002,0 117.259512,38.603078,0 117.255988,38.613781,0 117.23068,38.624017,0 117.23036,38.641694,0 117.186086,38.616506,0 117.151103,38.617702,0 117.13611,38.598756,0 117.098179,38.586921,0 117.086326,38.606402,0 117.071526,38.607399,0 117.064285,38.635713,0 117.051727,38.643488,0 117.06813,38.680621,0 117.039041,38.688457,0 117.042309,38.706517,0 117.015719,38.700409,0 117.014502,38.690184,0 116.994447,38.695695,0 116.87726,38.680688,0 116.866496,38.717005,0 116.867457,38.745873,0 116.859127,38.741295,0 116.796529,38.74667,0 116.766351,38.741959,0 116.758855,38.732071,0 116.77404,38.652258,0 116.763212,38.633853,0 116.738224,38.631327,0 116.733739,38.614047,0 116.71503,38.609327,0 116.702792,38.619098,0 116.680559,38.605936,0 116.680303,38.592706,0 116.662234,38.581268,0 116.671653,38.566503,0 116.643333,38.564773,0 116.652431,38.551202,0 116.672678,38.546545,0 116.668257,38.530042,0 116.647114,38.50648,0 116.621228,38.514335,0 116.627315,38.501087,0 116.610593,38.479646,0 116.589897,38.483908,0 116.569715,38.470988,0 116.559399,38.496759,0 116.519482,38.48817,0 116.465726,38.494096,0 116.449772,38.518262,0 116.452655,38.534501,0 116.431127,38.539558,0 116.432152,38.552533,0 116.455475,38.557656,0 116.454834,38.580337,0 116.425425,38.587187,0 116.41921,38.599288,0 116.381984,38.619165,0 116.366863,38.67305,0 116.370836,38.692508,0 116.406331,38.703596,0 116.435804,38.733199,0 116.42299,38.770419,0 116.390313,38.789784,0 116.338287,38.80689,0 116.271973,38.816634,0 116.278764,38.836451,0 116.247497,38.848907,0 116.248907,38.85964,0 116.23212,38.871894,0 116.212194,38.870238,0 116.202198,38.887258,0 116.20002,38.915727,0 116.209503,38.921618,0 116.15203,38.948352,0 116.121083,38.934391,0 116.125633,38.920823,0 116.112754,38.909703,0 116.085524,38.91063,0 116.045543,38.897786,0 116.04157,38.878451,0 116.048746,38.8607,0 116.035548,38.829492,0 116.04093,38.812259,0 116.023054,38.812524,0 115.999731,38.796812,0 115.995118,38.77798,0 115.95187,38.746736,0 115.944053,38.735456,0 115.966286,38.708973,0 115.955009,38.702932,0 115.959879,38.679891,0 115.973526,38.668467,0 115.973398,38.635514,0 115.951101,38.627938,0 115.96321,38.613182,0 115.960583,38.584394,0 115.934058,38.546678,0 115.940721,38.530508,0 115.890809,38.52585,0 115.878507,38.535566,0 115.869345,38.524652,0 115.875047,38.510141,0 115.816101,38.52545,0 115.79137,38.512005,0 115.770418,38.48817,0 115.745686,38.481311,0 115.718584,38.449205,0 115.715957,38.438411,0 115.731462,38.392618,0 115.705321,38.367543,0 115.734025,38.359205,0 115.738767,38.369544,0 115.783297,38.358338,0 115.804633,38.345462,0 115.841538,38.346062,0 115.850188,38.309423,0 115.833016,38.298008,0 115.837181,38.272499,0 115.864476,38.255266,0 115.856467,38.240901,0 115.871267,38.217579,0 115.899523,38.20314,0 115.887542,38.171312,0 115.900804,38.158536,0 115.935403,38.167232,0 115.938671,38.144354,0 115.968913,38.138533,0 115.986725,38.125885,0 116.049771,38.146026,0 116.055218,38.131306,0 116.048554,38.11424,0 116.031831,38.100718,0 116.031511,38.082774,0 116.055474,38.071725,0 116.05227,38.052434,0 116.070595,38.041112,0 116.049515,38.038365,0 116.042467,38.026706,0 116.062394,38.005057,0 116.071876,37.980318,0 116.100645,37.948929,0 116.120571,37.948996,0 116.093981,37.922627,0 116.091034,37.910949,0 116.153952,37.914573,0 116.170867,37.933565,0 116.170163,37.959594,0 116.188039,37.968314,0 116.209118,37.966369,0 116.226354,37.95121,0 116.256595,37.965229,0 116.266206,37.961405,0 116.266975,37.981458,0 116.278252,37.962479,0 116.306764,37.979312,0 116.329189,38.008141,0 116.343925,38.017256,0 116.3709,38.018597,0 116.417224,38.009481,0 116.479309,38.011492,0 116.483474,38.02503,0 116.496352,38.013704,0 116.563243,38.01987,0 116.565166,37.980116,0 116.53377,37.907727,0 116.515382,37.892892,0 116.51346,37.863951,0 116.473415,37.865495,0 116.481424,37.830026,0 116.466623,37.805564,0 116.47303,37.777059,0 116.460664,37.778875,0 116.451182,37.7587,0 116.438367,37.758902,0 116.434331,37.734618,0 116.424784,37.735829,0 116.386533,37.696393,0 116.378909,37.659698,0 116.36539,37.648719,0 116.374936,37.63949,0 116.375192,37.617256,0 116.3281,37.605058,0 116.335916,37.581263,0</coordinates></LinearRing></outerBoundaryIs>
      </Polygon>
    </MultiGeometry>
    </Placemark>
  </Document>
</kml>
