<?xml version="1.0" encoding="UTF-8"?>
<kml xmlns="http://www.opengis.net/kml/2.2">
  <Document>
    <name><![CDATA[石家庄市]]></name>
    <Placemark>
      <name><![CDATA[石家庄市]]></name>
      <description><![CDATA[省级目录：河北省]]></description>
      <ExtendedData>
        <Data name="adcode"><value>130100</value></Data>
      </ExtendedData>
      <MultiGeometry>
      <Polygon>
        <outerBoundaryIs><LinearRing><coordinates>113.839548,38.758413,0 113.802899,38.763321,0 113.78041,38.728355,0 113.775669,38.709836,0 113.745363,38.701538,0 113.729024,38.71196,0 113.709995,38.698284,0 113.713839,38.663684,0 113.702114,38.65166,0 113.667067,38.646943,0 113.632596,38.653122,0 113.612862,38.646013,0 113.604212,38.616107,0 113.602803,38.586854,0 113.562053,38.558321,0 113.557248,38.504016,0 113.546548,38.493031,0 113.583517,38.465992,0 113.573202,38.449205,0 113.538026,38.418017,0 113.525468,38.383016,0 113.53431,38.365208,0 113.557248,38.34346,0 113.546035,38.293067,0 113.544818,38.270495,0 113.566282,38.252393,0 113.570318,38.237427,0 113.598894,38.227136,0 113.636761,38.232682,0 113.657072,38.225599,0 113.679112,38.205413,0 113.711725,38.213702,0 113.715057,38.193713,0 113.738507,38.189501,0 113.720631,38.174656,0 113.731139,38.168369,0 113.756575,38.171713,0 113.796876,38.162884,0 113.828848,38.168971,0 113.83359,38.147431,0 113.822505,38.150442,0 113.810075,38.112566,0 113.824235,38.106676,0 113.854733,38.077082,0 113.856015,38.065898,0 113.876261,38.055047,0 113.878376,38.032402,0 113.872353,37.990375,0 113.90125,37.98481,0 113.922842,37.952082,0 113.929185,37.932022,0 113.956864,37.911419,0 113.971536,37.868786,0 113.970191,37.833923,0 113.982557,37.812823,0 114.006648,37.813495,0 114.018821,37.794876,0 114.043873,37.777463,0 114.041182,37.756817,0 114.000817,37.735358,0 113.993769,37.706893,0 114.068029,37.721564,0 114.088275,37.708845,0 114.128256,37.69821,0 114.139725,37.675927,0 114.131139,37.648315,0 114.115378,37.619884,0 114.118325,37.590634,0 114.059635,37.515906,0 114.036762,37.494175,0 114.028304,37.474598,0 114.022666,37.435496,0 114.06899,37.447384,0 114.096477,37.490935,0 114.113263,37.493837,0 114.126526,37.481957,0 114.133766,37.498899,0 114.156191,37.505244,0 114.166123,37.528186,0 114.184575,37.530817,0 114.215009,37.51125,0 114.255439,37.504096,0 114.27293,37.494445,0 114.303621,37.507808,0 114.310861,37.499979,0 114.334632,37.502949,0 114.358274,37.519212,0 114.370192,37.513612,0 114.37269,37.52967,0 114.412095,37.549907,0 114.433495,37.552537,0 114.483471,37.576814,0 114.519927,37.574656,0 114.585217,37.55301,0 114.64679,37.556247,0 114.680171,37.565283,0 114.698816,37.589353,0 114.707338,37.615774,0 114.725983,37.630665,0 114.764618,37.624399,0 114.797423,37.628239,0 114.808571,37.659832,0 114.841504,37.676129,0 114.847783,37.69673,0 114.871041,37.702114,0 114.881357,37.716113,0 114.895965,37.712547,0 114.904038,37.729302,0 114.931846,37.728899,0 114.960165,37.720084,0 114.987524,37.742691,0 115.001748,37.734685,0 115.012512,37.75157,0 115.041024,37.733541,0 115.070049,37.745651,0 115.068703,37.773428,0 115.085298,37.779211,0 115.072291,37.794136,0 115.097215,37.797498,0 115.097471,37.807849,0 115.122972,37.811479,0 115.131173,37.799783,0 115.150523,37.808521,0 115.160262,37.780287,0 115.152765,37.759507,0 115.172564,37.749351,0 115.227281,37.732599,0 115.243235,37.722641,0 115.261431,37.68818,0 115.253807,37.671415,0 115.255088,37.645621,0 115.258356,37.639625,0 115.297376,37.629587,0 115.301412,37.660169,0 115.316853,37.660102,0 115.325567,37.682458,0 115.317046,37.695383,0 115.333768,37.71322,0 115.380989,37.707432,0 115.394316,37.712143,0 115.386179,37.727082,0 115.360294,37.731994,0 115.344468,37.74814,0 115.371635,37.770335,0 115.352349,37.784052,0 115.349722,37.805765,0 115.360166,37.820215,0 115.363049,37.849845,0 115.388614,37.853003,0 115.389831,37.874629,0 115.360294,37.880068,0 115.365484,37.906318,0 115.385795,37.917191,0 115.408668,37.918936,0 115.412769,37.943293,0 115.448585,37.936584,0 115.457555,37.95074,0 115.456017,37.974551,0 115.444997,37.989168,0 115.464219,37.99299,0 115.438205,38.001102,0 115.45134,38.017323,0 115.466782,38.063554,0 115.482992,38.08398,0 115.468063,38.095161,0 115.439871,38.082038,0 115.420522,38.089671,0 115.383232,38.0886,0 115.364843,38.13793,0 115.346903,38.13967,0 115.342418,38.196254,0 115.35094,38.210493,0 115.323645,38.220586,0 115.324734,38.248184,0 115.302758,38.235289,0 115.273605,38.2403,0 115.263994,38.260543,0 115.265788,38.287658,0 115.252205,38.29093,0 115.225871,38.269894,0 115.210174,38.236491,0 115.19422,38.236759,0 115.168591,38.259608,0 115.152317,38.256802,0 115.108107,38.264551,0 115.085874,38.276773,0 115.073765,38.293134,0 115.056722,38.288326,0 115.066204,38.264684,0 115.056465,38.258472,0 115.031862,38.267089,0 114.989062,38.258138,0 114.990087,38.272165,0 114.970096,38.281114,0 114.927681,38.283385,0 114.915059,38.263348,0 114.886162,38.265286,0 114.883343,38.284854,0 114.902565,38.294936,0 114.906986,38.309624,0 114.922875,38.315631,0 114.942994,38.343193,0 114.932871,38.344194,0 114.923388,38.388217,0 114.910381,38.393751,0 114.882254,38.424149,0 114.853998,38.435879,0 114.858163,38.448605,0 114.840992,38.460797,0 114.837852,38.435745,0 114.819143,38.449871,0 114.830868,38.46033,0 114.81075,38.492365,0 114.765259,38.496626,0 114.731237,38.48191,0 114.702084,38.489102,0 114.6737,38.473452,0 114.651851,38.504682,0 114.635257,38.514801,0 114.595724,38.568897,0 114.58432,38.596429,0 114.56324,38.590644,0 114.527616,38.590644,0 114.552284,38.612983,0 114.536907,38.632324,0 114.53633,38.649268,0 114.522106,38.65372,0 114.498463,38.678297,0 114.452652,38.699413,0 114.437787,38.692773,0 114.413504,38.703928,0 114.366411,38.6862,0 114.341167,38.690184,0 114.311502,38.706517,0 114.212831,38.688192,0 114.182205,38.67657,0 114.129153,38.669596,0 114.125053,38.659632,0 114.086097,38.65837,0 114.052139,38.686399,0 114.028624,38.688524,0 113.991655,38.676769,0 113.964617,38.699811,0 113.929697,38.702467,0 113.932324,38.71362,0 113.883245,38.74667,0 113.864664,38.746006,0 113.839548,38.758413,0</coordinates></LinearRing></outerBoundaryIs>
      </Polygon>
    </MultiGeometry>
    </Placemark>
  </Document>
</kml>
