<?xml version="1.0" encoding="UTF-8"?>
<kml xmlns="http://www.opengis.net/kml/2.2">
  <Document>
    <name><![CDATA[邢台市]]></name>
    <Placemark>
      <name><![CDATA[邢台市]]></name>
      <description><![CDATA[省级目录：河北省]]></description>
      <ExtendedData>
        <Data name="adcode"><value>130500</value></Data>
      </ExtendedData>
      <MultiGeometry>
      <Polygon>
        <outerBoundaryIs><LinearRing><coordinates>115.255088,37.645621,0 115.253807,37.671415,0 115.261431,37.68818,0 115.243235,37.722641,0 115.227281,37.732599,0 115.172564,37.749351,0 115.152765,37.759507,0 115.160262,37.780287,0 115.150523,37.808521,0 115.131173,37.799783,0 115.122972,37.811479,0 115.097471,37.807849,0 115.097215,37.797498,0 115.072291,37.794136,0 115.085298,37.779211,0 115.068703,37.773428,0 115.070049,37.745651,0 115.041024,37.733541,0 115.012512,37.75157,0 115.001748,37.734685,0 114.987524,37.742691,0 114.960165,37.720084,0 114.931846,37.728899,0 114.904038,37.729302,0 114.895965,37.712547,0 114.881357,37.716113,0 114.871041,37.702114,0 114.847783,37.69673,0 114.841504,37.676129,0 114.808571,37.659832,0 114.797423,37.628239,0 114.764618,37.624399,0 114.725983,37.630665,0 114.707338,37.615774,0 114.698816,37.589353,0 114.680171,37.565283,0 114.64679,37.556247,0 114.585217,37.55301,0 114.519927,37.574656,0 114.483471,37.576814,0 114.433495,37.552537,0 114.412095,37.549907,0 114.37269,37.52967,0 114.370192,37.513612,0 114.358274,37.519212,0 114.334632,37.502949,0 114.310861,37.499979,0 114.303621,37.507808,0 114.27293,37.494445,0 114.255439,37.504096,0 114.215009,37.51125,0 114.184575,37.530817,0 114.166123,37.528186,0 114.156191,37.505244,0 114.133766,37.498899,0 114.126526,37.481957,0 114.113263,37.493837,0 114.096477,37.490935,0 114.06899,37.447384,0 114.022666,37.435496,0 113.973907,37.403133,0 113.959811,37.348982,0 113.921176,37.33072,0 113.902147,37.30995,0 113.899007,37.279495,0 113.886897,37.25993,0 113.886449,37.23914,0 113.853067,37.215093,0 113.836601,37.18948,0 113.831924,37.167518,0 113.77317,37.151857,0 113.767339,37.144601,0 113.77349,37.106956,0 113.758177,37.075672,0 113.768749,37.062504,0 113.788227,37.059788,0 113.790149,37.04295,0 113.771888,37.016803,0 113.794954,36.994995,0 113.828784,37.012048,0 113.859475,37.015037,0 113.883886,37.010893,0 113.901185,36.99683,0 113.941743,36.983376,0 113.984415,36.941503,0 113.991078,36.914913,0 114.028176,36.881236,0 114.063672,36.879331,0 114.090005,36.861023,0 114.081548,36.845094,0 114.100449,36.839035,0 114.182653,36.843937,0 114.225902,36.843052,0 114.252684,36.856531,0 114.299969,36.845435,0 114.304518,36.857007,0 114.336105,36.846728,0 114.353533,36.852038,0 114.421193,36.839444,0 114.462327,36.847681,0 114.478921,36.833248,0 114.507754,36.827936,0 114.555231,36.845979,0 114.551707,36.884094,0 114.56702,36.891307,0 114.64884,36.89845,0 114.671073,36.917429,0 114.707145,36.918041,0 114.718166,36.938103,0 114.734568,36.942931,0 114.74341,36.932323,0 114.772691,36.928447,0 114.787492,36.91396,0 114.838172,36.950885,0 114.836314,36.958024,0 114.862712,36.969715,0 114.892441,36.969647,0 114.949593,36.948778,0 114.985602,36.950477,0 115.02161,36.961422,0 115.0589,36.957004,0 115.096702,36.964549,0 115.111631,36.958431,0 115.125022,36.936471,0 115.106505,36.923958,0 115.125086,36.90607,0 115.143219,36.899131,0 115.16622,36.901512,0 115.170449,36.881509,0 115.158916,36.852038,0 115.176856,36.854353,0 115.200563,36.868374,0 115.283344,36.862589,0 115.325567,36.869667,0 115.307499,36.837129,0 115.323004,36.815474,0 115.335691,36.775826,0 115.349786,36.786796,0 115.362921,36.771056,0 115.390664,36.76315,0 115.423661,36.766081,0 115.463386,36.752177,0 115.478314,36.754699,0 115.502918,36.77017,0 115.523613,36.763832,0 115.538734,36.784139,0 115.572116,36.775349,0 115.637405,36.797492,0 115.66502,36.812477,0 115.684177,36.812954,0 115.688598,36.83958,0 115.71128,36.882393,0 115.740561,36.90641,0 115.757796,36.903008,0 115.772789,36.936811,0 115.796816,36.968763,0 115.784322,36.970735,0 115.776441,36.992073,0 115.80963,37.011436,0 115.812385,37.028961,0 115.853904,37.059245,0 115.827378,37.106006,0 115.786564,37.123916,0 115.76997,37.14155,0 115.756322,37.209876,0 115.698465,37.257153,0 115.675784,37.258914,0 115.67258,37.275839,0 115.63292,37.277058,0 115.623437,37.297905,0 115.599859,37.301965,0 115.590632,37.312453,0 115.599218,37.332884,0 115.577177,37.316107,0 115.52938,37.326864,0 115.520089,37.353648,0 115.506634,37.368997,0 115.468768,37.382788,0 115.428595,37.387926,0 115.391049,37.42793,0 115.345109,37.448195,0 115.360038,37.461431,0 115.404183,37.462039,0 115.431478,37.469602,0 115.410719,37.476421,0 115.417638,37.487762,0 115.397968,37.497347,0 115.402069,37.51017,0 115.426096,37.506256,0 115.421675,37.495727,0 115.455313,37.501802,0 115.430965,37.506796,0 115.410078,37.523261,0 115.405785,37.535944,0 115.377914,37.541138,0 115.359461,37.558675,0 115.360871,37.523935,0 115.307179,37.563935,0 115.282575,37.576005,0 115.237276,37.575465,0 115.201908,37.555977,0 115.188325,37.563125,0 115.200563,37.572498,0 115.172756,37.600543,0 115.191593,37.608833,0 115.202934,37.637133,0 115.227858,37.648921,0 115.255088,37.645621,0</coordinates></LinearRing></outerBoundaryIs>
      </Polygon>
    </MultiGeometry>
    </Placemark>
  </Document>
</kml>
