<?xml version="1.0" encoding="UTF-8"?>
<kml xmlns="http://www.opengis.net/kml/2.2">
  <Document>
    <name><![CDATA[大连市]]></name>
    <Placemark>
      <name><![CDATA[大连市]]></name>
      <description><![CDATA[省级目录：辽宁省]]></description>
      <ExtendedData>
        <Data name="adcode"><value>210200</value></Data>
      </ExtendedData>
      <MultiGeometry>
      <Polygon>
        <outerBoundaryIs><LinearRing><coordinates>123.518846,39.770327,0 123.518846,39.79857,0 123.514679,39.814342,0 123.504468,39.820182,0 123.501273,39.828358,0 123.504399,39.843832,0 123.500162,39.851907,0 123.483074,39.859934,0 123.476614,39.868299,0 123.474253,39.881284,0 123.480782,39.891446,0 123.490506,39.898058,0 123.470571,39.924887,0 123.456749,39.929164,0 123.437161,39.922701,0 123.420143,39.933877,0 123.407362,39.9348,0 123.397846,39.926005,0 123.399096,39.93446,0 123.391247,39.935918,0 123.393331,39.954378,0 123.384996,39.954864,0 123.377077,39.971523,0 123.401666,39.981817,0 123.401041,39.993178,0 123.407918,39.9991,0 123.404862,40.009245,0 123.39215,40.01371,0 123.380272,40.004779,0 123.359504,40.002158,0 123.338943,40.01963,0 123.317341,40.025114,0 123.299698,40.024483,0 123.296572,40.01701,0 123.281638,40.016961,0 123.266704,40.039233,0 123.242324,40.036759,0 123.225723,40.049663,0 123.191895,40.06494,0 123.183838,40.064746,0 123.172794,40.070469,0 123.167862,40.067607,0 123.141814,40.072699,0 123.136327,40.079196,0 123.127019,40.076287,0 123.11792,40.063485,0 123.103194,40.074736,0 123.080342,40.055095,0 123.073326,40.040349,0 123.068672,40.042289,0 123.053947,40.060139,0 123.03165,40.062127,0 123.028871,40.07042,0 123.010256,40.07299,0 122.993863,40.081863,0 122.981707,40.103289,0 122.988654,40.116859,0 122.969552,40.118507,0 122.960522,40.123546,0 122.944963,40.143215,0 122.939128,40.158956,0 122.938711,40.174791,0 122.927042,40.182247,0 122.901967,40.184038,0 122.890784,40.187378,0 122.893979,40.20519,0 122.881476,40.195607,0 122.878558,40.185442,0 122.869668,40.178906,0 122.8539,40.154646,0 122.847926,40.150432,0 122.858276,40.134496,0 122.851122,40.124612,0 122.835215,40.119282,0 122.824379,40.120687,0 122.815558,40.111335,0 122.813821,40.103435,0 122.80111,40.102853,0 122.797498,40.106634,0 122.778535,40.112013,0 122.767421,40.109881,0 122.746861,40.097667,0 122.733247,40.094758,0 122.727482,40.085693,0 122.71352,40.075996,0 122.708936,40.067462,0 122.694488,40.07105,0 122.658646,40.062176,0 122.650519,40.06591,0 122.628709,40.061933,0 122.617317,40.064019,0 122.607315,40.052864,0 122.577516,40.055726,0 122.569806,40.049905,0 122.55772,40.058975,0 122.55126,40.057326,0 122.539452,40.062127,0 122.529866,40.047431,0 122.536465,40.031276,0 122.550982,40.024677,0 122.544731,40.013225,0 122.527435,40.015554,0 122.519308,40.005605,0 122.520142,39.99876,0 122.541049,39.993275,0 122.544106,39.989343,0 122.539243,39.972785,0 122.554108,39.974631,0 122.555914,39.968075,0 122.549524,39.954524,0 122.561193,39.944565,0 122.551538,39.939173,0 122.530005,39.941796,0 122.510695,39.928678,0 122.512084,39.920611,0 122.501318,39.927317,0 122.497081,39.935918,0 122.477423,39.939561,0 122.456168,39.951707,0 122.418312,39.968657,0 122.417757,39.972154,0 122.401434,39.9672,0 122.400322,39.972154,0 122.373371,39.966326,0 122.357743,39.969629,0 122.344059,39.982545,0 122.326972,39.984633,0 122.304466,39.979486,0 122.285851,39.967589,0 122.280919,39.967395,0 122.269806,39.979098,0 122.269597,39.98405,0 122.259873,39.988906,0 122.26029,40.00609,0 122.248898,40.012982,0 122.242577,40.022202,0 122.231047,40.008905,0 122.218683,40.000217,0 122.198609,39.998469,0 122.196664,40.006138,0 122.185342,40.009924,0 122.175061,40.027103,0 122.157557,40.035643,0 122.139914,40.030888,0 122.12498,40.042435,0 122.096015,40.042386,0 122.090111,40.038942,0 122.081915,40.055435,0 122.07344,40.056453,0 122.069203,40.067753,0 122.058576,40.064601,0 122.049824,40.068577,0 122.044267,40.062515,0 122.020928,40.058393,0 122.008356,40.051457,0 121.993422,40.052379,0 121.982794,40.061836,0 121.980294,40.078081,0 121.986545,40.081912,0 121.98724,40.09088,0 121.970778,40.116423,0 121.953274,40.128876,0 121.929518,40.106488,0 121.921669,40.095631,0 121.910416,40.072796,0 121.878395,40.051021,0 121.864711,40.052088,0 121.856793,40.041561,0 121.84304,40.041998,0 121.823313,40.036613,0 121.824841,40.025502,0 121.809768,40.015942,0 121.796223,39.999052,0 121.790666,39.967978,0 121.783165,39.960935,0 121.779066,39.942865,0 121.76448,39.933488,0 121.751977,39.935772,0 121.723637,39.935626,0 121.699812,39.937327,0 121.688212,39.931302,0 121.662095,39.905301,0 121.64723,39.906516,0 121.636255,39.904183,0 121.632574,39.889987,0 121.626809,39.882791,0 121.589508,39.868202,0 121.572143,39.865235,0 121.552486,39.872141,0 121.537969,39.872822,0 121.536024,39.861052,0 121.530189,39.851518,0 121.519423,39.844805,0 121.514421,39.836533,0 121.497612,39.820912,0 121.475176,39.814585,0 121.472537,39.806894,0 121.475176,39.791754,0 121.488929,39.777243,0 121.487193,39.760342,0 121.459686,39.747919,0 121.461423,39.740026,0 121.480177,39.728428,0 121.502752,39.703326,0 121.495042,39.688504,0 121.498029,39.677629,0 121.492125,39.665923,0 121.482539,39.659338,0 121.451907,39.658167,0 121.446142,39.655045,0 121.445517,39.644799,0 121.454199,39.641774,0 121.456839,39.633771,0 121.45024,39.625084,0 121.421692,39.621179,0 121.40384,39.612588,0 121.376125,39.608438,0 121.355496,39.609366,0 121.325766,39.601457,0 121.297357,39.605753,0 121.278672,39.599309,0 121.263669,39.589689,0 121.234634,39.565855,0 121.226577,39.555059,0 121.224007,39.535416,0 121.225813,39.515767,0 121.233801,39.50775,0 121.24936,39.499731,0 121.257417,39.485061,0 121.268253,39.482616,0 121.273046,39.496064,0 121.286799,39.507163,0 121.294579,39.494548,0 121.303747,39.488142,0 121.301664,39.476306,0 121.245887,39.456837,0 121.257903,39.435698,0 121.270059,39.434229,0 121.265683,39.426643,0 121.252138,39.427377,0 121.247415,39.419594,0 121.258042,39.408726,0 121.244914,39.395114,0 121.247484,39.388062,0 121.256653,39.384193,0 121.25957,39.375622,0 121.273671,39.375132,0 121.308054,39.391246,0 121.318543,39.388601,0 121.319723,39.374544,0 121.324308,39.371605,0 121.349591,39.377826,0 121.383349,39.37087,0 121.395505,39.363571,0 121.406063,39.361954,0 121.421414,39.366217,0 121.433153,39.3573,0 121.436348,39.344266,0 121.436,39.329955,0 121.461701,39.324171,0 121.466702,39.319857,0 121.465243,39.301227,0 121.474898,39.296225,0 121.484692,39.282836,0 121.498029,39.281169,0 121.508378,39.292155,0 121.515533,39.286613,0 121.524424,39.293577,0 121.555612,39.31167,0 121.562419,39.322897,0 121.571588,39.322161,0 121.621321,39.326181,0 121.636464,39.337013,0 121.672583,39.348039,0 121.687031,39.347206,0 121.69231,39.353233,0 121.704535,39.358035,0 121.715857,39.366657,0 121.723706,39.367441,0 121.722456,39.356467,0 121.711134,39.34309,0 121.718636,39.332602,0 121.716343,39.3177,0 121.702243,39.326622,0 121.669527,39.312504,0 121.662859,39.298088,0 121.669388,39.290732,0 121.685086,39.291615,0 121.68592,39.282346,0 121.667999,39.276264,0 121.655218,39.283719,0 121.643618,39.279305,0 121.626045,39.285926,0 121.620349,39.27798,0 121.598747,39.279158,0 121.589231,39.267434,0 121.59451,39.249525,0 121.60868,39.257032,0 121.621877,39.244127,0 121.639451,39.244323,0 121.635491,39.236275,0 121.624239,39.238925,0 121.630976,39.226311,0 121.602636,39.230728,0 121.591175,39.228716,0 121.590828,39.217327,0 121.601942,39.210797,0 121.588328,39.20137,0 121.587008,39.193562,0 121.604234,39.1663,0 121.639451,39.166055,0 121.650078,39.15726,0 121.652162,39.147678,0 121.663206,39.145909,0 121.664317,39.136522,0 121.672444,39.127674,0 121.68335,39.12207,0 121.682308,39.118039,0 121.656746,39.095568,0 121.636811,39.087797,0 121.636394,39.080124,0 121.614097,39.077419,0 121.606665,39.073041,0 121.606179,39.080567,0 121.642854,39.110664,0 121.64216,39.119858,0 121.595065,39.154607,0 121.590689,39.155,0 121.562766,39.131361,0 121.562419,39.127281,0 121.599233,39.098666,0 121.599094,39.09247,0 121.585758,39.077862,0 121.566517,39.073582,0 121.559154,39.064333,0 121.533662,39.052278,0 121.507823,39.034117,0 121.471286,39.025503,0 121.460103,39.032444,0 121.431138,39.027472,0 121.417177,39.029146,0 121.410231,39.039531,0 121.39099,39.050506,0 121.383141,39.062857,0 121.373764,39.062266,0 121.366331,39.048882,0 121.352023,39.045929,0 121.342437,39.040024,0 121.344799,39.031459,0 121.331879,39.025749,0 121.326531,39.016395,0 121.317778,39.015362,0 121.321043,39.002067,0 121.340492,38.999359,0 121.340909,38.980593,0 121.325905,38.972515,0 121.312916,38.970298,0 121.301941,38.974781,0 121.280131,38.973746,0 121.263252,38.960641,0 121.238802,38.956995,0 121.222895,38.940979,0 121.20428,38.941028,0 121.196848,38.953299,0 121.180177,38.96,0 121.127734,38.959015,0 121.117454,38.951771,0 121.112245,38.942654,0 121.092587,38.928557,0 121.086752,38.907259,0 121.093907,38.894338,0 121.125025,38.889752,0 121.127943,38.87673,0 121.115231,38.868738,0 121.109605,38.851221,0 121.113634,38.822297,0 121.128637,38.799238,0 121.125859,38.790496,0 121.111689,38.783384,0 121.112245,38.776073,0 121.126762,38.756359,0 121.133638,38.725222,0 121.137875,38.722849,0 121.182955,38.719833,0 121.19914,38.721514,0 121.214213,38.733526,0 121.22102,38.744548,0 121.222965,38.75463,0 121.23769,38.764117,0 121.259848,38.786446,0 121.305553,38.789558,0 121.326253,38.801362,0 121.330212,38.814249,0 121.340284,38.819088,0 121.359455,38.822346,0 121.398908,38.81262,0 121.428777,38.811287,0 121.445517,38.817064,0 121.468091,38.816126,0 121.489693,38.823136,0 121.496014,38.813756,0 121.509698,38.817804,0 121.523868,38.83217,0 121.526577,38.840166,0 121.542692,38.847125,0 121.549152,38.864248,0 121.559918,38.866419,0 121.565475,38.875102,0 121.594926,38.873523,0 121.608471,38.869922,0 121.617432,38.862768,0 121.660775,38.860991,0 121.677168,38.862472,0 121.687726,38.873178,0 121.694811,38.864198,0 121.70905,38.87298,0 121.71169,38.887631,0 121.723428,38.904004,0 121.7194,38.920078,0 121.687309,38.929001,0 121.678001,38.93393,0 121.677029,38.941077,0 121.650842,38.946498,0 121.627017,38.93743,0 121.621391,38.938859,0 121.618335,38.94916,0 121.634102,38.952461,0 121.636464,38.958719,0 121.650009,38.958818,0 121.662581,38.966209,0 121.676681,38.988228,0 121.675153,38.997093,0 121.658205,39.001624,0 121.671125,39.009896,0 121.68196,39.005711,0 121.698353,39.004874,0 121.711134,39.000442,0 121.738224,38.999112,0 121.760798,39.006597,0 121.764132,39.013392,0 121.756908,39.025651,0 121.762952,39.028407,0 121.79018,39.022402,0 121.792959,39.01093,0 121.805184,38.98744,0 121.804767,38.970987,0 121.833176,38.950441,0 121.863183,38.942506,0 121.870615,38.944773,0 121.892426,38.958818,0 121.911667,38.963794,0 121.920905,38.969805,0 121.903887,38.97547,0 121.902081,38.988524,0 121.905901,38.997339,0 121.900275,39.002559,0 121.883257,39.009798,0 121.855612,39.026094,0 121.852834,39.035742,0 121.888467,39.027275,0 121.903957,39.028457,0 121.91507,39.014081,0 121.928129,39.017971,0 121.92924,39.024863,0 121.917918,39.045339,0 121.907013,39.04716,0 121.907082,39.055722,0 121.923336,39.053606,0 121.963415,39.030032,0 121.973487,39.031902,0 121.989463,39.063595,0 121.996548,39.069253,0 122.020511,39.072844,0 122.061841,39.060298,0 122.072815,39.064972,0 122.071426,39.074123,0 122.053644,39.091683,0 122.048435,39.101273,0 122.05031,39.108304,0 122.057812,39.110664,0 122.08129,39.10973,0 122.088305,39.11209,0 122.107685,39.131115,0 122.127411,39.144877,0 122.147069,39.148857,0 122.164573,39.147187,0 122.170408,39.150479,0 122.167351,39.158881,0 122.123938,39.17254,0 122.119493,39.186391,0 122.124147,39.200191,0 122.11734,39.214038,0 122.144707,39.218898,0 122.151723,39.23063,0 122.160336,39.237845,0 122.242924,39.267777,0 122.251746,39.274988,0 122.271403,39.317161,0 122.292311,39.336817,0 122.306828,39.331033,0 122.308912,39.346177,0 122.324332,39.345638,0 122.343503,39.351518,0 122.363647,39.365825,0 122.371496,39.380618,0 122.39935,39.391784,0 122.413103,39.411762,0 122.420605,39.413426,0 122.451515,39.411811,0 122.455682,39.403194,0 122.498887,39.401921,0 122.511876,39.413426,0 122.532922,39.420133,0 122.555706,39.43834,0 122.581406,39.464175,0 122.597382,39.471415,0 122.604259,39.478116,0 122.626764,39.483594,0 122.636905,39.488924,0 122.644823,39.499584,0 122.649408,39.516696,0 122.661633,39.522953,0 122.682888,39.514789,0 122.725467,39.531799,0 122.730885,39.531066,0 122.808889,39.559847,0 122.810834,39.563999,0 122.799234,39.575673,0 122.810904,39.579971,0 122.822018,39.565416,0 122.838896,39.57284,0 122.847371,39.581778,0 122.842786,39.591838,0 122.851955,39.601603,0 122.860915,39.604777,0 122.896966,39.605851,0 122.904676,39.602482,0 122.942184,39.60463,0 122.948922,39.596525,0 122.959411,39.598723,0 122.972747,39.595012,0 122.978721,39.602873,0 122.979068,39.616395,0 123.003726,39.635967,0 123.019425,39.639383,0 123.021369,39.643286,0 123.010464,39.650703,0 123.010742,39.655191,0 123.02651,39.659679,0 123.032553,39.644896,0 123.046375,39.644164,0 123.044917,39.651337,0 123.035053,39.660996,0 123.049015,39.666606,0 123.052418,39.661045,0 123.06256,39.666264,0 123.077494,39.668557,0 123.086454,39.659484,0 123.08958,39.663386,0 123.101388,39.661582,0 123.099096,39.674703,0 123.106528,39.675824,0 123.131951,39.65685,0 123.133201,39.645823,0 123.14876,39.649824,0 123.15529,39.663386,0 123.166681,39.674068,0 123.181754,39.673727,0 123.188006,39.670167,0 123.207802,39.670215,0 123.21315,39.665972,0 123.225862,39.676751,0 123.224125,39.685724,0 123.214887,39.688357,0 123.215581,39.696744,0 123.224611,39.698792,0 123.249548,39.694452,0 123.25309,39.689918,0 123.272678,39.697524,0 123.284,39.69494,0 123.287056,39.704008,0 123.270386,39.71483,0 123.276082,39.729159,0 123.263787,39.738321,0 123.244269,39.744314,0 123.246839,39.749284,0 123.257674,39.747724,0 123.263926,39.740855,0 123.274415,39.737687,0 123.282125,39.741927,0 123.274692,39.753814,0 123.289696,39.758588,0 123.29949,39.753278,0 123.324635,39.753376,0 123.34061,39.756104,0 123.344848,39.75055,0 123.369576,39.746848,0 123.38826,39.747481,0 123.386038,39.733156,0 123.392567,39.72375,0 123.419518,39.730914,0 123.440912,39.734033,0 123.447927,39.732327,0 123.458068,39.746117,0 123.473766,39.74524,0 123.479671,39.759222,0 123.48488,39.762875,0 123.493146,39.758345,0 123.502176,39.762485,0 123.503009,39.77023,0 123.518846,39.770327,0</coordinates></LinearRing></outerBoundaryIs>
      </Polygon>
      <Polygon>
        <outerBoundaryIs><LinearRing><coordinates>122.567028,39.273909,0 122.578836,39.267188,0 122.574738,39.263607,0 122.581545,39.255021,0 122.591756,39.262724,0 122.588977,39.270671,0 122.609954,39.270671,0 122.62211,39.265815,0 122.648366,39.266011,0 122.66462,39.256149,0 122.678026,39.265422,0 122.688584,39.268954,0 122.67226,39.270181,0 122.650241,39.278961,0 122.641003,39.288133,0 122.631765,39.288231,0 122.628014,39.281708,0 122.595437,39.278226,0 122.575224,39.284259,0 122.560082,39.299952,0 122.555011,39.287496,0 122.549246,39.289703,0 122.546467,39.304561,0 122.540841,39.308189,0 122.524518,39.298432,0 122.519169,39.305345,0 122.51521,39.299952,0 122.497567,39.30005,0 122.50882,39.290536,0 122.534451,39.285338,0 122.554316,39.274743,0 122.567028,39.273909,0</coordinates></LinearRing></outerBoundaryIs>
      </Polygon>
      <Polygon>
        <outerBoundaryIs><LinearRing><coordinates>122.383999,39.198374,0 122.395252,39.21335,0 122.401225,39.211288,0 122.408588,39.218309,0 122.379067,39.211141,0 122.377747,39.205887,0 122.362605,39.202941,0 122.343781,39.203727,0 122.347393,39.194937,0 122.335863,39.186342,0 122.316483,39.185016,0 122.322109,39.177157,0 122.320026,39.160601,0 122.328986,39.157604,0 122.337182,39.146155,0 122.348505,39.146351,0 122.363647,39.155147,0 122.366981,39.165613,0 122.362674,39.172147,0 122.379901,39.174701,0 122.383791,39.16802,0 122.396155,39.161928,0 122.403101,39.164974,0 122.393098,39.173031,0 122.390459,39.186882,0 122.383374,39.191008,0 122.383999,39.198374,0</coordinates></LinearRing></outerBoundaryIs>
      </Polygon>
      <Polygon>
        <outerBoundaryIs><LinearRing><coordinates>122.640517,39.225918,0 122.651353,39.232593,0 122.669135,39.235293,0 122.67747,39.232103,0 122.685736,39.234851,0 122.705463,39.232054,0 122.698655,39.215854,0 122.691987,39.210994,0 122.695947,39.206084,0 122.714979,39.217082,0 122.723522,39.214283,0 122.728246,39.225967,0 122.739151,39.224543,0 122.753877,39.23387,0 122.743388,39.239563,0 122.741443,39.247857,0 122.700531,39.245795,0 122.690181,39.24182,0 122.675178,39.240643,0 122.654409,39.243195,0 122.635724,39.241771,0 122.628292,39.232593,0 122.640517,39.225918,0</coordinates></LinearRing></outerBoundaryIs>
      </Polygon>
      <Polygon>
        <outerBoundaryIs><LinearRing><coordinates>122.762559,39.019349,0 122.758878,39.025405,0 122.751446,39.024026,0 122.749501,39.035053,0 122.740957,39.038301,0 122.73026,39.035003,0 122.72387,39.050063,0 122.715673,39.042632,0 122.704768,39.044256,0 122.715951,39.035594,0 122.720397,39.020482,0 122.732761,39.013589,0 122.737206,39.015214,0 122.758322,39.009699,0 122.762559,39.019349,0</coordinates></LinearRing></outerBoundaryIs>
      </Polygon>
      <Polygon>
        <outerBoundaryIs><LinearRing><coordinates>122.42512,39.174308,0 122.411992,39.181922,0 122.402684,39.179122,0 122.425328,39.172097,0 122.42512,39.174308,0</coordinates></LinearRing></outerBoundaryIs>
      </Polygon>
      <Polygon>
        <outerBoundaryIs><LinearRing><coordinates>121.826369,38.873868,0 121.830815,38.864001,0 121.84165,38.873227,0 121.834079,38.883932,0 121.840331,38.894092,0 121.829564,38.896213,0 121.825952,38.887828,0 121.832343,38.882846,0 121.823521,38.881317,0 121.826369,38.873868,0</coordinates></LinearRing></outerBoundaryIs>
      </Polygon>
      <Polygon>
        <outerBoundaryIs><LinearRing><coordinates>122.418035,39.225574,0 122.432552,39.224347,0 122.4495,39.227341,0 122.445333,39.234066,0 122.434983,39.237011,0 122.418035,39.225574,0</coordinates></LinearRing></outerBoundaryIs>
      </Polygon>
      <Polygon>
        <outerBoundaryIs><LinearRing><coordinates>122.423453,39.270524,0 122.44561,39.254824,0 122.456307,39.259142,0 122.436858,39.268513,0 122.423453,39.270524,0</coordinates></LinearRing></outerBoundaryIs>
      </Polygon>
      <Polygon>
        <outerBoundaryIs><LinearRing><coordinates>123.022689,39.546411,0 123.004699,39.554521,0 122.997267,39.551297,0 122.984347,39.553691,0 122.978999,39.561801,0 122.961981,39.552323,0 122.949269,39.533412,0 122.944338,39.520606,0 122.952951,39.521877,0 122.970108,39.51826,0 122.973094,39.499878,0 122.994836,39.495624,0 123.023731,39.516158,0 123.036373,39.53307,0 123.022689,39.546411,0</coordinates></LinearRing></outerBoundaryIs>
      </Polygon>
      <Polygon>
        <outerBoundaryIs><LinearRing><coordinates>122.308148,39.20024,0 122.312802,39.205936,0 122.30016,39.201861,0 122.308148,39.20024,0</coordinates></LinearRing></outerBoundaryIs>
      </Polygon>
      <Polygon>
        <outerBoundaryIs><LinearRing><coordinates>122.296062,39.277097,0 122.284253,39.280433,0 122.28474,39.274841,0 122.294881,39.266894,0 122.303633,39.27489,0 122.296062,39.277097,0</coordinates></LinearRing></outerBoundaryIs>
      </Polygon>
      <Polygon>
        <outerBoundaryIs><LinearRing><coordinates>123.06506,39.486479,0 123.068533,39.508678,0 123.058045,39.509607,0 123.059364,39.493081,0 123.06506,39.486479,0</coordinates></LinearRing></outerBoundaryIs>
      </Polygon>
      <Polygon>
        <outerBoundaryIs><LinearRing><coordinates>122.597104,39.206182,0 122.612177,39.215412,0 122.609815,39.225378,0 122.599605,39.224789,0 122.595506,39.213792,0 122.587796,39.212172,0 122.597104,39.206182,0</coordinates></LinearRing></outerBoundaryIs>
      </Polygon>
      <Polygon>
        <outerBoundaryIs><LinearRing><coordinates>122.51264,39.222973,0 122.537021,39.224445,0 122.548482,39.229992,0 122.545703,39.237698,0 122.534173,39.234753,0 122.518683,39.239268,0 122.501387,39.241182,0 122.491871,39.231759,0 122.502151,39.224249,0 122.51264,39.222973,0</coordinates></LinearRing></outerBoundaryIs>
      </Polygon>
      <Polygon>
        <outerBoundaryIs><LinearRing><coordinates>122.825629,39.058675,0 122.825768,39.051933,0 122.818614,39.053557,0 122.815419,39.04524,0 122.823615,39.041353,0 122.840425,39.047406,0 122.836674,39.055279,0 122.825629,39.058675,0</coordinates></LinearRing></outerBoundaryIs>
      </Polygon>
      <Polygon>
        <outerBoundaryIs><LinearRing><coordinates>122.809167,39.081649,0 122.80243,39.081354,0 122.805764,39.072942,0 122.817364,39.068515,0 122.819378,39.075599,0 122.809167,39.081649,0</coordinates></LinearRing></outerBoundaryIs>
      </Polygon>
      <Polygon>
        <outerBoundaryIs><LinearRing><coordinates>121.831995,38.91781,0 121.83658,38.912584,0 121.841234,38.918106,0 121.831995,38.91781,0</coordinates></LinearRing></outerBoundaryIs>
      </Polygon>
      <Polygon>
        <outerBoundaryIs><LinearRing><coordinates>122.872585,39.055279,0 122.877864,39.066793,0 122.865361,39.068957,0 122.862305,39.06571,0 122.850566,39.071319,0 122.862791,39.051343,0 122.870848,39.049325,0 122.872585,39.055279,0</coordinates></LinearRing></outerBoundaryIs>
      </Polygon>
      <Polygon>
        <outerBoundaryIs><LinearRing><coordinates>121.476635,39.186784,0 121.478163,39.19474,0 121.466771,39.198964,0 121.462048,39.205986,0 121.445239,39.204218,0 121.459548,39.201321,0 121.476635,39.186784,0</coordinates></LinearRing></outerBoundaryIs>
      </Polygon>
      <Polygon>
        <outerBoundaryIs><LinearRing><coordinates>123.086524,39.426937,0 123.08694,39.439515,0 123.10368,39.44157,0 123.088052,39.451259,0 123.07541,39.451455,0 123.053808,39.457668,0 123.055336,39.444506,0 123.068186,39.432223,0 123.075757,39.434915,0 123.077355,39.42865,0 123.086524,39.426937,0</coordinates></LinearRing></outerBoundaryIs>
      </Polygon>
      <Polygon>
        <outerBoundaryIs><LinearRing><coordinates>121.493097,39.193807,0 121.50303,39.202597,0 121.50046,39.208244,0 121.487401,39.204071,0 121.493097,39.193807,0</coordinates></LinearRing></outerBoundaryIs>
      </Polygon>
      <Polygon>
        <outerBoundaryIs><LinearRing><coordinates>122.778118,39.23171,0 122.770408,39.228863,0 122.781661,39.218947,0 122.798609,39.225231,0 122.80493,39.223365,0 122.809167,39.230679,0 122.791524,39.229207,0 122.778118,39.23171,0</coordinates></LinearRing></outerBoundaryIs>
      </Polygon>
      <Polygon>
        <outerBoundaryIs><LinearRing><coordinates>122.78173,39.079682,0 122.789996,39.070138,0 122.799512,39.072303,0 122.790899,39.079337,0 122.78173,39.079682,0</coordinates></LinearRing></outerBoundaryIs>
      </Polygon>
      <Polygon>
        <outerBoundaryIs><LinearRing><coordinates>123.16043,39.025503,0 123.170085,39.027374,0 123.18356,39.040368,0 123.197244,39.047307,0 123.205648,39.056952,0 123.206413,39.067678,0 123.200856,39.078108,0 123.186338,39.083715,0 123.187728,39.097043,0 123.173974,39.103092,0 123.171474,39.09847,0 123.176197,39.087797,0 123.170224,39.086273,0 123.145635,39.091781,0 123.140494,39.080075,0 123.149663,39.064726,0 123.142995,39.048538,0 123.144037,39.038646,0 123.154248,39.027275,0 123.16043,39.025503,0</coordinates></LinearRing></outerBoundaryIs>
      </Polygon>
      <Polygon>
        <outerBoundaryIs><LinearRing><coordinates>123.004629,39.248887,0 123.01616,39.257081,0 123.012687,39.262577,0 123.001156,39.263558,0 122.988098,39.257965,0 122.992057,39.251684,0 123.004629,39.248887,0</coordinates></LinearRing></outerBoundaryIs>
      </Polygon>
      <Polygon>
        <outerBoundaryIs><LinearRing><coordinates>121.163437,39.084699,0 121.178371,39.088535,0 121.170105,39.096896,0 121.159339,39.092027,0 121.163437,39.084699,0</coordinates></LinearRing></outerBoundaryIs>
      </Polygon>
      <Polygon>
        <outerBoundaryIs><LinearRing><coordinates>122.343364,39.346226,0 122.32329,39.343727,0 122.319956,39.328289,0 122.331765,39.325446,0 122.340864,39.331377,0 122.34906,39.330445,0 122.354617,39.338189,0 122.349338,39.348186,0 122.343364,39.346226,0</coordinates></LinearRing></outerBoundaryIs>
      </Polygon>
      <Polygon>
        <outerBoundaryIs><LinearRing><coordinates>120.976449,38.960444,0 120.978533,38.951131,0 120.987076,38.946597,0 120.991522,38.950589,0 120.986173,38.958424,0 120.976449,38.960444,0</coordinates></LinearRing></outerBoundaryIs>
      </Polygon>
    </MultiGeometry>
    </Placemark>
  </Document>
</kml>
