<?xml version="1.0" encoding="UTF-8"?>
<kml xmlns="http://www.opengis.net/kml/2.2">
  <Document>
    <name><![CDATA[沈阳市]]></name>
    <Placemark>
      <name><![CDATA[沈阳市]]></name>
      <description><![CDATA[省级目录：辽宁省]]></description>
      <ExtendedData>
        <Data name="adcode"><value>210100</value></Data>
      </ExtendedData>
      <MultiGeometry>
      <Polygon>
        <outerBoundaryIs><LinearRing><coordinates>123.561912,43.005383,0 123.557536,43.010156,0 123.537601,43.00719,0 123.522389,43.020349,0 123.493771,43.025769,0 123.486408,43.03545,0 123.471891,43.042721,0 123.462375,43.03897,0 123.448483,43.038136,0 123.434938,43.027761,0 123.412085,43.02878,0 123.402917,43.020581,0 123.383051,43.016596,0 123.373674,43.011778,0 123.333178,43.005383,0 123.323106,43.001027,0 123.272886,42.996856,0 123.259411,42.993287,0 123.242115,42.979752,0 123.231349,42.962968,0 123.219332,42.953508,0 123.206204,42.951652,0 123.184116,42.925906,0 123.18877,42.895832,0 123.186755,42.886129,0 123.179392,42.878793,0 123.170015,42.859752,0 123.17071,42.852134,0 123.18231,42.846048,0 123.189395,42.848185,0 123.227598,42.832155,0 123.222458,42.825742,0 123.187241,42.825416,0 123.166403,42.810961,0 123.132368,42.802733,0 123.117503,42.801105,0 123.096179,42.789806,0 123.083676,42.788783,0 123.058461,42.76911,0 123.047973,42.771529,0 123.031094,42.767761,0 123.022481,42.772273,0 122.995669,42.775203,0 122.988515,42.779017,0 122.978999,42.776785,0 122.969135,42.767063,0 122.973928,42.762969,0 122.954201,42.754455,0 122.945935,42.753711,0 122.929334,42.77204,0 122.887311,42.770133,0 122.878697,42.759433,0 122.877864,42.751152,0 122.88356,42.751989,0 122.875294,42.739425,0 122.857929,42.725461,0 122.850844,42.714428,0 122.85522,42.706978,0 122.846537,42.708189,0 122.848621,42.717082,0 122.83973,42.718292,0 122.836118,42.716476,0 122.815766,42.718897,0 122.80111,42.726299,0 122.778118,42.710889,0 122.767838,42.709074,0 122.750959,42.697944,0 122.747347,42.689188,0 122.756238,42.679732,0 122.769505,42.677962,0 122.791802,42.662773,0 122.792705,42.650983,0 122.824935,42.652661,0 122.842786,42.648839,0 122.838688,42.645204,0 122.842578,42.633364,0 122.86293,42.621055,0 122.873488,42.608604,0 122.886477,42.611216,0 122.892034,42.608884,0 122.903078,42.613687,0 122.926764,42.604407,0 122.922874,42.596804,0 122.930237,42.587707,0 122.969899,42.571376,0 122.974414,42.564329,0 122.966912,42.561716,0 122.957744,42.550327,0 122.949408,42.545098,0 122.943365,42.547899,0 122.921832,42.535527,0 122.916831,42.52969,0 122.917804,42.521565,0 122.911552,42.51951,0 122.908357,42.500685,0 122.899744,42.499424,0 122.882101,42.503908,0 122.871543,42.504049,0 122.834382,42.497975,0 122.819447,42.490126,0 122.826463,42.490126,0 122.818544,42.481434,0 122.825004,42.461149,0 122.822018,42.458017,0 122.827297,42.445814,0 122.826602,42.438846,0 122.832853,42.431597,0 122.824865,42.429352,0 122.81778,42.416769,0 122.833965,42.417986,0 122.828269,42.410267,0 122.832159,42.403342,0 122.84619,42.399599,0 122.850983,42.40526,0 122.862027,42.406804,0 122.865639,42.395715,0 122.873627,42.389397,0 122.882379,42.388367,0 122.875294,42.37484,0 122.883421,42.368333,0 122.895298,42.368848,0 122.903217,42.353256,0 122.900994,42.349182,0 122.871057,42.345669,0 122.858345,42.346091,0 122.838827,42.331898,0 122.826324,42.330446,0 122.810765,42.319624,0 122.805555,42.312408,0 122.781314,42.29863,0 122.769505,42.297037,0 122.734289,42.284287,0 122.735053,42.281005,0 122.703726,42.261124,0 122.691779,42.249915,0 122.651283,42.232651,0 122.645101,42.237671,0 122.63628,42.237061,0 122.632598,42.231009,0 122.626,42.234716,0 122.620096,42.230071,0 122.609329,42.230164,0 122.614469,42.212755,0 122.552024,42.188063,0 122.520072,42.174681,0 122.455821,42.144572,0 122.439428,42.150961,0 122.432621,42.144196,0 122.436858,42.140625,0 122.423522,42.140672,0 122.425953,42.129018,0 122.429704,42.125118,0 122.446583,42.124178,0 122.438456,42.117315,0 122.447625,42.110499,0 122.435608,42.104811,0 122.428315,42.092352,0 122.445194,42.094656,0 122.449917,42.087602,0 122.436164,42.084169,0 122.439359,42.074481,0 122.453182,42.072458,0 122.447347,42.063473,0 122.459016,42.055523,0 122.462767,42.041688,0 122.477076,42.043571,0 122.477632,42.038582,0 122.469366,42.029169,0 122.483744,42.02145,0 122.497289,41.999274,0 122.494789,41.988771,0 122.501526,41.970918,0 122.500971,41.956783,0 122.507917,41.938733,0 122.517919,41.936329,0 122.515766,41.926523,0 122.521045,41.916622,0 122.517849,41.912331,0 122.523129,41.900117,0 122.509028,41.90422,0 122.473881,41.906201,0 122.443388,41.901202,0 122.443874,41.890636,0 122.453321,41.882852,0 122.459572,41.870538,0 122.457627,41.861194,0 122.459225,41.843022,0 122.487148,41.832211,0 122.498817,41.82494,0 122.513612,41.820595,0 122.511459,41.81677,0 122.529519,41.808363,0 122.540077,41.800664,0 122.552927,41.786869,0 122.560915,41.789137,0 122.55772,41.774914,0 122.56925,41.772835,0 122.596479,41.772268,0 122.600369,41.766549,0 122.579878,41.754969,0 122.570431,41.740644,0 122.575432,41.731518,0 122.572168,41.728444,0 122.572515,41.712505,0 122.555983,41.708106,0 122.549524,41.69907,0 122.550635,41.678911,0 122.532992,41.669919,0 122.526671,41.676261,0 122.517502,41.676971,0 122.515835,41.658131,0 122.526532,41.655054,0 122.510139,41.62773,0 122.502429,41.630098,0 122.487078,41.605323,0 122.484439,41.597599,0 122.492635,41.590917,0 122.485828,41.58158,0 122.479646,41.583239,0 122.487356,41.566316,0 122.497706,41.57044,0 122.500345,41.562238,0 122.492983,41.551854,0 122.4959,41.54346,0 122.506597,41.537437,0 122.520767,41.542559,0 122.553483,41.550669,0 122.566125,41.547776,0 122.572446,41.540045,0 122.582934,41.535207,0 122.595159,41.534448,0 122.59891,41.530227,0 122.599118,41.514618,0 122.604536,41.513005,0 122.625027,41.520976,0 122.634613,41.516943,0 122.631418,41.506694,0 122.636905,41.501663,0 122.623916,41.488896,0 122.636419,41.481728,0 122.632598,41.474085,0 122.625166,41.471426,0 122.634543,41.448204,0 122.634752,41.435331,0 122.629751,41.429725,0 122.643018,41.432528,0 122.647116,41.424499,0 122.631209,41.416801,0 122.634057,41.405253,0 122.64913,41.395889,0 122.640795,41.363605,0 122.642601,41.357612,0 122.656423,41.358754,0 122.658993,41.354806,0 122.629542,41.330163,0 122.620304,41.317504,0 122.604328,41.318075,0 122.60669,41.303463,0 122.594673,41.303463,0 122.588491,41.296846,0 122.595229,41.293513,0 122.576405,41.279991,0 122.569528,41.268466,0 122.554108,41.254843,0 122.552371,41.249602,0 122.560012,41.244123,0 122.596201,41.245076,0 122.612455,41.220534,0 122.615303,41.207903,0 122.622527,41.199845,0 122.633015,41.203088,0 122.637044,41.210191,0 122.659896,41.212813,0 122.669482,41.223394,0 122.666634,41.229399,0 122.666981,41.2456,0 122.674275,41.251508,0 122.676706,41.260893,0 122.692543,41.268228,0 122.698239,41.278991,0 122.705949,41.284562,0 122.698447,41.299274,0 122.70963,41.308509,0 122.724148,41.314601,0 122.717827,41.322787,0 122.731163,41.323453,0 122.737762,41.33002,0 122.747834,41.329449,0 122.749362,41.351857,0 122.765616,41.368313,0 122.773742,41.360323,0 122.780966,41.366363,0 122.798054,41.366839,0 122.80368,41.373401,0 122.841814,41.378584,0 122.85133,41.394701,0 122.849663,41.415898,0 122.863347,41.424642,0 122.871404,41.414378,0 122.881754,41.422313,0 122.886755,41.417894,0 122.914609,41.417799,0 122.929681,41.42811,0 122.912664,41.432956,0 122.92857,41.448537,0 122.91704,41.451054,0 122.91954,41.454901,0 122.933641,41.447919,0 122.940309,41.456041,0 122.935308,41.458368,0 122.937947,41.466963,0 122.933293,41.469194,0 122.934405,41.47869,0 122.959688,41.468102,0 122.975803,41.47869,0 122.976428,41.488849,0 122.982055,41.496158,0 122.971288,41.49929,0 122.969205,41.492598,0 122.957813,41.496395,0 122.969205,41.509778,0 123.002198,41.513906,0 123.010881,41.505175,0 123.020675,41.5075,0 123.027413,41.514144,0 123.041166,41.540187,0 123.050196,41.551048,0 123.071173,41.554462,0 123.082286,41.560769,0 123.078744,41.563376,0 123.087218,41.5794,0 123.087565,41.588974,0 123.109098,41.606318,0 123.11403,41.617119,0 123.134312,41.60845,0 123.123546,41.589637,0 123.114099,41.585277,0 123.11535,41.564988,0 123.111668,41.55854,0 123.131117,41.554035,0 123.127366,41.546638,0 123.134451,41.536156,0 123.143203,41.538765,0 123.156748,41.53682,0 123.16946,41.548961,0 123.182032,41.549388,0 123.188144,41.54512,0 123.193493,41.549673,0 123.187589,41.555648,0 123.201898,41.564562,0 123.219471,41.565273,0 123.219818,41.559156,0 123.235517,41.551712,0 123.236003,41.540282,0 123.252951,41.538148,0 123.279694,41.538053,0 123.284278,41.524439,0 123.2956,41.525056,0 123.313382,41.519979,0 123.324079,41.508307,0 123.33429,41.506931,0 123.335679,41.514665,0 123.353669,41.510775,0 123.362352,41.513195,0 123.362629,41.504701,0 123.382565,41.509256,0 123.383746,41.50043,0 123.397638,41.495114,0 123.40764,41.500619,0 123.417087,41.487472,0 123.430076,41.481396,0 123.429659,41.472043,0 123.439383,41.469337,0 123.449386,41.474987,0 123.458068,41.466535,0 123.477726,41.463829,0 123.489603,41.478975,0 123.498147,41.483675,0 123.516485,41.480067,0 123.527529,41.491981,0 123.546561,41.481111,0 123.560801,41.486808,0 123.58018,41.498436,0 123.591502,41.494022,0 123.605533,41.502423,0 123.603866,41.506029,0 123.61623,41.508639,0 123.615813,41.513479,0 123.625816,41.516896,0 123.629567,41.523822,0 123.646584,41.518651,0 123.664714,41.527048,0 123.677703,41.528709,0 123.683815,41.519742,0 123.692359,41.526479,0 123.702917,41.520786,0 123.703403,41.515662,0 123.71924,41.510348,0 123.727437,41.517133,0 123.745635,41.520596,0 123.74758,41.527238,0 123.73987,41.54033,0 123.729868,41.543175,0 123.735633,41.55138,0 123.725561,41.556549,0 123.721741,41.568307,0 123.760222,41.584898,0 123.776337,41.58741,0 123.791827,41.598499,0 123.782102,41.606602,0 123.770711,41.60826,0 123.767446,41.61873,0 123.759597,41.619441,0 123.749872,41.636824,0 123.752998,41.642932,0 123.764459,41.6462,0 123.76953,41.657326,0 123.779115,41.65709,0 123.79648,41.680757,0 123.790507,41.685631,0 123.808567,41.697272,0 123.811553,41.708815,0 123.801204,41.718512,0 123.801065,41.728917,0 123.790021,41.7388,0 123.781824,41.752133,0 123.789048,41.766786,0 123.772794,41.773449,0 123.786687,41.785452,0 123.780157,41.796838,0 123.768627,41.799389,0 123.755638,41.794145,0 123.761889,41.788665,0 123.7605,41.779215,0 123.745844,41.783467,0 123.716809,41.775103,0 123.714031,41.778033,0 123.691109,41.779167,0 123.69222,41.78342,0 123.669715,41.785215,0 123.665547,41.795893,0 123.669506,41.803687,0 123.676522,41.803876,0 123.685413,41.811386,0 123.681176,41.825365,0 123.673813,41.832258,0 123.67673,41.837263,0 123.706668,41.84255,0 123.719588,41.849064,0 123.739801,41.86379,0 123.739106,41.880399,0 123.720421,41.886909,0 123.715628,41.891815,0 123.728826,41.897428,0 123.728617,41.907285,0 123.733271,41.915773,0 123.741676,41.919876,0 123.731049,41.923082,0 123.732785,41.930342,0 123.723408,41.946887,0 123.732507,41.954804,0 123.727089,41.957961,0 123.734383,41.967196,0 123.763348,41.972614,0 123.774392,41.969175,0 123.790021,41.989242,0 123.771058,41.995977,0 123.769391,42.002664,0 123.762792,41.999085,0 123.763695,42.017825,0 123.773211,42.023568,0 123.788354,42.019567,0 123.797175,42.013635,0 123.810095,42.022062,0 123.813568,42.030581,0 123.808219,42.03557,0 123.813151,42.050112,0 123.805858,42.051335,0 123.80433,42.058157,0 123.794744,42.060086,0 123.789465,42.052982,0 123.789118,42.043947,0 123.783144,42.037688,0 123.779879,42.041877,0 123.752026,42.052935,0 123.75529,42.05731,0 123.746122,42.065355,0 123.735147,42.065402,0 123.727228,42.076362,0 123.705626,42.085956,0 123.704862,42.09127,0 123.678189,42.098417,0 123.662213,42.09395,0 123.647418,42.100862,0 123.632206,42.100956,0 123.631164,42.107679,0 123.620954,42.115764,0 123.608728,42.119337,0 123.589974,42.129441,0 123.574901,42.132308,0 123.556147,42.144619,0 123.541768,42.147015,0 123.540518,42.155706,0 123.542046,42.182241,0 123.53517,42.181584,0 123.521416,42.191021,0 123.504815,42.192289,0 123.487242,42.180504,0 123.469599,42.181537,0 123.458138,42.200176,0 123.449594,42.204729,0 123.465223,42.230258,0 123.476753,42.233073,0 123.468765,42.249446,0 123.473628,42.261921,0 123.48238,42.27144,0 123.497939,42.275988,0 123.51579,42.298255,0 123.528085,42.321639,0 123.52864,42.339674,0 123.522875,42.339815,0 123.516971,42.349462,0 123.505788,42.353724,0 123.499675,42.363417,0 123.487936,42.363042,0 123.482449,42.371469,0 123.465848,42.381674,0 123.476545,42.397399,0 123.472238,42.397961,0 123.479115,42.414384,0 123.455151,42.43272,0 123.454456,42.441184,0 123.473419,42.4561,0 123.479045,42.464935,0 123.496341,42.463299,0 123.5094,42.470077,0 123.52225,42.487322,0 123.534197,42.482042,0 123.542185,42.490593,0 123.554341,42.493256,0 123.558647,42.499984,0 123.566427,42.498956,0 123.571567,42.506478,0 123.583028,42.502787,0 123.584,42.512644,0 123.608937,42.509327,0 123.616786,42.525207,0 123.613313,42.53548,0 123.621787,42.534173,0 123.624149,42.543744,0 123.643737,42.553081,0 123.653947,42.550187,0 123.663811,42.55182,0 123.662908,42.539869,0 123.668256,42.530624,0 123.657629,42.521144,0 123.679439,42.516334,0 123.683885,42.510028,0 123.703889,42.52997,0 123.736814,42.542671,0 123.752859,42.543044,0 123.758555,42.553968,0 123.742093,42.559196,0 123.737092,42.553128,0 123.72577,42.555415,0 123.730771,42.562556,0 123.723894,42.567456,0 123.712433,42.566243,0 123.710349,42.579589,0 123.694721,42.578516,0 123.691109,42.592839,0 123.701528,42.593725,0 123.69479,42.603287,0 123.673813,42.602028,0 123.662491,42.6149,0 123.651586,42.618397,0 123.664714,42.623666,0 123.662908,42.629028,0 123.637068,42.63989,0 123.624079,42.647441,0 123.61887,42.655084,0 123.625607,42.664078,0 123.625746,42.6754,0 123.611298,42.680291,0 123.60338,42.670555,0 123.592614,42.663705,0 123.578999,42.676937,0 123.587821,42.67731,0 123.583306,42.688443,0 123.569344,42.692868,0 123.582611,42.70628,0 123.57122,42.712007,0 123.559481,42.724763,0 123.559342,42.729464,0 123.57247,42.741426,0 123.575387,42.751152,0 123.585598,42.752501,0 123.586848,42.760178,0 123.57761,42.76804,0 123.586084,42.77511,0 123.598865,42.771622,0 123.603519,42.77911,0 123.593864,42.789248,0 123.600602,42.796595,0 123.594697,42.807939,0 123.591988,42.823418,0 123.605325,42.829274,0 123.593655,42.838846,0 123.593378,42.847442,0 123.585668,42.852598,0 123.603519,42.866347,0 123.600949,42.870481,0 123.583931,42.875357,0 123.584348,42.884829,0 123.59956,42.893511,0 123.598587,42.905162,0 123.584973,42.910546,0 123.588793,42.921823,0 123.601088,42.923354,0 123.603519,42.930268,0 123.584348,42.943906,0 123.582125,42.950075,0 123.566496,42.951652,0 123.554896,42.961206,0 123.546839,42.977341,0 123.554132,42.984388,0 123.566496,42.988142,0 123.561912,43.005383,0</coordinates></LinearRing></outerBoundaryIs>
      </Polygon>
    </MultiGeometry>
    </Placemark>
  </Document>
</kml>
