<?xml version="1.0" encoding="UTF-8"?>
<kml xmlns="http://www.opengis.net/kml/2.2">
  <Document>
    <name><![CDATA[营口市]]></name>
    <Placemark>
      <name><![CDATA[营口市]]></name>
      <description><![CDATA[省级目录：辽宁省]]></description>
      <ExtendedData>
        <Data name="adcode"><value>210800</value></Data>
      </ExtendedData>
      <MultiGeometry>
      <Polygon>
        <outerBoundaryIs><LinearRing><coordinates>121.953274,40.128876,0 121.970778,40.116423,0 121.98724,40.09088,0 121.986545,40.081912,0 121.980294,40.078081,0 121.982794,40.061836,0 121.993422,40.052379,0 122.008356,40.051457,0 122.020928,40.058393,0 122.044267,40.062515,0 122.049824,40.068577,0 122.058576,40.064601,0 122.069203,40.067753,0 122.07344,40.056453,0 122.081915,40.055435,0 122.090111,40.038942,0 122.096015,40.042386,0 122.12498,40.042435,0 122.139914,40.030888,0 122.157557,40.035643,0 122.175061,40.027103,0 122.185342,40.009924,0 122.196664,40.006138,0 122.198609,39.998469,0 122.218683,40.000217,0 122.231047,40.008905,0 122.242577,40.022202,0 122.248898,40.012982,0 122.26029,40.00609,0 122.259873,39.988906,0 122.269597,39.98405,0 122.269806,39.979098,0 122.280919,39.967395,0 122.285851,39.967589,0 122.304466,39.979486,0 122.326972,39.984633,0 122.344059,39.982545,0 122.357743,39.969629,0 122.373371,39.966326,0 122.400322,39.972154,0 122.401434,39.9672,0 122.417757,39.972154,0 122.418312,39.968657,0 122.456168,39.951707,0 122.477423,39.939561,0 122.497081,39.935918,0 122.501318,39.927317,0 122.512084,39.920611,0 122.510695,39.928678,0 122.530005,39.941796,0 122.551538,39.939173,0 122.561193,39.944565,0 122.549524,39.954524,0 122.555914,39.968075,0 122.554108,39.974631,0 122.539243,39.972785,0 122.544106,39.989343,0 122.541049,39.993275,0 122.520142,39.99876,0 122.519308,40.005605,0 122.527435,40.015554,0 122.544731,40.013225,0 122.550982,40.024677,0 122.536465,40.031276,0 122.529866,40.047431,0 122.539452,40.062127,0 122.55126,40.057326,0 122.55772,40.058975,0 122.569806,40.049905,0 122.577516,40.055726,0 122.607315,40.052864,0 122.617317,40.064019,0 122.628709,40.061933,0 122.650519,40.06591,0 122.658646,40.062176,0 122.694488,40.07105,0 122.708936,40.067462,0 122.71352,40.075996,0 122.727482,40.085693,0 122.733247,40.094758,0 122.746861,40.097667,0 122.767421,40.109881,0 122.778535,40.112013,0 122.797498,40.106634,0 122.80111,40.102853,0 122.813821,40.103435,0 122.815558,40.111335,0 122.824379,40.120687,0 122.835215,40.119282,0 122.851122,40.124612,0 122.858276,40.134496,0 122.847926,40.150432,0 122.8539,40.154646,0 122.869668,40.178906,0 122.878558,40.185442,0 122.881476,40.195607,0 122.893979,40.20519,0 122.896757,40.218739,0 122.891131,40.234705,0 122.884879,40.236204,0 122.881823,40.249457,0 122.874669,40.258597,0 122.873002,40.26851,0 122.88217,40.289829,0 122.881337,40.306937,0 122.891339,40.319548,0 122.915859,40.331529,0 122.932113,40.344715,0 122.92982,40.358333,0 122.934822,40.374024,0 122.931974,40.396806,0 122.936558,40.409304,0 122.946213,40.416396,0 122.971288,40.417795,0 122.990182,40.427684,0 122.99296,40.435161,0 122.9865,40.463563,0 122.999212,40.477012,0 122.984347,40.486989,0 122.969413,40.508961,0 122.949825,40.515658,0 122.936002,40.528856,0 122.914678,40.537573,0 122.897382,40.538632,0 122.879461,40.52876,0 122.86286,40.5277,0 122.854872,40.532853,0 122.829311,40.538006,0 122.8166,40.5577,0 122.811529,40.558181,0 122.807431,40.570312,0 122.797637,40.578879,0 122.771103,40.577532,0 122.743458,40.585136,0 122.730677,40.582922,0 122.720883,40.586387,0 122.703657,40.598945,0 122.691987,40.599956,0 122.678929,40.592594,0 122.662883,40.594615,0 122.659549,40.583596,0 122.651283,40.584702,0 122.650589,40.593893,0 122.625861,40.608423,0 122.643573,40.611069,0 122.650867,40.616937,0 122.654617,40.628673,0 122.645101,40.636704,0 122.653228,40.638675,0 122.653784,40.648099,0 122.659758,40.658435,0 122.669482,40.662569,0 122.670941,40.67098,0 122.647463,40.666606,0 122.638642,40.659012,0 122.636558,40.663819,0 122.623082,40.671749,0 122.622804,40.688136,0 122.636558,40.696832,0 122.651144,40.710571,0 122.649825,40.739768,0 122.639614,40.748698,0 122.600785,40.751722,0 122.581892,40.748506,0 122.567583,40.758058,0 122.556817,40.761082,0 122.515974,40.766554,0 122.541952,40.798557,0 122.537993,40.800715,0 122.542022,40.818701,0 122.521531,40.826805,0 122.523406,40.834188,0 122.515002,40.839414,0 122.51653,40.84809,0 122.502568,40.847324,0 122.484231,40.85159,0 122.487634,40.8606,0 122.502568,40.872963,0 122.502429,40.879527,0 122.493052,40.882881,0 122.492566,40.90003,0 122.503124,40.915355,0 122.506111,40.929288,0 122.488607,40.935751,0 122.465059,40.935894,0 122.449848,40.940298,0 122.438595,40.940059,0 122.433316,40.930676,0 122.411505,40.927852,0 122.394557,40.922298,0 122.384138,40.924835,0 122.377609,40.919425,0 122.377609,40.909225,0 122.363647,40.909082,0 122.352672,40.916025,0 122.335238,40.905777,0 122.332251,40.894091,0 122.320373,40.895815,0 122.322943,40.904388,0 122.318914,40.909034,0 122.309468,40.905442,0 122.304258,40.889827,0 122.277307,40.864578,0 122.264318,40.870903,0 122.253482,40.870376,0 122.22674,40.862421,0 122.223128,40.853698,0 122.209028,40.855999,0 122.188884,40.875551,0 122.182424,40.877515,0 122.176589,40.868507,0 122.178812,40.850008,0 122.187078,40.84114,0 122.183397,40.83299,0 122.151584,40.840756,0 122.129426,40.818125,0 122.100877,40.804313,0 122.096501,40.796926,0 122.108657,40.787523,0 122.128245,40.779798,0 122.160266,40.75945,0 122.180618,40.750522,0 122.194163,40.742217,0 122.206319,40.739961,0 122.209861,40.725123,0 122.201665,40.713405,0 122.208333,40.709947,0 122.246675,40.711099,0 122.265777,40.710235,0 122.27314,40.702741,0 122.272723,40.695583,0 122.245286,40.683283,0 122.23452,40.68285,0 122.232297,40.688136,0 122.205416,40.693085,0 122.19451,40.701876,0 122.188051,40.695967,0 122.172491,40.709898,0 122.162836,40.711484,0 122.154918,40.70644,0 122.151931,40.697024,0 122.154154,40.685541,0 122.148388,40.671797,0 122.154084,40.662665,0 122.151514,40.653099,0 122.134496,40.627134,0 122.13408,40.61434,0 122.150542,40.588504,0 122.245633,40.519704,0 122.246467,40.515513,0 122.2332,40.510503,0 122.231047,40.505107,0 122.244661,40.485061,0 122.25765,40.487037,0 122.278697,40.482844,0 122.276682,40.47518,0 122.264804,40.480386,0 122.222086,40.481109,0 122.221253,40.461248,0 122.240424,40.460959,0 122.24987,40.452763,0 122.250982,40.44577,0 122.229102,40.424018,0 122.199025,40.431736,0 122.190968,40.429228,0 122.187981,40.413984,0 122.199928,40.389519,0 122.198678,40.382375,0 122.191801,40.382134,0 122.171658,40.388264,0 122.168115,40.376728,0 122.178673,40.365624,0 122.163531,40.358913,0 122.152209,40.357657,0 122.135538,40.374941,0 122.12373,40.376245,0 122.111088,40.368521,0 122.105948,40.357174,0 122.111088,40.348917,0 122.1379,40.338871,0 122.121438,40.327085,0 122.110741,40.31578,0 122.1006,40.31578,0 122.088791,40.331094,0 122.0799,40.333075,0 122.03996,40.322206,0 122.035932,40.299882,0 122.039822,40.260241,0 122.026902,40.245008,0 121.940284,40.242202,0 121.935908,40.237849,0 121.950356,40.204125,0 121.959108,40.192799,0 121.981197,40.17329,0 122.004258,40.171934,0 122.010856,40.155034,0 122.009815,40.148834,0 121.995158,40.12844,0 121.980433,40.124127,0 121.960775,40.134883,0 121.953274,40.128876,0</coordinates></LinearRing></outerBoundaryIs>
      </Polygon>
    </MultiGeometry>
    </Placemark>
  </Document>
</kml>
