<?xml version="1.0" encoding="UTF-8"?>
<kml xmlns="http://www.opengis.net/kml/2.2">
  <Document>
    <name><![CDATA[铁岭市]]></name>
    <Placemark>
      <name><![CDATA[铁岭市]]></name>
      <description><![CDATA[省级目录：辽宁省]]></description>
      <ExtendedData>
        <Data name="adcode"><value>211200</value></Data>
      </ExtendedData>
      <MultiGeometry>
      <Polygon>
        <outerBoundaryIs><LinearRing><coordinates>123.790021,41.989242,0 123.80169,41.994093,0 123.813915,42.007655,0 123.842811,42.022909,0 123.875457,42.028746,0 123.880667,42.033123,0 123.905742,42.031146,0 123.92658,42.018766,0 123.940194,42.023803,0 123.950336,42.018625,0 123.943529,42.008738,0 123.954781,42.005631,0 123.985969,42.005819,0 124.004307,42.01161,0 124.024381,42.011657,0 124.034175,42.018907,0 124.03994,42.045124,0 124.067446,42.064367,0 124.07988,42.065543,0 124.095231,42.073446,0 124.140797,42.068083,0 124.164622,42.056793,0 124.174416,42.055711,0 124.191572,42.058957,0 124.207618,42.055334,0 124.234291,42.058157,0 124.25374,42.067284,0 124.264645,42.064602,0 124.268604,42.046018,0 124.275828,42.043147,0 124.275689,42.036935,0 124.285275,42.027428,0 124.281177,42.020885,0 124.283816,42.013117,0 124.279926,42.00742,0 124.294721,42.006054,0 124.313267,42.015235,0 124.33737,42.016601,0 124.341955,42.009397,0 124.35154,42.012222,0 124.369044,42.022391,0 124.366752,42.032888,0 124.383978,42.033923,0 124.408637,42.044041,0 124.414124,42.050112,0 124.423501,42.052182,0 124.447604,42.067801,0 124.497408,42.079654,0 124.520121,42.087884,0 124.550128,42.11896,0 124.541446,42.131039,0 124.543043,42.137477,0 124.560061,42.155048,0 124.561172,42.16402,0 124.543946,42.176982,0 124.536514,42.192899,0 124.52797,42.202476,0 124.516023,42.236733,0 124.536722,42.257888,0 124.553323,42.270034,0 124.561033,42.282318,0 124.564784,42.303739,0 124.577843,42.321076,0 124.569508,42.341641,0 124.574648,42.351476,0 124.59361,42.351008,0 124.605141,42.345294,0 124.628202,42.348432,0 124.634523,42.345903,0 124.62584,42.334475,0 124.625701,42.327261,0 124.647859,42.316344,0 124.661126,42.315641,0 124.679394,42.319577,0 124.695995,42.317141,0 124.712944,42.325106,0 124.725586,42.324497,0 124.732462,42.335693,0 124.751494,42.338316,0 124.763511,42.343093,0 124.774625,42.336957,0 124.787058,42.33958,0 124.797061,42.359718,0 124.787822,42.365523,0 124.7856,42.382376,0 124.777612,42.380551,0 124.772055,42.391362,0 124.775597,42.400347,0 124.786016,42.409237,0 124.800395,42.415881,0 124.820399,42.411296,0 124.821719,42.418266,0 124.853185,42.412278,0 124.864021,42.407787,0 124.886248,42.41022,0 124.895278,42.398242,0 124.925077,42.396884,0 124.931259,42.40278,0 124.944734,42.400768,0 124.952236,42.389116,0 124.960988,42.384436,0 124.956959,42.371329,0 124.974255,42.368145,0 124.985299,42.379146,0 124.990717,42.37292,0 125.005859,42.378444,0 124.997732,42.392579,0 125.004748,42.401845,0 125.024336,42.401891,0 125.036491,42.405541,0 125.041562,42.414618,0 125.03663,42.420231,0 125.036214,42.438098,0 125.057746,42.445533,0 125.063164,42.450536,0 125.079904,42.457315,0 125.078446,42.464842,0 125.099006,42.478023,0 125.107966,42.478864,0 125.105049,42.49064,0 125.085253,42.500872,0 125.068999,42.49961,0 125.066776,42.502787,0 125.078446,42.506571,0 125.081085,42.513298,0 125.089907,42.51241,0 125.088934,42.518622,0 125.067262,42.534406,0 125.077334,42.54211,0 125.076292,42.558075,0 125.091504,42.572356,0 125.084489,42.593025,0 125.095533,42.599789,0 125.089837,42.606505,0 125.099631,42.613221,0 125.097408,42.622081,0 125.086225,42.625764,0 125.072194,42.625158,0 125.061914,42.620915,0 125.055107,42.624039,0 125.038436,42.615413,0 125.028781,42.617698,0 125.028642,42.623014,0 125.010721,42.632478,0 125.019335,42.652754,0 125.012805,42.660211,0 125.014403,42.666128,0 124.996135,42.670461,0 124.99037,42.677263,0 124.968489,42.67349,0 124.967586,42.680198,0 124.985855,42.686673,0 124.989258,42.695103,0 124.978909,42.709539,0 124.977172,42.716476,0 124.968281,42.722715,0 124.98002,42.729139,0 124.985855,42.726997,0 124.996413,42.745428,0 124.980367,42.752547,0 124.983007,42.760783,0 124.988216,42.759806,0 124.992662,42.773017,0 124.987591,42.780552,0 124.980159,42.781436,0 124.975574,42.802035,0 124.955987,42.807335,0 124.948832,42.806266,0 124.93105,42.819049,0 124.915908,42.817794,0 124.914935,42.803895,0 124.906669,42.793573,0 124.897779,42.787993,0 124.887221,42.790876,0 124.874857,42.78976,0 124.868813,42.797711,0 124.867077,42.80766,0 124.858811,42.820304,0 124.858742,42.840519,0 124.855408,42.851112,0 124.857005,42.863421,0 124.849295,42.88209,0 124.85638,42.886129,0 124.850684,42.892304,0 124.852212,42.899221,0 124.860061,42.904698,0 124.859922,42.914212,0 124.86666,42.918528,0 124.864507,42.926741,0 124.869716,42.936438,0 124.864924,42.939407,0 124.869439,42.954667,0 124.867563,42.96167,0 124.874995,42.968811,0 124.868536,42.973215,0 124.872148,42.984388,0 124.861867,42.990506,0 124.857561,43.001537,0 124.86159,43.002186,0 124.855963,43.013909,0 124.844433,43.02614,0 124.844433,43.035172,0 124.863118,43.034014,0 124.857422,43.040081,0 124.858255,43.05101,0 124.868605,43.054252,0 124.877288,43.068002,0 124.887498,43.073788,0 124.883817,43.093596,0 124.879441,43.099704,0 124.881872,43.1109,0 124.893819,43.117931,0 124.895,43.131158,0 124.881247,43.133331,0 124.873328,43.125932,0 124.857561,43.119457,0 124.841863,43.126996,0 124.822622,43.124452,0 124.819566,43.119873,0 124.807896,43.117514,0 124.802131,43.122371,0 124.785461,43.116543,0 124.785391,43.106551,0 124.778167,43.098223,0 124.758579,43.086285,0 124.754481,43.073742,0 124.738644,43.068141,0 124.718501,43.069992,0 124.695092,43.057261,0 124.686201,43.050408,0 124.674393,43.026557,0 124.678283,43.013353,0 124.677727,43.002695,0 124.67092,42.990043,0 124.660362,42.983183,0 124.65939,42.972937,0 124.652791,42.976229,0 124.635704,42.973401,0 124.633828,42.958145,0 124.639177,42.95527,0 124.622923,42.949055,0 124.622645,42.941634,0 124.608197,42.937783,0 124.602432,42.930871,0 124.603752,42.923725,0 124.593333,42.911846,0 124.563187,42.889008,0 124.544293,42.886454,0 124.538528,42.86709,0 124.532902,42.871549,0 124.514703,42.873638,0 124.501575,42.86514,0 124.480181,42.858544,0 124.466289,42.846605,0 124.472749,42.828019,0 124.465664,42.822581,0 124.452258,42.825928,0 124.454689,42.852505,0 124.446076,42.865465,0 124.437532,42.867926,0 124.440867,42.875775,0 124.434546,42.880882,0 124.426836,42.874521,0 124.415444,42.879211,0 124.371753,42.880975,0 124.366474,42.891886,0 124.366822,42.902841,0 124.381061,42.91282,0 124.388007,42.910082,0 124.397801,42.915141,0 124.400927,42.921962,0 124.413916,42.922426,0 124.414819,42.926417,0 124.431906,42.930871,0 124.442186,42.941402,0 124.441631,42.959861,0 124.429892,42.966399,0 124.422112,42.97609,0 124.402316,42.97099,0 124.384465,42.970712,0 124.360779,42.975904,0 124.34772,42.988328,0 124.333411,42.99732,0 124.340565,43.004827,0 124.369808,43.025491,0 124.425933,43.076288,0 124.421348,43.082629,0 124.396829,43.092532,0 124.381617,43.107754,0 124.362307,43.122695,0 124.340565,43.128615,0 124.329243,43.142903,0 124.308891,43.155062,0 124.302987,43.148867,0 124.292499,43.154322,0 124.300487,43.158529,0 124.283955,43.166016,0 124.273814,43.178771,0 124.282149,43.188982,0 124.277565,43.196143,0 124.287706,43.206906,0 124.28069,43.216235,0 124.282844,43.220622,0 124.276314,43.233411,0 124.268326,43.230641,0 124.253184,43.237335,0 124.24346,43.233411,0 124.229776,43.234796,0 124.227067,43.24209,0 124.219218,43.241444,0 124.216023,43.256121,0 124.199491,43.245829,0 124.190044,43.246521,0 124.178375,43.242228,0 124.172471,43.249567,0 124.168373,43.244075,0 124.154828,43.253583,0 124.148715,43.250952,0 124.132878,43.25529,0 124.129336,43.247814,0 124.114402,43.247306,0 124.11725,43.263043,0 124.111762,43.269134,0 124.11718,43.2773,0 124.111415,43.281175,0 124.098634,43.281129,0 124.10308,43.288556,0 124.098287,43.292891,0 124.066057,43.292661,0 124.043135,43.287587,0 124.032994,43.280898,0 123.992776,43.308571,0 123.98715,43.315671,0 123.961866,43.338811,0 123.964228,43.340839,0 123.946863,43.350747,0 123.922968,43.360422,0 123.911577,43.358211,0 123.895879,43.361528,0 123.901366,43.37917,0 123.892267,43.390131,0 123.865941,43.395656,0 123.863649,43.400905,0 123.853021,43.405647,0 123.849687,43.415636,0 123.854897,43.423644,0 123.855661,43.436759,0 123.872331,43.451344,0 123.857606,43.459163,0 123.861148,43.461785,0 123.849271,43.470109,0 123.845798,43.467488,0 123.833503,43.473558,0 123.825932,43.471489,0 123.804468,43.482433,0 123.79787,43.489559,0 123.786964,43.479812,0 123.773975,43.480318,0 123.771405,43.484042,0 123.74626,43.471213,0 123.753207,43.464545,0 123.751956,43.454702,0 123.74369,43.443845,0 123.7489,43.439842,0 123.734313,43.427234,0 123.71021,43.417201,0 123.710002,43.404726,0 123.703056,43.402654,0 123.705695,43.396991,0 123.699444,43.390131,0 123.708891,43.383776,0 123.698541,43.382486,0 123.705001,43.377328,0 123.704654,43.364108,0 123.69611,43.356184,0 123.720421,43.357658,0 123.711391,43.354479,0 123.713058,43.346553,0 123.705695,43.344802,0 123.704445,43.337152,0 123.71417,43.331852,0 123.703334,43.327796,0 123.709168,43.319728,0 123.719727,43.319129,0 123.716601,43.311614,0 123.700625,43.311291,0 123.703889,43.297872,0 123.69604,43.294921,0 123.696388,43.28136,0 123.705487,43.278084,0 123.698541,43.272225,0 123.686455,43.277392,0 123.678259,43.271118,0 123.666936,43.268211,0 123.665408,43.257829,0 123.675758,43.241121,0 123.667978,43.235904,0 123.676869,43.224177,0 123.657907,43.221591,0 123.646376,43.213233,0 123.655823,43.194203,0 123.665408,43.193371,0 123.667978,43.180943,0 123.659504,43.174751,0 123.649849,43.175398,0 123.648738,43.166479,0 123.653392,43.158713,0 123.643389,43.143874,0 123.635193,43.137771,0 123.638249,43.124822,0 123.629706,43.119318,0 123.633456,43.112195,0 123.627691,43.100583,0 123.631234,43.088969,0 123.625746,43.079111,0 123.616161,43.077445,0 123.605325,43.06416,0 123.596295,43.062447,0 123.598309,43.056937,0 123.611507,43.049297,0 123.594628,43.039711,0 123.590044,43.032069,0 123.580805,43.036052,0 123.585668,43.024287,0 123.581083,43.01933,0 123.588585,43.015855,0 123.583028,43.010202,0 123.573442,43.010434,0 123.572678,43.0039,0 123.561912,43.005383,0 123.566496,42.988142,0 123.554132,42.984388,0 123.546839,42.977341,0 123.554896,42.961206,0 123.566496,42.951652,0 123.582125,42.950075,0 123.584348,42.943906,0 123.603519,42.930268,0 123.601088,42.923354,0 123.588793,42.921823,0 123.584973,42.910546,0 123.598587,42.905162,0 123.59956,42.893511,0 123.584348,42.884829,0 123.583931,42.875357,0 123.600949,42.870481,0 123.603519,42.866347,0 123.585668,42.852598,0 123.593378,42.847442,0 123.593655,42.838846,0 123.605325,42.829274,0 123.591988,42.823418,0 123.594697,42.807939,0 123.600602,42.796595,0 123.593864,42.789248,0 123.603519,42.77911,0 123.598865,42.771622,0 123.586084,42.77511,0 123.57761,42.76804,0 123.586848,42.760178,0 123.585598,42.752501,0 123.575387,42.751152,0 123.57247,42.741426,0 123.559342,42.729464,0 123.559481,42.724763,0 123.57122,42.712007,0 123.582611,42.70628,0 123.569344,42.692868,0 123.583306,42.688443,0 123.587821,42.67731,0 123.578999,42.676937,0 123.592614,42.663705,0 123.60338,42.670555,0 123.611298,42.680291,0 123.625746,42.6754,0 123.625607,42.664078,0 123.61887,42.655084,0 123.624079,42.647441,0 123.637068,42.63989,0 123.662908,42.629028,0 123.664714,42.623666,0 123.651586,42.618397,0 123.662491,42.6149,0 123.673813,42.602028,0 123.69479,42.603287,0 123.701528,42.593725,0 123.691109,42.592839,0 123.694721,42.578516,0 123.710349,42.579589,0 123.712433,42.566243,0 123.723894,42.567456,0 123.730771,42.562556,0 123.72577,42.555415,0 123.737092,42.553128,0 123.742093,42.559196,0 123.758555,42.553968,0 123.752859,42.543044,0 123.736814,42.542671,0 123.703889,42.52997,0 123.683885,42.510028,0 123.679439,42.516334,0 123.657629,42.521144,0 123.668256,42.530624,0 123.662908,42.539869,0 123.663811,42.55182,0 123.653947,42.550187,0 123.643737,42.553081,0 123.624149,42.543744,0 123.621787,42.534173,0 123.613313,42.53548,0 123.616786,42.525207,0 123.608937,42.509327,0 123.584,42.512644,0 123.583028,42.502787,0 123.571567,42.506478,0 123.566427,42.498956,0 123.558647,42.499984,0 123.554341,42.493256,0 123.542185,42.490593,0 123.534197,42.482042,0 123.52225,42.487322,0 123.5094,42.470077,0 123.496341,42.463299,0 123.479045,42.464935,0 123.473419,42.4561,0 123.454456,42.441184,0 123.455151,42.43272,0 123.479115,42.414384,0 123.472238,42.397961,0 123.476545,42.397399,0 123.465848,42.381674,0 123.482449,42.371469,0 123.487936,42.363042,0 123.499675,42.363417,0 123.505788,42.353724,0 123.516971,42.349462,0 123.522875,42.339815,0 123.52864,42.339674,0 123.528085,42.321639,0 123.51579,42.298255,0 123.497939,42.275988,0 123.48238,42.27144,0 123.473628,42.261921,0 123.468765,42.249446,0 123.476753,42.233073,0 123.465223,42.230258,0 123.449594,42.204729,0 123.458138,42.200176,0 123.469599,42.181537,0 123.487242,42.180504,0 123.504815,42.192289,0 123.521416,42.191021,0 123.53517,42.181584,0 123.542046,42.182241,0 123.540518,42.155706,0 123.541768,42.147015,0 123.556147,42.144619,0 123.574901,42.132308,0 123.589974,42.129441,0 123.608728,42.119337,0 123.620954,42.115764,0 123.631164,42.107679,0 123.632206,42.100956,0 123.647418,42.100862,0 123.662213,42.09395,0 123.678189,42.098417,0 123.704862,42.09127,0 123.705626,42.085956,0 123.727228,42.076362,0 123.735147,42.065402,0 123.746122,42.065355,0 123.75529,42.05731,0 123.752026,42.052935,0 123.779879,42.041877,0 123.783144,42.037688,0 123.789118,42.043947,0 123.789465,42.052982,0 123.794744,42.060086,0 123.80433,42.058157,0 123.805858,42.051335,0 123.813151,42.050112,0 123.808219,42.03557,0 123.813568,42.030581,0 123.810095,42.022062,0 123.797175,42.013635,0 123.788354,42.019567,0 123.773211,42.023568,0 123.763695,42.017825,0 123.762792,41.999085,0 123.769391,42.002664,0 123.771058,41.995977,0 123.790021,41.989242,0</coordinates></LinearRing></outerBoundaryIs>
      </Polygon>
    </MultiGeometry>
    </Placemark>
  </Document>
</kml>
