<?xml version="1.0" encoding="UTF-8"?>
<kml xmlns="http://www.opengis.net/kml/2.2">
  <Document>
    <name><![CDATA[阜新市]]></name>
    <Placemark>
      <name><![CDATA[阜新市]]></name>
      <description><![CDATA[省级目录：辽宁省]]></description>
      <ExtendedData>
        <Data name="adcode"><value>210900</value></Data>
      </ExtendedData>
      <MultiGeometry>
      <Polygon>
        <outerBoundaryIs><LinearRing><coordinates>122.83973,42.718292,0 122.831742,42.722296,0 122.805139,42.741612,0 122.798748,42.738773,0 122.79465,42.747662,0 122.784509,42.757479,0 122.765754,42.759247,0 122.756377,42.768226,0 122.749917,42.767249,0 122.736373,42.77311,0 122.733038,42.785854,0 122.71734,42.785947,0 122.700323,42.78218,0 122.678651,42.781064,0 122.653437,42.782319,0 122.625166,42.77325,0 122.617873,42.778552,0 122.58092,42.789713,0 122.569737,42.809148,0 122.576057,42.818724,0 122.562791,42.826206,0 122.522364,42.831086,0 122.505277,42.836616,0 122.486662,42.836895,0 122.431857,42.84326,0 122.39935,42.839171,0 122.35934,42.836105,0 122.352325,42.831551,0 122.350519,42.820165,0 122.355451,42.813378,0 122.362188,42.793526,0 122.361702,42.788179,0 122.373302,42.775436,0 122.437831,42.770087,0 122.45721,42.774226,0 122.460614,42.755339,0 122.444569,42.749104,0 122.434844,42.729651,0 122.421021,42.721085,0 122.401086,42.713357,0 122.39671,42.707863,0 122.395946,42.684204,0 122.360591,42.683412,0 122.341211,42.6713,0 122.33489,42.672791,0 122.334126,42.680385,0 122.324471,42.68481,0 122.311621,42.682201,0 122.307801,42.690446,0 122.259178,42.69692,0 122.257442,42.704231,0 122.241049,42.713078,0 122.238062,42.718851,0 122.225212,42.72844,0 122.204165,42.73249,0 122.209653,42.711495,0 122.206527,42.706839,0 122.203679,42.68318,0 122.196038,42.68085,0 122.197219,42.689049,0 122.190759,42.691564,0 122.173603,42.686813,0 122.1636,42.690073,0 122.162281,42.685089,0 122.139775,42.690166,0 122.133454,42.696268,0 122.121646,42.696081,0 122.109282,42.701949,0 122.096293,42.7033,0 122.091014,42.714475,0 122.072815,42.710657,0 122.073163,42.719735,0 122.061076,42.723413,0 122.050171,42.719223,0 122.04906,42.711495,0 122.026832,42.706652,0 122.02197,42.699388,0 121.994603,42.705162,0 121.988976,42.695383,0 121.981614,42.690492,0 121.97953,42.69664,0 121.968694,42.700925,0 121.962165,42.699248,0 121.959456,42.686766,0 121.938479,42.687884,0 121.935561,42.681689,0 121.941465,42.66953,0 121.939729,42.6631,0 121.929449,42.66706,0 121.915904,42.656716,0 121.920419,42.637186,0 121.903401,42.637326,0 121.902151,42.630613,0 121.91764,42.630473,0 121.918543,42.627117,0 121.90222,42.620822,0 121.921322,42.606039,0 121.911667,42.601468,0 121.917085,42.587987,0 121.906318,42.58794,0 121.903957,42.593678,0 121.895274,42.593632,0 121.905901,42.584021,0 121.905485,42.570956,0 121.8868,42.555088,0 121.870268,42.548413,0 121.869435,42.527962,0 121.855612,42.539169,0 121.85207,42.525581,0 121.844498,42.522405,0 121.840956,42.531231,0 121.832759,42.533893,0 121.823382,42.525067,0 121.817687,42.504189,0 121.803655,42.499984,0 121.80692,42.508907,0 121.8031,42.514886,0 121.792889,42.507505,0 121.783581,42.495312,0 121.765174,42.490873,0 121.76052,42.486434,0 121.747462,42.485266,0 121.725651,42.457643,0 121.713218,42.445673,0 121.690574,42.437396,0 121.673417,42.440062,0 121.665568,42.437396,0 121.646188,42.45437,0 121.646536,42.459185,0 121.637992,42.480359,0 121.62799,42.47606,0 121.605276,42.493957,0 121.602011,42.50204,0 121.610624,42.509888,0 121.608193,42.515773,0 121.59062,42.509094,0 121.590828,42.502273,0 121.577492,42.497321,0 121.578464,42.492088,0 121.570129,42.486902,0 121.552416,42.490593,0 121.528869,42.48321,0 121.515116,42.491714,0 121.506364,42.482462,0 121.497056,42.492275,0 121.479413,42.496387,0 121.467744,42.486808,0 121.470175,42.484425,0 121.450726,42.476574,0 121.434194,42.475312,0 121.42315,42.485406,0 121.41544,42.48606,0 121.417038,42.478396,0 121.411689,42.475873,0 121.38835,42.475265,0 121.384808,42.471152,0 121.385155,42.452032,0 121.359663,42.460728,0 121.341812,42.449741,0 121.327156,42.443522,0 121.311319,42.440343,0 121.304442,42.435573,0 121.313611,42.429446,0 121.306387,42.422617,0 121.306804,42.413401,0 121.299024,42.398897,0 121.283882,42.387291,0 121.263877,42.379334,0 121.252208,42.382844,0 121.256236,42.377461,0 121.232481,42.37161,0 121.218728,42.371891,0 121.214421,42.362012,0 121.185664,42.349884,0 121.187957,42.342016,0 121.184345,42.332788,0 121.169897,42.322716,0 121.150378,42.314564,0 121.153365,42.310206,0 121.148433,42.301067,0 121.133638,42.300271,0 121.121483,42.280911,0 121.106132,42.279317,0 121.103284,42.283302,0 121.086058,42.277583,0 121.068206,42.252494,0 121.048758,42.259905,0 121.03167,42.253573,0 121.038894,42.248414,0 121.027503,42.243394,0 121.033615,42.23678,0 121.047368,42.229742,0 121.055842,42.219137,0 121.057579,42.207874,0 121.050841,42.19243,0 121.055009,42.187688,0 121.055356,42.175291,0 121.071541,42.154062,0 121.072513,42.143115,0 121.078,42.136443,0 121.08453,42.111205,0 121.074597,42.101896,0 121.066748,42.071564,0 121.046118,42.058863,0 121.044451,42.051476,0 121.052717,42.03124,0 121.05487,42.018484,0 121.050563,42.005113,0 121.039311,41.987735,0 121.041534,41.980152,0 121.053967,41.977938,0 121.074527,41.978786,0 121.079529,41.973651,0 121.104882,41.964935,0 121.149962,41.976996,0 121.163159,41.977514,0 121.192055,41.966113,0 121.199834,41.955464,0 121.212962,41.914925,0 121.238524,41.903607,0 121.26353,41.89823,0 121.292564,41.889881,0 121.298885,41.884079,0 121.301941,41.86563,0 121.290689,41.856286,0 121.277283,41.826876,0 121.268392,41.82069,0 121.272699,41.803593,0 121.263669,41.794523,0 121.307985,41.775765,0 121.312222,41.770897,0 121.336394,41.771984,0 121.342923,41.768582,0 121.342506,41.746743,0 121.332712,41.741826,0 121.338547,41.733457,0 121.360149,41.725654,0 121.374319,41.726647,0 121.393838,41.736483,0 121.416899,41.737996,0 121.435723,41.733362,0 121.452463,41.719553,0 121.458158,41.707538,0 121.457603,41.695994,0 121.475385,41.695001,0 121.477607,41.711937,0 121.493305,41.721681,0 121.502335,41.717755,0 121.515116,41.720404,0 121.515324,41.730383,0 121.50692,41.744143,0 121.512338,41.748587,0 121.512407,41.762579,0 121.519909,41.763052,0 121.52616,41.770472,0 121.538524,41.773922,0 121.538802,41.783231,0 121.554083,41.785215,0 121.604859,41.787294,0 121.629031,41.784034,0 121.637089,41.774064,0 121.65494,41.776332,0 121.675153,41.774205,0 121.697033,41.798869,0 121.707314,41.803971,0 121.722456,41.795751,0 121.754338,41.796129,0 121.77858,41.806285,0 121.798029,41.801798,0 121.822479,41.782758,0 121.835121,41.786869,0 121.845957,41.799011,0 121.862558,41.813134,0 121.840886,41.813559,0 121.831648,41.820643,0 121.833107,41.828859,0 121.843734,41.835988,0 121.848944,41.845288,0 121.895066,41.845571,0 121.916251,41.858363,0 121.908472,41.864167,0 121.927156,41.862138,0 121.924517,41.868886,0 121.933061,41.874643,0 121.941674,41.872991,0 121.960081,41.878512,0 121.962442,41.888938,0 121.955705,41.891391,0 121.972514,41.892617,0 121.997242,41.911247,0 121.99113,41.919687,0 121.996478,41.928645,0 122.00391,41.930672,0 122.014816,41.925298,0 122.034334,41.930625,0 122.042114,41.935339,0 122.041975,41.944624,0 122.062257,41.961024,0 122.063021,41.969269,0 122.068926,41.965406,0 122.081915,41.967385,0 122.097752,41.980858,0 122.094904,41.986463,0 122.11852,42.001769,0 122.130884,41.998991,0 122.140748,42.019331,0 122.154362,42.017966,0 122.145888,42.025027,0 122.153251,42.032511,0 122.174992,42.027192,0 122.184369,42.031946,0 122.200623,42.032841,0 122.21264,42.050112,0 122.22799,42.047053,0 122.236326,42.052182,0 122.272167,42.068225,0 122.293631,42.080031,0 122.312871,42.083558,0 122.366703,42.108384,0 122.409769,42.121452,0 122.425953,42.129018,0 122.423522,42.140672,0 122.436858,42.140625,0 122.432621,42.144196,0 122.439428,42.150961,0 122.455821,42.144572,0 122.520072,42.174681,0 122.552024,42.188063,0 122.614469,42.212755,0 122.609329,42.230164,0 122.620096,42.230071,0 122.626,42.234716,0 122.632598,42.231009,0 122.63628,42.237061,0 122.645101,42.237671,0 122.651283,42.232651,0 122.691779,42.249915,0 122.703726,42.261124,0 122.735053,42.281005,0 122.734289,42.284287,0 122.769505,42.297037,0 122.781314,42.29863,0 122.805555,42.312408,0 122.810765,42.319624,0 122.826324,42.330446,0 122.838827,42.331898,0 122.858345,42.346091,0 122.871057,42.345669,0 122.900994,42.349182,0 122.903217,42.353256,0 122.895298,42.368848,0 122.883421,42.368333,0 122.875294,42.37484,0 122.882379,42.388367,0 122.873627,42.389397,0 122.865639,42.395715,0 122.862027,42.406804,0 122.850983,42.40526,0 122.84619,42.399599,0 122.832159,42.403342,0 122.828269,42.410267,0 122.833965,42.417986,0 122.81778,42.416769,0 122.824865,42.429352,0 122.832853,42.431597,0 122.826602,42.438846,0 122.827297,42.445814,0 122.822018,42.458017,0 122.825004,42.461149,0 122.818544,42.481434,0 122.826463,42.490126,0 122.819447,42.490126,0 122.834382,42.497975,0 122.871543,42.504049,0 122.882101,42.503908,0 122.899744,42.499424,0 122.908357,42.500685,0 122.911552,42.51951,0 122.917804,42.521565,0 122.916831,42.52969,0 122.921832,42.535527,0 122.943365,42.547899,0 122.949408,42.545098,0 122.957744,42.550327,0 122.966912,42.561716,0 122.974414,42.564329,0 122.969899,42.571376,0 122.930237,42.587707,0 122.922874,42.596804,0 122.926764,42.604407,0 122.903078,42.613687,0 122.892034,42.608884,0 122.886477,42.611216,0 122.873488,42.608604,0 122.86293,42.621055,0 122.842578,42.633364,0 122.838688,42.645204,0 122.842786,42.648839,0 122.824935,42.652661,0 122.792705,42.650983,0 122.791802,42.662773,0 122.769505,42.677962,0 122.756238,42.679732,0 122.747347,42.689188,0 122.750959,42.697944,0 122.767838,42.709074,0 122.778118,42.710889,0 122.80111,42.726299,0 122.815766,42.718897,0 122.836118,42.716476,0 122.83973,42.718292,0</coordinates></LinearRing></outerBoundaryIs>
      </Polygon>
    </MultiGeometry>
    </Placemark>
  </Document>
</kml>
