<?xml version="1.0" encoding="UTF-8"?>
<kml xmlns="http://www.opengis.net/kml/2.2">
  <Document>
    <name><![CDATA[鞍山市]]></name>
    <Placemark>
      <name><![CDATA[鞍山市]]></name>
      <description><![CDATA[省级目录：辽宁省]]></description>
      <ExtendedData>
        <Data name="adcode"><value>210300</value></Data>
      </ExtendedData>
      <MultiGeometry>
      <Polygon>
        <outerBoundaryIs><LinearRing><coordinates>123.533711,40.826996,0 123.509608,40.816159,0 123.487659,40.811411,0 123.461611,40.809541,0 123.442231,40.803114,0 123.428964,40.803306,0 123.411044,40.807095,0 123.402639,40.802538,0 123.394234,40.786515,0 123.37541,40.775384,0 123.357003,40.775959,0 123.340055,40.771113,0 123.315049,40.773464,0 123.297614,40.76593,0 123.287959,40.754506,0 123.277054,40.749082,0 123.258369,40.744569,0 123.244685,40.731462,0 123.230932,40.733959,0 123.214262,40.732182,0 123.1771,40.712684,0 123.150288,40.725219,0 123.136188,40.714461,0 123.130075,40.72666,0 123.100971,40.741305,0 123.085412,40.755946,0 123.073812,40.771641,0 123.071798,40.780422,0 123.074854,40.792081,0 123.091386,40.802394,0 123.107084,40.820091,0 123.105834,40.824455,0 123.084926,40.835866,0 123.072979,40.839414,0 123.054294,40.835099,0 123.050265,40.845502,0 123.055752,40.857772,0 123.047973,40.871765,0 123.055266,40.884175,0 123.075063,40.898354,0 123.073673,40.906879,0 123.060406,40.923447,0 123.089788,40.928378,0 123.096387,40.934171,0 123.097151,40.941973,0 123.083884,40.961595,0 123.087913,40.975519,0 123.103125,40.984177,0 123.126741,40.989343,0 123.151052,40.983938,0 123.161541,40.988434,0 123.178212,40.989917,0 123.192451,40.987621,0 123.190923,40.996852,0 123.201898,41.00173,0 123.212247,41.017701,0 123.199675,41.031278,0 123.205162,41.039547,0 123.214331,41.039833,0 123.235517,41.048962,0 123.226626,41.058996,0 123.231835,41.066067,0 123.214539,41.077867,0 123.208357,41.078631,0 123.213636,41.091145,0 123.2119,41.098117,0 123.203148,41.097687,0 123.198494,41.103322,0 123.183977,41.106043,0 123.171891,41.098642,0 123.162583,41.099024,0 123.154595,41.105852,0 123.145287,41.101841,0 123.146746,41.10824,0 123.142509,41.12576,0 123.146815,41.133826,0 123.140147,41.137214,0 123.149385,41.154059,0 123.13716,41.158018,0 123.129381,41.174094,0 123.119309,41.177242,0 123.119031,41.184253,0 123.109862,41.184634,0 123.099304,41.178101,0 123.075618,41.184634,0 123.063254,41.183156,0 123.057142,41.191501,0 123.062282,41.199083,0 123.038248,41.208427,0 123.022411,41.206854,0 123.005949,41.188497,0 122.991363,41.18659,0 122.987612,41.200465,0 122.974484,41.202706,0 122.962467,41.191358,0 122.946144,41.196603,0 122.909607,41.194219,0 122.89898,41.181296,0 122.895924,41.171519,0 122.885505,41.166844,0 122.875572,41.170612,0 122.86675,41.163171,0 122.875988,41.157732,0 122.865291,41.144897,0 122.858137,41.144945,0 122.84876,41.129769,0 122.856748,41.114971,0 122.841605,41.106091,0 122.831047,41.091575,0 122.832437,41.082452,0 122.824518,41.081831,0 122.801388,41.093533,0 122.800068,41.100266,0 122.791594,41.096111,0 122.784995,41.101316,0 122.777215,41.099024,0 122.760962,41.101221,0 122.762837,41.104372,0 122.704282,41.114828,0 122.689556,41.122609,0 122.690251,41.128289,0 122.678581,41.140746,0 122.639683,41.155204,0 122.618706,41.169706,0 122.598077,41.178911,0 122.601897,41.185636,0 122.59509,41.19584,0 122.613149,41.202134,0 122.622527,41.199845,0 122.615303,41.207903,0 122.612455,41.220534,0 122.596201,41.245076,0 122.560012,41.244123,0 122.552371,41.249602,0 122.554108,41.254843,0 122.569528,41.268466,0 122.576405,41.279991,0 122.595229,41.293513,0 122.588491,41.296846,0 122.594673,41.303463,0 122.60669,41.303463,0 122.604328,41.318075,0 122.620304,41.317504,0 122.629542,41.330163,0 122.658993,41.354806,0 122.656423,41.358754,0 122.642601,41.357612,0 122.640795,41.363605,0 122.64913,41.395889,0 122.634057,41.405253,0 122.631209,41.416801,0 122.647116,41.424499,0 122.643018,41.432528,0 122.629751,41.429725,0 122.634752,41.435331,0 122.634543,41.448204,0 122.625166,41.471426,0 122.632598,41.474085,0 122.636419,41.481728,0 122.623916,41.488896,0 122.636905,41.501663,0 122.631418,41.506694,0 122.634613,41.516943,0 122.625027,41.520976,0 122.604536,41.513005,0 122.599118,41.514618,0 122.59891,41.530227,0 122.595159,41.534448,0 122.582934,41.535207,0 122.572446,41.540045,0 122.566125,41.547776,0 122.553483,41.550669,0 122.520767,41.542559,0 122.506597,41.537437,0 122.4959,41.54346,0 122.492983,41.551854,0 122.500345,41.562238,0 122.497706,41.57044,0 122.487356,41.566316,0 122.470547,41.556691,0 122.452834,41.549341,0 122.409213,41.548677,0 122.368092,41.545404,0 122.357118,41.541326,0 122.330097,41.525483,0 122.298284,41.514571,0 122.283837,41.515899,0 122.215557,41.485336,0 122.193746,41.459602,0 122.199303,41.45794,0 122.192288,41.448964,0 122.200345,41.441792,0 122.198956,41.429203,0 122.232436,41.387095,0 122.245286,41.373877,0 122.280294,41.353997,0 122.277516,41.348908,0 122.279461,41.334968,0 122.271681,41.328355,0 122.274737,41.319741,0 122.26668,41.307414,0 122.264388,41.291133,0 122.254455,41.277896,0 122.249801,41.260845,0 122.250079,41.242551,0 122.244591,41.236309,0 122.231047,41.2304,0 122.205138,41.223299,0 122.215001,41.216578,0 122.226948,41.201943,0 122.254316,41.194076,0 122.266194,41.194791,0 122.274737,41.184539,0 122.304814,41.190881,0 122.338572,41.189975,0 122.352533,41.198034,0 122.343364,41.203707,0 122.36191,41.206568,0 122.369759,41.217579,0 122.386499,41.2243,0 122.388861,41.231639,0 122.408866,41.251651,0 122.423661,41.243266,0 122.424633,41.253318,0 122.457697,41.248078,0 122.46374,41.256796,0 122.480688,41.254938,0 122.488745,41.250984,0 122.463879,41.233307,0 122.447208,41.21553,0 122.435469,41.213003,0 122.415326,41.212622,0 122.411783,41.204041,0 122.400461,41.196889,0 122.384624,41.195602,0 122.368926,41.183585,0 122.366356,41.177147,0 122.37233,41.162407,0 122.386638,41.160165,0 122.384416,41.135496,0 122.396502,41.120461,0 122.396502,41.10165,0 122.412061,41.090954,0 122.415881,41.084602,0 122.414978,41.057085,0 122.40956,41.038639,0 122.415256,41.022482,0 122.424008,41.012776,0 122.41088,40.993074,0 122.404698,40.991496,0 122.396502,41.000869,0 122.390111,40.997426,0 122.390111,40.988052,0 122.380665,40.989869,0 122.368023,41.0002,0 122.359966,41.001874,0 122.3426,40.988817,0 122.346629,40.980494,0 122.36066,40.9881,0 122.364411,40.985851,0 122.358715,40.975327,0 122.338988,40.968151,0 122.328361,40.971117,0 122.328917,40.96327,0 122.350172,40.955422,0 122.351213,40.951498,0 122.338294,40.940872,0 122.343364,40.927277,0 122.331278,40.923974,0 122.318845,40.927325,0 122.327597,40.918276,0 122.321345,40.909273,0 122.335238,40.905777,0 122.352672,40.916025,0 122.363647,40.909082,0 122.377609,40.909225,0 122.377609,40.919425,0 122.384138,40.924835,0 122.394557,40.922298,0 122.411505,40.927852,0 122.433316,40.930676,0 122.438595,40.940059,0 122.449848,40.940298,0 122.465059,40.935894,0 122.488607,40.935751,0 122.506111,40.929288,0 122.503124,40.915355,0 122.492566,40.90003,0 122.493052,40.882881,0 122.502429,40.879527,0 122.502568,40.872963,0 122.487634,40.8606,0 122.484231,40.85159,0 122.502568,40.847324,0 122.51653,40.84809,0 122.515002,40.839414,0 122.523406,40.834188,0 122.521531,40.826805,0 122.542022,40.818701,0 122.537993,40.800715,0 122.541952,40.798557,0 122.515974,40.766554,0 122.556817,40.761082,0 122.567583,40.758058,0 122.581892,40.748506,0 122.600785,40.751722,0 122.639614,40.748698,0 122.649825,40.739768,0 122.651144,40.710571,0 122.636558,40.696832,0 122.622804,40.688136,0 122.623082,40.671749,0 122.636558,40.663819,0 122.638642,40.659012,0 122.647463,40.666606,0 122.670941,40.67098,0 122.669482,40.662569,0 122.659758,40.658435,0 122.653784,40.648099,0 122.653228,40.638675,0 122.645101,40.636704,0 122.654617,40.628673,0 122.650867,40.616937,0 122.643573,40.611069,0 122.625861,40.608423,0 122.650589,40.593893,0 122.651283,40.584702,0 122.659549,40.583596,0 122.662883,40.594615,0 122.678929,40.592594,0 122.691987,40.599956,0 122.703657,40.598945,0 122.720883,40.586387,0 122.730677,40.582922,0 122.743458,40.585136,0 122.771103,40.577532,0 122.797637,40.578879,0 122.807431,40.570312,0 122.811529,40.558181,0 122.8166,40.5577,0 122.829311,40.538006,0 122.854872,40.532853,0 122.86286,40.5277,0 122.879461,40.52876,0 122.897382,40.538632,0 122.914678,40.537573,0 122.936002,40.528856,0 122.949825,40.515658,0 122.969413,40.508961,0 122.984347,40.486989,0 122.999212,40.477012,0 122.9865,40.463563,0 122.99296,40.435161,0 122.990182,40.427684,0 122.971288,40.417795,0 122.946213,40.416396,0 122.936558,40.409304,0 122.931974,40.396806,0 122.934822,40.374024,0 122.92982,40.358333,0 122.932113,40.344715,0 122.915859,40.331529,0 122.891339,40.319548,0 122.881337,40.306937,0 122.88217,40.289829,0 122.873002,40.26851,0 122.874669,40.258597,0 122.881823,40.249457,0 122.884879,40.236204,0 122.891131,40.234705,0 122.896757,40.218739,0 122.893979,40.20519,0 122.890784,40.187378,0 122.901967,40.184038,0 122.927042,40.182247,0 122.938711,40.174791,0 122.939128,40.158956,0 122.944963,40.143215,0 122.960522,40.123546,0 122.969552,40.118507,0 122.988654,40.116859,0 122.981707,40.103289,0 122.993863,40.081863,0 123.010256,40.07299,0 123.028871,40.07042,0 123.03165,40.062127,0 123.053947,40.060139,0 123.068672,40.042289,0 123.073326,40.040349,0 123.080342,40.055095,0 123.103194,40.074736,0 123.11792,40.063485,0 123.127019,40.076287,0 123.136327,40.079196,0 123.141814,40.072699,0 123.167862,40.067607,0 123.172794,40.070469,0 123.183838,40.064746,0 123.191895,40.06494,0 123.225723,40.049663,0 123.242324,40.036759,0 123.266704,40.039233,0 123.281638,40.016961,0 123.296572,40.01701,0 123.299698,40.024483,0 123.317341,40.025114,0 123.338943,40.01963,0 123.359504,40.002158,0 123.380272,40.004779,0 123.39215,40.01371,0 123.404862,40.009245,0 123.40632,40.013564,0 123.422991,40.030548,0 123.448483,40.037147,0 123.457721,40.033023,0 123.47717,40.031276,0 123.472863,40.037438,0 123.464111,40.038263,0 123.458138,40.058102,0 123.46814,40.041125,0 123.471127,40.046898,0 123.482935,40.050972,0 123.476267,40.071875,0 123.513776,40.090493,0 123.513498,40.093789,0 123.528849,40.103338,0 123.546283,40.102514,0 123.553577,40.09946,0 123.563232,40.102514,0 123.567955,40.114581,0 123.575179,40.115745,0 123.59046,40.130281,0 123.606714,40.159392,0 123.606297,40.168545,0 123.599768,40.170336,0 123.583306,40.166123,0 123.571914,40.172854,0 123.560523,40.187136,0 123.576915,40.205383,0 123.583653,40.221642,0 123.589905,40.225948,0 123.596156,40.243024,0 123.611576,40.241332,0 123.624149,40.249506,0 123.635818,40.264787,0 123.647696,40.260387,0 123.673396,40.276826,0 123.680342,40.290312,0 123.711322,40.300172,0 123.705487,40.314137,0 123.708057,40.326215,0 123.715976,40.333075,0 123.71799,40.341721,0 123.73855,40.363548,0 123.75147,40.383292,0 123.761681,40.402886,0 123.747511,40.41765,0 123.769252,40.443504,0 123.766196,40.456957,0 123.756818,40.471035,0 123.76953,40.492386,0 123.767307,40.499952,0 123.738203,40.507805,0 123.740843,40.511129,0 123.737925,40.524955,0 123.74112,40.532083,0 123.735216,40.538632,0 123.74119,40.549226,0 123.738134,40.575703,0 123.721324,40.586627,0 123.717434,40.592498,0 123.731396,40.603035,0 123.748761,40.610732,0 123.731118,40.648964,0 123.725422,40.654205,0 123.710488,40.657041,0 123.694999,40.66603,0 123.663811,40.675738,0 123.636304,40.690875,0 123.623176,40.693613,0 123.592544,40.686118,0 123.582889,40.686454,0 123.577263,40.692316,0 123.581014,40.704615,0 123.570386,40.712156,0 123.558925,40.713021,0 123.560175,40.719937,0 123.551423,40.722962,0 123.556008,40.728485,0 123.557328,40.747642,0 123.567747,40.763482,0 123.581083,40.768761,0 123.585529,40.777543,0 123.581222,40.786899,0 123.55698,40.806088,0 123.544894,40.821242,0 123.533711,40.826996,0</coordinates></LinearRing></outerBoundaryIs>
      </Polygon>
    </MultiGeometry>
    </Placemark>
  </Document>
</kml>
