<?xml version="1.0" encoding="UTF-8"?>
<kml xmlns="http://www.opengis.net/kml/2.2">
  <Document>
    <name><![CDATA[亳州市]]></name>
    <Placemark>
      <name><![CDATA[亳州市]]></name>
      <description><![CDATA[省级目录：安徽省]]></description>
      <ExtendedData>
        <Data name="adcode"><value>341600</value></Data>
      </ExtendedData>
      <MultiGeometry>
      <Polygon>
        <outerBoundaryIs><LinearRing><coordinates>116.393713,33.783082,0 116.372502,33.780245,0 116.361063,33.776273,0 116.348718,33.778749,0 116.3307,33.773849,0 116.328746,33.76637,0 116.31683,33.77127,0 116.308155,33.757548,0 116.284657,33.750119,0 116.263589,33.730098,0 116.246048,33.728704,0 116.230176,33.734897,0 116.226649,33.722459,0 116.204914,33.726795,0 116.197288,33.72535,0 116.174027,33.708988,0 116.155391,33.709917,0 116.14214,33.734432,0 116.14276,33.738458,0 116.131654,33.752234,0 116.109299,33.758219,0 116.098908,33.774881,0 116.099099,33.783133,0 116.074457,33.781534,0 116.073313,33.794066,0 116.055438,33.804792,0 116.06235,33.814485,0 116.05806,33.821393,0 116.045429,33.822991,0 116.045953,33.829023,0 116.063494,33.826188,0 116.065067,33.847475,0 116.056725,33.850928,0 116.054914,33.860873,0 116.043475,33.874888,0 116.034752,33.873754,0 116.034561,33.880039,0 116.013446,33.885706,0 116.012493,33.897399,0 115.999147,33.901931,0 115.98704,33.901159,0 115.982703,33.917175,0 115.995524,33.947551,0 116.000338,33.963198,0 115.994952,33.975086,0 115.984037,33.987847,0 115.957583,34.007756,0 115.926697,34.007911,0 115.919738,34.010791,0 115.904342,34.009968,0 115.899338,34.014752,0 115.895334,34.028741,0 115.887278,34.032804,0 115.877555,34.029872,0 115.877078,34.003178,0 115.852722,34.003847,0 115.845477,34.012026,0 115.845238,34.03085,0 115.832226,34.038563,0 115.815543,34.052908,0 115.809109,34.06247,0 115.793427,34.063653,0 115.780272,34.073162,0 115.781463,34.062213,0 115.768832,34.062162,0 115.735849,34.076811,0 115.705963,34.059797,0 115.699814,34.066017,0 115.681845,34.065503,0 115.669166,34.056713,0 115.65358,34.060106,0 115.648003,34.046327,0 115.649576,34.035632,0 115.642236,34.032289,0 115.621359,34.03013,0 115.615067,34.033369,0 115.601054,34.022981,0 115.606583,34.013209,0 115.592665,34.009865,0 115.584085,33.988619,0 115.591044,33.986201,0 115.588375,33.97699,0 115.579033,33.973954,0 115.577555,33.950125,0 115.569166,33.945492,0 115.569976,33.932828,0 115.562588,33.927164,0 115.559776,33.914549,0 115.568308,33.906927,0 115.556821,33.903682,0 115.555296,33.888591,0 115.546573,33.888436,0 115.546192,33.875506,0 115.556678,33.876897,0 115.564209,33.871333,0 115.579509,33.877,0 115.592331,33.868241,0 115.605725,33.867417,0 115.620882,33.876124,0 115.633513,33.867314,0 115.636135,33.841187,0 115.626268,33.836187,0 115.625601,33.823662,0 115.616592,33.820001,0 115.623313,33.811959,0 115.621168,33.796799,0 115.614257,33.775654,0 115.59052,33.783701,0 115.582226,33.788703,0 115.56521,33.780193,0 115.56316,33.771683,0 115.570024,33.765286,0 115.574838,33.752234,0 115.583561,33.747229,0 115.59624,33.731233,0 115.601578,33.718537,0 115.596287,33.700315,0 115.607155,33.68906,0 115.599624,33.688286,0 115.602531,33.67264,0 115.601626,33.657662,0 115.617784,33.632608,0 115.625029,33.625633,0 115.639757,33.585115,0 115.651244,33.544629,0 115.676697,33.508729,0 115.681273,33.505831,0 115.698337,33.509557,0 115.720834,33.51085,0 115.749481,33.499881,0 115.751387,33.495896,0 115.769404,33.490515,0 115.773217,33.484718,0 115.786135,33.481044,0 115.796049,33.468569,0 115.807441,33.466861,0 115.831606,33.451227,0 115.848861,33.450864,0 115.854962,33.442321,0 115.897383,33.400525,0 115.895334,33.384724,0 115.898432,33.356999,0 115.911111,33.340567,0 115.914399,33.328902,0 115.921406,33.323303,0 115.919833,33.313606,0 115.92603,33.309769,0 115.927841,33.298722,0 115.914828,33.295506,0 115.915972,33.279478,0 115.906725,33.255975,0 115.909204,33.246634,0 115.917498,33.24269,0 115.925696,33.229195,0 115.916497,33.215491,0 115.876983,33.248295,0 115.839423,33.262824,0 115.832083,33.256753,0 115.8297,33.231635,0 115.835277,33.21383,0 115.845238,33.193528,0 115.841378,33.180234,0 115.825505,33.162678,0 115.824361,33.150938,0 115.831034,33.157172,0 115.850196,33.153535,0 115.850196,33.136078,0 115.839709,33.135454,0 115.844333,33.125321,0 115.865925,33.125581,0 115.877126,33.122151,0 115.872026,33.103128,0 115.866735,33.094343,0 115.89848,33.093667,0 115.914876,33.088,0 115.948098,33.080774,0 115.980796,33.07079,0 116.002483,33.060077,0 116.018213,33.056125,0 116.010157,33.043954,0 116.01602,33.041925,0 116.04214,33.048843,0 116.051053,33.044266,0 116.0552,33.034227,0 116.051768,33.021428,0 116.059013,33.016954,0 116.060062,33.003737,0 116.052531,32.99515,0 116.054914,32.99057,0 116.083084,32.986458,0 116.125743,32.976047,0 116.155581,32.973757,0 116.167926,32.967145,0 116.165305,32.959492,0 116.168165,32.940642,0 116.178889,32.922882,0 116.191711,32.91387,0 116.198432,32.893396,0 116.212636,32.888706,0 116.232988,32.889852,0 116.245333,32.884954,0 116.248527,32.872812,0 116.280319,32.859052,0 116.292569,32.858948,0 116.30825,32.86562,0 116.348098,32.878128,0 116.370881,32.900221,0 116.386992,32.89772,0 116.394618,32.891311,0 116.393856,32.910745,0 116.385705,32.921632,0 116.365877,32.940694,0 116.365162,32.946891,0 116.371739,32.964906,0 116.376458,32.969019,0 116.376649,32.993744,0 116.382416,33.004777,0 116.446382,32.984896,0 116.627888,32.941475,0 116.684323,32.93934,0 116.705676,32.936944,0 116.735657,32.928663,0 116.742711,32.94736,0 116.740424,32.959752,0 116.747526,32.978962,0 116.754628,32.98906,0 116.755152,33.002696,0 116.76826,33.006078,0 116.768784,33.000406,0 116.778174,33.00332,0 116.777459,32.996607,0 116.79886,32.994161,0 116.802483,33.000042,0 116.810586,32.99541,0 116.816162,33.013051,0 116.814923,33.021532,0 116.802197,33.032666,0 116.781558,33.040105,0 116.752483,33.053108,0 116.748622,33.060858,0 116.749098,33.075522,0 116.764637,33.090704,0 116.764589,33.114823,0 116.754723,33.13109,0 116.756868,33.141222,0 116.77131,33.15525,0 116.777078,33.151821,0 116.791853,33.169015,0 116.805247,33.156081,0 116.815304,33.155405,0 116.821405,33.202771,0 116.826553,33.210819,0 116.825981,33.230804,0 116.813159,33.250319,0 116.805485,33.275587,0 116.800481,33.27595,0 116.801911,33.303908,0 116.789089,33.319777,0 116.790424,33.334553,0 116.787421,33.347254,0 116.794141,33.354822,0 116.790948,33.360005,0 116.800862,33.386122,0 116.796572,33.403012,0 116.804628,33.422902,0 116.7705,33.431861,0 116.756725,33.438438,0 116.745905,33.449104,0 116.722597,33.450709,0 116.700004,33.474056,0 116.687182,33.47799,0 116.665733,33.474626,0 116.642378,33.477628,0 116.63642,33.484977,0 116.623503,33.485495,0 116.612778,33.481872,0 116.593617,33.480112,0 116.58213,33.471209,0 116.56826,33.466292,0 116.547478,33.467897,0 116.535562,33.481302,0 116.533989,33.498018,0 116.539089,33.513178,0 116.534656,33.525077,0 116.524742,33.53056,0 116.52846,33.544008,0 116.525505,33.551455,0 116.531939,33.565624,0 116.548002,33.57007,0 116.540662,33.587596,0 116.55153,33.588578,0 116.551101,33.596642,0 116.543808,33.59783,0 116.533751,33.614575,0 116.505486,33.618968,0 116.503817,33.631265,0 116.481129,33.654253,0 116.485848,33.666081,0 116.49214,33.668405,0 116.492426,33.681315,0 116.484227,33.697889,0 116.478603,33.697992,0 116.479413,33.708678,0 116.463589,33.719724,0 116.460014,33.734123,0 116.433226,33.739696,0 116.435753,33.762191,0 116.406439,33.762552,0 116.408155,33.770393,0 116.393713,33.783082,0</coordinates></LinearRing></outerBoundaryIs>
      </Polygon>
    </MultiGeometry>
    </Placemark>
  </Document>
</kml>
