<?xml version="1.0" encoding="UTF-8"?>
<kml xmlns="http://www.opengis.net/kml/2.2">
  <Document>
    <name><![CDATA[安庆市]]></name>
    <Placemark>
      <name><![CDATA[安庆市]]></name>
      <description><![CDATA[省级目录：安徽省]]></description>
      <ExtendedData>
        <Data name="adcode"><value>340800</value></Data>
      </ExtendedData>
      <MultiGeometry>
      <Polygon>
        <outerBoundaryIs><LinearRing><coordinates>116.903341,30.357289,0 116.910347,30.332869,0 116.9205,30.314283,0 116.928793,30.290978,0 116.927173,30.273455,0 116.920547,30.257966,0 116.892711,30.240492,0 116.867497,30.213576,0 116.860061,30.17732,0 116.841901,30.146739,0 116.816925,30.115075,0 116.771787,30.073681,0 116.747335,30.057248,0 116.720309,30.053918,0 116.685705,30.07062,0 116.666877,30.076742,0 116.642616,30.076366,0 116.611015,30.070728,0 116.596572,30.059718,0 116.586039,30.046291,0 116.57131,30.014433,0 116.571215,29.98923,0 116.564542,29.949343,0 116.558727,29.924338,0 116.551959,29.90987,0 116.54152,29.901641,0 116.525552,29.897498,0 116.479842,29.897875,0 116.467736,29.896154,0 116.441758,29.879852,0 116.392521,29.855745,0 116.35968,29.843635,0 116.343093,29.835669,0 116.322788,29.820004,0 116.312302,29.808967,0 116.280796,29.788882,0 116.261444,29.782042,0 116.253627,29.783119,0 116.227364,29.816881,0 116.208108,29.827487,0 116.187326,29.829048,0 116.167354,29.827379,0 116.135181,29.819412,0 116.131987,29.844281,0 116.134561,29.877431,0 116.125791,29.901372,0 116.104056,29.926866,0 116.085705,29.950795,0 116.077936,29.956117,0 116.073837,29.969987,0 116.081463,29.981759,0 116.078317,30.010242,0 116.088994,30.026952,0 116.091663,30.036192,0 116.079986,30.057248,0 116.079223,30.066217,0 116.0848,30.075937,0 116.083751,30.095642,0 116.088375,30.11019,0 116.085038,30.126185,0 116.075029,30.133538,0 116.06316,30.151622,0 116.056725,30.169917,0 116.05601,30.181022,0 116.063923,30.193573,0 116.064352,30.206873,0 116.046096,30.223925,0 116.031702,30.227035,0 116.026601,30.239741,0 116.012254,30.249497,0 115.994809,30.255018,0 115.988899,30.267078,0 115.985324,30.291031,0 115.980939,30.295746,0 115.958394,30.305336,0 115.938708,30.306944,0 115.921883,30.301265,0 115.904438,30.310051,0 115.903723,30.315783,0 115.914352,30.3243,0 115.916687,30.334422,0 115.896478,30.3567,0 115.884895,30.379561,0 115.90091,30.397867,0 115.909252,30.398831,0 115.921501,30.416384,0 115.930987,30.420505,0 115.938184,30.417776,0 115.946144,30.425213,0 115.920786,30.429868,0 115.915543,30.443993,0 115.894809,30.452712,0 115.894047,30.459559,0 115.900815,30.469722,0 115.898098,30.482236,0 115.909728,30.506725,0 115.919881,30.515011,0 115.905153,30.52458,0 115.899481,30.537889,0 115.887803,30.542485,0 115.883132,30.559425,0 115.875553,30.569363,0 115.87908,30.578285,0 115.866211,30.587901,0 115.857298,30.589503,0 115.84848,30.601895,0 115.828079,30.606168,0 115.824123,30.596127,0 115.819166,30.59789,0 115.807822,30.615568,0 115.814924,30.624806,0 115.809919,30.642586,0 115.798766,30.65006,0 115.797002,30.658601,0 115.775362,30.668849,0 115.77236,30.677869,0 115.762541,30.685607,0 115.767402,30.694358,0 115.765544,30.707537,0 115.776363,30.728875,0 115.782893,30.751702,0 115.79276,30.759275,0 115.810491,30.759434,0 115.820119,30.750689,0 115.834657,30.756395,0 115.85153,30.756715,0 115.854342,30.767433,0 115.868356,30.774257,0 115.8695,30.782467,0 115.85868,30.784813,0 115.865877,30.798246,0 115.86378,30.815781,0 115.848813,30.82857,0 115.849481,30.841251,0 115.863875,30.855262,0 115.865686,30.864264,0 115.876935,30.869005,0 115.885705,30.877846,0 115.912779,30.887592,0 115.932369,30.889402,0 115.936134,30.902874,0 115.970548,30.920017,0 115.976268,30.931461,0 115.993427,30.936731,0 116.009871,30.949717,0 116.024743,30.953602,0 116.034514,30.951154,0 116.039519,30.957859,0 116.07174,30.956688,0 116.06969,30.969139,0 116.0603,30.994941,0 116.058918,31.012759,0 116.046144,31.014514,0 116.051578,31.042217,0 116.050958,31.049554,0 116.066354,31.070072,0 116.092664,31.082668,0 116.093379,31.090108,0 116.10458,31.094465,0 116.11888,31.086866,0 116.157679,31.099301,0 116.166258,31.0976,0 116.18132,31.083359,0 116.183751,31.064917,0 116.203293,31.0579,0 116.222455,31.061781,0 116.243427,31.0756,0 116.261396,31.082403,0 116.268498,31.100098,0 116.293045,31.114761,0 116.303532,31.123155,0 116.309776,31.140418,0 116.3307,31.145622,0 116.342712,31.15242,0 116.344952,31.163624,0 116.359537,31.173978,0 116.378984,31.165377,0 116.395572,31.162084,0 116.415305,31.162191,0 116.431892,31.144135,0 116.437707,31.128414,0 116.4603,31.125917,0 116.470071,31.135637,0 116.481844,31.136965,0 116.496715,31.148756,0 116.501911,31.141427,0 116.508298,31.142489,0 116.519547,31.160173,0 116.538469,31.174456,0 116.543474,31.181941,0 116.552816,31.179712,0 116.556582,31.172173,0 116.552816,31.165908,0 116.558346,31.147587,0 116.555867,31.123314,0 116.562683,31.111096,0 116.549385,31.093243,0 116.538708,31.072145,0 116.533512,31.056624,0 116.534799,31.044185,0 116.530939,31.035306,0 116.530605,31.021002,0 116.543617,31.020311,0 116.560347,31.034614,0 116.563779,31.045567,0 116.571072,31.051787,0 116.591711,31.04764,0 116.594571,31.054126,0 116.611539,31.067309,0 116.614018,31.073899,0 116.622502,31.074112,0 116.647049,31.05891,0 116.65396,31.052212,0 116.665495,31.059123,0 116.68356,31.055774,0 116.68866,31.048703,0 116.70968,31.043228,0 116.722883,31.059601,0 116.736753,31.063907,0 116.752721,31.060877,0 116.761301,31.068372,0 116.777602,31.070019,0 116.78866,31.065289,0 116.805962,31.08219,0 116.815638,31.085378,0 116.829365,31.101213,0 116.843331,31.104455,0 116.842187,31.11338,0 116.847144,31.124642,0 116.862254,31.129901,0 116.875981,31.127458,0 116.894952,31.133407,0 116.919356,31.151305,0 116.92274,31.160067,0 116.943903,31.161766,0 116.946906,31.182738,0 116.954008,31.189161,0 116.963255,31.214532,0 116.981415,31.244564,0 116.998193,31.2565,0 117.006725,31.267693,0 117.016257,31.266844,0 117.032273,31.256607,0 117.042235,31.252469,0 117.055104,31.235386,0 117.071358,31.236871,0 117.079174,31.221643,0 117.100147,31.190488,0 117.109394,31.169571,0 117.12212,31.148543,0 117.121977,31.129264,0 117.117163,31.12443,0 117.122787,31.101798,0 117.117306,31.08506,0 117.13599,31.073155,0 117.156248,31.072411,0 117.149908,31.058272,0 117.144141,31.054179,0 117.14395,31.039293,0 117.137611,31.028925,0 117.141186,31.014514,0 117.134799,31.007281,0 117.124599,31.006749,0 117.111348,31.01345,0 117.093903,31.0101,0 117.095142,30.988558,0 117.082654,30.974885,0 117.080366,30.961743,0 117.086419,30.92864,0 117.096477,30.885728,0 117.106248,30.827558,0 117.105009,30.790677,0 117.101005,30.767379,0 117.117211,30.755968,0 117.124694,30.740343,0 117.162969,30.708604,0 117.178078,30.702148,0 117.187277,30.70663,0 117.190566,30.698467,0 117.200337,30.701881,0 117.205009,30.69201,0 117.241376,30.690356,0 117.223979,30.686514,0 117.212968,30.678616,0 117.207296,30.669543,0 117.205485,30.654384,0 117.211872,30.635111,0 117.217068,30.630626,0 117.21783,30.620641,0 117.247906,30.58929,0 117.252244,30.563967,0 117.243807,30.538156,0 117.241281,30.523083,0 117.236372,30.504747,0 117.226315,30.489027,0 117.213397,30.476941,0 117.192187,30.465871,0 117.164017,30.474802,0 117.135133,30.492075,0 117.111586,30.495337,0 117.025457,30.494267,0 117.01049,30.489294,0 116.986372,30.470791,0 116.975552,30.458062,0 116.950433,30.442816,0 116.935609,30.440301,0 116.914446,30.425481,0 116.9011,30.436503,0 116.892425,30.431099,0 116.891949,30.414725,0 116.888279,30.407019,0 116.893855,30.381595,0 116.903341,30.357289,0</coordinates></LinearRing></outerBoundaryIs>
        <innerBoundaryIs><LinearRing><coordinates>116.956963,30.658013,0 116.951434,30.656145,0 116.934465,30.661323,0 116.92212,30.654277,0 116.920643,30.646163,0 116.934656,30.632121,0 116.960728,30.628544,0 116.97703,30.643547,0 116.967354,30.657053,0 116.956963,30.658013,0</coordinates></LinearRing></innerBoundaryIs>
      </Polygon>
    </MultiGeometry>
    </Placemark>
  </Document>
</kml>
