<?xml version="1.0" encoding="UTF-8"?>
<kml xmlns="http://www.opengis.net/kml/2.2">
  <Document>
    <name><![CDATA[宣城市]]></name>
    <Placemark>
      <name><![CDATA[宣城市]]></name>
      <description><![CDATA[省级目录：安徽省]]></description>
      <ExtendedData>
        <Data name="adcode"><value>341800</value></Data>
      </ExtendedData>
      <MultiGeometry>
      <Polygon>
        <outerBoundaryIs><LinearRing><coordinates>118.868878,30.10144,0 118.871642,30.113035,0 118.887228,30.117437,0 118.888134,30.127259,0 118.895951,30.138797,0 118.896809,30.148081,0 118.881032,30.146793,0 118.865732,30.151515,0 118.856389,30.148188,0 118.845713,30.156129,0 118.852862,30.166537,0 118.864397,30.169005,0 118.910822,30.187512,0 118.920641,30.199043,0 118.929888,30.203387,0 118.924979,30.213844,0 118.903196,30.21792,0 118.893043,30.242689,0 118.882414,30.24746,0 118.889707,30.254268,0 118.878077,30.282726,0 118.881795,30.298532,0 118.879888,30.314872,0 118.899764,30.322586,0 118.908391,30.330888,0 118.917877,30.332441,0 118.936323,30.34508,0 118.936418,30.35081,0 118.955388,30.359216,0 118.959964,30.347275,0 118.96902,30.351345,0 118.975741,30.347168,0 118.988086,30.348668,0 118.988039,30.333458,0 119.004435,30.328959,0 119.028792,30.312569,0 119.048334,30.312676,0 119.05086,30.306729,0 119.063015,30.304961,0 119.073405,30.31589,0 119.090231,30.324032,0 119.111013,30.311283,0 119.128506,30.304694,0 119.151289,30.304586,0 119.156723,30.29955,0 119.188181,30.291674,0 119.201051,30.291031,0 119.205674,30.301586,0 119.222595,30.299604,0 119.229173,30.289692,0 119.236227,30.2973,0 119.245903,30.321621,0 119.239993,30.327031,0 119.247142,30.340796,0 119.265064,30.338064,0 119.278124,30.341599,0 119.289468,30.349632,0 119.300669,30.36366,0 119.329077,30.371531,0 119.342662,30.363178,0 119.34943,30.34915,0 119.375598,30.354826,0 119.386132,30.363928,0 119.399954,30.367783,0 119.403052,30.374368,0 119.393806,30.38304,0 119.371451,30.38395,0 119.366589,30.388393,0 119.368925,30.39974,0 119.363205,30.409481,0 119.349525,30.408625,0 119.352957,30.424839,0 119.349716,30.438803,0 119.336132,30.445544,0 119.334463,30.478118,0 119.330317,30.488225,0 119.336322,30.507153,0 119.328696,30.52164,0 119.326551,30.533025,0 119.313634,30.531208,0 119.287943,30.512606,0 119.272118,30.510521,0 119.261632,30.517738,0 119.261918,30.525542,0 119.242566,30.530032,0 119.236942,30.546707,0 119.245522,30.561402,0 119.264778,30.573424,0 119.264778,30.582025,0 119.254149,30.588649,0 119.253672,30.596447,0 119.239135,30.609319,0 119.25005,30.620267,0 119.258772,30.614393,0 119.275741,30.617597,0 119.291232,30.616048,0 119.311966,30.621228,0 119.323119,30.630306,0 119.333653,30.652195,0 119.343138,30.664205,0 119.35453,30.666927,0 119.372357,30.680377,0 119.379411,30.679363,0 119.391518,30.685233,0 119.395665,30.678722,0 119.400002,30.658868,0 119.412681,30.642959,0 119.433653,30.644454,0 119.448286,30.655825,0 119.452909,30.671624,0 119.466017,30.683899,0 119.482747,30.704442,0 119.479697,30.736823,0 119.484606,30.744609,0 119.478791,30.753089,0 119.480126,30.773298,0 119.491518,30.777243,0 119.507104,30.769619,0 119.524501,30.776017,0 119.55453,30.825639,0 119.561203,30.829476,0 119.575741,30.829742,0 119.573739,30.853344,0 119.558963,30.871189,0 119.559058,30.891745,0 119.556341,30.896697,0 119.563825,30.919218,0 119.580364,30.929173,0 119.582175,30.947428,0 119.580412,30.967117,0 119.588372,30.979142,0 119.607437,30.991856,0 119.616255,31.002388,0 119.624025,31.005313,0 119.634034,31.01946,0 119.631317,31.046311,0 119.634987,31.064172,0 119.629554,31.085538,0 119.634702,31.093775,0 119.649144,31.105092,0 119.624168,31.115983,0 119.623786,31.130273,0 119.613729,31.129157,0 119.599763,31.109183,0 119.581985,31.108652,0 119.57412,31.113965,0 119.571308,31.128998,0 119.56025,31.140736,0 119.545855,31.147853,0 119.534511,31.158102,0 119.5235,31.159748,0 119.51392,31.156031,0 119.494473,31.163996,0 119.48556,31.161394,0 119.482509,31.152526,0 119.475836,31.158898,0 119.460583,31.156403,0 119.454768,31.164899,0 119.438801,31.177057,0 119.423167,31.181835,0 119.415398,31.172969,0 119.400622,31.178756,0 119.39147,31.174243,0 119.389325,31.188365,0 119.405674,31.194416,0 119.394902,31.199618,0 119.379173,31.189214,0 119.371403,31.197707,0 119.365779,31.195956,0 119.360059,31.212144,0 119.365207,31.232627,0 119.379697,31.26939,0 119.371594,31.271617,0 119.367876,31.289224,0 119.356627,31.303275,0 119.350145,31.301049,0 119.350288,31.281641,0 119.345951,31.268965,0 119.337562,31.258888,0 119.333224,31.264139,0 119.314873,31.26573,0 119.294473,31.263131,0 119.266971,31.250453,0 119.261394,31.261328,0 119.249764,31.262017,0 119.250193,31.257243,0 119.238563,31.254644,0 119.236275,31.259312,0 119.218544,31.264563,0 119.215255,31.27411,0 119.204244,31.26573,0 119.197142,31.273527,0 119.199478,31.293625,0 119.181127,31.300465,0 119.176218,31.293944,0 119.158153,31.294792,0 119.150098,31.277133,0 119.14066,31.276019,0 119.131747,31.262548,0 119.120021,31.261699,0 119.107009,31.250612,0 119.105293,31.23528,0 119.085465,31.240267,0 119.073787,31.232892,0 119.062347,31.238463,0 119.048858,31.233529,0 119.039516,31.23841,0 119.022881,31.238145,0 119.015017,31.241646,0 119.003291,31.233741,0 118.986466,31.231141,0 118.983939,31.237773,0 118.953053,31.237773,0 118.924979,31.239683,0 118.915207,31.244193,0 118.891232,31.237986,0 118.869688,31.24223,0 118.851051,31.23963,0 118.824073,31.230451,0 118.819116,31.236022,0 118.802672,31.228223,0 118.795331,31.229443,0 118.781413,31.239843,0 118.779983,31.259524,0 118.761394,31.277663,0 118.726599,31.282224,0 118.707915,31.296807,0 118.704435,31.302798,0 118.719593,31.294792,0 118.72107,31.322679,0 118.714731,31.321671,0 118.704102,31.307782,0 118.692186,31.309001,0 118.681747,31.304336,0 118.656866,31.304654,0 118.661442,31.290762,0 118.66006,31.269761,0 118.651861,31.261009,0 118.647286,31.245519,0 118.663587,31.236871,0 118.66821,31.22488,0 118.682986,31.214054,0 118.695045,31.189108,0 118.708963,31.177004,0 118.718401,31.173978,0 118.733558,31.149446,0 118.717305,31.144188,0 118.702004,31.135797,0 118.690327,31.124961,0 118.683082,31.111893,0 118.685513,31.096272,0 118.676838,31.08963,0 118.676123,31.081393,0 118.682653,31.074909,0 118.663396,31.054445,0 118.650003,31.036848,0 118.627314,31.020576,0 118.606819,31.020204,0 118.600956,31.028021,0 118.603768,31.044238,0 118.596142,31.047853,0 118.584273,31.026107,0 118.572262,31.016269,0 118.581223,30.994728,0 118.582462,30.981855,0 118.570975,30.972278,0 118.550956,30.970682,0 118.510251,30.9511,0 118.515255,30.937582,0 118.495713,30.941042,0 118.509154,30.928694,0 118.511537,30.914054,0 118.489707,30.900052,0 118.492948,30.883491,0 118.485846,30.87726,0 118.475742,30.88184,0 118.472119,30.875077,0 118.483987,30.870762,0 118.47741,30.857553,0 118.485513,30.864051,0 118.498239,30.859843,0 118.490041,30.848656,0 118.490899,30.842849,0 118.477982,30.833579,0 118.482224,30.822549,0 118.495522,30.819884,0 118.503101,30.810451,0 118.502863,30.801497,0 118.48475,30.79025,0 118.480699,30.780602,0 118.48027,30.76642,0 118.451671,30.779162,0 118.455198,30.790144,0 118.446476,30.800911,0 118.4317,30.796434,0 118.419498,30.813649,0 118.429841,30.813916,0 118.4368,30.824733,0 118.424502,30.841091,0 118.409536,30.84871,0 118.376409,30.845513,0 118.358916,30.84578,0 118.34762,30.824414,0 118.33823,30.826812,0 118.318687,30.821749,0 118.306724,30.806934,0 118.312872,30.795101,0 118.305008,30.800964,0 118.302577,30.793822,0 118.307582,30.77639,0 118.297906,30.772391,0 118.294569,30.757088,0 118.276647,30.743169,0 118.275694,30.736449,0 118.294712,30.722421,0 118.297191,30.715966,0 118.314445,30.705083,0 118.30496,30.698146,0 118.293282,30.699961,0 118.278745,30.712659,0 118.267591,30.714206,0 118.242901,30.703482,0 118.229221,30.709244,0 118.218354,30.709458,0 118.205437,30.702148,0 118.171214,30.691637,0 118.153578,30.666554,0 118.1368,30.652195,0 118.100956,30.641251,0 118.077934,30.623684,0 118.073073,30.609533,0 118.065923,30.600026,0 118.046142,30.597142,0 118.022977,30.575454,0 117.997048,30.570806,0 117.985132,30.561348,0 117.987229,30.537675,0 117.98108,30.525382,0 117.970118,30.512231,0 117.985751,30.498705,0 118.016924,30.500576,0 118.034941,30.498438,0 118.053721,30.503677,0 118.075218,30.515011,0 118.089612,30.51731,0 118.117591,30.509238,0 118.130747,30.49817,0 118.121118,30.493091,0 118.118211,30.483252,0 118.103435,30.465229,0 118.109774,30.452712,0 118.107582,30.42928,0 118.125027,30.423662,0 118.130175,30.429601,0 118.142901,30.433828,0 118.15782,30.434309,0 118.163254,30.446775,0 118.181128,30.447844,0 118.16864,30.453033,0 118.188039,30.474481,0 118.185847,30.46448,0 118.196571,30.468652,0 118.21373,30.466833,0 118.213873,30.461271,0 118.225217,30.455013,0 118.231604,30.445651,0 118.228077,30.439713,0 118.215399,30.438322,0 118.222977,30.423929,0 118.221452,30.414351,0 118.237801,30.40049,0 118.250337,30.394816,0 118.255913,30.378437,0 118.265684,30.376402,0 118.278173,30.38031,0 118.280365,30.372387,0 118.300289,30.370139,0 118.295141,30.358306,0 118.305532,30.351399,0 118.299765,30.340796,0 118.302052,30.329709,0 118.310203,30.32055,0 118.307629,30.309301,0 118.294903,30.302122,0 118.31211,30.292907,0 118.320546,30.293764,0 118.304912,30.284387,0 118.292472,30.283691,0 118.271404,30.269865,0 118.266638,30.259842,0 118.267782,30.243333,0 118.271881,30.238186,0 118.286562,30.232879,0 118.289946,30.219046,0 118.290708,30.199526,0 118.31149,30.193197,0 118.326647,30.175282,0 118.339326,30.16584,0 118.347477,30.134289,0 118.356962,30.121945,0 118.355103,30.111908,0 118.370642,30.099722,0 118.384607,30.097145,0 118.394807,30.106271,0 118.404483,30.099615,0 118.417734,30.097306,0 118.449955,30.102621,0 118.468926,30.082434,0 118.477696,30.076527,0 118.494474,30.072124,0 118.514016,30.038932,0 118.513492,30.030659,0 118.498096,30.018141,0 118.498716,30.005997,0 118.50577,29.99138,0 118.509297,29.998312,0 118.520403,29.99885,0 118.524502,29.992508,0 118.520784,29.975201,0 118.524741,29.967407,0 118.548668,29.945203,0 118.564588,29.947569,0 118.574931,29.963751,0 118.583463,29.968321,0 118.605818,29.971654,0 118.614016,29.980469,0 118.618592,29.997399,0 118.614493,30.001805,0 118.628029,30.016529,0 118.651004,30.024534,0 118.669021,30.023675,0 118.688754,30.028993,0 118.694807,30.036675,0 118.69781,30.056818,0 118.730365,30.070298,0 118.743139,30.092743,0 118.754626,30.080608,0 118.767972,30.076796,0 118.789945,30.078299,0 118.82107,30.102728,0 118.85005,30.110458,0 118.868878,30.10144,0</coordinates></LinearRing></outerBoundaryIs>
      </Polygon>
    </MultiGeometry>
    </Placemark>
  </Document>
</kml>
