<?xml version="1.0" encoding="UTF-8"?>
<kml xmlns="http://www.opengis.net/kml/2.2">
  <Document>
    <name><![CDATA[池州市]]></name>
    <Placemark>
      <name><![CDATA[池州市]]></name>
      <description><![CDATA[省级目录：安徽省]]></description>
      <ExtendedData>
        <Data name="adcode"><value>341700</value></Data>
      </ExtendedData>
      <MultiGeometry>
      <Polygon>
        <outerBoundaryIs><LinearRing><coordinates>116.673836,29.709848,0 116.687087,29.734798,0 116.703055,29.741264,0 116.720548,29.763352,0 116.739327,29.774179,0 116.745857,29.790336,0 116.762492,29.802506,0 116.780891,29.79249,0 116.789804,29.795128,0 116.812349,29.811713,0 116.830748,29.841482,0 116.861301,29.867369,0 116.882702,29.893518,0 116.891996,29.919337,0 116.891853,29.92735,0 116.900147,29.949504,0 116.887897,29.968805,0 116.868688,29.980469,0 116.845381,29.969611,0 116.835943,29.970686,0 116.835276,29.95773,0 116.828746,29.963106,0 116.829556,30.006534,0 116.802816,29.996539,0 116.787325,30.020343,0 116.783512,30.030712,0 116.770309,30.035655,0 116.764542,30.048923,0 116.753627,30.048976,0 116.747335,30.057248,0 116.771787,30.073681,0 116.816925,30.115075,0 116.841901,30.146739,0 116.860061,30.17732,0 116.867497,30.213576,0 116.892711,30.240492,0 116.920547,30.257966,0 116.927173,30.273455,0 116.928793,30.290978,0 116.9205,30.314283,0 116.910347,30.332869,0 116.903341,30.357289,0 116.893855,30.381595,0 116.888279,30.407019,0 116.891949,30.414725,0 116.892425,30.431099,0 116.9011,30.436503,0 116.914446,30.425481,0 116.935609,30.440301,0 116.950433,30.442816,0 116.975552,30.458062,0 116.986372,30.470791,0 117.01049,30.489294,0 117.025457,30.494267,0 117.111586,30.495337,0 117.135133,30.492075,0 117.164017,30.474802,0 117.192187,30.465871,0 117.213397,30.476941,0 117.226315,30.489027,0 117.236372,30.504747,0 117.241281,30.523083,0 117.243807,30.538156,0 117.252244,30.563967,0 117.247906,30.58929,0 117.21783,30.620641,0 117.217068,30.630626,0 117.272644,30.656626,0 117.309489,30.676801,0 117.343426,30.688969,0 117.366829,30.694251,0 117.394379,30.694998,0 117.399384,30.690676,0 117.422358,30.682885,0 117.4511,30.679043,0 117.470404,30.678989,0 117.485418,30.686514,0 117.493616,30.696706,0 117.507249,30.726688,0 117.576934,30.756662,0 117.645523,30.776603,0 117.670594,30.781508,0 117.701815,30.806614,0 117.698526,30.789931,0 117.72088,30.791103,0 117.742568,30.8072,0 117.751529,30.802936,0 117.755961,30.792223,0 117.748478,30.778522,0 117.759918,30.769832,0 117.758202,30.761674,0 117.781938,30.764127,0 117.78375,30.749729,0 117.796238,30.748449,0 117.803101,30.757462,0 117.815733,30.759914,0 117.842282,30.773617,0 117.846333,30.788438,0 117.872787,30.807893,0 117.884036,30.812317,0 117.903197,30.814022,0 117.915828,30.819564,0 117.934608,30.835763,0 117.94333,30.833099,0 117.953626,30.817593,0 117.980413,30.843808,0 117.989612,30.828836,0 117.966781,30.799099,0 117.968783,30.794941,0 117.983702,30.794035,0 117.997477,30.778949,0 118.030461,30.774097,0 118.051671,30.758635,0 118.071357,30.746849,0 118.095952,30.738849,0 118.115732,30.71938,0 118.124979,30.717833,0 118.128506,30.701295,0 118.134941,30.700281,0 118.126075,30.690783,0 118.105723,30.662978,0 118.099574,30.651341,0 118.100956,30.641251,0 118.077934,30.623684,0 118.073073,30.609533,0 118.065923,30.600026,0 118.046142,30.597142,0 118.022977,30.575454,0 117.997048,30.570806,0 117.985132,30.561348,0 117.987229,30.537675,0 117.98108,30.525382,0 117.970118,30.512231,0 117.963635,30.508436,0 117.951481,30.489134,0 117.945904,30.466726,0 117.945904,30.455066,0 117.938564,30.425106,0 117.941233,30.413602,0 117.952911,30.403594,0 117.953197,30.392568,0 117.938278,30.378115,0 117.91659,30.366552,0 117.928125,30.357289,0 117.940137,30.33469,0 117.925361,30.33078,0 117.932034,30.326335,0 117.928507,30.319747,0 117.920356,30.320014,0 117.907677,30.309783,0 117.91292,30.299283,0 117.902196,30.294246,0 117.886419,30.293228,0 117.888516,30.269597,0 117.863206,30.266435,0 117.842997,30.260378,0 117.824932,30.241617,0 117.829317,30.225212,0 117.858345,30.21733,0 117.8613,30.209072,0 117.852863,30.191749,0 117.846953,30.192286,0 117.831366,30.182202,0 117.820404,30.182577,0 117.797811,30.163694,0 117.778125,30.156719,0 117.743187,30.154037,0 117.698955,30.143466,0 117.682606,30.132733,0 117.68661,30.126132,0 117.673264,30.122106,0 117.676219,30.107936,0 117.662491,30.108902,0 117.655866,30.115451,0 117.646143,30.114484,0 117.642901,30.105627,0 117.631176,30.099293,0 117.615351,30.111693,0 117.61049,30.131499,0 117.599765,30.129781,0 117.584846,30.118027,0 117.572739,30.115719,0 117.568736,30.107399,0 117.560299,30.103748,0 117.571071,30.101762,0 117.56845,30.088233,0 117.559965,30.0834,0 117.554293,30.101601,0 117.545618,30.101601,0 117.541043,30.11062,0 117.528983,30.099561,0 117.535371,30.083776,0 117.544093,30.086783,0 117.53599,30.076581,0 117.542091,30.052844,0 117.511491,30.037105,0 117.492806,30.034903,0 117.461777,30.037965,0 117.446476,30.02303,0 117.433273,30.02072,0 117.411538,30.030444,0 117.394093,30.029745,0 117.386372,30.011048,0 117.349813,30.008254,0 117.324217,29.99799,0 117.309155,29.999065,0 117.297668,29.992777,0 117.267401,29.98321,0 117.260156,29.985253,0 117.206152,29.974288,0 117.203102,29.965149,0 117.206248,29.927511,0 117.188946,29.921864,0 117.177601,29.921972,0 117.148812,29.911323,0 117.134704,29.903846,0 117.127983,29.895508,0 117.133035,29.874256,0 117.127697,29.861611,0 117.110395,29.855422,0 117.092807,29.836853,0 117.073312,29.832224,0 117.0756,29.822642,0 117.092711,29.809559,0 117.127983,29.795775,0 117.135609,29.780965,0 117.135466,29.772024,0 117.108679,29.751985,0 117.10825,29.745089,0 117.122454,29.728548,0 117.113016,29.712165,0 117.085848,29.696912,0 117.070881,29.693732,0 117.051243,29.682896,0 117.042044,29.680902,0 117.015304,29.685753,0 116.996048,29.683381,0 116.984561,29.674702,0 116.971167,29.655668,0 116.939613,29.64828,0 116.918545,29.634473,0 116.873455,29.609282,0 116.848955,29.576421,0 116.838088,29.569837,0 116.818403,29.564764,0 116.795762,29.566545,0 116.780652,29.570539,0 116.779651,29.57804,0 116.786944,29.591315,0 116.774933,29.595254,0 116.770166,29.592232,0 116.760443,29.599085,0 116.740185,29.585919,0 116.729985,29.568542,0 116.721596,29.56498,0 116.716544,29.590775,0 116.688946,29.604103,0 116.685657,29.611602,0 116.670595,29.625088,0 116.651911,29.63717,0 116.652244,29.645422,0 116.663589,29.659173,0 116.677078,29.66904,0 116.680509,29.681495,0 116.673026,29.687532,0 116.656677,29.686346,0 116.654151,29.694756,0 116.668021,29.700308,0 116.673836,29.709848,0</coordinates></LinearRing></outerBoundaryIs>
        <innerBoundaryIs><LinearRing><coordinates>116.698956,29.7078,0 116.705819,29.697128,0 116.703388,29.710063,0 116.698956,29.7078,0</coordinates></LinearRing></innerBoundaryIs>
        <innerBoundaryIs><LinearRing><coordinates>116.706534,29.696588,0 116.705057,29.688664,0 116.717163,29.690767,0 116.715876,29.697289,0 116.706534,29.696588,0</coordinates></LinearRing></innerBoundaryIs>
        <innerBoundaryIs><LinearRing><coordinates>117.297144,30.487209,0 117.290137,30.4763,0 117.274456,30.465229,0 117.256724,30.458543,0 117.25558,30.45405,0 117.267211,30.441746,0 117.259203,30.430511,0 117.25253,30.428798,0 117.251958,30.420558,0 117.268545,30.420184,0 117.281129,30.414458,0 117.299289,30.425374,0 117.293378,30.440997,0 117.305437,30.445812,0 117.31478,30.461859,0 117.321882,30.462234,0 117.326648,30.470631,0 117.324551,30.487637,0 117.319784,30.49277,0 117.307535,30.494267,0 117.297144,30.487209,0</coordinates></LinearRing></innerBoundaryIs>
      </Polygon>
    </MultiGeometry>
    </Placemark>
  </Document>
</kml>
