<?xml version="1.0" encoding="UTF-8"?>
<kml xmlns="http://www.opengis.net/kml/2.2">
  <Document>
    <name><![CDATA[滁州市]]></name>
    <Placemark>
      <name><![CDATA[滁州市]]></name>
      <description><![CDATA[省级目录：安徽省]]></description>
      <ExtendedData>
        <Data name="adcode"><value>341100</value></Data>
      </ExtendedData>
      <MultiGeometry>
      <Polygon>
        <outerBoundaryIs><LinearRing><coordinates>117.951862,31.906229,0 117.96435,31.90154,0 117.988373,31.881836,0 118.044808,31.859545,0 118.061776,31.858543,0 118.072834,31.850901,0 118.083988,31.8538,0 118.085942,31.877462,0 118.109107,31.891425,0 118.120832,31.906123,0 118.132034,31.903331,0 118.147763,31.907967,0 118.171118,31.900118,0 118.181843,31.907651,0 118.187277,31.919186,0 118.203959,31.927719,0 118.219736,31.925296,0 118.239421,31.944096,0 118.256724,31.954469,0 118.290136,31.979895,0 118.304865,31.985527,0 118.305341,31.998,0 118.31721,32.019836,0 118.334464,32.031253,0 118.348716,32.035461,0 118.358344,32.045297,0 118.385084,32.05813,0 118.393282,32.062705,0 118.39476,32.075589,0 118.405198,32.075799,0 118.415112,32.087418,0 118.433511,32.086682,0 118.44109,32.092045,0 118.463349,32.100666,0 118.472977,32.114858,0 118.489469,32.120744,0 118.499097,32.120376,0 118.495046,32.132883,0 118.500622,32.141711,0 118.507438,32.137875,0 118.495618,32.165194,0 118.496809,32.178588,0 118.506485,32.182107,0 118.509822,32.19429,0 118.524645,32.189039,0 118.532367,32.195813,0 118.539612,32.192452,0 118.551719,32.199646,0 118.561728,32.196863,0 118.574931,32.202587,0 118.580889,32.198649,0 118.598334,32.199489,0 118.61964,32.205475,0 118.626599,32.202534,0 118.64414,32.20999,0 118.667495,32.235923,0 118.675741,32.255131,0 118.667448,32.257545,0 118.659249,32.266098,0 118.670784,32.285615,0 118.667305,32.296369,0 118.659964,32.296369,0 118.66025,32.305443,0 118.678458,32.316561,0 118.694855,32.317243,0 118.683463,32.325003,0 118.687657,32.329985,0 118.703244,32.328988,0 118.707915,32.338426,0 118.697524,32.34262,0 118.69986,32.34975,0 118.692901,32.35169,0 118.702052,32.357927,0 118.696094,32.367991,0 118.698763,32.383189,0 118.690184,32.378263,0 118.678697,32.393931,0 118.685751,32.404986,0 118.68904,32.420649,0 118.686895,32.429815,0 118.692615,32.46511,0 118.689278,32.473486,0 118.675217,32.470136,0 118.647715,32.476522,0 118.643425,32.470502,0 118.628077,32.467675,0 118.608582,32.470554,0 118.608058,32.475842,0 118.59333,32.478826,0 118.592376,32.499867,0 118.60801,32.501751,0 118.617448,32.512426,0 118.614445,32.520432,0 118.604864,32.522839,0 118.608821,32.537069,0 118.599002,32.544654,0 118.584655,32.548996,0 118.56373,32.564372,0 118.569497,32.586439,0 118.581271,32.594543,0 118.598096,32.601339,0 118.601814,32.597366,0 118.623406,32.592609,0 118.633034,32.578962,0 118.65229,32.593079,0 118.668782,32.594909,0 118.689564,32.588531,0 118.68904,32.604737,0 118.696666,32.588269,0 118.700861,32.588531,0 118.698001,32.60641,0 118.725312,32.608239,0 118.726027,32.59632,0 118.740708,32.589367,0 118.74433,32.598882,0 118.757533,32.603953,0 118.775789,32.597732,0 118.774693,32.588112,0 118.784369,32.58257,0 118.801766,32.584348,0 118.81373,32.600816,0 118.824931,32.601914,0 118.824645,32.589628,0 118.819259,32.58623,0 118.827791,32.579694,0 118.827028,32.572687,0 118.848525,32.56819,0 118.85596,32.574361,0 118.872405,32.576034,0 118.887896,32.587119,0 118.907867,32.592295,0 118.909345,32.586857,0 118.89638,32.577289,0 118.898668,32.56045,0 118.888325,32.557207,0 118.91597,32.549519,0 118.916351,32.556057,0 118.936561,32.557521,0 118.940565,32.547793,0 118.964778,32.52671,0 118.967924,32.514572,0 118.97984,32.503844,0 118.997428,32.503896,0 119.007533,32.514048,0 119.021737,32.517868,0 119.041375,32.514781,0 119.045522,32.498454,0 119.064445,32.482385,0 119.067447,32.462439,0 119.073691,32.455371,0 119.085131,32.452701,0 119.095998,32.466052,0 119.12045,32.480082,0 119.134511,32.491545,0 119.147762,32.492644,0 119.142281,32.499396,0 119.150098,32.50981,0 119.155579,32.528071,0 119.167781,32.536337,0 119.166685,32.546014,0 119.154483,32.554958,0 119.153863,32.561862,0 119.175169,32.571066,0 119.176933,32.593811,0 119.187133,32.59998,0 119.19433,32.578596,0 119.209297,32.573576,0 119.220212,32.576609,0 119.220069,32.592452,0 119.230984,32.607141,0 119.220498,32.60986,0 119.216923,32.617282,0 119.220212,32.629616,0 119.208677,32.642784,0 119.211632,32.708179,0 119.208963,32.71528,0 119.2082,32.740493,0 119.200908,32.750984,0 119.19128,32.788812,0 119.188896,32.810876,0 119.18494,32.825634,0 119.113062,32.822922,0 119.104292,32.826729,0 119.071308,32.864733,0 119.054912,32.875053,0 119.045712,32.892458,0 119.044997,32.911422,0 119.019497,32.905118,0 119.015064,32.911683,0 119.019831,32.925695,0 119.029602,32.92632,0 119.023549,32.935382,0 119.026313,32.947255,0 119.020832,32.955795,0 119.008916,32.959388,0 118.993663,32.958242,0 118.961203,32.945797,0 118.941613,32.94611,0 118.933796,32.938663,0 118.921451,32.939548,0 118.90577,32.945068,0 118.893568,32.940798,0 118.891232,32.951734,0 118.896237,32.957774,0 118.884654,32.960585,0 118.865255,32.955014,0 118.849335,32.956628,0 118.849383,32.945902,0 118.842519,32.943662,0 118.848954,32.927205,0 118.839516,32.922517,0 118.836942,32.911422,0 118.819021,32.920642,0 118.812205,32.916892,0 118.809345,32.90788,0 118.814588,32.902722,0 118.811251,32.87547,0 118.806199,32.870258,0 118.812538,32.865203,0 118.811728,32.854986,0 118.791042,32.848418,0 118.768163,32.851494,0 118.747858,32.858687,0 118.741804,32.85337,0 118.746809,32.800392,0 118.736847,32.79335,0 118.737943,32.773265,0 118.746332,32.759281,0 118.751528,32.757142,0 118.757438,32.743834,0 118.756294,32.737048,0 118.736704,32.732351,0 118.724454,32.72191,0 118.707248,32.720292,0 118.69414,32.726608,0 118.657581,32.736109,0 118.654054,32.740702,0 118.639421,32.744825,0 118.632319,32.739971,0 118.617019,32.73898,0 118.607534,32.726661,0 118.590803,32.724834,0 118.576599,32.719091,0 118.559726,32.729897,0 118.545284,32.72948,0 118.520451,32.723215,0 118.489755,32.72452,0 118.483511,32.721388,0 118.45925,32.726086,0 118.450479,32.743364,0 118.422882,32.718099,0 118.410966,32.716063,0 118.398668,32.721388,0 118.375313,32.718987,0 118.368163,32.724781,0 118.366256,32.73496,0 118.37231,32.741746,0 118.371166,32.757716,0 118.366209,32.768309,0 118.348811,32.773004,0 118.334035,32.761577,0 118.326409,32.763456,0 118.320785,32.778274,0 118.307153,32.778691,0 118.298764,32.785578,0 118.294426,32.800131,0 118.306628,32.810563,0 118.297858,32.832047,0 118.301719,32.846228,0 118.289517,32.845499,0 118.284607,32.85728,0 118.263206,32.856185,0 118.250575,32.848366,0 118.244426,32.87448,0 118.240041,32.882349,0 118.233034,32.916267,0 118.235418,32.926528,0 118.247906,32.934757,0 118.293378,32.947151,0 118.309631,32.958971,0 118.303816,32.968655,0 118.269355,32.969175,0 118.252434,32.982137,0 118.244807,32.998324,0 118.243473,33.027776,0 118.239612,33.046451,0 118.233368,33.060025,0 118.212396,33.06195,0 118.21516,33.070946,0 118.227648,33.06949,0 118.223692,33.083477,0 118.202863,33.088104,0 118.206485,33.091276,0 118.221309,33.087637,0 118.22088,33.105883,0 118.209679,33.104324,0 118.210441,33.111861,0 118.219593,33.114096,0 118.22374,33.155457,0 118.221261,33.182208,0 118.211633,33.199085,0 118.194379,33.211701,0 118.178173,33.217983,0 118.168354,33.213466,0 118.156342,33.19545,0 118.159965,33.181065,0 118.14905,33.169483,0 118.118878,33.160548,0 118.088278,33.149691,0 118.070451,33.140391,0 118.067925,33.135143,0 118.050337,33.133792,0 118.044617,33.127192,0 118.05129,33.124854,0 118.073835,33.135143,0 118.07455,33.117318,0 118.065017,33.09741,0 118.072691,33.081034,0 118.061681,33.07469,0 118.032749,33.073962,0 118.018116,33.06143,0 118.004341,33.055293,0 117.99843,33.040625,0 118.005151,33.031417,0 118.018306,33.034539,0 118.0368,33.027099,0 118.031462,33.014716,0 118.011347,33.001759,0 118.003721,33.002227,0 117.982796,33.01175,0 117.970642,33.001967,0 117.947858,33.014508,0 117.937706,33.008576,0 117.913492,32.987655,0 117.899384,32.990257,0 117.879698,33.002748,0 117.895237,33.013884,0 117.89762,33.019607,0 117.890613,33.031781,0 117.893711,33.035059,0 117.886752,33.046607,0 117.880222,33.041977,0 117.860346,33.035995,0 117.822406,33.02814,0 117.800146,33.031209,0 117.787515,33.045202,0 117.773359,33.047335,0 117.762587,33.040833,0 117.746333,33.009825,0 117.737039,33.001083,0 117.718545,33.006391,0 117.707963,33.00254,0 117.698287,32.985,0 117.694665,32.96928,0 117.679174,32.943871,0 117.671834,32.918819,0 117.657534,32.910745,0 117.64619,32.912308,0 117.626886,32.924809,0 117.603483,32.922257,0 117.589994,32.933924,0 117.576839,32.941059,0 117.56864,32.951369,0 117.548526,32.969592,0 117.531224,32.980576,0 117.528173,32.967041,0 117.528602,32.938976,0 117.512396,32.93283,0 117.505151,32.908557,0 117.49967,32.897408,0 117.512253,32.886153,0 117.513588,32.875261,0 117.508249,32.868747,0 117.491281,32.864681,0 117.479222,32.842944,0 117.471167,32.837157,0 117.457773,32.841484,0 117.432272,32.842266,0 117.422168,32.846593,0 117.415113,32.831995,0 117.395857,32.836427,0 117.368354,32.837783,0 117.361729,32.840129,0 117.350814,32.829232,0 117.325218,32.825894,0 117.314017,32.828241,0 117.307678,32.818959,0 117.284942,32.817447,0 117.280366,32.808842,0 117.265542,32.800862,0 117.255819,32.80566,0 117.244665,32.794602,0 117.231796,32.77217,0 117.214112,32.752027,0 117.202673,32.745399,0 117.195905,32.734699,0 117.205152,32.728279,0 117.189804,32.716846,0 117.184322,32.696691,0 117.162349,32.686874,0 117.1613,32.679562,0 117.172406,32.664675,0 117.17498,32.653495,0 117.195952,32.60871,0 117.199146,32.579851,0 117.214637,32.560345,0 117.211396,32.54659,0 117.203245,32.542457,0 117.2011,32.534035,0 117.211205,32.516194,0 117.209632,32.493953,0 117.211586,32.476261,0 117.209012,32.472544,0 117.219546,32.463015,0 117.244951,32.460136,0 117.266877,32.451444,0 117.28294,32.442751,0 117.293045,32.443799,0 117.30844,32.451234,0 117.32722,32.441704,0 117.365113,32.455895,0 117.380938,32.464377,0 117.394046,32.478302,0 117.408297,32.468565,0 117.39376,32.452805,0 117.38232,32.43102,0 117.382415,32.409177,0 117.377315,32.398385,0 117.359251,32.384971,0 117.369546,32.382508,0 117.392568,32.388115,0 117.405342,32.375119,0 117.44171,32.366524,0 117.444903,32.343512,0 117.423359,32.334546,0 117.412587,32.319602,0 117.395761,32.283727,0 117.40825,32.26762,0 117.425218,32.259539,0 117.427268,32.242536,0 117.435371,32.236762,0 117.449098,32.233928,0 117.46864,32.223482,0 117.48232,32.212405,0 117.498145,32.203532,0 117.553864,32.215975,0 117.576076,32.230726,0 117.59395,32.239124,0 117.605437,32.238914,0 117.613921,32.250198,0 117.622549,32.249988,0 117.631986,32.256915,0 117.631748,32.248886,0 117.652434,32.260799,0 117.672215,32.261061,0 117.673216,32.250985,0 117.697239,32.248781,0 117.707487,32.243901,0 117.712015,32.236553,0 117.729126,32.245632,0 117.741281,32.247154,0 117.757439,32.240646,0 117.770928,32.239177,0 117.781605,32.231986,0 117.791471,32.219755,0 117.807391,32.221225,0 117.819879,32.230516,0 117.833225,32.221697,0 117.847191,32.217445,0 117.863921,32.195498,0 117.872739,32.141028,0 117.855342,32.123319,0 117.851624,32.105975,0 117.867019,32.106553,0 117.868163,32.097354,0 117.858059,32.093832,0 117.866495,32.085841,0 117.868259,32.075957,0 117.885084,32.064125,0 117.864207,32.047086,0 117.842377,32.041773,0 117.833416,32.03383,0 117.832987,32.015259,0 117.810918,32.002262,0 117.82946,31.994789,0 117.836085,31.979053,0 117.844665,31.974526,0 117.846428,31.962576,0 117.865637,31.954311,0 117.868592,31.945307,0 117.868116,31.928982,0 117.886562,31.926771,0 117.900051,31.92914,0 117.91516,31.922189,0 117.929698,31.920819,0 117.951862,31.906229,0</coordinates></LinearRing></outerBoundaryIs>
      </Polygon>
    </MultiGeometry>
    </Placemark>
  </Document>
</kml>
