<?xml version="1.0" encoding="UTF-8"?>
<kml xmlns="http://www.opengis.net/kml/2.2">
  <Document>
    <name><![CDATA[芜湖市]]></name>
    <Placemark>
      <name><![CDATA[芜湖市]]></name>
      <description><![CDATA[省级目录：安徽省]]></description>
      <ExtendedData>
        <Data name="adcode"><value>340200</value></Data>
      </ExtendedData>
      <MultiGeometry>
      <Polygon>
        <outerBoundaryIs><LinearRing><coordinates>118.656866,31.304654,0 118.617543,31.294103,0 118.598001,31.295004,0 118.575122,31.291345,0 118.572548,31.300306,0 118.55515,31.318862,0 118.55129,31.331955,0 118.557724,31.346371,0 118.543663,31.365606,0 118.522929,31.381924,0 118.524979,31.401788,0 118.510775,31.406289,0 118.490946,31.403588,0 118.484512,31.392465,0 118.470403,31.393737,0 118.461347,31.399722,0 118.444998,31.393472,0 118.44352,31.405389,0 118.436371,31.425777,0 118.430031,31.436155,0 118.424598,31.456166,0 118.431795,31.461512,0 118.431747,31.472997,0 118.420355,31.481465,0 118.415255,31.49771,0 118.392853,31.507868,0 118.376552,31.532518,0 118.347953,31.465058,0 118.340089,31.453519,0 118.326171,31.444149,0 118.317305,31.44399,0 118.314636,31.45336,0 118.316781,31.474267,0 118.321976,31.485487,0 118.311204,31.496757,0 118.309965,31.506598,0 118.304054,31.507815,0 118.303149,31.497233,0 118.291948,31.499403,0 118.267686,31.510195,0 118.269831,31.515327,0 118.249955,31.529291,0 118.248239,31.533576,0 118.219593,31.525483,0 118.202434,31.526541,0 118.198144,31.535004,0 118.18537,31.538071,0 118.167877,31.531724,0 118.157153,31.522098,0 118.135084,31.51702,0 118.136657,31.499244,0 118.144903,31.477337,0 118.15067,31.468287,0 118.14109,31.471568,0 118.127696,31.461353,0 118.131652,31.437267,0 118.148096,31.437002,0 118.171214,31.429484,0 118.162682,31.413757,0 118.168592,31.403376,0 118.16516,31.399139,0 117.991233,31.438537,0 117.97965,31.432872,0 117.974646,31.437584,0 117.976076,31.448226,0 117.969355,31.45569,0 117.968354,31.465641,0 117.98027,31.466805,0 117.986895,31.474479,0 117.963016,31.486545,0 117.965399,31.498239,0 117.945523,31.487815,0 117.934226,31.488556,0 117.917782,31.502366,0 117.900146,31.504059,0 117.890137,31.501254,0 117.850146,31.483634,0 117.830985,31.486016,0 117.81559,31.479665,0 117.795904,31.483423,0 117.778459,31.4812,0 117.768497,31.466011,0 117.757105,31.471727,0 117.740613,31.46437,0 117.720642,31.467916,0 117.705628,31.458707,0 117.697,31.431549,0 117.692901,31.407349,0 117.677124,31.391459,0 117.656104,31.34955,0 117.647763,31.32077,0 117.633845,31.297125,0 117.6164,31.294156,0 117.602673,31.275754,0 117.57212,31.271034,0 117.575409,31.255758,0 117.573121,31.248066,0 117.561395,31.233263,0 117.555723,31.215062,0 117.540328,31.205987,0 117.525266,31.200573,0 117.532463,31.19224,0 117.555008,31.177216,0 117.558774,31.159111,0 117.552387,31.145197,0 117.530842,31.137018,0 117.527315,31.118055,0 117.517401,31.114974,0 117.512206,31.10658,0 117.524217,31.095156,0 117.528697,31.079267,0 117.524169,31.066458,0 117.51211,31.047162,0 117.494427,31.046364,0 117.485037,31.041952,0 117.483941,31.035837,0 117.493616,31.029988,0 117.507534,31.003452,0 117.523168,30.994569,0 117.536943,30.992015,0 117.532892,30.973662,0 117.54905,30.967596,0 117.560966,30.974194,0 117.568926,30.968607,0 117.583512,30.970735,0 117.592568,30.978131,0 117.62641,30.972119,0 117.650671,30.957646,0 117.65129,30.950409,0 117.66049,30.940031,0 117.66721,30.956049,0 117.665828,30.966639,0 117.683082,30.968767,0 117.686181,30.98526,0 117.693759,30.98893,0 117.700432,31.002494,0 117.697525,31.0101,0 117.70763,31.01127,0 117.718306,31.019087,0 117.721023,31.0101,0 117.731414,31.00994,0 117.752339,31.057688,0 117.767496,31.096113,0 117.781319,31.111468,0 117.807391,31.129742,0 117.831938,31.139143,0 117.850718,31.140205,0 117.869879,31.133141,0 117.88027,31.122039,0 117.890423,31.086016,0 117.897954,31.07831,0 117.923788,31.068318,0 117.935466,31.067681,0 117.95863,31.074643,0 117.973311,31.084316,0 117.985513,31.079745,0 118.005818,31.078204,0 118.021881,31.064704,0 118.009679,31.045407,0 118.013778,31.034508,0 118.025933,31.030414,0 118.03251,31.017173,0 118.070975,31.011376,0 118.083654,30.993824,0 118.097572,30.985579,0 118.105198,30.970948,0 118.124836,30.967862,0 118.143807,30.970682,0 118.159059,30.963925,0 118.160346,30.952697,0 118.152911,30.932207,0 118.154579,30.923211,0 118.164779,30.907186,0 118.1572,30.901383,0 118.134369,30.902075,0 118.099097,30.885515,0 118.079412,30.866608,0 118.056914,30.872254,0 118.039612,30.857553,0 118.048144,30.855156,0 118.041566,30.843276,0 118.024217,30.845673,0 118.013397,30.862347,0 117.993473,30.854623,0 117.980413,30.843808,0 117.989612,30.828836,0 117.966781,30.799099,0 117.968783,30.794941,0 117.983702,30.794035,0 117.997477,30.778949,0 118.030461,30.774097,0 118.051671,30.758635,0 118.071357,30.746849,0 118.095952,30.738849,0 118.115732,30.71938,0 118.124979,30.717833,0 118.128506,30.701295,0 118.134941,30.700281,0 118.126075,30.690783,0 118.105723,30.662978,0 118.099574,30.651341,0 118.100956,30.641251,0 118.1368,30.652195,0 118.153578,30.666554,0 118.171214,30.691637,0 118.205437,30.702148,0 118.218354,30.709458,0 118.229221,30.709244,0 118.242901,30.703482,0 118.267591,30.714206,0 118.278745,30.712659,0 118.293282,30.699961,0 118.30496,30.698146,0 118.314445,30.705083,0 118.297191,30.715966,0 118.294712,30.722421,0 118.275694,30.736449,0 118.276647,30.743169,0 118.294569,30.757088,0 118.297906,30.772391,0 118.307582,30.77639,0 118.302577,30.793822,0 118.305008,30.800964,0 118.312872,30.795101,0 118.306724,30.806934,0 118.318687,30.821749,0 118.33823,30.826812,0 118.34762,30.824414,0 118.358916,30.84578,0 118.376409,30.845513,0 118.409536,30.84871,0 118.424502,30.841091,0 118.4368,30.824733,0 118.429841,30.813916,0 118.419498,30.813649,0 118.4317,30.796434,0 118.446476,30.800911,0 118.455198,30.790144,0 118.451671,30.779162,0 118.48027,30.76642,0 118.480699,30.780602,0 118.48475,30.79025,0 118.502863,30.801497,0 118.503101,30.810451,0 118.495522,30.819884,0 118.482224,30.822549,0 118.477982,30.833579,0 118.490899,30.842849,0 118.490041,30.848656,0 118.498239,30.859843,0 118.485513,30.864051,0 118.47741,30.857553,0 118.483987,30.870762,0 118.472119,30.875077,0 118.475742,30.88184,0 118.485846,30.87726,0 118.492948,30.883491,0 118.489707,30.900052,0 118.511537,30.914054,0 118.509154,30.928694,0 118.495713,30.941042,0 118.515255,30.937582,0 118.510251,30.9511,0 118.550956,30.970682,0 118.570975,30.972278,0 118.582462,30.981855,0 118.581223,30.994728,0 118.572262,31.016269,0 118.584273,31.026107,0 118.596142,31.047853,0 118.603768,31.044238,0 118.600956,31.028021,0 118.606819,31.020204,0 118.627314,31.020576,0 118.650003,31.036848,0 118.663396,31.054445,0 118.682653,31.074909,0 118.676123,31.081393,0 118.676838,31.08963,0 118.685513,31.096272,0 118.683082,31.111893,0 118.690327,31.124961,0 118.702004,31.135797,0 118.717305,31.144188,0 118.733558,31.149446,0 118.718401,31.173978,0 118.708963,31.177004,0 118.695045,31.189108,0 118.682986,31.214054,0 118.66821,31.22488,0 118.663587,31.236871,0 118.647286,31.245519,0 118.651861,31.261009,0 118.66006,31.269761,0 118.661442,31.290762,0 118.656866,31.304654,0</coordinates></LinearRing></outerBoundaryIs>
      </Polygon>
    </MultiGeometry>
    </Placemark>
  </Document>
</kml>
