<?xml version="1.0" encoding="UTF-8"?>
<kml xmlns="http://www.opengis.net/kml/2.2">
  <Document>
    <name><![CDATA[铜陵市]]></name>
    <Placemark>
      <name><![CDATA[铜陵市]]></name>
      <description><![CDATA[省级目录：安徽省]]></description>
      <ExtendedData>
        <Data name="adcode"><value>340700</value></Data>
      </ExtendedData>
      <MultiGeometry>
      <Polygon>
        <outerBoundaryIs><LinearRing><coordinates>117.156248,31.072411,0 117.149908,31.058272,0 117.144141,31.054179,0 117.14395,31.039293,0 117.137611,31.028925,0 117.141186,31.014514,0 117.134799,31.007281,0 117.124599,31.006749,0 117.111348,31.01345,0 117.093903,31.0101,0 117.095142,30.988558,0 117.082654,30.974885,0 117.080366,30.961743,0 117.086419,30.92864,0 117.096477,30.885728,0 117.106248,30.827558,0 117.105009,30.790677,0 117.101005,30.767379,0 117.117211,30.755968,0 117.124694,30.740343,0 117.162969,30.708604,0 117.178078,30.702148,0 117.187277,30.70663,0 117.190566,30.698467,0 117.200337,30.701881,0 117.205009,30.69201,0 117.241376,30.690356,0 117.223979,30.686514,0 117.212968,30.678616,0 117.207296,30.669543,0 117.205485,30.654384,0 117.211872,30.635111,0 117.217068,30.630626,0 117.272644,30.656626,0 117.309489,30.676801,0 117.343426,30.688969,0 117.366829,30.694251,0 117.394379,30.694998,0 117.399384,30.690676,0 117.422358,30.682885,0 117.4511,30.679043,0 117.470404,30.678989,0 117.485418,30.686514,0 117.493616,30.696706,0 117.507249,30.726688,0 117.576934,30.756662,0 117.645523,30.776603,0 117.670594,30.781508,0 117.701815,30.806614,0 117.698526,30.789931,0 117.72088,30.791103,0 117.742568,30.8072,0 117.751529,30.802936,0 117.755961,30.792223,0 117.748478,30.778522,0 117.759918,30.769832,0 117.758202,30.761674,0 117.781938,30.764127,0 117.78375,30.749729,0 117.796238,30.748449,0 117.803101,30.757462,0 117.815733,30.759914,0 117.842282,30.773617,0 117.846333,30.788438,0 117.872787,30.807893,0 117.884036,30.812317,0 117.903197,30.814022,0 117.915828,30.819564,0 117.934608,30.835763,0 117.94333,30.833099,0 117.953626,30.817593,0 117.980413,30.843808,0 117.993473,30.854623,0 118.013397,30.862347,0 118.024217,30.845673,0 118.041566,30.843276,0 118.048144,30.855156,0 118.039612,30.857553,0 118.056914,30.872254,0 118.079412,30.866608,0 118.099097,30.885515,0 118.134369,30.902075,0 118.1572,30.901383,0 118.164779,30.907186,0 118.154579,30.923211,0 118.152911,30.932207,0 118.160346,30.952697,0 118.159059,30.963925,0 118.143807,30.970682,0 118.124836,30.967862,0 118.105198,30.970948,0 118.097572,30.985579,0 118.083654,30.993824,0 118.070975,31.011376,0 118.03251,31.017173,0 118.025933,31.030414,0 118.013778,31.034508,0 118.009679,31.045407,0 118.021881,31.064704,0 118.005818,31.078204,0 117.985513,31.079745,0 117.973311,31.084316,0 117.95863,31.074643,0 117.935466,31.067681,0 117.923788,31.068318,0 117.897954,31.07831,0 117.890423,31.086016,0 117.88027,31.122039,0 117.869879,31.133141,0 117.850718,31.140205,0 117.831938,31.139143,0 117.807391,31.129742,0 117.781319,31.111468,0 117.767496,31.096113,0 117.752339,31.057688,0 117.731414,31.00994,0 117.721023,31.0101,0 117.718306,31.019087,0 117.70763,31.01127,0 117.697525,31.0101,0 117.700432,31.002494,0 117.693759,30.98893,0 117.686181,30.98526,0 117.683082,30.968767,0 117.665828,30.966639,0 117.66721,30.956049,0 117.66049,30.940031,0 117.65129,30.950409,0 117.650671,30.957646,0 117.62641,30.972119,0 117.592568,30.978131,0 117.583512,30.970735,0 117.568926,30.968607,0 117.560966,30.974194,0 117.54905,30.967596,0 117.532892,30.973662,0 117.536943,30.992015,0 117.523168,30.994569,0 117.507534,31.003452,0 117.494808,30.996005,0 117.45925,30.988983,0 117.44824,30.982706,0 117.441567,30.967916,0 117.412968,30.97728,0 117.385466,30.964829,0 117.383273,30.951899,0 117.371453,30.950994,0 117.365161,30.959029,0 117.369498,30.963659,0 117.356534,30.987919,0 117.348907,30.992122,0 117.337802,30.987653,0 117.324789,30.989249,0 117.314065,30.999835,0 117.306343,30.999994,0 117.298002,30.985526,0 117.28518,30.98244,0 117.277315,30.984728,0 117.247049,31.011217,0 117.229365,31.022331,0 117.225409,31.03706,0 117.212063,31.057315,0 117.190566,31.0697,0 117.175314,31.087451,0 117.156248,31.072411,0</coordinates></LinearRing></outerBoundaryIs>
      </Polygon>
      <Polygon>
        <outerBoundaryIs><LinearRing><coordinates>117.297144,30.487209,0 117.290137,30.4763,0 117.274456,30.465229,0 117.256724,30.458543,0 117.25558,30.45405,0 117.267211,30.441746,0 117.259203,30.430511,0 117.25253,30.428798,0 117.251958,30.420558,0 117.268545,30.420184,0 117.281129,30.414458,0 117.299289,30.425374,0 117.293378,30.440997,0 117.305437,30.445812,0 117.31478,30.461859,0 117.321882,30.462234,0 117.326648,30.470631,0 117.324551,30.487637,0 117.319784,30.49277,0 117.307535,30.494267,0 117.297144,30.487209,0</coordinates></LinearRing></outerBoundaryIs>
      </Polygon>
      <Polygon>
        <outerBoundaryIs><LinearRing><coordinates>116.960728,30.628544,0 116.97703,30.643547,0 116.967354,30.657053,0 116.956963,30.658013,0 116.951434,30.656145,0 116.934465,30.661323,0 116.92212,30.654277,0 116.920643,30.646163,0 116.934656,30.632121,0 116.960728,30.628544,0</coordinates></LinearRing></outerBoundaryIs>
      </Polygon>
    </MultiGeometry>
    </Placemark>
  </Document>
</kml>
