<?xml version="1.0" encoding="UTF-8"?>
<kml xmlns="http://www.opengis.net/kml/2.2">
  <Document>
    <name><![CDATA[马鞍山市]]></name>
    <Placemark>
      <name><![CDATA[马鞍山市]]></name>
      <description><![CDATA[省级目录：安徽省]]></description>
      <ExtendedData>
        <Data name="adcode"><value>340500</value></Data>
      </ExtendedData>
      <MultiGeometry>
      <Polygon>
        <outerBoundaryIs><LinearRing><coordinates>118.883701,31.500143,0 118.877791,31.478766,0 118.870498,31.463047,0 118.866065,31.44489,0 118.86964,31.421594,0 118.851146,31.392518,0 118.847381,31.393948,0 118.829507,31.377527,0 118.800241,31.368997,0 118.784559,31.368573,0 118.771261,31.363116,0 118.7674,31.365871,0 118.770355,31.379328,0 118.765398,31.387963,0 118.754626,31.385049,0 118.74576,31.372706,0 118.735036,31.344781,0 118.72107,31.322679,0 118.714731,31.321671,0 118.704102,31.307782,0 118.692186,31.309001,0 118.681747,31.304336,0 118.656866,31.304654,0 118.617543,31.294103,0 118.598001,31.295004,0 118.575122,31.291345,0 118.572548,31.300306,0 118.55515,31.318862,0 118.55129,31.331955,0 118.557724,31.346371,0 118.543663,31.365606,0 118.522929,31.381924,0 118.524979,31.401788,0 118.510775,31.406289,0 118.490946,31.403588,0 118.484512,31.392465,0 118.470403,31.393737,0 118.461347,31.399722,0 118.444998,31.393472,0 118.44352,31.405389,0 118.436371,31.425777,0 118.430031,31.436155,0 118.424598,31.456166,0 118.431795,31.461512,0 118.431747,31.472997,0 118.420355,31.481465,0 118.415255,31.49771,0 118.392853,31.507868,0 118.376552,31.532518,0 118.347953,31.465058,0 118.340089,31.453519,0 118.326171,31.444149,0 118.317305,31.44399,0 118.314636,31.45336,0 118.316781,31.474267,0 118.321976,31.485487,0 118.311204,31.496757,0 118.309965,31.506598,0 118.304054,31.507815,0 118.303149,31.497233,0 118.291948,31.499403,0 118.267686,31.510195,0 118.269831,31.515327,0 118.249955,31.529291,0 118.248239,31.533576,0 118.219593,31.525483,0 118.202434,31.526541,0 118.198144,31.535004,0 118.18537,31.538071,0 118.167877,31.531724,0 118.157153,31.522098,0 118.135084,31.51702,0 118.136657,31.499244,0 118.144903,31.477337,0 118.15067,31.468287,0 118.14109,31.471568,0 118.127696,31.461353,0 118.131652,31.437267,0 118.148096,31.437002,0 118.171214,31.429484,0 118.162682,31.413757,0 118.168592,31.403376,0 118.16516,31.399139,0 117.991233,31.438537,0 117.97965,31.432872,0 117.974646,31.437584,0 117.976076,31.448226,0 117.969355,31.45569,0 117.968354,31.465641,0 117.98027,31.466805,0 117.986895,31.474479,0 117.963016,31.486545,0 117.965399,31.498239,0 117.952386,31.519823,0 117.939565,31.525113,0 117.952148,31.536961,0 117.941662,31.540663,0 117.92803,31.538441,0 117.919784,31.54923,0 117.908297,31.54685,0 117.907248,31.556686,0 117.913921,31.564987,0 117.928268,31.568212,0 117.935323,31.58053,0 117.929603,31.587138,0 117.936037,31.588935,0 117.932129,31.604474,0 117.937181,31.610446,0 117.934608,31.618108,0 117.941138,31.626932,0 117.96273,31.627143,0 117.960775,31.616681,0 117.971929,31.620486,0 117.973311,31.63845,0 117.969021,31.642148,0 117.963873,31.659368,0 117.967639,31.662168,0 117.949288,31.671357,0 117.939183,31.671357,0 117.941424,31.679067,0 117.932272,31.681813,0 117.913206,31.704042,0 117.913063,31.715339,0 117.92007,31.734129,0 117.915256,31.75033,0 117.924741,31.76141,0 117.909441,31.767424,0 117.905961,31.777553,0 117.913445,31.787522,0 117.901385,31.811782,0 117.908011,31.832556,0 117.913874,31.840885,0 117.935751,31.855433,0 117.94171,31.868873,0 117.951862,31.906229,0 117.96435,31.90154,0 117.988373,31.881836,0 118.044808,31.859545,0 118.061776,31.858543,0 118.072834,31.850901,0 118.083988,31.8538,0 118.085942,31.877462,0 118.109107,31.891425,0 118.120832,31.906123,0 118.132034,31.903331,0 118.147763,31.907967,0 118.171118,31.900118,0 118.181843,31.907651,0 118.187277,31.919186,0 118.203959,31.927719,0 118.219736,31.925296,0 118.239421,31.944096,0 118.256724,31.954469,0 118.290136,31.979895,0 118.304865,31.985527,0 118.305341,31.998,0 118.31721,32.019836,0 118.334464,32.031253,0 118.348716,32.035461,0 118.358344,32.045297,0 118.385084,32.05813,0 118.394378,32.0484,0 118.385989,32.033146,0 118.401528,32.018679,0 118.38966,32.012049,0 118.390994,31.989527,0 118.387181,31.983264,0 118.376695,31.981737,0 118.379221,31.967262,0 118.369021,31.956153,0 118.369498,31.944201,0 118.36435,31.930141,0 118.375313,31.925349,0 118.386037,31.914815,0 118.402958,31.914025,0 118.415923,31.901435,0 118.440136,31.892689,0 118.452291,31.884628,0 118.47231,31.879623,0 118.467114,31.868873,0 118.466781,31.858016,0 118.475456,31.850321,0 118.490613,31.843152,0 118.504721,31.841729,0 118.486132,31.795434,0 118.482176,31.778344,0 118.503196,31.778028,0 118.510775,31.765631,0 118.523597,31.76199,0 118.533844,31.767266,0 118.539659,31.761568,0 118.538706,31.74938,0 118.522119,31.743047,0 118.530031,31.742309,0 118.545093,31.732071,0 118.550003,31.735976,0 118.5572,31.729643,0 118.57169,31.746214,0 118.575312,31.740937,0 118.593091,31.74442,0 118.600718,31.75397,0 118.609345,31.757189,0 118.619021,31.750066,0 118.627076,31.759458,0 118.641661,31.758244,0 118.648382,31.748799,0 118.64209,31.744314,0 118.6521,31.739776,0 118.653959,31.730118,0 118.677267,31.728587,0 118.684893,31.724893,0 118.687324,31.716183,0 118.697715,31.709426,0 118.680746,31.696598,0 118.673406,31.696334,0 118.671404,31.688467,0 118.654912,31.675635,0 118.647,31.679859,0 118.643234,31.671357,0 118.647953,31.659368,0 118.643616,31.650019,0 118.657867,31.641091,0 118.673835,31.640563,0 118.684798,31.636231,0 118.694998,31.639718,0 118.716923,31.639454,0 118.719402,31.62746,0 118.728649,31.634276,0 118.734226,31.632216,0 118.745141,31.656516,0 118.744378,31.668347,0 118.751146,31.677694,0 118.768306,31.677483,0 118.774121,31.682605,0 118.799049,31.666393,0 118.783082,31.656516,0 118.789564,31.646532,0 118.796046,31.628306,0 118.802767,31.619482,0 118.81454,31.619218,0 118.819545,31.628517,0 118.833844,31.630314,0 118.858534,31.623973,0 118.868735,31.611397,0 118.870784,31.599347,0 118.865303,31.591789,0 118.877314,31.589675,0 118.873358,31.573922,0 118.881985,31.564775,0 118.875122,31.551979,0 118.873739,31.531936,0 118.883939,31.53146,0 118.885846,31.518871,0 118.883701,31.500143,0</coordinates></LinearRing></outerBoundaryIs>
      </Polygon>
    </MultiGeometry>
    </Placemark>
  </Document>
</kml>
