<?xml version="1.0" encoding="UTF-8"?>
<kml xmlns="http://www.opengis.net/kml/2.2">
  <Document>
    <name><![CDATA[黄山市]]></name>
    <Placemark>
      <name><![CDATA[黄山市]]></name>
      <description><![CDATA[省级目录：安徽省]]></description>
      <ExtendedData>
        <Data name="adcode"><value>341000</value></Data>
      </ExtendedData>
      <MultiGeometry>
      <Polygon>
        <outerBoundaryIs><LinearRing><coordinates>118.868878,30.10144,0 118.85005,30.110458,0 118.82107,30.102728,0 118.789945,30.078299,0 118.767972,30.076796,0 118.754626,30.080608,0 118.743139,30.092743,0 118.730365,30.070298,0 118.69781,30.056818,0 118.694807,30.036675,0 118.688754,30.028993,0 118.669021,30.023675,0 118.651004,30.024534,0 118.628029,30.016529,0 118.614493,30.001805,0 118.618592,29.997399,0 118.614016,29.980469,0 118.605818,29.971654,0 118.583463,29.968321,0 118.574931,29.963751,0 118.564588,29.947569,0 118.548668,29.945203,0 118.524741,29.967407,0 118.520784,29.975201,0 118.524502,29.992508,0 118.520403,29.99885,0 118.509297,29.998312,0 118.50577,29.99138,0 118.498716,30.005997,0 118.498096,30.018141,0 118.513492,30.030659,0 118.514016,30.038932,0 118.494474,30.072124,0 118.477696,30.076527,0 118.468926,30.082434,0 118.449955,30.102621,0 118.417734,30.097306,0 118.404483,30.099615,0 118.394807,30.106271,0 118.384607,30.097145,0 118.370642,30.099722,0 118.355103,30.111908,0 118.356962,30.121945,0 118.347477,30.134289,0 118.339326,30.16584,0 118.326647,30.175282,0 118.31149,30.193197,0 118.290708,30.199526,0 118.289946,30.219046,0 118.286562,30.232879,0 118.271881,30.238186,0 118.267782,30.243333,0 118.266638,30.259842,0 118.271404,30.269865,0 118.292472,30.283691,0 118.304912,30.284387,0 118.320546,30.293764,0 118.31211,30.292907,0 118.294903,30.302122,0 118.307629,30.309301,0 118.310203,30.32055,0 118.302052,30.329709,0 118.299765,30.340796,0 118.305532,30.351399,0 118.295141,30.358306,0 118.300289,30.370139,0 118.280365,30.372387,0 118.278173,30.38031,0 118.265684,30.376402,0 118.255913,30.378437,0 118.250337,30.394816,0 118.237801,30.40049,0 118.221452,30.414351,0 118.222977,30.423929,0 118.215399,30.438322,0 118.228077,30.439713,0 118.231604,30.445651,0 118.225217,30.455013,0 118.213873,30.461271,0 118.21373,30.466833,0 118.196571,30.468652,0 118.185847,30.46448,0 118.188039,30.474481,0 118.16864,30.453033,0 118.181128,30.447844,0 118.163254,30.446775,0 118.15782,30.434309,0 118.142901,30.433828,0 118.130175,30.429601,0 118.125027,30.423662,0 118.107582,30.42928,0 118.109774,30.452712,0 118.103435,30.465229,0 118.118211,30.483252,0 118.121118,30.493091,0 118.130747,30.49817,0 118.117591,30.509238,0 118.089612,30.51731,0 118.075218,30.515011,0 118.053721,30.503677,0 118.034941,30.498438,0 118.016924,30.500576,0 117.985751,30.498705,0 117.970118,30.512231,0 117.963635,30.508436,0 117.951481,30.489134,0 117.945904,30.466726,0 117.945904,30.455066,0 117.938564,30.425106,0 117.941233,30.413602,0 117.952911,30.403594,0 117.953197,30.392568,0 117.938278,30.378115,0 117.91659,30.366552,0 117.928125,30.357289,0 117.940137,30.33469,0 117.925361,30.33078,0 117.932034,30.326335,0 117.928507,30.319747,0 117.920356,30.320014,0 117.907677,30.309783,0 117.91292,30.299283,0 117.902196,30.294246,0 117.886419,30.293228,0 117.888516,30.269597,0 117.863206,30.266435,0 117.842997,30.260378,0 117.824932,30.241617,0 117.829317,30.225212,0 117.858345,30.21733,0 117.8613,30.209072,0 117.852863,30.191749,0 117.846953,30.192286,0 117.831366,30.182202,0 117.820404,30.182577,0 117.797811,30.163694,0 117.778125,30.156719,0 117.743187,30.154037,0 117.698955,30.143466,0 117.682606,30.132733,0 117.68661,30.126132,0 117.673264,30.122106,0 117.676219,30.107936,0 117.662491,30.108902,0 117.655866,30.115451,0 117.646143,30.114484,0 117.642901,30.105627,0 117.631176,30.099293,0 117.615351,30.111693,0 117.61049,30.131499,0 117.599765,30.129781,0 117.584846,30.118027,0 117.572739,30.115719,0 117.568736,30.107399,0 117.560299,30.103748,0 117.571071,30.101762,0 117.56845,30.088233,0 117.559965,30.0834,0 117.554293,30.101601,0 117.545618,30.101601,0 117.541043,30.11062,0 117.528983,30.099561,0 117.535371,30.083776,0 117.544093,30.086783,0 117.53599,30.076581,0 117.542091,30.052844,0 117.511491,30.037105,0 117.492806,30.034903,0 117.461777,30.037965,0 117.446476,30.02303,0 117.433273,30.02072,0 117.411538,30.030444,0 117.394093,30.029745,0 117.386372,30.011048,0 117.349813,30.008254,0 117.324217,29.99799,0 117.309155,29.999065,0 117.297668,29.992777,0 117.267401,29.98321,0 117.260156,29.985253,0 117.206152,29.974288,0 117.203102,29.965149,0 117.206248,29.927511,0 117.21702,29.92692,0 117.246238,29.915088,0 117.253722,29.90901,0 117.261777,29.880659,0 117.25682,29.859512,0 117.249336,29.846111,0 117.257392,29.831255,0 117.271214,29.830071,0 117.278173,29.825118,0 117.292425,29.822803,0 117.297239,29.836853,0 117.303007,29.840352,0 117.325695,29.843851,0 117.333273,29.850578,0 117.338612,29.847887,0 117.347906,29.822319,0 117.356248,29.813705,0 117.375981,29.818066,0 117.384084,29.843635,0 117.403292,29.84891,0 117.418783,29.850417,0 117.424789,29.834646,0 117.409155,29.802613,0 117.413588,29.78802,0 117.434703,29.761143,0 117.44314,29.758935,0 117.455104,29.749184,0 117.457249,29.725315,0 117.451862,29.695942,0 117.474217,29.668339,0 117.493759,29.65955,0 117.516543,29.663379,0 117.530556,29.65405,0 117.523454,29.629619,0 117.534274,29.598545,0 117.54333,29.588563,0 117.546238,29.594337,0 117.557963,29.590128,0 117.574074,29.591099,0 117.586467,29.584732,0 117.608726,29.591585,0 117.628316,29.606207,0 117.647954,29.614893,0 117.661443,29.611818,0 117.668974,29.596981,0 117.678983,29.59547,0 117.682225,29.587268,0 117.682987,29.568002,0 117.69047,29.555912,0 117.707677,29.549002,0 117.736038,29.551539,0 117.753054,29.560392,0 117.770928,29.557099,0 117.794951,29.570323,0 117.807296,29.573561,0 117.822787,29.571834,0 117.829889,29.563846,0 117.852005,29.554994,0 117.863588,29.55413,0 117.876505,29.546195,0 117.889851,29.545817,0 117.920785,29.554508,0 117.938707,29.549596,0 117.954913,29.565087,0 117.964874,29.569999,0 117.984703,29.561633,0 117.994665,29.573183,0 118.003864,29.578094,0 118.014112,29.577285,0 118.042949,29.566275,0 118.050718,29.543172,0 118.082653,29.533778,0 118.103435,29.530647,0 118.109536,29.521954,0 118.13456,29.508778,0 118.142996,29.499867,0 118.143807,29.489767,0 118.127648,29.472049,0 118.137992,29.454868,0 118.138611,29.437684,0 118.12946,29.432604,0 118.136085,29.418876,0 118.163635,29.412066,0 118.1766,29.404714,0 118.188135,29.406119,0 118.193044,29.395253,0 118.204245,29.395415,0 118.218115,29.42039,0 118.232939,29.423903,0 118.248525,29.431307,0 118.255723,29.426173,0 118.267782,29.427848,0 118.276266,29.423417,0 118.28618,29.426713,0 118.291376,29.419957,0 118.316113,29.422606,0 118.316018,29.450545,0 118.306581,29.47945,0 118.310537,29.496032,0 118.324407,29.49695,0 118.34762,29.473994,0 118.358725,29.477073,0 118.379793,29.502567,0 118.38394,29.510398,0 118.393044,29.50732,0 118.414969,29.50975,0 118.429507,29.503647,0 118.448954,29.513422,0 118.458249,29.506348,0 118.47903,29.510938,0 118.495904,29.519578,0 118.497858,29.543982,0 118.494903,29.553698,0 118.500575,29.575666,0 118.535227,29.590614,0 118.549907,29.613382,0 118.555055,29.613382,0 118.573883,29.638357,0 118.602052,29.643696,0 118.619974,29.654104,0 118.633511,29.648765,0 118.640946,29.641916,0 118.647333,29.643372,0 118.67393,29.669094,0 118.682319,29.686454,0 118.700813,29.706452,0 118.718687,29.709201,0 118.724645,29.72262,0 118.744712,29.738786,0 118.749049,29.761143,0 118.74433,29.779618,0 118.736513,29.788451,0 118.739945,29.813274,0 118.745999,29.818173,0 118.75944,29.817151,0 118.765922,29.823073,0 118.750956,29.831632,0 118.755627,29.845412,0 118.766923,29.848964,0 118.778744,29.841913,0 118.802624,29.860642,0 118.807724,29.867638,0 118.841328,29.891312,0 118.845522,29.899112,0 118.844902,29.915249,0 118.838706,29.934502,0 118.848287,29.941278,0 118.86392,29.936976,0 118.871976,29.94687,0 118.884702,29.938912,0 118.894664,29.938051,0 118.891566,29.959881,0 118.899478,29.981437,0 118.89209,29.994819,0 118.895093,30.001214,0 118.890327,30.012015,0 118.898048,30.017227,0 118.902576,30.029047,0 118.890565,30.041242,0 118.897333,30.051877,0 118.888134,30.06235,0 118.878839,30.064659,0 118.875455,30.072017,0 118.872929,30.094622,0 118.868878,30.10144,0</coordinates></LinearRing></outerBoundaryIs>
      </Polygon>
    </MultiGeometry>
    </Placemark>
  </Document>
</kml>
