<?xml version="1.0" encoding="UTF-8"?>
<kml xmlns="http://www.opengis.net/kml/2.2">
  <Document>
    <name>兴安盟</name>
    <Placemark>
      <name>兴安盟</name>
      <Polygon><outerBoundaryIs><LinearRing><coordinates>122.271358000000,44.255690000000,0 122.291590000000,44.310292000000,0 122.294480000000,44.411000000000,0 122.286098000000,44.477717000000,0 122.228003000000,44.480168000000,0 122.223957000000,44.526234000000,0 122.195921000000,44.559862000000,0 122.131756000000,44.577485000000,0 122.103142000000,44.673987000000,0 122.117304000000,44.702158000000,0 122.161526000000,44.728199000000,0 122.152566000000,44.743819000000,0 122.102853000000,44.736335000000,0 122.110656000000,44.767890000000,0 122.142739000000,44.753741000000,0 122.169041000000,44.770167000000,0 122.114992000000,44.776671000000,0 122.049671000000,44.912758000000,0 122.079152000000,44.914217000000,0 122.086667000000,44.952970000000,0 122.074528000000,45.006597000000,0 122.098806000000,45.021493000000,0 122.119327000000,45.068585000000,0 122.109789000000,45.141978000000,0 122.143317000000,45.182999000000,0 122.192741000000,45.180738000000,0 122.230026000000,45.206887000000,0 122.238986000000,45.276234000000,0 122.147363000000,45.295571000000,0 122.146785000000,45.374465000000,0 122.179735000000,45.409368000000,0 122.163549000000,45.443768000000,0 122.023369000000,45.490190000000,0 122.002559000000,45.507850000000,0 121.993310000000,45.552936000000,0 121.966430000000,45.596064000000,0 121.996200000000,45.598948000000,0 122.003426000000,45.623302000000,0 121.970187000000,45.692779000000,0 121.934058000000,45.710535000000,0 121.867003000000,45.719810000000,0 121.812376000000,45.704777000000,0 121.811220000000,45.687019000000,0 121.714106000000,45.701738000000,0 121.644449000000,45.752422000000,0 121.656878000000,45.770159000000,0 121.690116000000,45.762810000000,0 121.754281000000,45.794917000000,0 121.784918000000,45.860194000000,0 121.817290000000,45.875664000000,0 121.821336000000,45.918224000000,0 121.809197000000,45.961548000000,0 121.761796000000,45.998951000000,0 121.845037000000,46.023448000000,0 121.863824000000,46.002611000000,0 121.923653000000,46.004838000000,0 122.040133000000,45.959001000000,0 122.083488000000,45.917268000000,0 122.091580000000,45.882042000000,0 122.200834000000,45.856844000000,0 122.262687000000,45.794917000000,0 122.320782000000,45.830518000000,0 122.337546000000,45.860035000000,0 122.373097000000,45.856047000000,0 122.362114000000,45.917428000000,0 122.445933000000,45.916950000000,0 122.495935000000,45.858280000000,0 122.505762000000,45.786293000000,0 122.554897000000,45.821420000000,0 122.603454000000,45.778147000000,0 122.640739000000,45.771118000000,0 122.671377000000,45.700618000000,0 122.741900000000,45.705097000000,0 122.751149000000,45.736119000000,0 122.792481000000,45.766165000000,0 122.752305000000,45.834827000000,0 122.800285000000,45.856685000000,0 122.828610000000,45.912328000000,0 122.793059000000,46.073205000000,0 123.045672000000,46.100052000000,0 123.069951000000,46.123552000000,0 123.112438000000,46.130060000000,0 123.102900000000,46.171949000000,0 123.127757000000,46.174645000000,0 123.128624000000,46.210478000000,0 123.178626000000,46.248029000000,0 123.140474000000,46.300274000000,0 123.094807000000,46.342191000000,0 123.011566000000,46.434928000000,0 123.007231000000,46.576966000000,0 123.052898000000,46.580114000000,0 123.045672000000,46.617255000000,0 123.077755000000,46.622132000000,0 123.098565000000,46.603094000000,0 123.181517000000,46.613636000000,0 123.228340000000,46.588300000000,0 123.279209000000,46.616940000000,0 123.277475000000,46.661601000000,0 123.366497000000,46.677790000000,0 123.482109000000,46.686903000000,0 123.604658000000,46.690046000000,0 123.631827000000,46.729466000000,0 123.629226000000,46.813550000000,0 123.580091000000,46.827969000000,0 123.625758000000,46.847710000000,0 123.599167000000,46.864939000000,0 123.605525000000,46.891241000000,0 123.576911000000,46.890615000000,0 123.562749000000,46.825931000000,0 123.514192000000,46.826088000000,0 123.483843000000,46.844734000000,0 123.522284000000,46.922224000000,0 123.527776000000,46.958035000000,0 123.487890000000,46.959599000000,0 123.427482000000,46.934425000000,0 123.336437000000,46.989136000000,0 123.301754000000,46.999759000000,0 123.304066000000,46.964913000000,0 123.360427000000,46.971009000000,0 123.404649000000,46.935519000000,0 123.406672000000,46.906422000000,0 123.374589000000,46.837684000000,0 123.341640000000,46.826872000000,0 123.308979000000,46.862120000000,0 123.230941000000,46.859928000000,0 123.186430000000,46.786739000000,0 123.171112000000,46.743907000000,0 123.103478000000,46.734803000000,0 123.077176000000,46.745006000000,0 123.026596000000,46.718789000000,0 122.996537000000,46.761640000000,0 122.907226000000,46.807906000000,0 122.893642000000,46.895154000000,0 122.895376000000,46.960224000000,0 122.839304000000,46.936927000000,0 122.797394000000,46.938178000000,0 122.774850000000,46.973979000000,0 122.778318000000,47.002883000000,0 122.845952000000,47.046756000000,0 122.852021000000,47.072346000000,0 122.821962000000,47.065637000000,0 122.698835000000,47.098390000000,0 122.679759000000,47.094180000000,0 122.610969000000,47.129876000000,0 122.600275000000,47.151688000000,0 122.556342000000,47.172556000000,0 122.509808000000,47.242886000000,0 122.462696000000,47.278482000000,0 122.460095000000,47.298523000000,0 122.420787000000,47.330201000000,0 122.418186000000,47.350378000000,0 122.299394000000,47.300077000000,0 122.246501000000,47.253458000000,0 122.193319000000,47.230289000000,0 122.125686000000,47.213645000000,0 122.079441000000,47.182519000000,0 122.048515000000,47.201352000000,0 121.927122000000,47.241486000000,0 121.856309000000,47.256567000000,0 121.795323000000,47.280347000000,0 121.760062000000,47.280968000000,0 121.673352000000,47.250349000000,0 121.640114000000,47.204776000000,0 121.648496000000,47.177693000000,0 121.588088000000,47.170376000000,0 121.551959000000,47.195905000000,0 121.436058000000,47.183453000000,0 121.380275000000,47.142341000000,0 121.255124000000,47.113356000000,0 121.173329000000,47.141250000000,0 121.099048000000,47.152155000000,0 121.055115000000,47.145924000000,0 120.976787000000,47.096207000000,0 120.932855000000,47.107433000000,0 120.876494000000,47.149818000000,0 120.823023000000,47.145612000000,0 120.773888000000,47.177226000000,0 120.738048000000,47.218312000000,0 120.626482000000,47.241953000000,0 120.617522000000,47.287649000000,0 120.633129000000,47.307687000000,0 120.703364000000,47.334082000000,0 120.736314000000,47.379389000000,0 120.725330000000,47.397532000000,0 120.650471000000,47.440460000000,0 120.578503000000,47.507340000000,0 120.603070000000,47.533172000000,0 120.590064000000,47.548324000000,0 120.534570000000,47.543995000000,0 120.473295000000,47.555126000000,0 120.377915000000,47.593756000000,0 120.323866000000,47.607964000000,0 120.264904000000,47.658127000000,0 120.233688000000,47.630505000000,0 120.205363000000,47.635135000000,0 120.179929000000,47.612133000000,0 120.118943000000,47.602559000000,0 120.075010000000,47.573054000000,0 120.013158000000,47.554817000000,0 119.959109000000,47.582015000000,0 119.907661000000,47.569963000000,0 119.868064000000,47.538893000000,0 119.868064000000,47.538893000000,0 119.854191000000,47.525903000000,0 119.854191000000,47.525903000000,0 119.836271000000,47.508733000000,0 119.836271000000,47.508733000000,0 119.814593000000,47.499294000000,0 119.814593000000,47.499294000000,0 119.811125000000,47.494033000000,0 119.811125000000,47.494033000000,0 119.811703000000,47.490474000000,0 119.811703000000,47.490474000000,0 119.813148000000,47.471434000000,0 119.770372000000,47.438601000000,0 119.770372000000,47.438601000000,0 119.763724000000,47.436277000000,0 119.763724000000,47.436277000000,0 119.671812000000,47.412103000000,0 119.671812000000,47.412103000000,0 119.661696000000,47.408848000000,0 119.661696000000,47.408848000000,0 119.652447000000,47.402338000000,0 119.652447000000,47.402338000000,0 119.616318000000,47.360930000000,0 119.483364000000,47.338118000000,0 119.561113000000,47.301164000000,0 119.565159000000,47.249727000000,0 119.621810000000,47.248483000000,0 119.716034000000,47.195594000000,0 119.762857000000,47.130967000000,0 119.806500000000,47.054871000000,0 119.794939000000,47.013035000000,0 119.844942000000,46.965070000000,0 119.859682000000,46.917062000000,0 119.928761000000,46.903762000000,0 119.920379000000,46.853193000000,0 119.936275000000,46.790189000000,0 119.916910000000,46.758345000000,0 119.935119000000,46.712822000000,0 119.911708000000,46.669775000000,0 119.910263000000,46.653112000000,0 119.952172000000,46.604196000000,0 119.907372000000,46.537277000000,0 119.948993000000,46.493617000000,0 119.909685000000,46.428929000000,0 119.984544000000,46.418825000000,0 119.961710000000,46.395609000000,0 119.901014000000,46.403665000000,0 119.837716000000,46.375544000000,0 119.874134000000,46.345670000000,0 119.838005000000,46.320683000000,0 119.835693000000,46.235357000000,0 119.889163000000,46.210161000000,0 119.858237000000,46.184795000000,0 119.879336000000,46.144344000000,0 119.855347000000,46.108151000000,0 119.833958000000,46.004520000000,0 119.807946000000,45.991313000000,0 119.829912000000,45.974602000000,0 119.807946000000,45.820941000000,0 119.751295000000,45.762969000000,0 119.700426000000,45.736598000000,0 119.708808000000,45.703017000000,0 119.681639000000,45.669576000000,0 119.596375000000,45.670057000000,0 119.565448000000,45.655810000000,0 119.655626000000,45.623622000000,0 119.791182000000,45.564162000000,0 119.819796000000,45.572821000000,0 119.876157000000,45.548125000000,0 119.918934000000,45.558229000000,0 119.906794000000,45.505763000000,0 119.998706000000,45.482322000000,0 120.031078000000,45.498379000000,0 120.029054000000,45.526146000000,0 119.994660000000,45.551974000000,0 119.994949000000,45.578753000000,0 120.027320000000,45.595102000000,0 120.165766000000,45.594942000000,0 120.269239000000,45.552134000000,0 120.327624000000,45.550370000000,0 120.344965000000,45.519727000000,0 120.420113000000,45.499021000000,0 120.435143000000,45.464494000000,0 120.497285000000,45.463370000000,0 120.559426000000,45.416925000000,0 120.554513000000,45.357568000000,0 120.581104000000,45.352901000000,0 120.660298000000,45.297827000000,0 120.743250000000,45.260114000000,0 120.826780000000,45.253665000000,0 120.835162000000,45.216084000000,0 120.881696000000,45.217697000000,0 120.967827000000,45.184290000000,0 120.973030000000,45.157163000000,0 120.947017000000,45.121296000000,0 120.973897000000,45.118548000000,0 120.977654000000,45.073276000000,0 121.033437000000,44.998337000000,0 121.240095000000,44.934002000000,0 121.401663000000,44.851412000000,0 121.420450000000,44.818278000000,0 121.409178000000,44.790977000000,0 121.530282000000,44.720388000000,0 121.548491000000,44.667635000000,0 121.595892000000,44.659327000000,0 121.585487000000,44.640099000000,0 121.651097000000,44.563289000000,0 121.697631000000,44.534724000000,0 121.760062000000,44.478207000000,0 121.778560000000,44.446657000000,0 121.829429000000,44.411491000000,0 121.882611000000,44.402165000000,0 121.934347000000,44.343553000000,0 121.983194000000,44.330284000000,0 122.019034000000,44.303900000000,0 122.163838000000,44.255361000000,0 122.226269000000,44.263727000000,0 122.271358000000,44.255690000000,0</coordinates></LinearRing></outerBoundaryIs></Polygon>
    </Placemark>
  </Document>
</kml>
