<?xml version="1.0" encoding="UTF-8"?>
<kml xmlns="http://www.opengis.net/kml/2.2">
  <Document>
    <name>内蒙古自治区 全省轮廓</name>
    <Placemark>
      <name>内蒙古自治区 全省轮廓</name>
      <Polygon><outerBoundaryIs><LinearRing><coordinates>111.364191000000,39.467368000000,0 111.352341000000,39.426688000000,0 111.289332000000,39.417133000000,0 111.172274000000,39.423326000000,0 111.145394000000,39.409524000000,0 111.108109000000,39.356592000000,0 111.097993000000,39.401915000000,0 111.064466000000,39.401030000000,0 111.058396000000,39.447738000000,0 111.088744000000,39.459057000000,0 111.106375000000,39.498480000000,0 111.148863000000,39.532229000000,0 111.154932000000,39.568963000000,0 111.136723000000,39.586970000000,0 111.100883000000,39.559428000000,0 111.017353000000,39.552011000000,0 110.959258000000,39.519509000000,0 110.890758000000,39.508907000000,0 110.808095000000,39.411825000000,0 110.738438000000,39.348622000000,0 110.732947000000,39.308405000000,0 110.702888000000,39.273838000000,0 110.626294000000,39.266746000000,0 110.566754000000,39.319923000000,0 110.559239000000,39.352165000000,0 110.524266000000,39.382798000000,0 110.482646000000,39.360665000000,0 110.430042000000,39.379257000000,0 110.429175000000,39.342069000000,0 110.391023000000,39.311772000000,0 110.340443000000,39.341714000000,0 110.243328000000,39.423680000000,0 110.152572000000,39.453928000000,0 110.132051000000,39.446854000000,0 110.136676000000,39.391826000000,0 110.183210000000,39.356415000000,0 110.217604000000,39.281108000000,0 110.193037000000,39.280753000000,0 110.088697000000,39.234820000000,0 110.010947000000,39.208559000000,0 109.962679000000,39.211931000000,0 109.902849000000,39.271888000000,0 109.869033000000,39.249720000000,0 109.960945000000,39.191874000000,0 109.893890000000,39.141264000000,0 109.922215000000,39.106971000000,0 109.860073000000,39.124386000000,0 109.757467000000,39.053454000000,0 109.725384000000,39.018406000000,0 109.665266000000,38.981738000000,0 109.683764000000,38.935610000000,0 109.624513000000,38.854501000000,0 109.549653000000,38.805790000000,0 109.517282000000,38.833807000000,0 109.450805000000,38.788832000000,0 109.401670000000,38.716313000000,0 109.338661000000,38.701478000000,0 109.328834000000,38.660533000000,0 109.367564000000,38.629765000000,0 109.331435000000,38.597909000000,0 109.276808000000,38.622965000000,0 109.196747000000,38.552606000000,0 109.175936000000,38.518745000000,0 109.052231000000,38.428549000000,0 109.051364000000,38.385294000000,0 109.007720000000,38.359077000000,0 108.961764000000,38.265086000000,0 108.975927000000,38.245121000000,0 108.938931000000,38.209496000000,0 108.947313000000,38.170612000000,0 109.068995000000,38.091159000000,0 109.050786000000,38.054918000000,0 109.069573000000,38.022988000000,0 109.038068000000,38.021545000000,0 109.017547000000,37.969923000000,0 108.982574000000,37.963783000000,0 108.974193000000,37.931814000000,0 108.935751000000,37.921697000000,0 108.893842000000,37.978228000000,0 108.882859000000,38.013786000000,0 108.830544000000,38.049868000000,0 108.797595000000,38.047884000000,0 108.826787000000,37.995197000000,0 108.798173000000,37.933621000000,0 108.793259000000,37.815923000000,0 108.784588000000,37.764700000000,0 108.792103000000,37.700213000000,0 108.777651000000,37.683538000000,0 108.611169000000,37.654168000000,0 108.532553000000,37.690607000000,0 108.422432000000,37.648909000000,0 108.301039000000,37.640748000000,0 108.246412000000,37.665773000000,0 108.193520000000,37.638209000000,0 108.133979000000,37.622065000000,0 108.013164000000,37.665591000000,0 108.024436000000,37.698763000000,0 107.993221000000,37.735362000000,0 107.981949000000,37.787330000000,0 107.884834000000,37.808324000000,0 107.842636000000,37.828950000000,0 107.741186000000,37.845411000000,0 107.683380000000,37.887721000000,0 107.650141000000,37.864580000000,0 107.560541000000,37.893686000000,0 107.492619000000,37.944820000000,0 107.450132000000,37.933260000000,0 107.411690000000,37.949155000000,0 107.440015000000,37.995016000000,0 107.393770000000,38.015049000000,0 107.331629000000,38.086473000000,0 107.242318000000,38.110625000000,0 107.190293000000,38.154044000000,0 107.138845000000,38.160708000000,0 107.125839000000,38.137112000000,0 107.068899000000,38.139094000000,0 107.014851000000,38.120356000000,0 106.945194000000,38.131707000000,0 106.755879000000,38.181235000000,0 106.728132000000,38.204097000000,0 106.627838000000,38.232529000000,0 106.555291000000,38.263827000000,0 106.482455000000,38.319555000000,0 106.601825000000,38.392475000000,0 106.648648000000,38.472675000000,0 106.662522000000,38.601489000000,0 106.702697000000,38.708270000000,0 106.755879000000,38.748473000000,0 106.837386000000,38.847544000000,0 106.954443000000,38.941133000000,0 106.971496000000,39.016983000000,0 106.967161000000,39.054699000000,0 106.881318000000,39.090262000000,0 106.853571000000,39.116568000000,0 106.825535000000,39.193827000000,0 106.796054000000,39.214238000000,0 106.806748000000,39.318683000000,0 106.781603000000,39.371821000000,0 106.751254000000,39.381558000000,0 106.680731000000,39.355884000000,0 106.602692000000,39.375362000000,0 106.555869000000,39.322227000000,0 106.525232000000,39.308405000000,0 106.506445000000,39.270115000000,0 106.402972000000,39.291744000000,0 106.279845000000,39.262135000000,0 106.295452000000,39.167906000000,0 106.250941000000,39.131493000000,0 106.146023000000,39.153165000000,0 106.098333000000,39.087596000000,0 106.078101000000,39.026592000000,0 106.089373000000,39.015915000000,0 106.060759000000,38.968562000000,0 106.018849000000,38.951108000000,0 105.973183000000,38.911376000000,0 106.002953000000,38.875901000000,0 105.935898000000,38.810074000000,0 105.898613000000,38.789546000000,0 105.905838000000,38.731323000000,0 105.893121000000,38.691110000000,0 105.852946000000,38.641573000000,0 105.875201000000,38.591822000000,0 105.856703000000,38.572127000000,0 105.862773000000,38.526450000000,0 105.836760000000,38.475902000000,0 105.835604000000,38.390321000000,0 105.821730000000,38.368236000000,0 105.865952000000,38.297269000000,0 105.842540000000,38.241164000000,0 105.797163000000,38.217054000000,0 105.775196000000,38.186816000000,0 105.767970000000,38.121618000000,0 105.782133000000,38.082326000000,0 105.839939000000,38.007831000000,0 105.799764000000,37.940124000000,0 105.808724000000,37.875428000000,0 105.760745000000,37.799818000000,0 105.677504000000,37.771942000000,0 105.622010000000,37.777735000000,0 105.616229000000,37.722500000000,0 105.598887000000,37.699307000000,0 105.467378000000,37.694957000000,0 105.403791000000,37.709998000000,0 105.314770000000,37.702025000000,0 105.221991000000,37.677013000000,0 105.111003000000,37.633856000000,0 105.028051000000,37.581054000000,0 104.866482000000,37.566713000000,0 104.806075000000,37.539657000000,0 104.623696000000,37.522584000000,0 104.419640000000,37.511865000000,0 104.407501000000,37.464613000000,0 104.322526000000,37.448431000000,0 104.237840000000,37.411873000000,0 104.183502000000,37.406779000000,0 104.082919000000,37.469340000000,0 103.933490000000,37.574156000000,0 103.871348000000,37.605736000000,0 103.841000000000,37.647458000000,0 103.683189000000,37.777916000000,0 103.636077000000,37.795475000000,0 103.401962000000,37.861868000000,0 103.385487000000,37.946988000000,0 103.368145000000,37.985630000000,0 103.368723000000,38.088996000000,0 103.534916000000,38.156746000000,0 103.507747000000,38.280909000000,0 103.466416000000,38.350995000000,0 103.416413000000,38.405040000000,0 103.859787000000,38.644435000000,0 104.011528000000,38.859138000000,0 104.044478000000,38.894978000000,0 104.167894000000,38.940420000000,0 104.196219000000,38.988148000000,0 104.191017000000,39.042248000000,0 104.207202000000,39.083685000000,0 104.177432000000,39.152100000000,0 104.047657000000,39.297771000000,0 104.073381000000,39.351810000000,0 104.090145000000,39.419788000000,0 103.955745000000,39.457111000000,0 103.848804000000,39.461179000000,0 103.729145000000,39.430049000000,0 103.595324000000,39.386692000000,0 103.428842000000,39.353581000000,0 103.346468000000,39.332503000000,0 103.188079000000,39.215480000000,0 103.133163000000,39.192762000000,0 103.013215000000,39.101106000000,0 102.947027000000,39.106793000000,0 102.583426000000,39.180690000000,0 102.453651000000,39.255219000000,0 102.352201000000,39.231272000000,0 102.286591000000,39.192584000000,0 102.059701000000,39.143574000000,0 102.008254000000,39.125808000000,0 101.897555000000,39.111059000000,0 101.830500000000,39.093462000000,0 101.926169000000,39.000609000000,0 101.955072000000,38.986011000000,0 102.045828000000,38.904603000000,0 102.075020000000,38.891591000000,0 101.941488000000,38.808825000000,0 101.873854000000,38.734003000000,0 101.777029000000,38.660533000000,0 101.679047000000,38.690931000000,0 101.601876000000,38.655168000000,0 101.557654000000,38.715062000000,0 101.412272000000,38.764191000000,0 101.331343000000,38.777227000000,0 101.306197000000,38.801864000000,0 101.341459000000,38.822209000000,0 101.335389000000,38.846830000000,0 101.242032000000,38.861278000000,0 101.237697000000,38.907277000000,0 101.198678000000,38.943270000000,0 101.228737000000,39.020720000000,0 101.117171000000,38.975151000000,0 100.969187000000,38.947011000000,0 100.969476000000,38.996693000000,0 100.901843000000,39.029972000000,0 100.875541000000,39.002389000000,0 100.835077000000,39.026058000000,0 100.829296000000,39.074972000000,0 100.864269000000,39.106971000000,0 100.842880000000,39.200217000000,0 100.842013000000,39.405808000000,0 100.707903000000,39.404569000000,0 100.617436000000,39.387400000000,0 100.499222000000,39.400499000000,0 100.500668000000,39.481335000000,0 100.443150000000,39.485577000000,0 100.326382000000,39.509084000000,0 100.300947000000,39.572318000000,0 100.314242000000,39.606913000000,0 100.250078000000,39.685041000000,0 100.127817000000,39.702137000000,0 100.040819000000,39.757095000000,0 99.904396000000,39.785790000000,0 99.822022000000,39.860024000000,0 99.672593000000,39.887973000000,0 99.487903000000,39.876021000000,0 99.441079000000,39.885864000000,0 99.459577000000,39.898165000000,0 99.524609000000,39.888149000000,0 99.713925000000,39.972102000000,0 99.751210000000,40.006848000000,0 99.833295000000,40.012111000000,0 99.875493000000,40.027196000000,0 99.928386000000,40.064893000000,0 99.955844000000,40.150906000000,0 100.001800000000,40.196933000000,0 100.169727000000,40.277536000000,0 100.169727000000,40.541402000000,0 100.242563000000,40.618639000000,0 100.237360000000,40.716795000000,0 100.108163000000,40.875623000000,0 100.057005000000,40.908001000000,0 99.985903000000,40.909732000000,0 99.673171000000,40.932923000000,0 99.565941000000,40.846695000000,0 99.174882000000,40.858302000000,0 99.173148000000,40.747342000000,0 99.125747000000,40.715233000000,0 99.102046000000,40.676334000000,0 99.041638000000,40.693702000000,0 98.984988000000,40.782904000000,0 98.791049000000,40.705337000000,0 98.807234000000,40.659309000000,0 98.800298000000,40.610293000000,0 98.715611000000,40.661741000000,0 98.687864000000,40.696828000000,0 98.668499000000,40.772845000000,0 98.569940000000,40.746821000000,0 98.628035000000,40.677897000000,0 98.344206000000,40.568375000000,0 98.333223000000,40.919079000000,0 98.250271000000,40.939152000000,0 98.184950000000,40.988098000000,0 98.142463000000,41.001755000000,0 97.971934000000,41.097965000000,0 97.629432000000,41.440546000000,0 97.614114000000,41.477279000000,0 97.847073000000,41.656526000000,0 97.500814000000,42.243866000000,0 97.371328000000,42.456977000000,0 97.172763000000,42.795208000000,0 97.282595000000,42.782097000000,0 97.831754000000,42.706068000000,0 98.195355000000,42.653365000000,0 98.546528000000,42.638202000000,0 98.962733000000,42.606855000000,0 99.507557000000,42.568070000000,0 99.969139000000,42.647806000000,0 100.272622000000,42.636349000000,0 100.325515000000,42.690077000000,0 100.576683000000,42.682837000000,0 100.862824000000,42.671218000000,0 101.155034000000,42.613935000000,0 101.581644000000,42.525209000000,0 101.803620000000,42.503768000000,0 101.981952000000,42.326556000000,0 102.070395000000,42.232166000000,0 102.093807000000,42.223686000000,0 102.449026000000,42.144088000000,0 102.540938000000,42.162256000000,0 102.712045000000,42.152748000000,0 103.021886000000,42.028161000000,0 103.207444000000,41.962796000000,0 103.418437000000,41.882358000000,0 103.868747000000,41.802503000000,0 104.095636000000,41.808649000000,0 104.530050000000,41.874855000000,0 104.524270000000,41.661831000000,0 104.689017000000,41.645231000000,0 104.923133000000,41.654130000000,0 105.009553000000,41.583242000000,0 105.211586000000,41.737931000000,0 105.233841000000,41.751090000000,0 105.291647000000,41.749894000000,0 105.385293000000,41.797209000000,0 105.589638000000,41.888497000000,0 105.741669000000,41.949340000000,0 106.013069000000,42.032074000000,0 106.344877000000,42.149522000000,0 106.613097000000,42.241831000000,0 106.785938000000,42.291494000000,0 107.051269000000,42.319274000000,0 107.271799000000,42.364137000000,0 107.304171000000,42.412688000000,0 107.466317000000,42.458836000000,0 107.501868000000,42.456808000000,0 107.574415000000,42.413026000000,0 107.736561000000,42.415055000000,0 107.939172000000,42.403725000000,0 108.022413000000,42.433315000000,0 108.089179000000,42.436358000000,0 108.238030000000,42.460357000000,0 108.298438000000,42.438386000000,0 108.532842000000,42.442950000000,0 108.704816000000,42.413364000000,0 108.798751000000,42.415225000000,0 108.845574000000,42.395776000000,0 108.983153000000,42.448866000000,0 109.025640000000,42.458498000000,0 109.291549000000,42.435851000000,0 109.383172000000,42.447683000000,0 109.486934000000,42.458667000000,0 109.544162000000,42.472353000000,0 109.684053000000,42.558960000000,0 109.906029000000,42.635843000000,0 110.108351000000,42.642751000000,0 110.139566000000,42.674755000000,0 110.339865000000,42.738543000000,0 110.437268000000,42.781425000000,0 110.469640000000,42.839058000000,0 110.631497000000,42.936056000000,0 110.689303000000,43.021516000000,0 110.687280000000,43.036417000000,0 110.736415000000,43.089631000000,0 110.769943000000,43.099331000000,0 110.820234000000,43.148981000000,0 111.020533000000,43.330020000000,0 111.069668000000,43.358003000000,0 111.150886000000,43.380315000000,0 111.183546000000,43.396127000000,0 111.354075000000,43.436056000000,0 111.400320000000,43.472801000000,0 111.456681000000,43.494405000000,0 111.564489000000,43.490251000000,0 111.643973000000,43.543733000000,0 111.794269000000,43.671931000000,0 111.891673000000,43.674084000000,0 111.950924000000,43.693132000000,0 111.970578000000,43.748420000000,0 111.959884000000,43.823159000000,0 111.870284000000,43.940206000000,0 111.773170000000,44.010587000000,0 111.702357000000,44.033974000000,0 111.663049000000,44.061137000000,0 111.559287000000,44.171309000000,0 111.541656000000,44.206619000000,0 111.534141000000,44.262087000000,0 111.506683000000,44.294228000000,0 111.428645000000,44.319469000000,0 111.415927000000,44.357147000000,0 111.427200000000,44.394310000000,0 111.478358000000,44.488828000000,0 111.514487000000,44.507453000000,0 111.530673000000,44.550233000000,0 111.569981000000,44.576179000000,0 111.560732000000,44.646944000000,0 111.624608000000,44.778296000000,0 111.692241000000,44.860180000000,0 111.764499000000,44.969339000000,0 111.903523000000,45.052245000000,0 112.002661000000,45.090743000000,0 112.071161000000,45.096078000000,0 112.113648000000,45.073115000000,0 112.396610000000,45.064541000000,0 112.438808000000,45.071497000000,0 112.540547000000,45.001090000000,0 112.599799000000,44.930597000000,0 112.712232000000,44.879334000000,0 112.850678000000,44.840694000000,0 112.937965000000,44.840207000000,0 113.037970000000,44.822502000000,0 113.129015000000,44.796990000000,0 113.504177000000,44.777484000000,0 113.540595000000,44.759434000000,0 113.631062000000,44.745446000000,0 113.712280000000,44.788213000000,0 113.798989000000,44.849464000000,0 113.861998000000,44.863264000000,0 113.907376000000,44.915191000000,0 114.065186000000,44.931246000000,0 114.116923000000,44.956860000000,0 114.190915000000,45.036709000000,0 114.313464000000,45.107395000000,0 114.347281000000,45.119356000000,0 114.409712000000,45.179608000000,0 114.459714000000,45.213341000000,0 114.519543000000,45.283647000000,0 114.539776000000,45.326015000000,0 114.551048000000,45.387657000000,0 114.744988000000,45.438304000000,0 114.920719000000,45.386048000000,0 114.974189000000,45.377039000000,0 115.167840000000,45.396342000000,0 115.364670000000,45.392321000000,0 115.530285000000,45.428982000000,0 115.699657000000,45.459514000000,0 115.863827000000,45.572981000000,0 115.936663000000,45.632912000000,0 116.026841000000,45.661093000000,0 116.035512000000,45.685099000000,0 116.115573000000,45.679659000000,0 116.174246000000,45.688619000000,0 116.217312000000,45.722369000000,0 116.223093000000,45.747308000000,0 116.260956000000,45.775910000000,0 116.286969000000,45.775112000000,0 116.288703000000,45.838976000000,0 116.243036000000,45.876142000000,0 116.271650000000,45.966802000000,0 116.414142000000,46.134028000000,0 116.439577000000,46.137679000000,0 116.536113000000,46.232663000000,0 116.573398000000,46.258957000000,0 116.585249000000,46.292361000000,0 116.673403000000,46.325112000000,0 116.745661000000,46.327800000000,0 116.813294000000,46.355946000000,0 116.826590000000,46.380442000000,0 117.097412000000,46.357210000000,0 117.247708000000,46.367010000000,0 117.371991000000,46.360214000000,0 117.375749000000,46.416456000000,0 117.392224000000,46.463176000000,0 117.447718000000,46.528138000000,0 117.419971000000,46.582003000000,0 117.495697000000,46.600576000000,0 117.595991000000,46.603566000000,0 117.630096000000,46.591605000000,0 117.641079000000,46.558227000000,0 117.703799000000,46.516791000000,0 117.769987000000,46.537592000000,0 117.813342000000,46.530817000000,0 117.870859000000,46.549879000000,0 117.868547000000,46.575706000000,0 117.914503000000,46.607972000000,0 117.982425000000,46.614895000000,0 117.993119000000,46.631569000000,0 118.046590000000,46.631412000000,0 118.124339000000,46.678261000000,0 118.192840000000,46.682818000000,0 118.238796000000,46.709524000000,0 118.316545000000,46.739513000000,0 118.410191000000,46.728210000000,0 118.446609000000,46.704498000000,0 118.585922000000,46.693031000000,0 118.638815000000,46.721459000000,0 118.676967000000,46.698058000000,0 118.787955000000,46.687061000000,0 118.788244000000,46.717533000000,0 118.845183000000,46.771838000000,0 118.914550000000,46.774975000000,0 118.912527000000,46.733391000000,0 118.950968000000,46.722087000000,0 119.011376000000,46.745634000000,0 119.040857000000,46.708896000000,0 119.123231000000,46.642892000000,0 119.152423000000,46.658300000000,0 119.262833000000,46.648867000000,0 119.313413000000,46.610804000000,0 119.357924000000,46.619300000000,0 119.374110000000,46.603251000000,0 119.431916000000,46.638646000000,0 119.491746000000,46.629210000000,0 119.558223000000,46.633771000000,0 119.598976000000,46.618199000000,0 119.656782000000,46.625592000000,0 119.677593000000,46.584680000000,0 119.739734000000,46.615367000000,0 119.783667000000,46.625907000000,0 119.813437000000,46.668360000000,0 119.911708000000,46.669775000000,0 119.935119000000,46.712822000000,0 119.916910000000,46.758345000000,0 119.936275000000,46.790189000000,0 119.920379000000,46.853193000000,0 119.928761000000,46.903762000000,0 119.859682000000,46.917062000000,0 119.844942000000,46.965070000000,0 119.794939000000,47.013035000000,0 119.806500000000,47.054871000000,0 119.762857000000,47.130967000000,0 119.716034000000,47.195594000000,0 119.621810000000,47.248483000000,0 119.565159000000,47.249727000000,0 119.561113000000,47.301164000000,0 119.483364000000,47.338118000000,0 119.444633000000,47.371013000000,0 119.386827000000,47.397532000000,0 119.354745000000,47.430080000000,0 119.322084000000,47.427136000000,0 119.365728000000,47.477472000000,0 119.205316000000,47.520335000000,0 119.152134000000,47.540594000000,0 119.134214000000,47.664451000000,0 118.773214000000,47.771085000000,0 118.568002000000,47.992130000000,0 118.441985000000,47.995808000000,0 118.424354000000,48.014810000000,0 118.350651000000,48.006076000000,0 118.276370000000,48.009294000000,0 118.240241000000,48.040544000000,0 118.107576000000,48.031049000000,0 118.015375000000,48.011286000000,0 117.926353000000,48.015883000000,0 117.886756000000,48.025228000000,0 117.813342000000,48.016189000000,0 117.528935000000,47.782937000000,0 117.493674000000,47.758461000000,0 117.384131000000,47.641154000000,0 117.094811000000,47.824013000000,0 116.879193000000,47.893936000000,0 116.791328000000,47.897621000000,0 116.669935000000,47.890557000000,0 116.452872000000,47.837544000000,0 116.265869000000,47.876733000000,0 116.110949000000,47.811709000000,0 115.968167000000,47.689897000000,0 115.938975000000,47.683113000000,0 115.580577000000,47.921725000000,0 115.529418000000,48.155270000000,0 115.822785000000,48.259371000000,0 115.799373000000,48.515059000000,0 115.830299000000,48.560100000000,0 116.078288000000,48.822421000000,0 116.048518000000,48.873516000000,0 116.350845000000,49.317592000000,0 116.717914000000,49.847283000000,0 116.736701000000,49.847579000000,0 117.069087000000,49.695514000000,0 117.278056000000,49.636364000000,0 117.485003000000,49.633100000000,0 117.638189000000,49.574914000000,0 117.809585000000,49.521268000000,0 117.849471000000,49.551442000000,0 117.866524000000,49.592140000000,0 117.950921000000,49.596000000000,0 117.980691000000,49.621231000000,0 118.082719000000,49.616631000000,0 118.118848000000,49.666466000000,0 118.154688000000,49.660240000000,0 118.185325000000,49.687809000000,0 118.205846000000,49.684697000000,0 118.220876000000,49.730022000000,0 118.282439000000,49.743640000000,0 118.315967000000,49.767168000000,0 118.388514000000,49.785952000000,0 118.402387000000,49.811381000000,0 118.385334000000,49.826898000000,0 118.469732000000,49.825715000000,0 118.496033000000,49.846249000000,0 118.485917000000,49.866922000000,0 118.523202000000,49.881093000000,0 118.572916000000,49.930952000000,0 118.617715000000,49.927856000000,0 118.651243000000,49.950852000000,0 118.741999000000,49.946578000000,0 118.763098000000,49.959694000000,0 118.824662000000,49.963525000000,0 118.965420000000,49.988860000000,0 119.050395000000,49.980613000000,0 119.092016000000,49.985915000000,0 119.123809000000,50.018156000000,0 119.188263000000,50.054493000000,0 119.191731000000,50.088745000000,0 119.234797000000,50.074782000000,0 119.290291000000,50.121651000000,0 119.309656000000,50.161285000000,0 119.334224000000,50.162899000000,0 119.359658000000,50.197074000000,0 119.318616000000,50.220381000000,0 119.350987000000,50.303548000000,0 119.386827000000,50.321685000000,0 119.358502000000,50.358961000000,0 119.277284000000,50.365974000000,0 119.237109000000,50.346539000000,0 119.233930000000,50.365098000000,0 119.195489000000,50.349316000000,0 119.155602000000,50.364659000000,0 119.176702000000,50.378683000000,0 119.146064000000,50.411098000000,0 119.190864000000,50.422774000000,0 119.206761000000,50.410368000000,0 119.239999000000,50.459095000000,0 119.264567000000,50.469447000000,0 119.238265000000,50.505587000000,0 119.262544000000,50.510831000000,0 119.266590000000,50.560910000000,0 119.299251000000,50.583893000000,0 119.282487000000,50.604830000000,0 119.361393000000,50.632732000000,0 119.394053000000,50.667296000000,0 119.387405000000,50.682827000000,0 119.433072000000,50.684568000000,0 119.496659000000,50.745478000000,0 119.515735000000,50.814124000000,0 119.498971000000,50.827726000000,0 119.491457000000,50.878913000000,0 119.569784000000,50.933797000000,0 119.598687000000,50.984723000000,0 119.629902000000,51.008508000000,0 119.683084000000,51.018883000000,0 119.725572000000,51.049562000000,0 119.722681000000,51.076192000000,0 119.764302000000,51.092594000000,0 119.785112000000,51.163603000000,0 119.760255000000,51.213272000000,0 119.786268000000,51.225466000000,0 119.821530000000,51.214420000000,0 119.797251000000,51.247120000000,0 119.827889000000,51.263749000000,0 119.810836000000,51.278508000000,0 119.879336000000,51.296700000000,0 119.883961000000,51.336926000000,0 119.922402000000,51.345225000000,0 119.945813000000,51.365965000000,0 119.912864000000,51.375259000000,0 119.922113000000,51.396557000000,0 119.971248000000,51.400415000000,0 119.982809000000,51.444976000000,0 120.002464000000,51.459392000000,0 119.985989000000,51.505748000000,0 120.046685000000,51.545364000000,0 120.035124000000,51.585799000000,0 120.066050000000,51.639135000000,0 120.102179000000,51.650221000000,0 120.094375000000,51.682043000000,0 120.172414000000,51.679912000000,0 120.226174000000,51.717674000000,0 120.293518000000,51.750724000000,0 120.311149000000,51.781767000000,0 120.363463000000,51.789984000000,0 120.406818000000,51.816469000000,0 120.400459000000,51.833457000000,0 120.459422000000,51.845061000000,0 120.496996000000,51.887350000000,0 120.533414000000,51.879150000000,0 120.547865000000,51.907137000000,0 120.660876000000,51.929457000000,0 120.662611000000,51.957978000000,0 120.701341000000,51.980555000000,0 120.719550000000,52.010171000000,0 120.686022000000,52.034976000000,0 120.769552000000,52.114093000000,0 120.763193000000,52.142777000000,0 120.785738000000,52.165542000000,0 120.747008000000,52.204020000000,0 120.758569000000,52.256346000000,0 120.717526000000,52.260832000000,0 120.696138000000,52.289842000000,0 120.628505000000,52.322753000000,0 120.624169000000,52.361514000000,0 120.649315000000,52.363752000000,0 120.648448000000,52.389619000000,0 120.688045000000,52.427623000000,0 120.683132000000,52.466571000000,0 120.706543000000,52.490147000000,0 120.692959000000,52.518309000000,0 120.734290000000,52.536842000000,0 120.629372000000,52.570265000000,0 120.596711000000,52.592811000000,0 120.561161000000,52.595593000000,0 120.483700000000,52.630084000000,0 120.437166000000,52.639675000000,0 120.396702000000,52.616319000000,0 120.286292000000,52.622993000000,0 120.185998000000,52.579312000000,0 120.080502000000,52.585436000000,0 120.049287000000,52.598515000000,0 120.035124000000,52.646346000000,0 120.070675000000,52.707587000000,0 120.031367000000,52.772762000000,0 120.099000000000,52.787309000000,0 120.141198000000,52.812927000000,0 120.187732000000,52.807943000000,0 120.222416000000,52.842819000000,0 120.296986000000,52.869926000000,0 120.294963000000,52.890659000000,0 120.344676000000,52.900884000000,0 120.363174000000,52.941345000000,0 120.408263000000,52.956387000000,0 120.453063000000,53.010028000000,0 120.529078000000,53.045981000000,0 120.541507000000,53.070346000000,0 120.611163000000,53.100336000000,0 120.642089000000,53.105149000000,0 120.660009000000,53.137038000000,0 120.686889000000,53.142396000000,0 120.690936000000,53.172611000000,0 120.748164000000,53.210348000000,0 120.814063000000,53.239692000000,0 120.840076000000,53.241063000000,0 120.822734000000,53.270112000000,0 120.931120000000,53.286957000000,0 120.954821000000,53.298594000000,0 121.047022000000,53.288874000000,0 121.096735000000,53.307354000000,0 121.129396000000,53.277371000000,0 121.153674000000,53.285314000000,0 121.234603000000,53.280932000000,0 121.285473000000,53.291338000000,0 121.329405000000,53.322816000000,0 121.416115000000,53.319395000000,0 121.499356000000,53.337178000000,0 121.511495000000,53.317480000000,0 121.579706000000,53.289285000000,0 121.615257000000,53.259016000000,0 121.648207000000,53.260797000000,0 121.678844000000,53.241337000000,0 121.679133000000,53.199511000000,0 121.665259000000,53.170551000000,0 121.719597000000,53.146243000000,0 121.753125000000,53.147342000000,0 121.784629000000,53.104599000000,0 121.775669000000,53.089746000000,0 121.814978000000,53.069108000000,0 121.785496000000,53.018571000000,0 121.715551000000,52.998037000000,0 121.677399000000,52.948108000000,0 121.662369000000,52.912487000000,0 121.610344000000,52.892317000000,0 121.620171000000,52.851119000000,0 121.591268000000,52.824693000000,0 121.482014000000,52.774286000000,0 121.454845000000,52.735333000000,0 121.373049000000,52.683157000000,0 121.321023000000,52.678852000000,0 121.292698000000,52.651765000000,0 121.182289000000,52.596289000000,0 121.232002000000,52.577642000000,0 121.277091000000,52.587662000000,0 121.325648000000,52.572631000000,0 121.353106000000,52.535727000000,0 121.409756000000,52.523466000000,0 121.416404000000,52.499350000000,0 121.495020000000,52.484847000000,0 121.518721000000,52.456663000000,0 121.565255000000,52.460292000000,0 121.590400000000,52.443123000000,0 121.640114000000,52.444379000000,0 121.678844000000,52.419801000000,0 121.658612000000,52.390318000000,0 121.715551000000,52.343047000000,0 121.714106000000,52.318133000000,0 121.769311000000,52.308191000000,0 121.841279000000,52.282697000000,0 121.900820000000,52.280595000000,0 121.947643000000,52.298387000000,0 121.976835000000,52.343747000000,0 122.035508000000,52.377596000000,0 122.040422000000,52.413096000000,0 122.091291000000,52.427204000000,0 122.169330000000,52.513570000000,0 122.207771000000,52.469222000000,0 122.310377000000,52.475222000000,0 122.342170000000,52.414074000000,0 122.367027000000,52.413794000000,0 122.416451000000,52.374240000000,0 122.439863000000,52.393672000000,0 122.484085000000,52.341508000000,0 122.478304000000,52.296286000000,0 122.560678000000,52.282556000000,0 122.585824000000,52.266440000000,0 122.678892000000,52.276671000000,0 122.710685000000,52.256206000000,0 122.760976000000,52.266860000000,0 122.787278000000,52.252701000000,0 122.766179000000,52.232646000000,0 122.769358000000,52.179729000000,0 122.738143000000,52.153458000000,0 122.690742000000,52.140387000000,0 122.629178000000,52.136592000000,0 122.643919000000,52.111702000000,0 122.625132000000,52.067513000000,0 122.650567000000,52.059064000000,0 122.665018000000,51.998750000000,0 122.683805000000,51.974489000000,0 122.726293000000,51.978862000000,0 122.729472000000,51.919287000000,0 122.706061000000,51.890177000000,0 122.725715000000,51.878160000000,0 122.732651000000,51.832608000000,0 122.771960000000,51.779499000000,0 122.749993000000,51.747746000000,0 122.774850000000,51.703907000000,0 122.816181000000,51.655195000000,0 122.820806000000,51.633164000000,0 122.856357000000,51.606714000000,0 122.832656000000,51.581672000000,0 122.873988000000,51.561172000000,0 122.880057000000,51.511023000000,0 122.854623000000,51.477655000000,0 122.900289000000,51.445261000000,0 122.898555000000,51.422558000000,0 122.965899000000,51.386981000000,0 122.960119000000,51.361675000000,0 122.978039000000,51.331489000000,0 123.014457000000,51.310017000000,0 123.059257000000,51.321899000000,0 123.153770000000,51.300853000000,0 123.231519000000,51.268621000000,0 123.294239000000,51.254145000000,0 123.339617000000,51.272490000000,0 123.376613000000,51.266901000000,0 123.463033000000,51.286817000000,0 123.582692000000,51.294695000000,0 123.582403000000,51.306867000000,0 123.661886000000,51.319180000000,0 123.660441000000,51.342793000000,0 123.711022000000,51.398272000000,0 123.794552000000,51.361246000000,0 123.842531000000,51.367538000000,0 123.887620000000,51.320897000000,0 123.926061000000,51.300710000000,0 123.994561000000,51.322758000000,0 124.071733000000,51.320754000000,0 124.090231000000,51.341362000000,0 124.128094000000,51.347514000000,0 124.192548000000,51.339359000000,0 124.239371000000,51.344653000000,0 124.271453000000,51.308299000000,0 124.297466000000,51.298562000000,0 124.406431000000,51.272060000000,0 124.430131000000,51.301283000000,0 124.426663000000,51.331918000000,0 124.443716000000,51.358099000000,0 124.490250000000,51.380406000000,0 124.555860000000,51.375402000000,0 124.587075000000,51.363677000000,0 124.624649000000,51.328626000000,0 124.693438000000,51.332777000000,0 124.751245000000,51.356955000000,0 124.783616000000,51.392269000000,0 124.864545000000,51.379691000000,0 124.885066000000,51.408131000000,0 124.942583000000,51.447403000000,0 124.917727000000,51.474231000000,0 124.928710000000,51.498477000000,0 124.983626000000,51.508315000000,0 125.004436000000,51.529265000000,0 125.047502000000,51.529693000000,0 125.072936000000,51.553482000000,0 125.059930000000,51.596756000000,0 125.098949000000,51.658321000000,0 125.128430000000,51.659031000000,0 125.130453000000,51.635439000000,0 125.176120000000,51.639277000000,0 125.289132000000,51.633875000000,0 125.316011000000,51.609986000000,0 125.351562000000,51.623923000000,0 125.379598000000,51.586795000000,0 125.424687000000,51.563023000000,0 125.524114000000,51.491490000000,0 125.568914000000,51.439408000000,0 125.622384000000,51.399701000000,0 125.625853000000,51.379262000000,0 125.673254000000,51.341505000000,0 125.695509000000,51.337785000000,0 125.711117000000,51.302715000000,0 125.764299000000,51.261169000000,0 125.757940000000,51.227331000000,0 125.817769000000,51.227044000000,0 125.851875000000,51.212555000000,0 125.868928000000,51.140328000000,0 125.908814000000,51.139179000000,0 125.946388000000,51.108127000000,0 125.990032000000,51.119199000000,0 125.976158000000,51.084538000000,0 126.009108000000,51.057193000000,0 126.057087000000,51.045242000000,0 126.033676000000,51.010525000000,0 126.042347000000,50.981839000000,0 126.068359000000,50.967850000000,0 126.044081000000,50.928022000000,0 126.021247000000,50.927878000000,0 125.995524000000,50.897118000000,0 125.996391000000,50.871542000000,0 125.958817000000,50.900296000000,0 125.945521000000,50.855495000000,0 125.906791000000,50.855206000000,0 125.920375000000,50.831343000000,0 125.878466000000,50.816585000000,0 125.889449000000,50.804862000000,0 125.831932000000,50.784882000000,0 125.840025000000,50.756202000000,0 125.805341000000,50.772717000000,0 125.758518000000,50.747217000000,0 125.794647000000,50.739970000000,0 125.782219000000,50.724024000000,0 125.825284000000,50.704880000000,0 125.787421000000,50.678037000000,0 125.814301000000,50.624596000000,0 125.808231000000,50.603667000000,0 125.829331000000,50.561637000000,0 125.752737000000,50.506898000000,0 125.740598000000,50.523356000000,0 125.654467000000,50.471196000000,0 125.632211000000,50.443928000000,0 125.590880000000,50.452242000000,0 125.561977000000,50.438239000000,0 125.574694000000,50.401318000000,0 125.536542000000,50.420001000000,0 125.513131000000,50.409346000000,0 125.537409000000,50.379852000000,0 125.522669000000,50.367143000000,0 125.530473000000,50.331043000000,0 125.466308000000,50.297403000000,0 125.466019000000,50.266961000000,0 125.442896000000,50.261690000000,0 125.464573000000,50.229905000000,0 125.388558000000,50.178449000000,0 125.334220000000,50.164953000000,0 125.375841000000,50.137362000000,0 125.313121000000,50.139417000000,0 125.277570000000,50.126350000000,0 125.257627000000,50.100794000000,0 125.289132000000,50.091243000000,0 125.278726000000,50.071842000000,0 125.337689000000,50.059639000000,0 125.316011000000,50.045668000000,0 125.285663000000,50.058757000000,0 125.256182000000,50.039049000000,0 125.286819000000,50.034489000000,0 125.296646000000,50.009472000000,0 125.242019000000,49.987829000000,0 125.231614000000,49.957631000000,0 125.189994000000,49.959841000000,0 125.225545000000,49.924612000000,0 125.212827000000,49.907209000000,0 125.241730000000,49.866775000000,0 125.224100000000,49.835762000000,0 125.177855000000,49.829409000000,0 125.222943000000,49.798964000000,0 125.228146000000,49.774564000000,0 125.205313000000,49.733575000000,0 125.224967000000,49.726468000000,0 125.219764000000,49.669135000000,0 125.189994000000,49.649860000000,0 125.164559000000,49.669431000000,0 125.127274000000,49.655050000000,0 125.154154000000,49.616779000000,0 125.168317000000,49.629985000000,0 125.205313000000,49.594070000000,0 125.226412000000,49.596000000000,0 125.235661000000,49.540890000000,0 125.212538000000,49.541336000000,0 125.228435000000,49.486909000000,0 125.263986000000,49.461460000000,0 125.257049000000,49.393976000000,0 125.277281000000,49.380409000000,0 125.257049000000,49.359528000000,0 125.258205000000,49.314008000000,0 125.214851000000,49.280251000000,0 125.227568000000,49.248864000000,0 125.219475000000,49.189023000000,0 125.185369000000,49.185280000000,0 125.160224000000,49.146341000000,0 125.117447000000,49.125961000000,0 125.039409000000,49.151885000000,0 125.039987000000,49.176297000000,0 124.982759000000,49.162520000000,0 124.906454000000,49.183933000000,0 124.860787000000,49.166563000000,0 124.847492000000,49.129708000000,0 124.809340000000,49.115918000000,0 124.828994000000,49.071974000000,0 124.808184000000,49.020481000000,0 124.765407000000,48.981262000000,0 124.744308000000,48.920496000000,0 124.711936000000,48.921248000000,0 124.714827000000,48.886771000000,0 124.697196000000,48.841870000000,0 124.654130000000,48.834333000000,0 124.653552000000,48.777161000000,0 124.613955000000,48.751193000000,0 124.624938000000,48.700275000000,0 124.601816000000,48.632356000000,0 124.578982000000,48.596468000000,0 124.518575000000,48.554188000000,0 124.548923000000,48.531290000000,0 124.534471000000,48.517790000000,0 124.555571000000,48.467851000000,0 124.508748000000,48.448257000000,0 124.526378000000,48.421664000000,0 124.520020000000,48.374521000000,0 124.543720000000,48.362805000000,0 124.541119000000,48.335253000000,0 124.579560000000,48.297479000000,0 124.558750000000,48.268215000000,0 124.578982000000,48.262116000000,0 124.547189000000,48.200935000000,0 124.512505000000,48.164589000000,0 124.531003000000,48.148699000000,0 124.488515000000,48.126383000000,0 124.463948000000,48.097633000000,0 124.416258000000,48.087995000000,0 124.430131000000,48.121032000000,0 124.472619000000,48.134485000000,0 124.476954000000,48.164131000000,0 124.410477000000,48.190401000000,0 124.428397000000,48.230085000000,0 124.404985000000,48.264251000000,0 124.365099000000,48.284678000000,0 124.355850000000,48.314846000000,0 124.318854000000,48.347128000000,0 124.331571000000,48.379846000000,0 124.306715000000,48.399618000000,0 124.330126000000,48.435646000000,0 124.302668000000,48.456764000000,0 124.314230000000,48.503830000000,0 124.259025000000,48.536447000000,0 124.242550000000,48.522189000000,0 124.083294000000,48.438533000000,0 123.979821000000,48.363718000000,0 123.866231000000,48.274770000000,0 123.746283000000,48.197577000000,0 123.705241000000,48.152061000000,0 123.619110000000,48.077896000000,0 123.537603000000,48.021858000000,0 123.429505000000,47.991516000000,0 123.289036000000,47.943209000000,0 123.254642000000,47.874736000000,0 123.215044000000,47.825550000000,0 123.161863000000,47.782014000000,0 123.075442000000,47.757691000000,0 122.980929000000,47.717179000000,0 122.857513000000,47.678332000000,0 122.763289000000,47.613523000000,0 122.593049000000,47.547087000000,0 122.543336000000,47.495426000000,0 122.505762000000,47.400477000000,0 122.418186000000,47.350378000000,0 122.420787000000,47.330201000000,0 122.460095000000,47.298523000000,0 122.462696000000,47.278482000000,0 122.509808000000,47.242886000000,0 122.556342000000,47.172556000000,0 122.600275000000,47.151688000000,0 122.610969000000,47.129876000000,0 122.679759000000,47.094180000000,0 122.698835000000,47.098390000000,0 122.821962000000,47.065637000000,0 122.852021000000,47.072346000000,0 122.845952000000,47.046756000000,0 122.778318000000,47.002883000000,0 122.774850000000,46.973979000000,0 122.797394000000,46.938178000000,0 122.839304000000,46.936927000000,0 122.895376000000,46.960224000000,0 122.893642000000,46.895154000000,0 122.907226000000,46.807906000000,0 122.996537000000,46.761640000000,0 123.026596000000,46.718789000000,0 123.077176000000,46.745006000000,0 123.103478000000,46.734803000000,0 123.171112000000,46.743907000000,0 123.186430000000,46.786739000000,0 123.230941000000,46.859928000000,0 123.308979000000,46.862120000000,0 123.341640000000,46.826872000000,0 123.374589000000,46.837684000000,0 123.406672000000,46.906422000000,0 123.404649000000,46.935519000000,0 123.360427000000,46.971009000000,0 123.304066000000,46.964913000000,0 123.301754000000,46.999759000000,0 123.336437000000,46.989136000000,0 123.427482000000,46.934425000000,0 123.487890000000,46.959599000000,0 123.527776000000,46.958035000000,0 123.522284000000,46.922224000000,0 123.483843000000,46.844734000000,0 123.514192000000,46.826088000000,0 123.562749000000,46.825931000000,0 123.576911000000,46.890615000000,0 123.605525000000,46.891241000000,0 123.599167000000,46.864939000000,0 123.625758000000,46.847710000000,0 123.580091000000,46.827969000000,0 123.629226000000,46.813550000000,0 123.631827000000,46.729466000000,0 123.604658000000,46.690046000000,0 123.482109000000,46.686903000000,0 123.366497000000,46.677790000000,0 123.277475000000,46.661601000000,0 123.279209000000,46.616940000000,0 123.228340000000,46.588300000000,0 123.181517000000,46.613636000000,0 123.098565000000,46.603094000000,0 123.077755000000,46.622132000000,0 123.045672000000,46.617255000000,0 123.052898000000,46.580114000000,0 123.007231000000,46.576966000000,0 123.011566000000,46.434928000000,0 123.094807000000,46.342191000000,0 123.140474000000,46.300274000000,0 123.178626000000,46.248029000000,0 123.128624000000,46.210478000000,0 123.127757000000,46.174645000000,0 123.102900000000,46.171949000000,0 123.112438000000,46.130060000000,0 123.069951000000,46.123552000000,0 123.045672000000,46.100052000000,0 122.793059000000,46.073205000000,0 122.828610000000,45.912328000000,0 122.800285000000,45.856685000000,0 122.752305000000,45.834827000000,0 122.792481000000,45.766165000000,0 122.751149000000,45.736119000000,0 122.741900000000,45.705097000000,0 122.671377000000,45.700618000000,0 122.640739000000,45.771118000000,0 122.603454000000,45.778147000000,0 122.554897000000,45.821420000000,0 122.505762000000,45.786293000000,0 122.495935000000,45.858280000000,0 122.445933000000,45.916950000000,0 122.362114000000,45.917428000000,0 122.373097000000,45.856047000000,0 122.337546000000,45.860035000000,0 122.320782000000,45.830518000000,0 122.262687000000,45.794917000000,0 122.200834000000,45.856844000000,0 122.091580000000,45.882042000000,0 122.083488000000,45.917268000000,0 122.040133000000,45.959001000000,0 121.923653000000,46.004838000000,0 121.863824000000,46.002611000000,0 121.845037000000,46.023448000000,0 121.761796000000,45.998951000000,0 121.809197000000,45.961548000000,0 121.821336000000,45.918224000000,0 121.817290000000,45.875664000000,0 121.784918000000,45.860194000000,0 121.754281000000,45.794917000000,0 121.690116000000,45.762810000000,0 121.656878000000,45.770159000000,0 121.644449000000,45.752422000000,0 121.714106000000,45.701738000000,0 121.811220000000,45.687019000000,0 121.812376000000,45.704777000000,0 121.867003000000,45.719810000000,0 121.934058000000,45.710535000000,0 121.970187000000,45.692779000000,0 122.003426000000,45.623302000000,0 121.996200000000,45.598948000000,0 121.966430000000,45.596064000000,0 121.993310000000,45.552936000000,0 122.002559000000,45.507850000000,0 122.023369000000,45.490190000000,0 122.163549000000,45.443768000000,0 122.179735000000,45.409368000000,0 122.146785000000,45.374465000000,0 122.147363000000,45.295571000000,0 122.238986000000,45.276234000000,0 122.230026000000,45.206887000000,0 122.192741000000,45.180738000000,0 122.143317000000,45.182999000000,0 122.109789000000,45.141978000000,0 122.119327000000,45.068585000000,0 122.098806000000,45.021493000000,0 122.074528000000,45.006597000000,0 122.086667000000,44.952970000000,0 122.079152000000,44.914217000000,0 122.049671000000,44.912758000000,0 122.114992000000,44.776671000000,0 122.169041000000,44.770167000000,0 122.142739000000,44.753741000000,0 122.110656000000,44.767890000000,0 122.102853000000,44.736335000000,0 122.152566000000,44.743819000000,0 122.161526000000,44.728199000000,0 122.117304000000,44.702158000000,0 122.103142000000,44.673987000000,0 122.131756000000,44.577485000000,0 122.195921000000,44.559862000000,0 122.223957000000,44.526234000000,0 122.228003000000,44.480168000000,0 122.286098000000,44.477717000000,0 122.294480000000,44.411000000000,0 122.291590000000,44.310292000000,0 122.271358000000,44.255690000000,0 122.319337000000,44.232883000000,0 122.483218000000,44.236985000000,0 122.512988000000,44.250276000000,0 122.641896000000,44.283407000000,0 122.675423000000,44.285703000000,0 122.760687000000,44.369755000000,0 122.856068000000,44.398237000000,0 123.024862000000,44.492913000000,0 123.124867000000,44.509576000000,0 123.124000000000,44.457939000000,0 123.142208000000,44.428177000000,0 123.114461000000,44.402492000000,0 123.127179000000,44.368773000000,0 123.196835000000,44.345027000000,0 123.277186000000,44.252573000000,0 123.287302000000,44.213350000000,0 123.323720000000,44.179851000000,0 123.386440000000,44.161944000000,0 123.350600000000,44.092565000000,0 123.328344000000,44.083846000000,0 123.332391000000,44.028375000000,0 123.400891000000,43.979280000000,0 123.375168000000,43.965599000000,0 123.428349000000,43.927340000000,0 123.443957000000,43.877336000000,0 123.468236000000,43.853062000000,0 123.463322000000,43.819524000000,0 123.496850000000,43.785636000000,0 123.482687000000,43.737830000000,0 123.517371000000,43.713830000000,0 123.537314000000,43.649727000000,0 123.510723000000,43.625360000000,0 123.510434000000,43.592192000000,0 123.421123000000,43.598329000000,0 123.461010000000,43.568631000000,0 123.452339000000,43.545726000000,0 123.352912000000,43.567636000000,0 123.304644000000,43.550706000000,0 123.329790000000,43.518991000000,0 123.315916000000,43.492079000000,0 123.375746000000,43.476624000000,0 123.419967000000,43.410105000000,0 123.441934000000,43.437719000000,0 123.486734000000,43.445369000000,0 123.519683000000,43.402451000000,0 123.545118000000,43.415097000000,0 123.608705000000,43.366329000000,0 123.703796000000,43.370659000000,0 123.696281000000,43.281351000000,0 123.666800000000,43.268177000000,0 123.676916000000,43.224132000000,0 123.646279000000,43.213282000000,0 123.667956000000,43.180890000000,0 123.636163000000,43.141461000000,0 123.627203000000,43.080765000000,0 123.572576000000,43.004601000000,0 123.537603000000,43.007113000000,0 123.471993000000,43.042778000000,0 123.321986000000,43.000748000000,0 123.259555000000,42.993377000000,0 123.184118000000,42.925994000000,0 123.188742000000,42.895799000000,0 123.171112000000,42.851653000000,0 123.227473000000,42.832340000000,0 123.084113000000,42.788485000000,0 123.058389000000,42.769152000000,0 122.980351000000,42.777558000000,0 122.945956000000,42.753681000000,0 122.928904000000,42.772178000000,0 122.887283000000,42.770161000000,0 122.846530000000,42.720204000000,0 122.732362000000,42.786468000000,0 122.625132000000,42.773187000000,0 122.580910000000,42.789662000000,0 122.563857000000,42.825957000000,0 122.436973000000,42.842921000000,0 122.358356000000,42.835867000000,0 122.349974000000,42.821589000000,0 122.374831000000,42.774868000000,0 122.461540000000,42.758054000000,0 122.399688000000,42.712127000000,0 122.398531000000,42.686709000000,0 122.341303000000,42.671218000000,0 122.307776000000,42.690413000000,0 122.259507000000,42.696642000000,0 122.203724000000,42.732151000000,0 122.196210000000,42.690918000000,0 122.133201000000,42.689403000000,0 122.060943000000,42.723402000000,0 122.018745000000,42.699167000000,0 121.992443000000,42.704890000000,0 121.940417000000,42.688561000000,0 121.916139000000,42.657239000000,0 121.921341000000,42.606180000000,0 121.869315000000,42.527910000000,0 121.828851000000,42.531961000000,0 121.818157000000,42.504781000000,0 121.747344000000,42.484516000000,0 121.711215000000,42.443626000000,0 121.666127000000,42.437203000000,0 121.637802000000,42.480462000000,0 121.605141000000,42.493974000000,0 121.607742000000,42.516094000000,0 121.570168000000,42.486880000000,0 121.385188000000,42.473029000000,0 121.304549000000,42.435682000000,0 121.284895000000,42.387825000000,0 121.218706000000,42.371921000000,0 121.121592000000,42.280988000000,0 121.087197000000,42.278446000000,0 121.069277000000,42.252682000000,0 121.028813000000,42.242510000000,0 120.936034000000,42.279802000000,0 120.883141000000,42.269803000000,0 120.883719000000,42.242679000000,0 120.829382000000,42.252513000000,0 120.820711000000,42.228095000000,0 120.745273000000,42.223516000000,0 120.722151000000,42.203668000000,0 120.624748000000,42.154616000000,0 120.584283000000,42.167180000000,0 120.466647000000,42.105356000000,0 120.493527000000,42.072551000000,0 120.450751000000,42.057248000000,0 120.456531000000,42.016251000000,0 120.374447000000,41.994465000000,0 120.286870000000,41.934858000000,0 120.260279000000,41.904182000000,0 120.300455000000,41.888156000000,0 120.251608000000,41.883893000000,0 120.127036000000,41.772616000000,0 120.138308000000,41.729214000000,0 120.096110000000,41.697070000000,0 120.036858000000,41.708015000000,0 120.024719000000,41.738615000000,0 120.050443000000,41.776033000000,0 120.041772000000,41.818721000000,0 120.023274000000,41.816502000000,0 119.985122000000,41.904693000000,0 119.954484000000,41.920374000000,0 119.954484000000,41.968245000000,0 119.924425000000,41.989188000000,0 119.869798000000,42.083431000000,0 119.845520000000,42.097199000000,0 119.839739000000,42.148673000000,0 119.854769000000,42.170235000000,0 119.846676000000,42.215204000000,0 119.744648000000,42.211642000000,0 119.719791000000,42.229452000000,0 119.642331000000,42.240644000000,0 119.608514000000,42.277091000000,0 119.541459000000,42.292171000000,0 119.572096000000,42.359398000000,0 119.502440000000,42.387994000000,0 119.482497000000,42.347042000000,0 119.431916000000,42.316564000000,0 119.337114000000,42.294205000000,0 119.284510000000,42.265227000000,0 119.237976000000,42.200954000000,0 119.276417000000,42.186021000000,0 119.304453000000,42.128972000000,0 119.350120000000,42.118949000000,0 119.385093000000,42.089550000000,0 119.374399000000,42.021015000000,0 119.324686000000,41.969267000000,0 119.341160000000,41.922419000000,0 119.334513000000,41.869397000000,0 119.312835000000,41.805747000000,0 119.293470000000,41.792257000000,0 119.317749000000,41.763221000000,0 119.299829000000,41.711434000000,0 119.307922000000,41.657553000000,0 119.342606000000,41.618011000000,0 119.416019000000,41.590095000000,0 119.414863000000,41.562338000000,0 119.361971000000,41.566451000000,0 119.404458000000,41.510733000000,0 119.403302000000,41.475220000000,0 119.377867000000,41.459773000000,0 119.376422000000,41.422171000000,0 119.309945000000,41.406025000000,0 119.330755000000,41.385063000000,0 119.296361000000,41.325233000000,0 119.252139000000,41.325577000000,0 119.197801000000,41.282907000000,0 119.155024000000,41.297707000000,0 119.093172000000,41.293577000000,0 118.974669000000,41.306482000000,0 118.890850000000,41.300804000000,0 118.844894000000,41.342431000000,0 118.839691000000,41.374236000000,0 118.770035000000,41.353092000000,0 118.741999000000,41.324029000000,0 118.676967000000,41.350513000000,0 118.629855000000,41.346386000000,0 118.519156000000,41.353952000000,0 118.412503000000,41.331941000000,0 118.380132000000,41.312160000000,0 118.349206000000,41.342775000000,0 118.361056000000,41.384891000000,0 118.326950000000,41.450847000000,0 118.272034000000,41.471273000000,0 118.315678000000,41.512448000000,0 118.301515000000,41.569707000000,0 118.230414000000,41.582214000000,0 118.209893000000,41.610648000000,0 118.206713000000,41.650708000000,0 118.169139000000,41.670728000000,0 118.130698000000,41.742375000000,0 118.140236000000,41.784060000000,0 118.165960000000,41.813258000000,0 118.235905000000,41.807625000000,0 118.246889000000,41.773983000000,0 118.292266000000,41.772787000000,0 118.340246000000,41.872467000000,0 118.268855000000,41.930088000000,0 118.306140000000,41.939970000000,0 118.313944000000,41.988167000000,0 118.237640000000,42.022887000000,0 118.296891000000,42.048404000000,0 118.272323000000,42.083261000000,0 118.226656000000,42.090230000000,0 118.220298000000,42.058608000000,0 118.189082000000,42.030543000000,0 118.125206000000,42.032925000000,0 118.155266000000,42.081221000000,0 118.088789000000,42.117080000000,0 118.106419000000,42.171933000000,0 118.033584000000,42.199087000000,0 117.969130000000,42.245562000000,0 118.047457000000,42.280649000000,0 118.059885000000,42.298270000000,0 118.016242000000,42.333329000000,0 118.024335000000,42.384780000000,0 117.997744000000,42.416746000000,0 117.874038000000,42.510184000000,0 117.779814000000,42.618654000000,0 117.707267000000,42.587971000000,0 117.667381000000,42.582406000000,0 117.600326000000,42.602977000000,0 117.539918000000,42.605506000000,0 117.528068000000,42.591512000000,0 117.473441000000,42.602471000000,0 117.435289000000,42.585442000000,0 117.433266000000,42.555755000000,0 117.387021000000,42.517444000000,0 117.415346000000,42.515587000000,0 117.413034000000,42.471170000000,0 117.332105000000,42.461540000000,0 117.275455000000,42.481982000000,0 117.176028000000,42.465595000000,0 117.098568000000,42.484009000000,0 117.079492000000,42.460695000000,0 117.016772000000,42.456470000000,0 116.993072000000,42.425708000000,0 116.893645000000,42.387825000000,0 116.884974000000,42.353305000000,0 116.918502000000,42.229961000000,0 116.903472000000,42.190772000000,0 116.789305000000,42.200275000000,0 116.825145000000,42.155635000000,0 116.850290000000,42.156314000000,0 116.890755000000,42.092610000000,0 116.879482000000,42.018463000000,0 116.832081000000,42.005359000000,0 116.814161000000,41.981867000000,0 116.766471000000,41.990380000000,0 116.727452000000,41.951043000000,0 116.652304000000,41.943888000000,0 116.640743000000,41.930428000000,0 116.566462000000,41.928724000000,0 116.533801000000,41.938948000000,0 116.514147000000,41.970118000000,0 116.482643000000,41.975908000000,0 116.427438000000,41.938948000000,0 116.386684000000,41.952406000000,0 116.414431000000,41.986975000000,0 116.373678000000,42.009954000000,0 116.327144000000,42.005699000000,0 116.298241000000,41.968075000000,0 116.233498000000,41.941503000000,0 116.194190000000,41.861892000000,0 116.123088000000,41.861721000000,0 116.106902000000,41.831522000000,0 116.128869000000,41.806088000000,0 116.098809000000,41.776545000000,0 116.016725000000,41.777058000000,0 115.995047000000,41.828620000000,0 115.946779000000,41.885598000000,0 115.916431000000,41.945081000000,0 115.853133000000,41.927702000000,0 115.837236000000,41.937755000000,0 115.724514000000,41.868033000000,0 115.688096000000,41.867691000000,0 115.653991000000,41.828962000000,0 115.574218000000,41.805405000000,0 115.519880000000,41.767833000000,0 115.429991000000,41.728701000000,0 115.347039000000,41.712289000000,0 115.319003000000,41.691427000000,0 115.362358000000,41.668162000000,0 115.345594000000,41.635645000000,0 115.377677000000,41.602428000000,0 115.310911000000,41.592664000000,0 115.290389000000,41.622977000000,0 115.264377000000,41.613045000000,0 115.257729000000,41.581186000000,0 115.204258000000,41.571420000000,0 115.195009000000,41.602085000000,0 115.087779000000,41.622805000000,0 115.055985000000,41.602256000000,0 115.025059000000,41.615272000000,0 114.860600000000,41.601057000000,0 114.895573000000,41.636501000000,0 114.902799000000,41.689374000000,0 114.896151000000,41.767663000000,0 114.867248000000,41.803015000000,0 114.922453000000,41.825207000000,0 114.939217000000,41.846197000000,0 114.921586000000,41.875878000000,0 114.916961000000,41.981016000000,0 114.901932000000,42.015570000000,0 114.860889000000,42.054867000000,0 114.856265000000,42.109944000000,0 114.807129000000,42.149522000000,0 114.755393000000,42.115891000000,0 114.675620000000,42.120478000000,0 114.624751000000,42.112153000000,0 114.565788000000,42.133728000000,0 114.510872000000,42.110963000000,0 114.502491000000,42.067110000000,0 114.466073000000,42.038028000000,0 114.509427000000,41.972502000000,0 114.421562000000,41.942185000000,0 114.352483000000,41.953939000000,0 114.346703000000,41.928043000000,0 114.203054000000,41.793453000000,0 114.206812000000,41.738444000000,0 114.237449000000,41.698610000000,0 114.215194000000,41.684756000000,0 114.259415000000,41.623319000000,0 114.228778000000,41.620922000000,0 114.221552000000,41.582214000000,0 114.231090000000,41.513648000000,0 114.101315000000,41.537826000000,0 114.032237000000,41.529597000000,0 113.929920000000,41.484486000000,0 113.920960000000,41.456512000000,0 113.871247000000,41.413412000000,0 113.948707000000,41.392109000000,0 113.926741000000,41.326265000000,0 113.899572000000,41.316288000000,0 113.951308000000,41.282907000000,0 113.971540000000,41.239519000000,0 113.992351000000,41.269824000000,0 114.016340000000,41.232113000000,0 113.996686000000,41.192483000000,0 113.961135000000,41.171280000000,0 113.920382000000,41.171970000000,0 113.877894000000,41.115568000000,0 113.820377000000,41.101590000000,0 113.868356000000,41.068961000000,0 113.975587000000,40.976513000000,0 113.991195000000,40.940190000000,0 114.057383000000,40.925136000000,0 114.041486000000,40.917348000000,0 114.055359000000,40.867829000000,0 114.073568000000,40.857263000000,0 114.044665000000,40.831100000000,0 114.134554000000,40.737798000000,0 114.093223000000,40.731897000000,0 114.064030000000,40.707073000000,0 114.070389000000,40.660351000000,0 114.041775000000,40.608728000000,0 114.076748000000,40.575856000000,0 114.062007000000,40.528869000000,0 114.011427000000,40.515811000000,0 113.948707000000,40.517378000000,0 113.890034000000,40.466516000000,0 113.851014000000,40.460591000000,0 113.794942000000,40.517900000000,0 113.763438000000,40.474008000000,0 113.680486000000,40.444034000000,0 113.559960000000,40.348619000000,0 113.387698000000,40.319112000000,0 113.316018000000,40.320160000000,0 113.251275000000,40.413348000000,0 113.115430000000,40.381078000000,0 113.039704000000,40.370086000000,0 112.892876000000,40.326446000000,0 112.848655000000,40.207079000000,0 112.750673000000,40.168060000000,0 112.677837000000,40.201132000000,0 112.629858000000,40.235760000000,0 112.509043000000,40.270372000000,0 112.456150000000,40.300074000000,0 112.418287000000,40.295358000000,0 112.345451000000,40.256389000000,0 112.310190000000,40.256389000000,0 112.300074000000,40.211452000000,0 112.233018000000,40.170336000000,0 112.223191000000,40.128844000000,0 112.183594000000,40.083997000000,0 112.174923000000,40.051219000000,0 112.076363000000,39.919424000000,0 112.042547000000,39.886215000000,0 112.035032000000,39.854398000000,0 111.970578000000,39.796349000000,0 111.956416000000,39.687685000000,0 111.925489000000,39.667413000000,0 111.928380000000,39.610265000000,0 111.878955000000,39.605854000000,0 111.842537000000,39.620146000000,0 111.787621000000,39.589617000000,0 111.722589000000,39.606030000000,0 111.646574000000,39.644313000000,0 111.616515000000,39.633377000000,0 111.502059000000,39.663181000000,0 111.438183000000,39.643078000000,0 111.426622000000,39.503429000000,0 111.364191000000,39.467368000000,0</coordinates></LinearRing></outerBoundaryIs><innerBoundaryIs><LinearRing><coordinates>124.374059000000,50.310862000000,0 124.347757000000,50.316566000000,0 124.364232000000,50.360860000000,0 124.403829000000,50.362468000000,0 124.439958000000,50.385548000000,0 124.416547000000,50.449616000000,0 124.444872000000,50.476298000000,0 124.433310000000,50.546649000000,0 124.393135000000,50.547522000000,0 124.315964000000,50.532674000000,0 124.266539000000,50.556254000000,0 124.183009000000,50.557709000000,0 124.143123000000,50.566148000000,0 124.084161000000,50.568621000000,0 124.087051000000,50.539953000000,0 124.026355000000,50.538352000000,0 124.023464000000,50.518550000000,0 123.983578000000,50.510248000000,0 124.003521000000,50.478922000000,0 124.005255000000,50.434592000000,0 123.969994000000,50.399274000000,0 123.939934000000,50.397376000000,0 123.920280000000,50.372987000000,0 123.879527000000,50.402485000000,0 123.840508000000,50.411536000000,0 123.825767000000,50.449471000000,0 123.780389000000,50.437072000000,0 123.787326000000,50.373717000000,0 123.777788000000,50.344492000000,0 123.870278000000,50.273987000000,0 123.862763000000,50.226389000000,0 123.954097000000,50.186956000000,0 124.007568000000,50.219355000000,0 124.061905000000,50.198980000000,0 124.103526000000,50.222139000000,0 124.102659000000,50.238696000000,0 124.189368000000,50.216863000000,0 124.283014000000,50.230785000000,0 124.286483000000,50.189595000000,0 124.342555000000,50.188129000000,0 124.344289000000,50.219062000000,0 124.368567000000,50.258175000000,0 124.348624000000,50.292428000000,0 124.374059000000,50.310862000000,0</coordinates></LinearRing></innerBoundaryIs></Polygon>
    </Placemark>
  </Document>
</kml>
