<?xml version="1.0" encoding="UTF-8"?>
<kml xmlns="http://www.opengis.net/kml/2.2">
<Document>
<name>巴彦淖尔市</name>
<Placemark><name>巴彦淖尔市</name><MultiGeometry><Polygon><outerBoundaryIs><LinearRing><coordinates>106.866866999999999,40.168059999999997,0 106.972363000000001,40.218798,0 107.022655,40.258311999999997,0 107.044331999999997,40.328890999999999,0 107.089132000000006,40.359963999999998,0 107.171795000000003,40.390149999999998,0 107.155030999999994,40.451877000000003,0 107.203299000000001,40.506059,0 107.161100000000005,40.525387000000002,0 107.164857999999995,40.574291000000002,0 107.226999000000006,40.559502000000002,0 107.250699999999995,40.582641000000002,0 107.285673000000003,40.649403999999997,0 107.384810000000002,40.643669000000003,0 107.454466999999994,40.680154999999999,0 107.487127000000001,40.712108000000001,0 107.529904000000002,40.702385,0 107.584530999999998,40.739879999999999,0 107.613145000000003,40.778221000000002,0 107.664015000000006,40.757404999999999,0 107.696386000000004,40.768507999999997,0 107.698408999999998,40.812899999999999,0 107.735983000000004,40.814981000000003,0 107.728178999999997,40.842190000000002,0 107.758527999999998,40.861767,0 107.820668999999995,40.836472000000001,0 107.855352999999994,40.874237999999998,0 107.914604999999995,40.848773999999999,0 107.968941999999998,40.867655999999997,0 108.000736000000003,40.845309,0 108.032240000000002,40.855010999999998,0 108.166640000000001,40.852758999999999,0 108.171553000000003,40.867310000000003,0 108.223579000000001,40.853625000000001,0 108.234561999999997,40.820354000000002,0 108.302194999999998,40.818446999999999,0 108.344393999999994,40.805273,0 108.436594999999997,40.794002999999996,0 108.485730000000004,40.754282000000003,0 108.481104999999999,40.735889,0 108.562033999999997,40.728077999999996,0 108.611748000000006,40.673555,0 108.604522000000003,40.656180999999997,0 108.658282,40.635326999999997,0 108.690074999999993,40.640715,0 108.731406000000007,40.609423999999997,0 108.776206000000002,40.612554000000003,0 108.761465999999999,40.578465999999999,0 108.774472000000003,40.550103999999997,0 108.826209000000006,40.566983999999998,0 108.880257,40.559502000000002,0 108.977950000000007,40.527476,0 109.000494000000003,40.542098000000003,0 109.079110999999997,40.549059999999997,0 109.084312999999995,40.529738999999999,0 109.156282000000004,40.535831999999999,0 109.172179,40.516333000000003,0 109.223915000000005,40.519119000000003,0 109.227672999999996,40.485855000000001,0 109.257732000000004,40.502924,0 109.319295999999994,40.501009000000003,0 109.333457999999993,40.479235000000003,0 109.402826000000005,40.476447,0 109.410050999999996,40.456583000000002,0 109.435775000000007,40.50902,0 109.421902000000003,40.585771999999999,0 109.438955000000007,40.608553999999998,0 109.405427000000003,40.630111999999997,0 109.413520000000005,40.704988999999998,0 109.481730999999996,40.748556999999998,0 109.528554,40.732416999999998,0 109.708331999999999,40.743177000000003,0 109.780878000000001,40.754803000000003,0 109.816717999999995,40.807526000000003,0 109.900825999999995,40.882376999999998,0 109.875681,40.919598000000001,0 109.836083000000002,40.945207000000003,0 109.812961000000001,41.002101000000003,0 109.746195,41.009360000000001,0 109.736946000000003,41.031480000000002,0 109.691856999999999,41.041327000000003,0 109.677694000000002,41.104351000000001,0 109.717580999999996,41.115912999999999,0 109.721915999999993,41.138514000000001,0 109.686364999999995,41.173693999999998,0 109.619309999999999,41.280324999999998,0 109.627981000000005,41.310094999999997,0 109.695614000000006,41.322653000000003,0 109.698794000000007,41.379736000000001,0 109.662375999999995,41.396059999999999,0 109.626247000000006,41.433849000000002,0 109.660929999999993,41.473503999999998,0 109.664109999999994,41.49924,0 109.583470000000005,41.494436999999998,0 109.449071000000004,41.506444999999999,0 109.425948000000005,41.537312,0 109.441556000000006,41.564394,0 109.419300000000007,41.651563000000003,0 109.399068,41.691597999999999,0 109.341840000000005,41.742545,0 109.364963000000003,41.766295999999997,0 109.317272000000003,41.808819999999997,0 109.277386000000007,41.869909,0 109.283744999999996,41.886110000000002,0 109.338082999999997,41.902988000000001,0 109.374790000000004,41.932983999999998,0 109.48809,42.077651000000003,0 109.515547999999995,42.139671999999997,0 109.539248000000001,42.147314000000001,0 109.507165999999998,42.265904999999997,0 109.459765000000004,42.361936999999998,0 109.441556000000006,42.378689000000001,0 109.433751999999998,42.427567000000003,0 109.383172000000002,42.447682999999998,0 109.291549000000003,42.435851,0 109.025639999999996,42.458497999999999,0 108.983153000000001,42.448866000000002,0 108.845573999999999,42.395775999999998,0 108.798750999999996,42.415225,0 108.704815999999994,42.413364000000001,0 108.532842000000002,42.442950000000003,0 108.298438000000004,42.438386000000001,0 108.238029999999995,42.460357000000002,0 108.089179000000001,42.436357999999998,0 108.022413,42.433315,0 107.939171999999999,42.403725000000001,0 107.736560999999995,42.415055000000002,0 107.574415000000002,42.413026000000002,0 107.501868000000002,42.456808000000002,0 107.466317000000004,42.458835999999998,0 107.304170999999997,42.412688000000003,0 107.271799000000001,42.364136999999999,0 107.051269000000005,42.319274,0 106.785938000000002,42.291494,0 106.613096999999996,42.241830999999998,0 106.344876999999997,42.149521999999997,0 106.013069000000002,42.032074000000001,0 105.741669000000002,41.949339999999999,0 105.589637999999994,41.888497000000001,0 105.385293000000004,41.797209000000002,0 105.291646999999998,41.749893999999998,0 105.233840999999998,41.751089999999998,0 105.226326,41.679794999999999,0 105.201469000000003,41.542797999999998,0 105.222858000000002,41.396748000000002,0 105.248002999999997,41.319557000000003,0 105.317081999999999,41.201273,0 105.334135000000003,41.131613999999999,0 105.317948999999999,41.113325000000003,0 105.379223999999994,41.059635999999998,0 105.398589000000001,40.983949000000003,0 105.504662999999994,40.926865999999997,0 105.558712,40.890341999999997,0 105.636750000000006,40.854491000000003,0 105.704384000000005,40.810127000000001,0 105.781266000000002,40.785505999999998,0 105.835604000000004,40.782037000000003,0 105.944278999999995,40.739533000000002,0 106.115386000000001,40.71801,0 106.155561000000006,40.692659999999997,0 106.182730000000006,40.704642,0 106.211343999999997,40.673206999999998,0 106.241980999999996,40.668517000000001,0 106.247184000000004,40.626288000000002,0 106.299788000000007,40.592033000000001,0 106.319441999999995,40.598815999999999,0 106.479564999999994,40.555151000000002,0 106.498351999999997,40.483415999999998,0 106.481009999999998,40.493867999999999,0 106.374069000000006,40.491951999999998,0 106.344588000000002,40.519815000000001,0 106.281001000000003,40.539661000000002,0 106.279266000000007,40.509368000000002,0 106.209321000000003,40.516333000000003,0 106.229264000000001,40.465296000000002,0 106.328401999999997,40.346698000000004,0 106.432742000000005,40.348618999999999,0 106.468003999999993,40.325572999999999,0 106.521186,40.373750000000001,0 106.603269999999995,40.386836000000002,0 106.673794000000001,40.384742000000003,0 106.813685000000007,40.369911000000002,0 106.820043999999996,40.355251000000003,0 106.765705999999994,40.294834000000002,0 106.705586999999994,40.262332000000001,0 106.740271000000007,40.196407999999998,0 106.810794999999999,40.182411000000002,0 106.866288999999995,40.185384999999997,0 106.866866999999999,40.168059999999997,0</coordinates></LinearRing></outerBoundaryIs></Polygon></MultiGeometry></Placemark>
</Document>
</kml>