<?xml version="1.0" encoding="UTF-8"?>
<kml xmlns="http://www.opengis.net/kml/2.2">
<Document>
<name>赤峰市</name>
<Placemark><name>赤峰市</name><MultiGeometry><Polygon><outerBoundaryIs><LinearRing><coordinates>120.883140999999995,42.269803000000003,0 120.767240000000001,42.366506000000001,0 120.768685000000005,42.394083999999999,0 120.664923000000002,42.442611999999997,0 120.653073000000006,42.465426000000001,0 120.569832000000005,42.540399000000001,0 120.564918000000006,42.598593999999999,0 120.536882000000006,42.612586,0 120.480232000000001,42.727440000000001,0 120.459710999999999,42.755868,0 120.446415000000002,42.820413000000002,0 120.424160000000001,42.867266999999998,0 120.396702000000005,42.885562,0 120.420692000000003,42.914923999999999,0 120.403927999999993,42.939073999999998,0 120.428494999999998,42.986508000000001,0 120.386585999999994,42.985335999999997,0 120.348433999999997,43.058511000000003,0 120.381671999999995,43.100000000000001,0 120.460289000000003,43.134943,0 120.468959999999996,43.175545,0 120.574167000000003,43.256667999999998,0 120.631106000000003,43.293188000000001,0 120.714057999999994,43.381813000000001,0 120.768395999999996,43.411270000000002,0 120.744984000000002,43.429735999999998,0 120.659719999999993,43.400620000000004,0 120.422137000000006,43.379815000000001,0 120.479943000000006,43.412267999999997,0 120.542373999999995,43.428572000000003,0 120.602780999999993,43.425744000000002,0 120.681976000000006,43.474131,0 120.681976000000006,43.499223999999998,0 120.762037000000007,43.554856000000001,0 120.802212999999995,43.558506999999999,0 120.863776000000001,43.592855999999998,0 120.934010999999998,43.611598000000001,0 120.984590999999995,43.650886999999997,0 120.940079999999995,43.698099999999997,0 120.876204999999999,43.739485000000002,0 120.836318000000006,43.788778000000001,0 120.786894000000004,43.814399999999999,0 120.795854000000006,43.885590999999998,0 120.774754999999999,43.935423,0 120.692670000000007,44.036937999999999,0 120.708567000000002,44.081378000000001,0 120.745272999999997,44.113618000000002,0 120.705965000000006,44.129238000000001,0 120.688912000000002,44.182642999999999,0 120.653362000000001,44.185763999999999,0 120.645557999999994,44.23518,0 120.574455999999998,44.235343999999998,0 120.560872000000003,44.261595,0 120.496995999999996,44.249454999999998,0 120.454508000000004,44.262579000000002,0 120.388609000000002,44.337656000000003,0 120.378203999999997,44.386453000000003,0 120.339185000000001,44.391036,0 120.312016,44.418362999999999,0 120.325022000000004,44.440607,0 120.286292000000003,44.517741999999998,0 120.214612000000002,44.551212,0 120.159407000000002,44.608800000000002,0 120.180217999999996,44.635047,0 120.126169000000004,44.647595000000003,0 120.082235999999995,44.688481000000003,0 120.081368999999995,44.710133999999996,0 120.024429999999995,44.774068999999997,0 119.994371000000001,44.784799,0 119.925580999999994,44.846865000000001,0 119.864885000000001,44.872193000000003,0 119.848988000000006,44.894750000000002,0 119.757942999999997,44.922651000000002,0 119.717768000000007,44.968853000000003,0 119.712853999999993,45.000118999999998,0 119.682506000000004,45.042535999999998,0 119.656782000000007,45.102544999999999,0 119.507642000000004,45.195104999999998,0 119.492035000000001,45.223989000000003,0 119.337692000000004,45.252375000000001,0 119.307632999999996,45.191392999999998,0 119.361682000000002,45.165722000000002,0 119.370063000000002,45.100605000000002,0 119.342315999999997,45.076188000000002,0 119.293758999999994,45.087023000000002,0 119.289135000000002,45.120488000000002,0 119.215721000000002,45.153125000000003,0 119.159070999999997,45.100119999999997,0 119.157048000000003,45.074570000000001,0 119.196933999999999,45.032501000000003,0 119.229883000000001,45.023111999999998,0 119.209073000000004,44.997365000000002,0 119.170631999999998,45.015988,0 119.153289999999998,44.993639999999999,0 119.174099999999996,44.965774000000003,0 119.230171999999996,44.935623999999997,0 119.224391999999995,44.909838000000001,0 119.145775,44.925083999999998,0 119.108200999999994,44.920867000000001,0 119.081321000000003,44.937407,0 119.067447999999999,44.872354999999999,0 119.078142,44.857095000000001,0 119.149243999999996,44.826076,0 119.182192999999998,44.776995999999997,0 119.173522000000006,44.760572000000003,0 119.125832000000003,44.762199000000003,0 119.148376999999996,44.731779000000003,0 119.065714,44.710622999999998,0 119.001260000000002,44.714041000000002,0 118.970044000000001,44.732104999999997,0 118.928713000000002,44.717295999999997,0 119.000971000000007,44.652484000000001,0 118.967153999999994,44.542234000000001,0 118.871195999999998,44.501734999999996,0 118.840847999999994,44.502225000000003,0 118.782463000000007,44.453524000000002,0 118.750381000000004,44.468400000000003,0 118.646907999999996,44.443060000000003,0 118.609911999999994,44.463824000000002,0 118.557018999999997,44.431285000000003,0 118.552104999999997,44.402819000000001,0 118.483027000000007,44.388908999999998,0 118.478691999999995,44.346829,0 118.446031000000005,44.342570000000002,0 118.403254000000004,44.307668999999997,0 118.371460999999996,44.319633000000003,0 118.246311000000006,44.326186999999997,0 118.226945000000001,44.308325000000004,0 118.250934999999998,44.281111000000003,0 118.245153999999999,44.235343999999998,0 118.211626999999993,44.257002,0 118.180700000000002,44.211379999999998,0 118.142837,44.207604000000003,0 118.113934,44.130882,0 118.063931999999994,44.102764000000001,0 117.924329999999998,44.126936000000001,0 117.878084999999999,44.102598999999998,0 117.867969000000002,44.074137999999998,0 117.832995999999994,44.066239000000003,0 117.789929999999998,44.019810999999997,0 117.699753000000001,44.017175999999999,0 117.643969999999996,44.042864999999999,0 117.686457000000004,44.096020000000003,0 117.621425000000002,44.126443000000002,0 117.634720999999999,44.148634000000001,0 117.552346999999997,44.187570999999998,0 117.522865999999993,44.22681,0 117.452342000000002,44.23518,0 117.206377000000003,44.220244999999998,0 117.165912000000006,44.192825999999997,0 117.120823000000001,44.179523000000003,0 117.011280999999997,44.057681000000002,0 116.961567000000002,44.024917000000002,0 116.971104999999994,43.988343999999998,0 117.021974999999998,43.970050000000001,0 117.031801999999999,43.942844999999998,0 116.999718999999999,43.912492,0 117.013593,43.850583999999998,0 116.986424,43.840342999999997,0 117.001164000000003,43.78266,0 117.054345999999995,43.753382999999999,0 116.972261000000003,43.673586999999998,0 116.858671999999999,43.657516000000001,0 116.838150999999996,43.614747999999999,0 116.813582999999994,43.612924,0 116.804623000000007,43.565311999999999,0 116.830924999999993,43.507032000000002,0 116.790171999999998,43.484102999999998,0 116.734966999999997,43.509025000000001,0 116.681207000000001,43.516998000000001,0 116.621955999999997,43.505203999999999,0 116.605770000000007,43.419921000000002,0 116.536113,43.375154000000002,0 116.436687000000006,43.328687000000002,0 116.414141999999998,43.256835000000002,0 116.37021,43.243488999999997,0 116.356624999999994,43.157001999999999,0 116.419345000000007,43.104348000000002,0 116.436109000000002,43.078088000000001,0 116.504030999999998,43.049306000000001,0 116.500851999999995,43.015320000000003,0 116.599988999999994,42.975951999999999,0 116.639876000000001,42.952486999999998,0 116.674270000000007,42.889589999999998,0 116.666177000000005,42.816884999999999,0 116.673980999999998,42.761417000000002,0 116.619354000000001,42.671892,0 116.588138999999998,42.599943000000003,0 116.635540000000006,42.614776999999997,0 116.638141000000005,42.577345999999999,0 116.669646,42.555923,0 116.698260000000005,42.595390000000002,0 116.801444000000004,42.583081,0 116.820808999999997,42.546981000000002,0 116.885840999999999,42.534661,0 116.876880999999997,42.480798999999998,0 116.909542000000002,42.438048000000002,0 116.893645000000006,42.387824999999999,0 116.993071999999998,42.425708,0 117.016772000000003,42.456470000000003,0 117.079492000000002,42.460695000000001,0 117.098568,42.484009,0 117.176028000000002,42.465595,0 117.275454999999994,42.481982000000002,0 117.332104999999999,42.461539999999999,0 117.413033999999996,42.471170000000001,0 117.415346,42.515586999999996,0 117.387021000000004,42.517443999999998,0 117.433266000000003,42.555754999999998,0 117.435288999999997,42.585442,0 117.473440999999994,42.602471000000001,0 117.528068000000005,42.591512000000002,0 117.539918,42.605505999999998,0 117.600325999999995,42.602977000000003,0 117.667381000000006,42.582405999999999,0 117.707267000000002,42.587971000000003,0 117.779814000000002,42.618653999999999,0 117.874037999999999,42.510184000000002,0 117.997743999999997,42.416746000000003,0 118.024334999999994,42.384779999999999,0 118.016242000000005,42.333328999999999,0 118.059884999999994,42.298270000000002,0 118.047456999999994,42.280648999999997,0 117.969130000000007,42.245562,0 118.033584000000005,42.199086999999999,0 118.106419000000002,42.171933000000003,0 118.088789000000006,42.117080000000001,0 118.155265999999997,42.081220999999999,0 118.125206000000006,42.032924999999999,0 118.189081999999999,42.030543000000002,0 118.220298,42.058608,0 118.226656000000006,42.090229999999998,0 118.272323,42.083261,0 118.296891000000002,42.048403999999998,0 118.237639999999999,42.022886999999997,0 118.313944000000006,41.988166999999997,0 118.306139999999999,41.939970000000002,0 118.268855000000002,41.930087999999998,0 118.340245999999993,41.872467,0 118.292265999999998,41.772787000000001,0 118.246888999999996,41.773983000000001,0 118.235905000000002,41.807625000000002,0 118.165959999999998,41.813257999999998,0 118.140236000000002,41.784059999999997,0 118.130697999999995,41.742375000000003,0 118.169139000000001,41.670727999999997,0 118.206712999999993,41.650708000000002,0 118.209892999999994,41.610647999999998,0 118.230413999999996,41.582214,0 118.301514999999995,41.569707000000001,0 118.315678000000005,41.512447999999999,0 118.272034000000005,41.471272999999997,0 118.326949999999997,41.450847000000003,0 118.361056000000005,41.384891000000003,0 118.349205999999995,41.342775000000003,0 118.380132000000003,41.312159999999999,0 118.412503000000001,41.331941,0 118.519155999999995,41.353952,0 118.629855000000006,41.346386000000003,0 118.676967000000005,41.350512999999999,0 118.741999000000007,41.324029000000003,0 118.770034999999993,41.353091999999997,0 118.839691000000002,41.374236000000003,0 118.844893999999996,41.342430999999998,0 118.89085,41.300803999999999,0 118.974669000000006,41.306482000000003,0 119.093171999999996,41.293576999999999,0 119.155023999999997,41.297707000000003,0 119.197800999999998,41.282907000000002,0 119.252139,41.325577000000003,0 119.296361000000005,41.325232999999997,0 119.330754999999996,41.385063000000002,0 119.309944999999999,41.406025,0 119.376422000000005,41.422170999999999,0 119.377866999999995,41.459772999999998,0 119.403301999999996,41.47522,0 119.404458000000005,41.510733000000002,0 119.361970999999997,41.566451000000001,0 119.414862999999997,41.562337999999997,0 119.416019000000006,41.590094999999998,0 119.342606000000004,41.618011000000003,0 119.307922000000005,41.657553,0 119.299829000000003,41.711433999999997,0 119.317749000000006,41.763221000000001,0 119.293469999999999,41.792256999999999,0 119.312835000000007,41.805746999999997,0 119.334513000000001,41.869396999999999,0 119.341160000000002,41.922418999999998,0 119.324686,41.969267000000002,0 119.374398999999997,42.021014999999998,0 119.385092999999998,42.089550000000003,0 119.350120000000004,42.118949000000001,0 119.304452999999995,42.128971999999997,0 119.276416999999995,42.186020999999997,0 119.237976000000003,42.200954000000003,0 119.284509999999997,42.265227000000003,0 119.337114,42.294204999999998,0 119.431916000000001,42.316564,0 119.482496999999995,42.347042000000002,0 119.502440000000007,42.387993999999999,0 119.572096000000002,42.359397999999999,0 119.541459000000003,42.292171000000003,0 119.608514,42.277090999999999,0 119.642330999999999,42.240644000000003,0 119.719791000000001,42.229452000000002,0 119.744647999999998,42.211641999999998,0 119.846676000000002,42.215204,0 119.854769000000005,42.170234999999998,0 119.839738999999994,42.148673000000002,0 119.845519999999993,42.097199000000003,0 119.869798000000003,42.083430999999997,0 119.924424999999999,41.989187999999999,0 119.954483999999994,41.968245000000003,0 119.954483999999994,41.920374000000002,0 119.985122000000004,41.904693000000002,0 120.023274000000001,41.816502,0 120.041771999999995,41.818720999999996,0 120.050443000000001,41.776032999999998,0 120.024719000000005,41.738615000000003,0 120.036857999999995,41.708015000000003,0 120.096109999999996,41.697069999999997,0 120.138307999999995,41.729213999999999,0 120.127036000000004,41.772615999999999,0 120.251608000000004,41.883893,0 120.300454999999999,41.888156000000002,0 120.260278999999997,41.904181999999999,0 120.286869999999993,41.934857999999998,0 120.374447000000004,41.994464999999998,0 120.456530999999998,42.016250999999997,0 120.450750999999997,42.057248000000001,0 120.493527,42.072550999999997,0 120.466646999999995,42.105356,0 120.584282999999999,42.167180000000002,0 120.624747999999997,42.154615999999997,0 120.722150999999997,42.203668,0 120.745272999999997,42.223515999999996,0 120.820711000000003,42.228095000000003,0 120.829381999999995,42.252513,0 120.883718999999999,42.242679000000003,0 120.883140999999995,42.269803000000003,0</coordinates></LinearRing></outerBoundaryIs></Polygon></MultiGeometry></Placemark>
</Document>
</kml>