<?xml version="1.0" encoding="UTF-8"?>
<kml xmlns="http://www.opengis.net/kml/2.2">
  <Document>
    <name>鄂尔多斯市</name>
    <Placemark>
      <name>鄂尔多斯市</name>
      <Polygon><outerBoundaryIs><LinearRing><coordinates>106.967161000000,39.054699000000,0 106.971496000000,39.016983000000,0 106.954443000000,38.941133000000,0 106.837386000000,38.847544000000,0 106.755879000000,38.748473000000,0 106.702697000000,38.708270000000,0 106.662522000000,38.601489000000,0 106.648648000000,38.472675000000,0 106.601825000000,38.392475000000,0 106.482455000000,38.319555000000,0 106.555291000000,38.263827000000,0 106.627838000000,38.232529000000,0 106.728132000000,38.204097000000,0 106.755879000000,38.181235000000,0 106.945194000000,38.131707000000,0 107.014851000000,38.120356000000,0 107.068899000000,38.139094000000,0 107.125839000000,38.137112000000,0 107.138845000000,38.160708000000,0 107.190293000000,38.154044000000,0 107.242318000000,38.110625000000,0 107.331629000000,38.086473000000,0 107.393770000000,38.015049000000,0 107.440015000000,37.995016000000,0 107.411690000000,37.949155000000,0 107.450132000000,37.933260000000,0 107.492619000000,37.944820000000,0 107.560541000000,37.893686000000,0 107.650141000000,37.864580000000,0 107.683380000000,37.887721000000,0 107.741186000000,37.845411000000,0 107.842636000000,37.828950000000,0 107.884834000000,37.808324000000,0 107.981949000000,37.787330000000,0 107.993221000000,37.735362000000,0 108.024436000000,37.698763000000,0 108.013164000000,37.665591000000,0 108.133979000000,37.622065000000,0 108.193520000000,37.638209000000,0 108.246412000000,37.665773000000,0 108.301039000000,37.640748000000,0 108.422432000000,37.648909000000,0 108.532553000000,37.690607000000,0 108.611169000000,37.654168000000,0 108.777651000000,37.683538000000,0 108.792103000000,37.700213000000,0 108.784588000000,37.764700000000,0 108.793259000000,37.815923000000,0 108.798173000000,37.933621000000,0 108.826787000000,37.995197000000,0 108.797595000000,38.047884000000,0 108.830544000000,38.049868000000,0 108.882859000000,38.013786000000,0 108.893842000000,37.978228000000,0 108.935751000000,37.921697000000,0 108.974193000000,37.931814000000,0 108.982574000000,37.963783000000,0 109.017547000000,37.969923000000,0 109.038068000000,38.021545000000,0 109.069573000000,38.022988000000,0 109.050786000000,38.054918000000,0 109.068995000000,38.091159000000,0 108.947313000000,38.170612000000,0 108.938931000000,38.209496000000,0 108.975927000000,38.245121000000,0 108.961764000000,38.265086000000,0 109.007720000000,38.359077000000,0 109.051364000000,38.385294000000,0 109.052231000000,38.428549000000,0 109.175936000000,38.518745000000,0 109.196747000000,38.552606000000,0 109.276808000000,38.622965000000,0 109.331435000000,38.597909000000,0 109.367564000000,38.629765000000,0 109.328834000000,38.660533000000,0 109.338661000000,38.701478000000,0 109.401670000000,38.716313000000,0 109.450805000000,38.788832000000,0 109.517282000000,38.833807000000,0 109.549653000000,38.805790000000,0 109.624513000000,38.854501000000,0 109.683764000000,38.935610000000,0 109.665266000000,38.981738000000,0 109.725384000000,39.018406000000,0 109.757467000000,39.053454000000,0 109.860073000000,39.124386000000,0 109.922215000000,39.106971000000,0 109.893890000000,39.141264000000,0 109.960945000000,39.191874000000,0 109.869033000000,39.249720000000,0 109.902849000000,39.271888000000,0 109.962679000000,39.211931000000,0 110.010947000000,39.208559000000,0 110.088697000000,39.234820000000,0 110.193037000000,39.280753000000,0 110.217604000000,39.281108000000,0 110.183210000000,39.356415000000,0 110.136676000000,39.391826000000,0 110.132051000000,39.446854000000,0 110.152572000000,39.453928000000,0 110.243328000000,39.423680000000,0 110.340443000000,39.341714000000,0 110.391023000000,39.311772000000,0 110.429175000000,39.342069000000,0 110.430042000000,39.379257000000,0 110.482646000000,39.360665000000,0 110.524266000000,39.382798000000,0 110.559239000000,39.352165000000,0 110.566754000000,39.319923000000,0 110.626294000000,39.266746000000,0 110.702888000000,39.273838000000,0 110.732947000000,39.308405000000,0 110.738438000000,39.348622000000,0 110.808095000000,39.411825000000,0 110.890758000000,39.508907000000,0 110.959258000000,39.519509000000,0 111.017353000000,39.552011000000,0 111.100883000000,39.559428000000,0 111.136723000000,39.586970000000,0 111.154932000000,39.568963000000,0 111.148863000000,39.532229000000,0 111.106375000000,39.498480000000,0 111.088744000000,39.459057000000,0 111.058396000000,39.447738000000,0 111.064466000000,39.401030000000,0 111.097993000000,39.401915000000,0 111.108109000000,39.356592000000,0 111.145394000000,39.409524000000,0 111.172274000000,39.423326000000,0 111.289332000000,39.417133000000,0 111.352341000000,39.426688000000,0 111.364191000000,39.467368000000,0 111.426622000000,39.503429000000,0 111.438183000000,39.643078000000,0 111.442807000000,39.669176000000,0 111.363613000000,39.721694000000,0 111.370549000000,39.789134000000,0 111.417373000000,39.831184000000,0 111.415349000000,39.865122000000,0 111.443096000000,39.894299000000,0 111.427778000000,39.946822000000,0 111.420263000000,40.021758000000,0 111.361879000000,40.102220000000,0 111.315634000000,40.151256000000,0 111.237306000000,40.169110000000,0 111.178055000000,40.222995000000,0 111.114757000000,40.256564000000,0 111.052326000000,40.265653000000,0 111.033539000000,40.288195000000,0 110.977178000000,40.253418000000,0 110.965617000000,40.276663000000,0 110.925442000000,40.246775000000,0 110.854629000000,40.263381000000,0 110.802603000000,40.260410000000,0 110.768787000000,40.273343000000,0 110.771099000000,40.305489000000,0 110.718784000000,40.301472000000,0 110.691904000000,40.321208000000,0 110.642769000000,40.301472000000,0 110.576870000000,40.337621000000,0 110.556638000000,40.334653000000,0 110.514439000000,40.391720000000,0 110.496519000000,40.366944000000,0 110.485247000000,40.395558000000,0 110.434378000000,40.396779000000,0 110.365010000000,40.460765000000,0 110.313852000000,40.444731000000,0 110.297955000000,40.494042000000,0 110.252288000000,40.486377000000,0 110.238415000000,40.530087000000,0 110.178585000000,40.550974000000,0 110.162688000000,40.508671000000,0 110.091009000000,40.527998000000,0 110.060660000000,40.517030000000,0 110.027133000000,40.531654000000,0 110.008346000000,40.501009000000,0 109.973951000000,40.521557000000,0 109.903139000000,40.529391000000,0 109.861807000000,40.506930000000,0 109.827990000000,40.513721000000,0 109.730298000000,40.495609000000,0 109.700817000000,40.482371000000,0 109.602835000000,40.552193000000,0 109.576822000000,40.556543000000,0 109.512368000000,40.513025000000,0 109.473060000000,40.521905000000,0 109.435775000000,40.509020000000,0 109.410051000000,40.456583000000,0 109.402826000000,40.476447000000,0 109.333458000000,40.479235000000,0 109.319296000000,40.501009000000,0 109.257732000000,40.502924000000,0 109.227673000000,40.485855000000,0 109.223915000000,40.519119000000,0 109.172179000000,40.516333000000,0 109.156282000000,40.535832000000,0 109.084313000000,40.529739000000,0 109.079111000000,40.549060000000,0 109.000494000000,40.542098000000,0 108.977950000000,40.527476000000,0 108.880257000000,40.559502000000,0 108.826209000000,40.566984000000,0 108.774472000000,40.550104000000,0 108.761466000000,40.578466000000,0 108.776206000000,40.612554000000,0 108.731406000000,40.609424000000,0 108.690075000000,40.640715000000,0 108.658282000000,40.635327000000,0 108.604522000000,40.656181000000,0 108.611748000000,40.673555000000,0 108.562034000000,40.728078000000,0 108.481105000000,40.735889000000,0 108.485730000000,40.754282000000,0 108.436595000000,40.794003000000,0 108.344394000000,40.805273000000,0 108.302195000000,40.818447000000,0 108.234562000000,40.820354000000,0 108.223579000000,40.853625000000,0 108.171553000000,40.867310000000,0 108.166640000000,40.852759000000,0 108.032240000000,40.855011000000,0 108.000736000000,40.845309000000,0 107.968942000000,40.867656000000,0 107.914605000000,40.848774000000,0 107.855353000000,40.874238000000,0 107.820669000000,40.836472000000,0 107.758528000000,40.861767000000,0 107.728179000000,40.842190000000,0 107.735983000000,40.814981000000,0 107.698409000000,40.812900000000,0 107.696386000000,40.768508000000,0 107.664015000000,40.757405000000,0 107.613145000000,40.778221000000,0 107.584531000000,40.739880000000,0 107.529904000000,40.702385000000,0 107.487127000000,40.712108000000,0 107.454467000000,40.680155000000,0 107.384810000000,40.643669000000,0 107.285673000000,40.649404000000,0 107.250700000000,40.582641000000,0 107.226999000000,40.559502000000,0 107.164858000000,40.574291000000,0 107.161100000000,40.525387000000,0 107.203299000000,40.506059000000,0 107.155031000000,40.451877000000,0 107.171795000000,40.390150000000,0 107.089132000000,40.359964000000,0 107.044332000000,40.328891000000,0 107.022655000000,40.258312000000,0 106.972363000000,40.218798000000,0 106.866867000000,40.168060000000,0 106.839409000000,40.147930000000,0 106.823223000000,40.108701000000,0 106.729288000000,40.047362000000,0 106.720328000000,39.915559000000,0 106.749809000000,39.858442000000,0 106.769174000000,39.866353000000,0 106.778134000000,39.812537000000,0 106.863398000000,39.843144000000,0 106.868023000000,39.862837000000,0 106.933344000000,39.915032000000,0 106.963403000000,39.911343000000,0 106.966293000000,39.859496000000,0 106.930743000000,39.856859000000,0 106.878139000000,39.805675000000,0 106.883631000000,39.757447000000,0 106.900394000000,39.755158000000,0 106.915713000000,39.704075000000,0 106.887677000000,39.677638000000,0 106.923806000000,39.633201000000,0 106.940859000000,39.584322000000,0 106.964848000000,39.450037000000,0 106.958779000000,39.340474000000,0 106.942882000000,39.299189000000,0 107.052136000000,39.238368000000,0 107.059650000000,39.222933000000,0 107.136533000000,39.280044000000,0 107.078438000000,39.047406000000,0 107.060229000000,39.061813000000,0 107.035372000000,39.037089000000,0 106.993751000000,39.036555000000,0 106.967161000000,39.054699000000,0</coordinates></LinearRing></outerBoundaryIs></Polygon>
    </Placemark>
  </Document>
</kml>
