<?xml version="1.0" encoding="UTF-8"?>
<kml xmlns="http://www.opengis.net/kml/2.2">
  <Document>
    <name><![CDATA[五指山市]]></name>
    <Placemark>
      <name><![CDATA[五指山市]]></name>
      <description><![CDATA[省级目录：海南省]]></description>
      <ExtendedData>
        <Data name="adcode"><value>469001</value></Data>
      </ExtendedData>
      <MultiGeometry>
      <Polygon>
        <outerBoundaryIs><LinearRing><coordinates>109.715419,18.833686,0 109.699123,18.889379,0 109.730512,18.913649,0 109.676531,18.925862,0 109.601532,18.910318,0 109.55357,18.946321,0 109.524033,19.030986,0 109.468386,19.032254,0 109.456349,18.995635,0 109.424775,18.990403,0 109.367739,18.936171,0 109.34848,18.946321,0 109.32635,18.926338,0 109.343109,18.877163,0 109.374591,18.853998,0 109.353387,18.812896,0 109.356628,18.710653,0 109.398109,18.671104,0 109.408016,18.627733,0 109.448293,18.655378,0 109.48857,18.64664,0 109.539866,18.659508,0 109.533662,18.694295,0 109.576717,18.714782,0 109.619865,18.678252,0 109.641809,18.72304,0 109.703012,18.721769,0 109.681531,18.786071,0 109.689216,18.830036,0 109.715419,18.833686,0</coordinates></LinearRing></outerBoundaryIs>
      </Polygon>
    </MultiGeometry>
    </Placemark>
  </Document>
</kml>
