<?xml version="1.0" encoding="UTF-8"?>
<kml xmlns="http://www.opengis.net/kml/2.2">
  <Document>
    <name><![CDATA[儋州市]]></name>
    <Placemark>
      <name><![CDATA[儋州市]]></name>
      <description><![CDATA[省级目录：海南省]]></description>
      <ExtendedData>
        <Data name="adcode"><value>460400</value></Data>
      </ExtendedData>
      <MultiGeometry>
      <Polygon>
        <outerBoundaryIs><LinearRing><coordinates>108.928671,19.524313,0 108.939596,19.497287,0 108.982744,19.477213,0 108.997373,19.431522,0 109.04478,19.430415,0 109.051447,19.487803,0 109.117557,19.46757,0 109.13052,19.479584,0 109.178389,19.399262,0 109.26774,19.376803,0 109.318943,19.398155,0 109.384035,19.355448,0 109.424405,19.354815,0 109.457275,19.39942,0 109.483848,19.406063,0 109.506348,19.359561,0 109.468386,19.301178,0 109.541625,19.311939,0 109.587365,19.243249,0 109.611995,19.252589,0 109.634031,19.20256,0 109.673105,19.207627,0 109.686994,19.178965,0 109.706808,19.22156,0 109.697271,19.271267,0 109.713382,19.309881,0 109.700234,19.349436,0 109.647272,19.357505,0 109.646439,19.402425,0 109.737734,19.407486,0 109.751993,19.416974,0 109.728197,19.496023,0 109.760048,19.528895,0 109.7694,19.578508,0 109.709308,19.57756,0 109.659402,19.611048,0 109.664216,19.629685,0 109.582921,19.637581,0 109.557366,19.697421,0 109.599402,19.730726,0 109.569218,19.797947,0 109.564588,19.854888,0 109.498663,19.873339,0 109.410794,19.895256,0 109.349591,19.898724,0 109.30811,19.9178,0 109.264592,19.90503,0 109.255611,19.867189,0 109.218574,19.855834,0 109.15913,19.790689,0 109.169501,19.736724,0 109.147649,19.704998,0 109.093668,19.689844,0 109.048576,19.620051,0 108.993392,19.586723,0 108.928671,19.524313,0</coordinates></LinearRing></outerBoundaryIs>
      </Polygon>
    </MultiGeometry>
    </Placemark>
  </Document>
</kml>
