<?xml version="1.0" encoding="UTF-8"?>
<kml xmlns="http://www.opengis.net/kml/2.2">
  <Document>
    <name><![CDATA[定安县]]></name>
    <Placemark>
      <name><![CDATA[定安县]]></name>
      <description><![CDATA[省级目录：海南省]]></description>
      <ExtendedData>
        <Data name="adcode"><value>469021</value></Data>
      </ExtendedData>
      <MultiGeometry>
      <Polygon>
        <outerBoundaryIs><LinearRing><coordinates>110.224857,19.221718,0 110.300226,19.21586,0 110.344392,19.228368,0 110.3593,19.298646,0 110.327356,19.315261,0 110.368744,19.391829,0 110.423928,19.413495,0 110.450317,19.447492,0 110.484761,19.443223,0 110.504853,19.46836,0 110.546242,19.46836,0 110.520594,19.509931,0 110.485779,19.502345,0 110.469854,19.531424,0 110.519297,19.563341,0 110.486705,19.593357,0 110.455687,19.574559,0 110.401151,19.606626,0 110.372633,19.654004,0 110.393373,19.698053,0 110.340041,19.720625,0 110.314208,19.697421,0 110.262449,19.687318,0 110.221616,19.629843,0 110.186524,19.636791,0 110.160784,19.67153,0 110.13134,19.648003,0 110.137266,19.56034,0 110.192172,19.58925,0 110.196339,19.535374,0 110.243005,19.517675,0 110.227727,19.450654,0 110.194024,19.455871,0 110.164487,19.426146,0 110.165691,19.361459,0 110.188283,19.306242,0 110.228098,19.301969,0 110.224857,19.221718,0</coordinates></LinearRing></outerBoundaryIs>
      </Polygon>
    </MultiGeometry>
    </Placemark>
  </Document>
</kml>
