<?xml version="1.0" encoding="UTF-8"?>
<kml xmlns="http://www.opengis.net/kml/2.2">
  <Document>
    <name><![CDATA[昌江黎族自治县]]></name>
    <Placemark>
      <name><![CDATA[昌江黎族自治县]]></name>
      <description><![CDATA[省级目录：海南省]]></description>
      <ExtendedData>
        <Data name="adcode"><value>469026</value></Data>
      </ExtendedData>
      <MultiGeometry>
      <Polygon>
        <outerBoundaryIs><LinearRing><coordinates>109.04478,19.430415,0 108.997373,19.431522,0 108.982744,19.477213,0 108.939596,19.497287,0 108.928671,19.524313,0 108.887004,19.4897,0 108.806357,19.450654,0 108.747654,19.391671,0 108.694137,19.387084,0 108.644785,19.349278,0 108.704136,19.262719,0 108.783765,19.244674,0 108.833209,19.25987,0 108.916171,19.218552,0 108.954874,19.218869,0 108.99191,19.13034,0 109.022929,19.107052,0 109.008762,19.050005,0 109.098853,19.028291,0 109.113668,18.969949,0 109.089779,18.909842,0 109.125242,18.878432,0 109.141816,18.904449,0 109.206722,18.894772,0 109.265518,18.905877,0 109.298203,18.960911,0 109.271166,19.067438,0 109.177093,19.083443,0 109.163667,19.14222,0 109.120242,19.203985,0 109.142834,19.265727,0 109.08265,19.328869,0 109.043669,19.342792,0 109.04478,19.430415,0</coordinates></LinearRing></outerBoundaryIs>
      </Polygon>
    </MultiGeometry>
    </Placemark>
  </Document>
</kml>
