<?xml version="1.0" encoding="UTF-8"?>
<kml xmlns="http://www.opengis.net/kml/2.2">
  <Document>
    <name><![CDATA[海口市]]></name>
    <Placemark>
      <name><![CDATA[海口市]]></name>
      <description><![CDATA[省级目录：海南省]]></description>
      <ExtendedData>
        <Data name="adcode"><value>460100</value></Data>
      </ExtendedData>
      <MultiGeometry>
      <Polygon>
        <outerBoundaryIs><LinearRing><coordinates>110.106525,20.026851,0 110.161895,19.977693,0 110.143932,19.889106,0 110.186246,19.864193,0 110.228283,19.753767,0 110.208468,19.716679,0 110.222357,19.67974,0 110.262449,19.687318,0 110.314208,19.697421,0 110.340041,19.720625,0 110.393373,19.698053,0 110.372633,19.654004,0 110.401151,19.606626,0 110.455687,19.574559,0 110.486705,19.593357,0 110.519297,19.563341,0 110.540223,19.535532,0 110.611518,19.526841,0 110.641333,19.549122,0 110.636148,19.593989,0 110.672814,19.647214,0 110.623463,19.664109,0 110.623,19.735461,0 110.670314,19.812776,0 110.704665,19.805992,0 110.699573,19.861512,0 110.676147,19.860092,0 110.675314,19.907868,0 110.634666,19.965401,0 110.598,19.98305,0 110.526612,20.075206,0 110.495039,20.077253,0 110.387355,20.11347,0 110.318467,20.109061,0 110.293282,20.059614,0 110.24319,20.077568,0 110.144395,20.074418,0 110.106525,20.026851,0</coordinates></LinearRing></outerBoundaryIs>
      </Polygon>
    </MultiGeometry>
    </Placemark>
  </Document>
</kml>
