<?xml version="1.0" encoding="UTF-8"?>
<kml xmlns="http://www.opengis.net/kml/2.2">
  <Document>
    <name><![CDATA[琼中黎族苗族自治县]]></name>
    <Placemark>
      <name><![CDATA[琼中黎族苗族自治县]]></name>
      <description><![CDATA[省级目录：海南省]]></description>
      <ExtendedData>
        <Data name="adcode"><value>469030</value></Data>
      </ExtendedData>
      <MultiGeometry>
      <Polygon>
        <outerBoundaryIs><LinearRing><coordinates>109.876436,19.386926,0 109.857269,19.412388,0 109.793474,19.379966,0 109.737734,19.407486,0 109.646439,19.402425,0 109.647272,19.357505,0 109.700234,19.349436,0 109.713382,19.309881,0 109.697271,19.271267,0 109.706808,19.22156,0 109.686994,19.178965,0 109.687734,19.118775,0 109.613569,19.086454,0 109.601439,19.053492,0 109.561347,19.072668,0 109.524033,19.030986,0 109.55357,18.946321,0 109.601532,18.910318,0 109.676531,18.925862,0 109.730512,18.913649,0 109.699123,18.889379,0 109.715419,18.833686,0 109.773474,18.809404,0 109.830696,18.728597,0 109.891065,18.754479,0 109.902361,18.739395,0 109.94412,18.771942,0 109.980416,18.76718,0 110.014952,18.732885,0 110.057267,18.758448,0 110.095785,18.811467,0 110.045322,18.884778,0 110.097729,18.911746,0 110.108284,18.944577,0 110.158562,18.99944,0 110.124118,19.04747,0 110.115229,19.133191,0 110.057267,19.134617,0 110.026526,19.17564,0 109.957638,19.188625,0 109.923565,19.239608,0 109.822733,19.289626,0 109.826436,19.343108,0 109.876436,19.386926,0</coordinates></LinearRing></outerBoundaryIs>
      </Polygon>
    </MultiGeometry>
    </Placemark>
  </Document>
</kml>
