<?xml version="1.0" encoding="UTF-8"?>
<kml xmlns="http://www.opengis.net/kml/2.2">
  <Document>
    <name><![CDATA[琼海市]]></name>
    <Placemark>
      <name><![CDATA[琼海市]]></name>
      <description><![CDATA[省级目录：海南省]]></description>
      <ExtendedData>
        <Data name="adcode"><value>469002</value></Data>
      </ExtendedData>
      <MultiGeometry>
      <Polygon>
        <outerBoundaryIs><LinearRing><coordinates>110.610593,19.084394,0 110.619296,19.152041,0 110.676703,19.286302,0 110.706517,19.320167,0 110.730035,19.378859,0 110.633555,19.391354,0 110.604574,19.350386,0 110.584111,19.367787,0 110.581426,19.419504,0 110.546242,19.46836,0 110.504853,19.46836,0 110.484761,19.443223,0 110.450317,19.447492,0 110.423928,19.413495,0 110.368744,19.391829,0 110.327356,19.315261,0 110.3593,19.298646,0 110.344392,19.228368,0 110.300226,19.21586,0 110.224857,19.221718,0 110.170598,19.191317,0 110.150876,19.208419,0 110.115229,19.133191,0 110.124118,19.04747,0 110.158562,18.99944,0 110.229579,19.002452,0 110.249949,18.976292,0 110.465039,19.074411,0 110.477539,19.096912,0 110.521797,19.102932,0 110.610593,19.084394,0</coordinates></LinearRing></outerBoundaryIs>
      </Polygon>
    </MultiGeometry>
    </Placemark>
  </Document>
</kml>
