<?xml version="1.0" encoding="UTF-8"?>
<kml xmlns="http://www.opengis.net/kml/2.2">
  <Document>
    <name><![CDATA[白沙黎族自治县]]></name>
    <Placemark>
      <name><![CDATA[白沙黎族自治县]]></name>
      <description><![CDATA[省级目录：海南省]]></description>
      <ExtendedData>
        <Data name="adcode"><value>469025</value></Data>
      </ExtendedData>
      <MultiGeometry>
      <Polygon>
        <outerBoundaryIs><LinearRing><coordinates>109.298203,18.960911,0 109.34848,18.946321,0 109.367739,18.936171,0 109.424775,18.990403,0 109.456349,18.995635,0 109.468386,19.032254,0 109.524033,19.030986,0 109.561347,19.072668,0 109.601439,19.053492,0 109.613569,19.086454,0 109.687734,19.118775,0 109.686994,19.178965,0 109.673105,19.207627,0 109.634031,19.20256,0 109.611995,19.252589,0 109.587365,19.243249,0 109.541625,19.311939,0 109.468386,19.301178,0 109.506348,19.359561,0 109.483848,19.406063,0 109.457275,19.39942,0 109.424405,19.354815,0 109.384035,19.355448,0 109.318943,19.398155,0 109.26774,19.376803,0 109.178389,19.399262,0 109.13052,19.479584,0 109.117557,19.46757,0 109.051447,19.487803,0 109.04478,19.430415,0 109.043669,19.342792,0 109.08265,19.328869,0 109.142834,19.265727,0 109.120242,19.203985,0 109.163667,19.14222,0 109.177093,19.083443,0 109.271166,19.067438,0 109.298203,18.960911,0</coordinates></LinearRing></outerBoundaryIs>
      </Polygon>
    </MultiGeometry>
    </Placemark>
  </Document>
</kml>
