<?xml version="1.0" encoding="UTF-8"?>
<kml xmlns="http://www.opengis.net/kml/2.2">
  <Document>
    <name>吉林市</name>
    <Placemark>
      <name>吉林市</name>
      <Polygon><outerBoundaryIs><LinearRing><coordinates>126.733975000000,44.517582000000,0 126.738717000000,44.521654000000,0 126.759621000000,44.518867000000,0 126.770169000000,44.525618000000,0 126.797751000000,44.522886000000,0 126.811687000000,44.530761000000,0 126.834139000000,44.535742000000,0 126.856494000000,44.536546000000,0 126.860752000000,44.527547000000,0 126.878463000000,44.512223000000,0 126.899850000000,44.514849000000,0 126.902754000000,44.524332000000,0 126.910980000000,44.524493000000,0 126.920270000000,44.532850000000,0 126.949013000000,44.524707000000,0 126.959271000000,44.530118000000,0 126.991207000000,44.527761000000,0 126.999337000000,44.531511000000,0 127.010369000000,44.552077000000,0 127.035725000000,44.558128000000,0 127.050435000000,44.566962000000,0 127.060500000000,44.570870000000,0 127.077629000000,44.587408000000,0 127.089436000000,44.593991000000,0 127.088662000000,44.606190000000,0 127.094759000000,44.615819000000,0 127.117888000000,44.615337000000,0 127.126888000000,44.609881000000,0 127.138985000000,44.607634000000,0 127.142857000000,44.614535000000,0 127.152728000000,44.616567000000,0 127.181761000000,44.643627000000,0 127.211665000000,44.648117000000,0 127.219600000000,44.642450000000,0 127.229472000000,44.642557000000,0 127.219407000000,44.635606000000,0 127.213987000000,44.625499000000,0 127.230923000000,44.623200000000,0 127.263053000000,44.612930000000,0 127.271860000000,44.627371000000,0 127.276215000000,44.640472000000,0 127.319764000000,44.638013000000,0 127.321893000000,44.635553000000,0 127.393024000000,44.632291000000,0 127.401734000000,44.634377000000,0 127.411315000000,44.622504000000,0 127.425251000000,44.620205000000,0 127.435413000000,44.613839000000,0 127.451477000000,44.615016000000,0 127.465994000000,44.607473000000,0 127.474123000000,44.608971000000,0 127.482930000000,44.600625000000,0 127.487769000000,44.602552000000,0 127.506737000000,44.594526000000,0 127.513221000000,44.582538000000,0 127.537512000000,44.577186000000,0 127.556480000000,44.576008000000,0 127.568190000000,44.559948000000,0 127.570222000000,44.550738000000,0 127.546803000000,44.538528000000,0 127.542060000000,44.525779000000,0 127.536931000000,44.522618000000,0 127.514479000000,44.523046000000,0 127.508963000000,44.530332000000,0 127.494640000000,44.526797000000,0 127.484188000000,44.528297000000,0 127.474317000000,44.517528000000,0 127.465607000000,44.516296000000,0 127.468413000000,44.506597000000,0 127.475478000000,44.498504000000,0 127.464639000000,44.486711000000,0 127.472575000000,44.467891000000,0 127.478962000000,44.458613000000,0 127.500640000000,44.450246000000,0 127.508285000000,44.437209000000,0 127.501995000000,44.430126000000,0 127.502769000000,44.423150000000,0 127.485543000000,44.408658000000,0 127.487865000000,44.397492000000,0 127.506931000000,44.393035000000,0 127.520479000000,44.380684000000,0 127.523479000000,44.372466000000,0 127.521641000000,44.360595000000,0 127.534318000000,44.359574000000,0 127.541673000000,44.348935000000,0 127.556383000000,44.340552000000,0 127.585513000000,44.306361000000,0 127.591320000000,44.306361000000,0 127.596933000000,44.298295000000,0 127.609223000000,44.294745000000,0 127.623353000000,44.277585000000,0 127.614933000000,44.271021000000,0 127.623159000000,44.258321000000,0 127.604965000000,44.245996000000,0 127.602062000000,44.238082000000,0 127.590546000000,44.227853000000,0 127.597901000000,44.224352000000,0 127.607385000000,44.207172000000,0 127.620450000000,44.196721000000,0 127.626643000000,44.187885000000,0 127.637869000000,44.187023000000,0 127.640869000000,44.193112000000,0 127.667967000000,44.176569000000,0 127.668451000000,44.172203000000,0 127.681129000000,44.166867000000,0 127.699226000000,44.176138000000,0 127.703387000000,44.188155000000,0 127.712387000000,44.199038000000,0 127.719452000000,44.202486000000,0 127.724001000000,44.196613000000,0 127.720517000000,44.162824000000,0 127.722065000000,44.153606000000,0 127.729130000000,44.147190000000,0 127.727775000000,44.140989000000,0 127.734840000000,44.129987000000,0 127.735904000000,44.114236000000,0 127.729227000000,44.099020000000,0 127.736775000000,44.093299000000,0 127.766679000000,44.082181000000,0 127.783518000000,44.071978000000,0 127.791454000000,44.073867000000,0 127.808293000000,44.086445000000,0 127.821648000000,44.081047000000,0 127.845746000000,44.082127000000,0 127.848455000000,44.074137000000,0 127.865004000000,44.062259000000,0 127.870133000000,44.055779000000,0 127.860456000000,44.049082000000,0 127.852423000000,44.048272000000,0 127.849810000000,44.041574000000,0 127.835584000000,44.037415000000,0 127.835778000000,44.031797000000,0 127.820971000000,44.020450000000,0 127.807809000000,44.017911000000,0 127.800551000000,44.008183000000,0 127.788938000000,44.002670000000,0 127.783422000000,43.995913000000,0 127.785744000000,43.989318000000,0 127.782744000000,43.978828000000,0 127.792325000000,43.973421000000,0 127.779841000000,43.971690000000,0 127.786131000000,43.956113000000,0 127.778679000000,43.949513000000,0 127.775873000000,43.936744000000,0 127.762518000000,43.937231000000,0 127.781196000000,43.929709000000,0 127.795228000000,43.916774000000,0 127.836068000000,43.901074000000,0 127.839552000000,43.896634000000,0 127.851262000000,43.896147000000,0 127.850972000000,43.888836000000,0 127.861036000000,43.882175000000,0 127.854456000000,43.857635000000,0 127.837520000000,43.867170000000,0 127.816519000000,43.853571000000,0 127.811003000000,43.840944000000,0 127.816713000000,43.836066000000,0 127.807809000000,43.827935000000,0 127.817971000000,43.818610000000,0 127.813422000000,43.812103000000,0 127.826874000000,43.809771000000,0 127.835584000000,43.801528000000,0 127.844197000000,43.800389000000,0 127.840520000000,43.795020000000,0 127.839358000000,43.779234000000,0 127.857262000000,43.754868000000,0 127.856972000000,43.746998000000,0 127.877101000000,43.735000000000,0 127.893457000000,43.729733000000,0 127.906522000000,43.732339000000,0 127.915909000000,43.730602000000,0 127.920554000000,43.721316000000,0 127.917457000000,43.716374000000,0 127.924716000000,43.707900000000,0 127.910296000000,43.703120000000,0 127.913489000000,43.694591000000,0 127.902650000000,43.689864000000,0 127.909909000000,43.684430000000,0 127.905651000000,43.670082000000,0 127.913296000000,43.666223000000,0 127.916393000000,43.657851000000,0 127.913006000000,43.651871000000,0 127.899457000000,43.645618000000,0 127.896554000000,43.625006000000,0 127.884263000000,43.620382000000,0 127.865682000000,43.624897000000,0 127.854649000000,43.616411000000,0 127.853585000000,43.610644000000,0 127.840907000000,43.595136000000,0 127.829390000000,43.598564000000,0 127.816519000000,43.590728000000,0 127.819326000000,43.583053000000,0 127.811100000000,43.581148000000,0 127.797938000000,43.572166000000,0 127.798809000000,43.564761000000,0 127.791744000000,43.563509000000,0 127.791164000000,43.554578000000,0 127.777034000000,43.555014000000,0 127.770841000000,43.549840000000,0 127.769873000000,43.531974000000,0 127.774518000000,43.525763000000,0 127.761356000000,43.523257000000,0 127.745001000000,43.503693000000,0 127.733775000000,43.504456000000,0 127.719839000000,43.510396000000,0 127.717710000000,43.502439000000,0 127.698161000000,43.484232000000,0 127.704258000000,43.480851000000,0 127.706678000000,43.464655000000,0 127.697097000000,43.451346000000,0 127.696323000000,43.437270000000,0 127.701742000000,43.430285000000,0 127.710162000000,43.430231000000,0 127.705710000000,43.409272000000,0 127.698645000000,43.401957000000,0 127.703484000000,43.395023000000,0 127.694968000000,43.378039000000,0 127.688096000000,43.375144000000,0 127.686064000000,43.367278000000,0 127.678999000000,43.364219000000,0 127.682193000000,43.354330000000,0 127.671741000000,43.349522000000,0 127.647934000000,43.346298000000,0 127.639902000000,43.340068000000,0 127.625192000000,43.341216000000,0 127.617449000000,43.334821000000,0 127.633902000000,43.323288000000,0 127.630514000000,43.312955000000,0 127.615320000000,43.305464000000,0 127.618417000000,43.300159000000,0 127.643482000000,43.292721000000,0 127.654128000000,43.283258000000,0 127.659451000000,43.273520000000,0 127.657225000000,43.260169000000,0 127.644547000000,43.249333000000,0 127.636224000000,43.236688000000,0 127.634192000000,43.223822000000,0 127.611933000000,43.206243000000,0 127.595965000000,43.197533000000,0 127.585997000000,43.195068000000,0 127.581352000000,43.187508000000,0 127.567900000000,43.186631000000,0 127.562287000000,43.178796000000,0 127.561513000000,43.168986000000,0 127.547480000000,43.161039000000,0 127.548544000000,43.157695000000,0 127.532189000000,43.146238000000,0 127.510608000000,43.140865000000,0 127.480027000000,43.139768000000,0 127.488833000000,43.129239000000,0 127.503447000000,43.120574000000,0 127.492898000000,43.091552000000,0 127.501801000000,43.070586000000,0 127.501124000000,43.065591000000,0 127.484769000000,43.060869000000,0 127.483414000000,43.053018000000,0 127.469962000000,43.038026000000,0 127.469768000000,43.028688000000,0 127.479543000000,43.021986000000,0 127.497253000000,43.023359000000,0 127.504705000000,43.011822000000,0 127.516802000000,43.003195000000,0 127.531221000000,42.984452000000,0 127.548351000000,42.978076000000,0 127.557932000000,42.979175000000,0 127.575448000000,42.966749000000,0 127.585900000000,42.955916000000,0 127.596643000000,42.957346000000,0 127.608449000000,42.954596000000,0 127.616579000000,42.945631000000,0 127.636321000000,42.937765000000,0 127.640966000000,42.921699000000,0 127.655096000000,42.917902000000,0 127.674838000000,42.902712000000,0 127.696129000000,42.900345000000,0 127.711613000000,42.891317000000,0 127.728356000000,42.892803000000,0 127.744324000000,42.890271000000,0 127.754098000000,42.901831000000,0 127.759421000000,42.902436000000,0 127.774034000000,42.895445000000,0 127.776938000000,42.887958000000,0 127.794744000000,42.874192000000,0 127.807325000000,42.878598000000,0 127.819035000000,42.875789000000,0 127.825036000000,42.868134000000,0 127.819713000000,42.864004000000,0 127.815455000000,42.840866000000,0 127.829197000000,42.834254000000,0 127.835197000000,42.818878000000,0 127.841778000000,42.818933000000,0 127.852520000000,42.811106000000,0 127.843617000000,42.805593000000,0 127.847004000000,42.801017000000,0 127.837617000000,42.788335000000,0 127.820293000000,42.793022000000,0 127.809358000000,42.799749000000,0 127.808874000000,42.807026000000,0 127.800551000000,42.812649000000,0 127.777905000000,42.814909000000,0 127.759131000000,42.814634000000,0 127.738324000000,42.821799000000,0 127.725356000000,42.821854000000,0 127.717613000000,42.817280000000,0 127.710936000000,42.804215000000,0 127.716742000000,42.801182000000,0 127.727291000000,42.803663000000,0 127.726517000000,42.799087000000,0 127.709387000000,42.789107000000,0 127.714226000000,42.780173000000,0 127.705613000000,42.774437000000,0 127.696710000000,42.775760000000,0 127.693226000000,42.771182000000,0 127.677645000000,42.765390000000,0 127.670290000000,42.755404000000,0 127.656934000000,42.760921000000,0 127.647160000000,42.751045000000,0 127.650934000000,42.744975000000,0 127.641353000000,42.732226000000,0 127.652579000000,42.726596000000,0 127.643386000000,42.713954000000,0 127.620837000000,42.711359000000,0 127.598965000000,42.693301000000,0 127.597707000000,42.680818000000,0 127.588610000000,42.669713000000,0 127.573126000000,42.668608000000,0 127.567513000000,42.657501000000,0 127.558222000000,42.656728000000,0 127.552222000000,42.648327000000,0 127.541577000000,42.641363000000,0 127.534512000000,42.641639000000,0 127.510124000000,42.633789000000,0 127.486607000000,42.631025000000,0 127.485349000000,42.614492000000,0 127.498221000000,42.611561000000,0 127.497543000000,42.602215000000,0 127.485640000000,42.598343000000,0 127.467542000000,42.597790000000,0 127.463671000000,42.592036000000,0 127.470252000000,42.584734000000,0 127.468026000000,42.566805000000,0 127.458155000000,42.561492000000,0 127.432412000000,42.573446000000,0 127.404250000000,42.569628000000,0 127.405992000000,42.573501000000,0 127.384992000000,42.577430000000,0 127.370572000000,42.584014000000,0 127.351991000000,42.587943000000,0 127.352475000000,42.601993000000,0 127.338829000000,42.605644000000,0 127.319571000000,42.640312000000,0 127.305538000000,42.632297000000,0 127.287925000000,42.632020000000,0 127.279602000000,42.626547000000,0 127.280957000000,42.617423000000,0 127.240214000000,42.599449000000,0 127.221923000000,42.605644000000,0 127.211568000000,42.602325000000,0 127.204213000000,42.608354000000,0 127.211665000000,42.622123000000,0 127.219213000000,42.627708000000,0 127.218246000000,42.642302000000,0 127.225214000000,42.656065000000,0 127.246988000000,42.678332000000,0 127.251246000000,42.690816000000,0 127.253569000000,42.708984000000,0 127.243311000000,42.718370000000,0 127.234988000000,42.720413000000,0 127.226762000000,42.738242000000,0 127.211374000000,42.748783000000,0 127.210987000000,42.754245000000,0 127.200729000000,42.764949000000,0 127.202471000000,42.784805000000,0 127.192890000000,42.803333000000,0 127.193761000000,42.823563000000,0 127.201697000000,42.835742000000,0 127.191729000000,42.843456000000,0 127.181374000000,42.831664000000,0 127.180987000000,42.825216000000,0 127.169373000000,42.813145000000,0 127.161728000000,42.810941000000,0 127.160083000000,42.804049000000,0 127.149631000000,42.805538000000,0 127.135792000000,42.801624000000,0 127.130566000000,42.807578000000,0 127.125050000000,42.804876000000,0 127.104049000000,42.803167000000,0 127.094759000000,42.799528000000,0 127.072693000000,42.813145000000,0 127.053145000000,42.804325000000,0 127.041338000000,42.806530000000,0 127.016853000000,42.788997000000,0 126.999530000000,42.793739000000,0 126.990046000000,42.804876000000,0 126.979981000000,42.803608000000,0 126.972142000000,42.808074000000,0 126.950271000000,42.811492000000,0 126.947368000000,42.805648000000,0 126.913593000000,42.804711000000,0 126.907883000000,42.809066000000,0 126.897334000000,42.802616000000,0 126.899270000000,42.787011000000,0 126.879237000000,42.780228000000,0 126.869075000000,42.783813000000,0 126.853785000000,42.784640000000,0 126.832978000000,42.777801000000,0 126.822139000000,42.777470000000,0 126.818655000000,42.768259000000,0 126.813042000000,42.766162000000,0 126.813138000000,42.753418000000,0 126.801719000000,42.740946000000,0 126.800461000000,42.733109000000,0 126.810816000000,42.722014000000,0 126.812461000000,42.709205000000,0 126.807235000000,42.702579000000,0 126.796977000000,42.701806000000,0 126.784492000000,42.691313000000,0 126.774234000000,42.671536000000,0 126.760008000000,42.667337000000,0 126.750427000000,42.672310000000,0 126.734459000000,42.695731000000,0 126.720329000000,42.696891000000,0 126.700877000000,42.706113000000,0 126.685780000000,42.706886000000,0 126.682877000000,42.716935000000,0 126.673006000000,42.718205000000,0 126.661780000000,42.727093000000,0 126.648715000000,42.729411000000,0 126.628585000000,42.713512000000,0 126.619004000000,42.712684000000,0 126.602843000000,42.703904000000,0 126.596649000000,42.696559000000,0 126.583681000000,42.697001000000,0 126.567422000000,42.686065000000,0 126.563261000000,42.670818000000,0 126.541873000000,42.668498000000,0 126.533454000000,42.671260000000,0 126.527744000000,42.678663000000,0 126.514098000000,42.681094000000,0 126.507130000000,42.685734000000,0 126.492420000000,42.679879000000,0 126.484678000000,42.684629000000,0 126.465807000000,42.682088000000,0 126.435322000000,42.674962000000,0 126.422257000000,42.679050000000,0 126.405031000000,42.688661000000,0 126.404257000000,42.693356000000,0 126.387998000000,42.697554000000,0 126.382869000000,42.708764000000,0 126.389063000000,42.718923000000,0 126.390127000000,42.731840000000,0 126.400386000000,42.737801000000,0 126.391676000000,42.755514000000,0 126.398160000000,42.761363000000,0 126.389160000000,42.769913000000,0 126.387224000000,42.779621000000,0 126.395547000000,42.793794000000,0 126.394676000000,42.804987000000,0 126.384030000000,42.815406000000,0 126.366030000000,42.813807000000,0 126.354997000000,42.804215000000,0 126.344642000000,42.805538000000,0 126.325964000000,42.815185000000,0 126.312125000000,42.814965000000,0 126.299641000000,42.800135000000,0 126.287544000000,42.796275000000,0 126.270124000000,42.794456000000,0 126.261027000000,42.784144000000,0 126.246704000000,42.783206000000,0 126.243027000000,42.775871000000,0 126.227639000000,42.773719000000,0 126.219510000000,42.778684000000,0 126.217284000000,42.786074000000,0 126.195025000000,42.790761000000,0 126.190961000000,42.787453000000,0 126.166670000000,42.784971000000,0 126.149153000000,42.792085000000,0 126.138218000000,42.791809000000,0 126.135605000000,42.787232000000,0 126.099120000000,42.783096000000,0 126.089926000000,42.789217000000,0 126.078216000000,42.785633000000,0 126.067667000000,42.788004000000,0 126.060796000000,42.783151000000,0 126.054990000000,42.787783000000,0 126.029344000000,42.788611000000,0 126.018021000000,42.797047000000,0 126.007569000000,42.796386000000,0 125.994311000000,42.816177000000,0 125.980568000000,42.813145000000,0 125.951342000000,42.822846000000,0 125.939922000000,42.830672000000,0 125.919599000000,42.850894000000,0 125.911567000000,42.876395000000,0 125.903631000000,42.876065000000,0 125.903244000000,42.900455000000,0 125.906921000000,42.905244000000,0 125.892308000000,42.913940000000,0 125.887663000000,42.913444000000,0 125.857759000000,42.924065000000,0 125.841500000000,42.925661000000,0 125.857855000000,42.943926000000,0 125.865501000000,42.947556000000,0 125.849726000000,42.953276000000,0 125.864339000000,42.955036000000,0 125.861436000000,42.960591000000,0 125.850500000000,42.958721000000,0 125.834435000000,42.966749000000,0 125.831726000000,42.982254000000,0 125.821564000000,42.997919000000,0 125.805306000000,43.004239000000,0 125.809661000000,43.005832000000,0 125.772305000000,43.020118000000,0 125.742111000000,43.012151000000,0 125.736788000000,43.006162000000,0 125.727013000000,43.010943000000,0 125.726239000000,43.022920000000,0 125.707755000000,43.033357000000,0 125.693625000000,43.036598000000,0 125.674560000000,43.044506000000,0 125.659850000000,43.058399000000,0 125.664689000000,43.076020000000,0 125.679980000000,43.060101000000,0 125.697109000000,43.060046000000,0 125.703980000000,43.056038000000,0 125.733401000000,43.064822000000,0 125.738820000000,43.072507000000,0 125.728465000000,43.084418000000,0 125.732723000000,43.091113000000,0 125.749756000000,43.083156000000,0 125.787596000000,43.096875000000,0 125.786725000000,43.102142000000,0 125.776176000000,43.102855000000,0 125.776273000000,43.109384000000,0 125.769305000000,43.113059000000,0 125.760595000000,43.129130000000,0 125.753530000000,43.130610000000,0 125.725271000000,43.123371000000,0 125.713368000000,43.125565000000,0 125.698755000000,43.150514000000,0 125.692464000000,43.146786000000,0 125.688787000000,43.159504000000,0 125.680754000000,43.169480000000,0 125.683464000000,43.178577000000,0 125.674173000000,43.186302000000,0 125.666528000000,43.199834000000,0 125.655205000000,43.200217000000,0 125.645721000000,43.217251000000,0 125.647850000000,43.222782000000,0 125.660141000000,43.226888000000,0 125.659270000000,43.231871000000,0 125.697980000000,43.262741000000,0 125.716852000000,43.267283000000,0 125.718207000000,43.274450000000,0 125.730497000000,43.274560000000,0 125.781789000000,43.292776000000,0 125.788563000000,43.301472000000,0 125.800660000000,43.310330000000,0 125.815854000000,43.315743000000,0 125.832306000000,43.300542000000,0 125.844791000000,43.294745000000,0 125.857178000000,43.294964000000,0 125.891534000000,43.301690000000,0 125.900631000000,43.307541000000,0 125.915147000000,43.310275000000,0 125.913889000000,43.317001000000,0 125.928019000000,43.318094000000,0 125.949890000000,43.323561000000,0 125.956664000000,43.327934000000,0 125.957826000000,43.336953000000,0 125.969536000000,43.342527000000,0 125.979117000000,43.336406000000,0 126.006021000000,43.345041000000,0 126.018892000000,43.353074000000,0 126.020537000000,43.361597000000,0 126.013859000000,43.371266000000,0 126.000988000000,43.374270000000,0 125.996536000000,43.391692000000,0 125.988504000000,43.403267000000,0 125.975342000000,43.405232000000,0 125.969439000000,43.398353000000,0 125.957826000000,43.398572000000,0 125.950374000000,43.407744000000,0 125.938470000000,43.430504000000,0 125.934019000000,43.435142000000,0 125.912341000000,43.446654000000,0 125.914663000000,43.451128000000,0 125.901502000000,43.451401000000,0 125.882727000000,43.462583000000,0 125.873049000000,43.484886000000,0 125.866759000000,43.484232000000,0 125.868501000000,43.491482000000,0 125.855339000000,43.495353000000,0 125.852726000000,43.501621000000,0 125.866178000000,43.510996000000,0 125.867243000000,43.523583000000,0 125.872566000000,43.526526000000,0 125.857952000000,43.532845000000,0 125.856501000000,43.538838000000,0 125.867630000000,43.543794000000,0 125.865017000000,43.551202000000,0 125.870824000000,43.561821000000,0 125.878082000000,43.562202000000,0 125.886114000000,43.591870000000,0 125.894340000000,43.604006000000,0 125.885824000000,43.619240000000,0 125.893663000000,43.624843000000,0 125.886888000000,43.634470000000,0 125.887759000000,43.650838000000,0 125.878372000000,43.650947000000,0 125.878856000000,43.670897000000,0 125.867049000000,43.683397000000,0 125.871791000000,43.689972000000,0 125.863178000000,43.690679000000,0 125.849339000000,43.697524000000,0 125.848758000000,43.707411000000,0 125.838016000000,43.729624000000,0 125.834048000000,43.728212000000,0 125.830177000000,43.738692000000,0 125.832887000000,43.747649000000,0 125.824564000000,43.760187000000,0 125.815661000000,43.759482000000,0 125.818661000000,43.765886000000,0 125.811016000000,43.767893000000,0 125.821177000000,43.774730000000,0 125.816048000000,43.783411000000,0 125.803564000000,43.790897000000,0 125.806661000000,43.798762000000,0 125.801725000000,43.803210000000,0 125.805596000000,43.812103000000,0 125.813145000000,43.812808000000,0 125.806177000000,43.818339000000,0 125.809080000000,43.824899000000,0 125.802209000000,43.827772000000,0 125.810532000000,43.831838000000,0 125.821564000000,43.851674000000,0 125.825242000000,43.863757000000,0 125.844307000000,43.862782000000,0 125.844403000000,43.859639000000,0 125.860468000000,43.860506000000,0 125.864920000000,43.853842000000,0 125.879340000000,43.861644000000,0 125.891050000000,43.863865000000,0 125.892792000000,43.855955000000,0 125.899857000000,43.853842000000,0 125.917373000000,43.861644000000,0 125.935374000000,43.859206000000,0 125.950180000000,43.849615000000,0 125.972342000000,43.852162000000,0 125.984633000000,43.856226000000,0 125.986568000000,43.870421000000,0 125.994988000000,43.877300000000,0 126.002053000000,43.875513000000,0 126.042215000000,43.882066000000,0 126.044151000000,43.898638000000,0 126.036602000000,43.898096000000,0 126.044925000000,43.910765000000,0 126.045118000000,43.920942000000,0 126.035634000000,43.923864000000,0 126.023440000000,43.932740000000,0 126.036989000000,43.937664000000,0 126.035150000000,43.948540000000,0 126.029731000000,43.954761000000,0 126.029150000000,43.965092000000,0 126.021311000000,43.979153000000,0 126.000891000000,43.995751000000,0 126.007085000000,44.027420000000,0 126.018118000000,44.041088000000,0 126.029053000000,44.049784000000,0 126.036699000000,44.050324000000,0 126.042893000000,44.061773000000,0 126.051796000000,44.067550000000,0 126.063796000000,44.066525000000,0 126.065151000000,44.081047000000,0 126.077055000000,44.088928000000,0 126.078119000000,44.095782000000,0 126.089732000000,44.103229000000,0 126.092926000000,44.115153000000,0 126.106765000000,44.126049000000,0 126.120024000000,44.122975000000,0 126.133282000000,44.113588000000,0 126.140734000000,44.120170000000,0 126.133379000000,44.129717000000,0 126.150121000000,44.137268000000,0 126.162412000000,44.139694000000,0 126.157670000000,44.150317000000,0 126.162992000000,44.158027000000,0 126.177122000000,44.164280000000,0 126.209639000000,44.157164000000,0 126.225220000000,44.176461000000,0 126.244188000000,44.176892000000,0 126.249704000000,44.180611000000,0 126.263543000000,44.178994000000,0 126.272834000000,44.182012000000,0 126.273608000000,44.169239000000,0 126.278641000000,44.158781000000,0 126.287544000000,44.177593000000,0 126.297028000000,44.176245000000,0 126.296641000000,44.192303000000,0 126.331674000000,44.187346000000,0 126.338545000000,44.179802000000,0 126.349481000000,44.174790000000,0 126.366320000000,44.177269000000,0 126.376288000000,44.174359000000,0 126.390902000000,44.182173000000,0 126.402515000000,44.181904000000,0 126.403870000000,44.176084000000,0 126.413741000000,44.179910000000,0 126.425354000000,44.171071000000,0 126.433193000000,44.174790000000,0 126.445193000000,44.174305000000,0 126.462129000000,44.177647000000,0 126.468613000000,44.182820000000,0 126.467936000000,44.203078000000,0 126.480710000000,44.215574000000,0 126.500743000000,44.221552000000,0 126.503646000000,44.234152000000,0 126.494453000000,44.239913000000,0 126.470936000000,44.243035000000,0 126.463097000000,44.257514000000,0 126.473549000000,44.271667000000,0 126.474613000000,44.282320000000,0 126.481001000000,44.290980000000,0 126.494356000000,44.297918000000,0 126.489807000000,44.305609000000,0 126.474613000000,44.310394000000,0 126.470549000000,44.315664000000,0 126.472194000000,44.336306000000,0 126.468033000000,44.344368000000,0 126.455161000000,44.354201000000,0 126.461161000000,44.365054000000,0 126.474226000000,44.366235000000,0 126.484194000000,44.371016000000,0 126.493582000000,44.379986000000,0 126.491743000000,44.385517000000,0 126.479646000000,44.392606000000,0 126.484968000000,44.407853000000,0 126.484775000000,44.416441000000,0 126.467645000000,44.424653000000,0 126.434161000000,44.418320000000,0 126.424773000000,44.425565000000,0 126.441032000000,44.437317000000,0 126.440742000000,44.447617000000,0 126.422257000000,44.465478000000,0 126.425644000000,44.478723000000,0 126.424290000000,44.488427000000,0 126.442677000000,44.493626000000,0 126.445967000000,44.502792000000,0 126.422257000000,44.513563000000,0 126.415096000000,44.520100000000,0 126.413160000000,44.528511000000,0 126.424193000000,44.534189000000,0 126.442774000000,44.534778000000,0 126.438709000000,44.541045000000,0 126.452548000000,44.555718000000,0 126.464452000000,44.546294000000,0 126.476452000000,44.547793000000,0 126.507808000000,44.543241000000,0 126.512743000000,44.539063000000,0 126.528228000000,44.544526000000,0 126.531712000000,44.549239000000,0 126.546615000000,44.545758000000,0 126.546615000000,44.555451000000,0 126.560358000000,44.556629000000,0 126.554648000000,44.563107000000,0 126.580390000000,44.567604000000,0 126.580390000000,44.570870000000,0 126.594229000000,44.569478000000,0 126.598004000000,44.565516000000,0 126.620746000000,44.557914000000,0 126.608068000000,44.575045000000,0 126.627714000000,44.574938000000,0 126.635166000000,44.569424000000,0 126.630424000000,44.560591000000,0 126.646489000000,44.556950000000,0 126.641844000000,44.554487000000,0 126.646392000000,44.544419000000,0 126.655199000000,44.545437000000,0 126.703684000000,44.534778000000,0 126.709297000000,44.531993000000,0 126.712200000000,44.532850000000,0 126.709587000000,44.537349000000,0 126.720523000000,44.535475000000,0 126.730104000000,44.534403000000,0 126.733201000000,44.528189000000,0 126.726813000000,44.521225000000,0 126.733975000000,44.517582000000,0</coordinates></LinearRing></outerBoundaryIs><innerBoundaryIs><LinearRing><coordinates>126.715394000000,44.533332000000,0 126.712781000000,44.532421000000,0 126.719071000000,44.531618000000,0 126.720233000000,44.533975000000,0 126.715394000000,44.533332000000,0</coordinates></LinearRing></innerBoundaryIs></Polygon>
    </Placemark>
  </Document>
</kml>
