<?xml version="1.0" encoding="UTF-8"?>
<kml xmlns="http://www.opengis.net/kml/2.2">
<Document>
<name>四平市</name>
<Placemark><name>四平市</name><MultiGeometry><Polygon><outerBoundaryIs><LinearRing><coordinates>124.015710999999996,44.004508000000001,0 123.951740999999998,43.998615999999998,0 123.901320999999996,44.000453999999998,0 123.872675000000001,43.998399999999997,0 123.857578000000004,43.999859000000001,0 123.818577000000005,43.986235999999998,0 123.768640000000005,44.003642999999997,0 123.766221000000002,44.016613999999997,0 123.773576000000006,44.022882000000003,0 123.756736000000004,44.040925999999999,0 123.745607000000007,44.042600999999998,0 123.732639000000006,44.039521999999998,0 123.721219000000005,44.050702000000001,0 123.718703000000005,44.062907000000003,0 123.695573999999993,44.083421999999999,0 123.699444999999997,44.090223000000002,0 123.687927999999999,44.098587999999999,0 123.683186000000006,44.109864999999999,0 123.663539999999998,44.107815000000002,0 123.660443999999998,44.092543999999997,0 123.652411000000001,44.089466999999999,0 123.641862000000003,44.079374000000001,0 123.635668999999993,44.078131999999997,0 123.610699999999994,44.081425000000003,0 123.589893000000004,44.088334000000003,0 123.571796000000006,44.087955999999998,0 123.551860000000005,44.081425000000003,0 123.547989000000001,44.077916000000002,0 123.503084999999999,44.080399,0 123.478503000000003,44.083638000000001,0 123.449663999999999,44.076889999999999,0 123.437083000000001,44.077862000000003,0 123.424986000000004,44.075217000000002,0 123.409502000000003,44.076998000000003,0 123.400114000000002,44.071869999999997,0 123.399242999999998,44.066633000000003,0 123.358694,44.075001,0 123.328498999999994,44.070951999999998,0 123.332853999999998,44.066957000000002,0 123.331209000000001,44.055670999999997,0 123.320757,44.052053000000001,0 123.326273999999998,44.045679,0 123.332370999999995,44.028339000000003,0 123.365758999999997,44.013966000000003,0 123.369822999999997,44.004724000000003,0 123.400887999999995,43.979261000000001,0 123.381435999999994,43.974826999999998,0 123.374951999999993,43.965902999999997,0 123.382501000000005,43.952109999999998,0 123.397017000000005,43.954760999999998,0 123.404469000000006,43.939179000000003,0 123.412405000000007,43.938096999999999,0 123.415115,43.928789000000002,0 123.428275999999997,43.927382000000001,0 123.429340999999994,43.917586,0 123.439986000000005,43.897880000000001,0 123.438438000000005,43.894793,0 123.444051000000002,43.877246,0 123.453147999999999,43.878221000000003,0 123.463696999999996,43.864623999999999,0 123.461955000000003,43.859043,0 123.468244999999996,43.853082999999998,0 123.466503000000003,43.839100999999999,0 123.462728999999996,43.836227999999998,0 123.462051000000002,43.822622000000003,0 123.467084,43.816060999999998,0 123.473955000000004,43.816006999999999,0 123.474923000000004,43.804510999999998,0 123.482277999999994,43.794749000000003,0 123.492439000000005,43.792687000000001,0 123.496891000000005,43.785581000000001,0 123.498245999999995,43.771149000000001,0 123.490212999999997,43.770226999999998,0 123.485568000000001,43.763334999999998,0 123.485568000000001,43.745586000000003,0 123.482664999999997,43.737769,0 123.490212999999997,43.729895999999997,0 123.499020000000002,43.730384000000001,0 123.509277999999995,43.716754000000002,0 123.520795000000007,43.706760000000003,0 123.518665999999996,43.701382000000002,0 123.525343000000007,43.695079999999997,0 123.518956000000003,43.681494999999998,0 123.527376000000004,43.669320999999997,0 123.529117999999997,43.659700000000001,0 123.537246999999994,43.649695999999999,0 123.533956000000003,43.645508999999997,0 123.535989000000001,43.631695999999998,0 123.511600999999999,43.626038999999999,0 123.513148999999999,43.614995999999998,0 123.507052999999999,43.611569000000003,0 123.513729999999995,43.604005999999998,0 123.510440000000003,43.592250999999997,0 123.496988000000002,43.590020000000003,0 123.473955000000004,43.590237999999999,0 123.467179999999999,43.585394000000001,0 123.458567000000002,43.593992999999998,0 123.441147999999998,43.598182999999999,0 123.429147,43.603842999999998,0 123.426243999999997,43.610807000000001,0 123.421115,43.598238000000002,0 123.433986000000004,43.575595,0 123.446663999999998,43.580930000000002,0 123.460890000000006,43.568572000000003,0 123.455954000000006,43.547987999999997,0 123.452470000000005,43.545701000000001,0 123.403210999999999,43.558826000000003,0 123.356662,43.567701,0 123.340500000000006,43.560841000000003,0 123.304499000000007,43.550711,0 123.306144000000003,43.535406000000002,0 123.329853999999997,43.519061000000001,0 123.325498999999994,43.5062,0 123.316014999999993,43.492027999999998,0 123.335370999999995,43.480851000000001,0 123.364500000000007,43.483359,0 123.375822999999997,43.476542999999999,0 123.389469000000005,43.457782999999999,0 123.389469000000005,43.449382,0 123.395469000000006,43.441799000000003,0 123.413953000000006,43.425919999999998,0 123.419856999999993,43.410091000000001,0 123.442695999999998,43.420571000000002,0 123.442019000000002,43.437652,0 123.487020000000001,43.445509000000001,0 123.500664999999998,43.426082999999998,0 123.519632999999999,43.402448,0 123.525149999999996,43.398572000000001,0 123.532505,43.401519999999998,0 123.545085999999998,43.415058000000002,0 123.555925000000002,43.406433,0 123.584086999999997,43.377274,0 123.608570999999998,43.366295000000001,0 123.703703000000004,43.370665000000002,0 123.704960999999997,43.377329000000003,0 123.698573999999994,43.382517,0 123.708928999999998,43.383774000000003,0 123.700219000000004,43.389288999999998,0 123.705637999999993,43.396988,0 123.703024999999997,43.402611999999998,0 123.709896000000001,43.416696000000002,0 123.734380999999999,43.427228999999997,0 123.749188000000004,43.439233999999999,0 123.743091000000007,43.441961999999997,0 123.751993999999996,43.454728000000003,0 123.753252000000003,43.464545999999999,0 123.746285,43.471198999999999,0 123.771349999999998,43.484012999999997,0 123.773962999999995,43.480305999999999,0 123.787028000000007,43.479815000000002,0 123.797865999999999,43.489573999999998,0 123.804544000000007,43.482432000000003,0 123.825931999999995,43.471527000000002,0 123.833479999999994,43.473543999999997,0 123.845770999999999,43.467491000000003,0 123.849254999999999,43.470109000000001,0 123.861158000000003,43.461764000000002,0 123.857578000000004,43.459145999999997,0 123.872287999999998,43.451346000000001,0 123.855642000000003,43.436779000000001,0 123.854867999999996,43.423681999999999,0 123.849739,43.415658999999998,0 123.853029000000006,43.405614999999997,0 123.863675000000001,43.400919000000002,0 123.865900999999994,43.395623000000001,0 123.892320999999995,43.390107999999998,0 123.901418000000007,43.379185999999997,0 123.896482000000006,43.361051000000003,0 123.911579000000003,43.35821,0 123.922999000000004,43.36045,0 123.946805999999995,43.350779000000003,0 123.964225999999996,43.340833000000003,0 123.969354999999993,43.333072000000001,0 123.993258999999995,43.308143000000001,0 124.001388000000006,43.304315000000003,0 124.033614999999998,43.281125000000003,0 124.043775999999994,43.288017000000004,0 124.066034999999999,43.292665999999997,0 124.098260999999994,43.292940000000002,0 124.102712999999994,43.287689,0 124.098647999999997,43.281125000000003,0 124.111423000000002,43.281179000000002,0 124.117230000000006,43.277295000000002,0 124.111810000000006,43.269143,0 124.117132999999995,43.263781000000002,0 124.114423000000002,43.247307999999997,0 124.127198000000007,43.247253000000001,0 124.132907000000003,43.255299000000001,0 124.151295000000005,43.249004999999997,0 124.157004999999998,43.251632000000001,0 124.168328000000002,43.244078000000002,0 124.172488999999999,43.249552000000001,0 124.178393,43.242216999999997,0 124.190101999999996,43.246487000000002,0 124.200166999999993,43.245829999999998,0 124.205780000000004,43.252397999999999,0 124.216522999999995,43.256120000000003,0 124.217102999999994,43.245829999999998,0 124.223102999999995,43.246431999999999,0 124.229781000000003,43.234827000000003,0 124.243425999999999,43.233404,0 124.253201000000004,43.237344999999998,0 124.268394999999998,43.230665999999999,0 124.276330999999999,43.233404,0 124.282910999999999,43.220590999999999,0 124.280685000000005,43.216265,0 124.287653000000006,43.206899999999997,0 124.277589000000006,43.196164000000003,0 124.282137000000006,43.188986999999997,0 124.273814000000002,43.178741000000002,0 124.283975999999996,43.166027,0 124.300524999999993,43.158518000000001,0 124.292491999999996,43.154297,0 124.303040999999993,43.148868999999998,0 124.308943999999997,43.155064000000003,0 124.328590000000005,43.143551000000002,0 124.340590000000006,43.128636,0 124.365848999999997,43.121397000000002,0 124.396817999999996,43.09254,0 124.420430999999994,43.081619000000003,0 124.425946999999994,43.076295000000002,0 124.369816999999998,43.025502000000003,0 124.340590000000006,43.004843000000001,0 124.333428999999995,42.997368999999999,0 124.347655000000003,42.988354999999999,0 124.360816999999997,42.975876,0 124.384429999999995,42.970708000000002,0 124.402333999999996,42.970982999999997,0 124.415205,42.976700999999998,0 124.423141000000001,42.975492000000003,0 124.428753999999998,42.967298999999997,0 124.442302999999995,42.958666000000001,0 124.442109000000002,42.941395,0 124.431946999999994,42.930833,0 124.414817999999997,42.926431000000001,0 124.413560000000004,42.921973999999999,0 124.398463000000007,42.919772999999999,0 124.388495000000006,42.910142,0 124.381043000000005,42.912838999999998,0 124.366332999999997,42.902490999999998,0 124.371752000000001,42.880966000000001,0 124.415495000000007,42.879258999999998,0 124.426817999999997,42.874523000000003,0 124.434560000000005,42.880854999999997,0 124.440850999999995,42.876339999999999,0 124.437561000000002,42.868079000000002,0 124.446657999999999,42.865160000000003,0 124.454689999999999,42.852491000000001,0 124.451786999999996,42.826649000000003,0 124.465916000000007,42.822681000000003,0 124.472594000000001,42.827531,0 124.466302999999996,42.846100999999997,0 124.480142000000001,42.858550999999999,0 124.501530000000002,42.865105,0 124.514691999999997,42.873641999999997,0 124.531239999999997,42.872045,0 124.538499000000002,42.867088000000003,0 124.541788999999994,42.883938999999998,0 124.553499000000002,42.889940000000003,0 124.563176999999996,42.889004,0 124.578371000000004,42.899794,0 124.602757999999994,42.922139000000001,0 124.602661999999995,42.931272999999997,0 124.608177999999995,42.937764999999999,0 124.622693999999996,42.941944999999997,0 124.622985,42.949041000000001,0 124.632081999999997,42.949866,0 124.639340000000004,42.956356,0 124.633629999999997,42.958390999999999,0 124.635274999999993,42.973016999999999,0 124.644276000000005,42.976425999999996,0 124.659373000000002,42.972907999999997,0 124.660728000000006,42.984122999999997,0 124.671178999999995,42.990113999999998,0 124.677760000000006,43.002699999999997,0 124.678244000000007,43.013359999999999,0 124.674373000000003,43.026546000000003,0 124.686179999999993,43.050437000000002,0 124.695082999999997,43.057245999999999,0 124.718213000000006,43.069873000000001,0 124.738632999999993,43.068171,0 124.754891000000001,43.073824999999999,0 124.758568999999994,43.086283999999999,0 124.778215000000003,43.098246000000003,0 124.785375999999999,43.106530999999997,0 124.786536999999996,43.117776999999997,0 124.801151000000004,43.122878,0 124.807924999999997,43.117502000000002,0 124.819537999999994,43.119861,0 124.822635000000005,43.124412999999997,0 124.841893999999996,43.126990999999997,0 124.858345999999997,43.119532,0 124.873345999999998,43.125948999999999,0 124.881281999999999,43.133352000000002,0 124.891345999999999,43.132914,0 124.903056000000007,43.143771000000001,0 124.911573000000004,43.144812000000002,0 124.933250999999998,43.156818000000001,0 124.950574000000003,43.168767000000003,0 124.968671000000001,43.176659000000001,0 124.965380999999994,43.187398000000002,0 124.977864999999994,43.195999,0 124.997027000000003,43.198793000000002,0 125.003995000000003,43.196053999999997,0 125.018511000000004,43.203997000000001,0 125.024608000000001,43.214294000000002,0 125.043383000000006,43.222289000000004,0 125.053351000000006,43.220153000000003,0 125.061285999999996,43.213800999999997,0 125.125353000000004,43.221139000000001,0 125.136869000000004,43.224260000000001,0 125.151385000000005,43.223492999999998,0 125.155837000000005,43.227435999999997,0 125.178289000000007,43.226888000000002,0 125.200547999999998,43.228968999999999,0 125.206935000000001,43.223602999999997,0 125.209935000000002,43.212760000000003,0 125.219323000000003,43.205365999999998,0 125.249807000000004,43.174247000000001,0 125.268484999999998,43.160435999999997,0 125.270033999999995,43.155064000000003,0 125.315421999999998,43.134559000000003,0 125.338938999999996,43.128033000000002,0 125.365938999999997,43.110864999999997,0 125.381617000000006,43.105213999999997,0 125.388391999999996,43.107737999999998,0 125.390230000000003,43.120848000000002,0 125.403682000000003,43.135874999999999,0 125.400004999999993,43.148266,0 125.378423999999995,43.151116999999999,0 125.369617000000005,43.149965999999999,0 125.357422999999997,43.160381000000001,0 125.361390999999998,43.175069000000001,0 125.370294000000001,43.182741,0 125.374649000000005,43.204709000000001,0 125.367874999999998,43.210296,0 125.367198000000002,43.218783999999999,0 125.374553000000006,43.224753,0 125.391005000000007,43.218783999999999,0 125.409683000000001,43.219934000000002,0 125.411811999999998,43.226505000000003,0 125.423327999999998,43.234006000000001,0 125.435038000000006,43.230446999999998,0 125.439490000000006,43.222946,0 125.448587000000003,43.223931,0 125.465619000000004,43.203778,0 125.480232999999998,43.201476999999997,0 125.491652000000002,43.181480999999998,0 125.480136000000002,43.163176999999997,0 125.480136000000002,43.148705,0 125.484393999999995,43.142234999999999,0 125.484393999999995,43.129075,0 125.489909999999995,43.125070999999998,0 125.495813999999996,43.100330999999997,0 125.523976000000005,43.096105999999999,0 125.534621000000001,43.098027000000002,0 125.555041000000003,43.093637000000001,0 125.582429000000005,43.072892000000003,0 125.610785000000007,43.067183,0 125.633623999999998,43.070475999999999,0 125.659850000000006,43.058399000000001,0 125.664688999999996,43.07602,0 125.67998,43.060101000000003,0 125.697108999999998,43.060046,0 125.703980000000001,43.056038000000001,0 125.733401000000001,43.064821999999999,0 125.738820000000004,43.072507000000002,0 125.728465,43.084417999999999,0 125.732722999999993,43.091113,0 125.749756000000005,43.083156000000002,0 125.787595999999994,43.096874999999997,0 125.786725000000004,43.102142000000001,0 125.776176000000007,43.102854999999998,0 125.776273000000003,43.109383999999999,0 125.769305000000003,43.113059,0 125.760594999999995,43.129130000000004,0 125.753529999999998,43.130609999999997,0 125.725271000000006,43.123370999999999,0 125.713368000000003,43.125565000000002,0 125.698755000000006,43.150514000000001,0 125.692464000000001,43.146785999999999,0 125.688787000000005,43.159503999999998,0 125.680753999999993,43.16948,0 125.683464000000001,43.178576999999997,0 125.674172999999996,43.186301999999998,0 125.666528,43.199834000000003,0 125.655204999999995,43.200217000000002,0 125.645720999999995,43.217250999999997,0 125.647850000000005,43.222782000000002,0 125.660140999999996,43.226888000000002,0 125.659270000000006,43.231870999999998,0 125.697980000000001,43.262740999999998,0 125.685399000000004,43.268596000000002,0 125.682785999999993,43.275545000000001,0 125.673688999999996,43.280741999999996,0 125.653559999999999,43.286102999999997,0 125.628784999999993,43.296987000000001,0 125.621914000000004,43.305956000000002,0 125.599654999999998,43.313501000000002,0 125.576913000000005,43.329847000000001,0 125.569945000000004,43.338647000000002,0 125.554169999999999,43.345533000000003,0 125.541589000000002,43.361432999999998,0 125.547685999999999,43.367333000000002,0 125.578363999999993,43.378748999999999,0 125.582622000000001,43.405341999999997,0 125.576622,43.409599999999998,0 125.559685999999999,43.407853000000003,0 125.551073000000002,43.404141000000003,0 125.546525000000003,43.411565000000003,0 125.529685999999998,43.412384000000003,0 125.515169,43.409491000000003,0 125.507232999999999,43.418170000000003,0 125.495232999999999,43.421936000000002,0 125.499491000000006,43.428375000000003,0 125.514492000000004,43.435468999999998,0 125.512749999999997,43.443545,0 125.504620000000003,43.445180999999998,0 125.502491000000006,43.452928,0 125.488845999999995,43.456637000000001,0 125.489716999999999,43.466127999999998,0 125.495813999999996,43.473652999999999,0 125.479941999999994,43.482923,0 125.476555000000005,43.491973000000002,0 125.467264999999998,43.493881000000002,0 125.459039000000004,43.500639999999997,0 125.463103000000004,43.503529,0 125.458748,43.522765999999997,0 125.447908999999996,43.530338999999998,0 125.4572,43.545155999999999,0 125.456328999999997,43.556756,0 125.459909999999994,43.560513999999998,0 125.453038000000006,43.576140000000002,0 125.453038000000006,43.599761999999998,0 125.446167000000003,43.601447999999998,0 125.426327999999998,43.587026999999999,0 125.404650000000004,43.586753999999999,0 125.400779,43.581637999999998,0 125.386553000000006,43.579678000000001,0 125.395359999999997,43.56438,0 125.394198000000003,43.554577999999999,0 125.374358999999998,43.552509000000001,0 125.379003999999995,43.540253999999997,0 125.387326999999999,43.543413000000001,0 125.392166000000003,43.537529999999997,0 125.389553000000006,43.530011999999999,0 125.370874999999998,43.525981000000002,0 125.361681000000004,43.515410000000003,0 125.368455999999995,43.504455999999998,0 125.378326999999999,43.497860000000003,0 125.377842999999999,43.489356000000001,0 125.385101000000006,43.485104,0 125.380455999999995,43.473599,0 125.358681000000004,43.480251000000003,0 125.334681000000003,43.469236000000002,0 125.334197000000003,43.464709999999997,0 125.323937999999998,43.462091999999998,0 125.318132000000006,43.453637000000001,0 125.306034999999994,43.453854999999997,0 125.302937999999997,43.445726999999998,0 125.292196000000004,43.452055000000001,0 125.277097999999995,43.441471,0 125.275260000000003,43.448126999999999,0 125.265292000000002,43.443981000000001,0 125.261613999999994,43.449437000000003,0 125.256097999999994,43.44529,0 125.247677999999993,43.452328000000001,0 125.248645999999994,43.460236999999999,0 125.241968,43.467599999999997,0 125.241291000000004,43.480088000000002,0 125.248259000000004,43.487175999999998,0 125.274388999999999,43.496062000000002,0 125.268000999999998,43.509742000000003,0 125.273420999999999,43.514592999999998,0 125.263645999999994,43.514918999999999,0 125.266163000000006,43.521894000000003,0 125.258808000000002,43.533554000000002,0 125.272840000000002,43.536985999999999,0 125.275936999999999,43.532953999999997,0 125.289292000000003,43.536822000000001,0 125.281744000000003,43.543086000000002,0 125.277581999999995,43.563943999999999,0 125.284549999999996,43.567973000000002,0 125.281936999999999,43.577936000000001,0 125.276808000000003,43.578045000000003,0 125.297325000000001,43.591762000000003,0 125.289873,43.598891000000002,0 125.299937999999997,43.601883999999998,0 125.308937999999998,43.611134,0 125.302260000000004,43.615214000000002,0 125.296646999999993,43.636100999999996,0 125.290066999999993,43.638711999999998,0 125.290066999999993,43.649805000000001,0 125.254065999999995,43.645780999999999,0 125.235194000000007,43.642246999999998,0 125.223387000000002,43.637135000000001,0 125.199967000000001,43.632947000000001,0 125.152643999999995,43.621034999999999,0 125.130771999999993,43.613636,0 125.108222999999995,43.611078999999997,0 125.082093,43.603081000000003,0 125.053544000000002,43.591707,0 125.034092000000001,43.580058999999999,0 125.015511000000004,43.558227000000002,0 125.010479000000004,43.549241000000002,0 125.003124,43.554524000000001,0 124.995671999999999,43.552019000000001,0 125.005930000000006,43.541016999999997,0 124.989478000000005,43.523747,0 124.986767999999998,43.518189,0 124.953477000000007,43.5062,0 124.931702000000001,43.502276000000002,0 124.916798999999997,43.497369999999997,0 124.893669000000003,43.481178,0 124.897637000000003,43.470654000000003,0 124.914959999999994,43.460619000000001,0 124.911475999999993,43.450145999999997,0 124.916121000000004,43.439725000000003,0 124.910894999999996,43.431159000000001,0 124.895508000000007,43.421444000000001,0 124.885249999999999,43.423900000000003,0 124.871604000000005,43.420625999999999,0 124.860377999999997,43.406706,0 124.868506999999994,43.404414000000003,0 124.870538999999994,43.393548000000003,0 124.882056000000006,43.382845000000003,0 124.880508000000006,43.374653000000002,0 124.885926999999995,43.369244999999999,0 124.883797999999999,43.358974000000003,0 124.919218000000001,43.348047000000001,0 124.917573000000004,43.332853,0 124.926670000000001,43.332799000000001,0 124.931702000000001,43.323889000000001,0 124.928702000000001,43.317985,0 124.892313999999999,43.293104,0 124.871313999999998,43.289658000000003,0 124.863088000000005,43.285446,0 124.867152000000004,43.2727,0 124.864829999999998,43.265860000000004,0 124.849152000000004,43.245939,0 124.846539000000007,43.237017000000002,0 124.837248000000002,43.232362999999999,0 124.835505999999995,43.221632,0 124.829408999999998,43.212266999999997,0 124.844023000000007,43.187945999999997,0 124.858829999999998,43.176932999999998,0 124.854377999999997,43.169424999999997,0 124.840539000000007,43.161642000000001,0 124.799312,43.195670999999997,0 124.784311000000002,43.201312999999999,0 124.779472999999996,43.211171999999998,0 124.784020999999996,43.219605999999999,0 124.775988999999996,43.228859,0 124.801344,43.242984,0 124.783923999999999,43.257707000000003,0 124.774827000000002,43.272863999999998,0 124.760020999999995,43.280741999999996,0 124.756148999999994,43.296166999999997,0 124.767955999999998,43.307487000000002,0 124.766311000000002,43.314157000000002,0 124.775020999999995,43.326020999999997,0 124.768439999999998,43.344658000000003,0 124.761568999999994,43.348756999999999,0 124.762730000000005,43.356406999999997,0 124.757311000000001,43.366841000000001,0 124.757600999999994,43.383226999999998,0 124.743375,43.389944,0 124.735246000000004,43.402230000000003,0 124.730697000000006,43.422809000000001,0 124.717245000000005,43.432850000000002,0 124.703406000000001,43.456364000000001,0 124.682406,43.497532999999997,0 124.677566999999996,43.516336000000003,0 124.686857000000003,43.528976999999998,0 124.689761000000004,43.545374000000002,0 124.694502999999997,43.552562999999999,0 124.693825000000004,43.576411999999998,0 124.680857000000003,43.592415000000003,0 124.677760000000006,43.617336000000002,0 124.681534999999997,43.627997999999998,0 124.666146999999995,43.659863000000001,0 124.626759000000007,43.681604,0 124.598984000000002,43.690624,0 124.573724999999996,43.723542000000002,0 124.559306000000007,43.727507000000003,0 124.550015000000002,43.735325000000003,0 124.550691999999998,43.740645999999998,0 124.524271999999996,43.755248000000002,0 124.517401000000007,43.751123,0 124.496303999999995,43.7483,0 124.470270999999997,43.756931000000002,0 124.465818999999996,43.760838,0 124.430496000000005,43.756279999999997,0 124.398365999999996,43.762357999999999,0 124.362268,43.771203,0 124.305751000000001,43.763497999999998,0 124.251071999999994,43.759264999999999,0 124.222522999999995,43.758721999999999,0 124.212264000000005,43.754596999999997,0 124.212070999999995,43.743523000000003,0 124.203553999999997,43.740918000000001,0 124.206554999999994,43.734293999999998,0 124.199393000000001,43.729787000000002,0 124.194166999999993,43.716537000000002,0 124.187683000000007,43.711267999999997,0 124.176940999999999,43.711593999999998,0 124.172779000000006,43.707194000000001,0 124.151100999999997,43.708334999999998,0 124.147133999999994,43.703555000000001,0 124.132230000000007,43.703718000000002,0 124.126616999999996,43.709476000000002,0 124.116648999999995,43.704261000000002,0 124.105035999999998,43.705021000000002,0 124.084809000000007,43.715885,0 124.076582999999999,43.717731000000001,0 124.081035,43.724791000000003,0 124.083260999999993,43.741025999999998,0 124.078519,43.748843000000001,0 124.070777000000007,43.751936999999998,0 124.063227999999995,43.771149000000001,0 124.051421000000005,43.768219000000002,0 124.050841000000005,43.772342999999999,0 124.040194999999997,43.769520999999997,0 124.048905000000005,43.781132999999997,0 124.043098999999998,43.784224999999999,0 124.047550000000001,43.790897000000001,0 124.038550000000001,43.793989000000003,0 124.041646999999998,43.803046999999999,0 124.051130999999998,43.799900999999998,0 124.057227999999995,43.810476000000001,0 124.072519,43.812103,0 124.074358000000004,43.820073999999998,0 124.065841000000006,43.834169000000003,0 124.067098999999999,43.841540000000002,0 124.060518000000002,43.849668999999999,0 124.064390000000003,43.852215999999999,0 124.077647999999996,43.843598999999998,0 124.085292999999993,43.862836000000001,0 124.076777000000007,43.871611999999999,0 124.078422000000003,43.880062000000002,0 124.064486000000002,43.892031000000003,0 124.063809000000006,43.897500000000001,0 124.040389000000005,43.927166,0 124.028872000000007,43.949945999999997,0 124.018808000000007,43.981693999999997,0 124.021226999999996,43.995589000000002,0 124.016678999999996,43.993479999999998,0 124.015710999999996,44.004508000000001,0</coordinates></LinearRing></outerBoundaryIs></Polygon></MultiGeometry></Placemark>
</Document>
</kml>