<?xml version="1.0" encoding="UTF-8"?>
<kml xmlns="http://www.opengis.net/kml/2.2">
<Document>
<name>延边朝鲜族自治州</name>
<Placemark><name>延边朝鲜族自治州</name><MultiGeometry><Polygon><outerBoundaryIs><LinearRing><coordinates>128.064558000000005,42.011538000000002,0 128.090784000000014,42.022759999999998,0 128.129689000000013,42.021141,0 128.149044000000004,42.024937000000001,0 128.290627999999998,42.026499999999999,0 128.405792999999989,42.019019999999998,0 128.440051000000011,42.023094999999998,0 128.447987000000012,42.016506999999997,0 128.466181000000006,42.020806,0 128.472277999999989,42.015447000000002,0 128.496762999999987,42.001879000000002,0 128.506247000000002,42.000202999999999,0 128.522698999999989,42.003163000000001,0 128.538085999999993,42.000762000000002,0 128.549408999999997,42.004781999999999,0 128.569152000000003,41.996406,0 128.598377999999997,42.007351,0 128.600797999999998,42.023597000000002,0 128.606604000000004,42.030071999999997,0 128.621604999999988,42.029961,0 128.63786300000001,42.035207,0 128.654412000000008,42.030853999999998,0 128.658283000000011,42.018684999999998,0 128.679574000000002,42.014386000000002,0 128.702123,42.020415,0 128.723994000000005,42.035542,0 128.738026999999988,42.050218999999998,0 128.750414000000006,42.050497999999997,0 128.766479000000004,42.036937000000002,0 128.779254000000009,42.033532999999998,0 128.795028000000002,42.042406,0 128.816028999999986,42.040007000000003,0 128.830448999999987,42.031523,0 128.839933000000002,42.029066999999998,0 128.855029999999999,42.030462999999997,0 128.874095000000011,42.023597000000002,0 128.891030999999998,42.026108999999998,0 128.89809600000001,42.016731,0 128.914838000000003,42.012264000000002,0 128.930516000000011,42.014107000000003,0 128.955580999999995,42.030741999999996,0 128.961774999999989,42.055798000000003,0 128.953644999999995,42.065562,0 128.954710000000006,42.083745,0 128.971259000000003,42.096961,0 128.979195000000004,42.092221000000002,0 128.990711000000005,42.095177,0 129.00948600000001,42.092277000000003,0 129.015388999999999,42.102424999999997,0 129.027775999999989,42.101421000000002,0 129.039292999999986,42.107720999999998,0 129.038905999999997,42.115023999999998,0 129.046357999999998,42.119539000000003,0 129.032130999999993,42.121043999999998,0 129.04122799999999,42.124053000000004,0 129.041809000000001,42.131687999999997,0 129.057776999999987,42.141106000000001,0 129.076744999999988,42.142833000000003,0 129.069583999999992,42.153697000000001,0 129.077616000000006,42.160046999999999,0 129.084778,42.156872,0 129.09116499999999,42.142888999999997,0 129.108681999999988,42.145173,0 129.113713999999987,42.140771000000001,0 129.133165999999989,42.156371,0 129.13287600000001,42.166007,0 129.138198999999986,42.169069999999998,0 129.160457000000008,42.167121000000002,0 129.167135000000002,42.172745999999997,0 129.163650999999987,42.180320000000002,0 129.166651000000002,42.188226,0 129.178554999999989,42.190342000000001,0 129.192005999999992,42.198748000000002,0 129.195490000000007,42.206485999999998,0 129.215910000000008,42.208210999999999,0 129.222104000000002,42.217950999999999,0 129.203715999999986,42.220399999999998,0 129.200523000000004,42.228912999999999,0 129.209329999999994,42.237648999999998,0 129.199362000000008,42.243935,0 129.190070999999989,42.23865,0 129.181650999999988,42.242043000000002,0 129.183199999999999,42.262067000000002,0 129.191910000000007,42.266292999999997,0 129.215813999999995,42.265348000000003,0 129.225200999999998,42.269852,0 129.229169000000013,42.285086,0 129.219007000000005,42.283641000000003,0 129.206523000000004,42.287644,0 129.208652000000001,42.293258000000002,0 129.222104000000002,42.296703999999998,0 129.240588000000002,42.306486,0 129.241556000000003,42.312376,0 129.220555999999988,42.310709000000003,0 129.206232999999997,42.312764999999999,0 129.20449099999999,42.319043999999998,0 129.217556000000002,42.323822,0 129.229458999999991,42.320932999999997,0 129.24881400000001,42.320655000000002,0 129.256653,42.323211000000001,0 129.260233999999997,42.335655000000003,0 129.240105,42.347040999999997,0 129.231103999999988,42.356147999999997,0 129.244555999999989,42.378911000000002,0 129.261685999999997,42.374026000000001,0 129.272233999999997,42.380577000000002,0 129.275330999999994,42.387515,0 129.294298999999995,42.380521000000002,0 129.302622000000014,42.387959000000002,0 129.321107000000012,42.385572000000003,0 129.324590999999998,42.392232,0 129.308718999999996,42.403719000000002,0 129.318397000000004,42.409711000000001,0 129.312203000000011,42.421638999999999,0 129.327880999999991,42.421971999999997,0 129.331267999999994,42.429515000000002,0 129.341236000000009,42.409655999999998,0 129.354784999999993,42.409489000000001,0 129.34917200000001,42.414205000000003,0 129.358753000000007,42.419086999999998,0 129.355074999999999,42.430236000000001,0 129.342106999999999,42.441493999999999,0 129.351203999999996,42.454303000000003,0 129.367850000000004,42.459125999999998,0 129.376560000000012,42.451309000000002,0 129.373462999999987,42.444322,0 129.361268999999993,42.433453,0 129.368334000000004,42.425522000000001,0 129.382463000000001,42.424523000000001,0 129.392720999999995,42.428184000000002,0 129.393204999999995,42.444045000000003,0 129.400947000000002,42.449036,0 129.426206000000008,42.436003999999997,0 129.433368000000002,42.434894999999997,0 129.452336000000003,42.440995000000001,0 129.469369,42.422747999999999,0 129.478756000000004,42.417422999999999,0 129.498885000000001,42.412041000000002,0 129.509336999999988,42.396838000000002,0 129.521821999999986,42.392009999999999,0 129.53072499999999,42.382741000000003,0 129.53817699999999,42.368419000000003,0 129.546209000000005,42.361535000000003,0 129.558210000000003,42.362478000000003,0 129.556080000000009,42.374803,0 129.578048999999993,42.380299000000001,0 129.565273999999988,42.388624999999998,0 129.569242000000003,42.399002000000003,0 129.584725999999989,42.409545000000001,0 129.600403999999997,42.411208999999999,0 129.603694999999988,42.429903000000003,0 129.614339999999999,42.441716,0 129.610759000000002,42.444876999999998,0 129.598565000000008,42.443047,0 129.590823,42.448537000000002,0 129.594306999999986,42.453693000000001,0 129.606308000000013,42.454912999999998,0 129.616082000000006,42.463949,0 129.627501999999993,42.46284,0 129.631663000000003,42.454746,0 129.646857000000011,42.437834000000002,0 129.652179999999987,42.426519999999996,0 129.673761000000013,42.431623000000002,0 129.70453599999999,42.427241000000002,0 129.721472000000006,42.437224000000001,0 129.748569000000003,42.471043999999999,0 129.749923999999993,42.479745999999999,0 129.739375999999993,42.499251000000001,0 129.744407999999993,42.514651000000001,0 129.742182000000014,42.527997999999997,0 129.74982700000001,42.546823000000003,0 129.740536999999989,42.563262999999999,0 129.739763000000011,42.573833,0 129.74615,42.584401999999997,0 129.759311999999994,42.587831999999999,0 129.764150000000001,42.603707999999997,0 129.786312000000009,42.607137000000002,0 129.786603000000014,42.615819999999999,0 129.761246999999997,42.617589000000002,0 129.759311999999994,42.625495999999998,0 129.772860000000009,42.634287,0 129.769085999999987,42.639870000000002,0 129.75447299999999,42.645949999999999,0 129.756989000000004,42.653246000000003,0 129.770343999999994,42.658109000000003,0 129.780214999999998,42.645895000000003,0 129.787957000000006,42.643960999999997,0 129.792603000000014,42.649045999999998,0 129.783699000000013,42.653080000000003,0 129.776343999999995,42.669105000000002,0 129.796861000000007,42.681866999999997,0 129.768989000000005,42.705891999999999,0 129.764827999999994,42.722510999999997,0 129.781376999999992,42.746299,0 129.783699000000013,42.762742000000003,0 129.792408999999992,42.773775000000001,0 129.806054999999986,42.785578000000001,0 129.811183999999997,42.795228000000002,0 129.807410000000004,42.813916999999996,0 129.814184000000012,42.832490999999997,0 129.812926000000004,42.842409000000004,0 129.816313000000008,42.851004000000003,0 129.833055000000002,42.858330000000002,0 129.845636000000013,42.901555999999999,0 129.846798000000007,42.918452000000002,0 129.851442999999989,42.922524000000003,0 129.870605000000012,42.919058,0 129.874765999999994,42.923900000000003,0 129.859282000000007,42.944806,0 129.856281999999993,42.953716,0 129.860152999999997,42.967409000000004,0 129.869153000000011,42.973787000000002,0 129.884250000000009,42.973346999999997,0 129.90883199999999,42.969113999999998,0 129.916380000000004,42.974446999999998,0 129.912509,42.978789999999996,0 129.889960000000002,42.981869000000003,0 129.888508000000002,42.994565999999999,0 129.897121999999996,43.001711,0 129.939703000000009,43.012261000000002,0 129.95412300000001,43.010998000000001,0 129.958188000000007,42.985497000000002,0 129.961864999999989,42.979669999999999,0 129.978219999999993,42.976425999999996,0 130.002220999999992,42.981264000000003,0 130.016254000000004,42.969664000000002,0 130.027286000000004,42.967519000000003,0 130.06648100000001,42.969993000000002,0 130.083125999999993,42.975766,0 130.108482000000009,42.989728999999997,0 130.115352999999999,42.988410000000002,0 130.143999000000008,42.976425999999996,0 130.144288999999986,42.971367999999998,0 130.120868999999999,42.954376000000003,0 130.119901999999996,42.945906000000001,0 130.127644000000004,42.932592999999997,0 130.104513999999995,42.928302000000002,0 130.102191000000005,42.922908999999997,0 130.11641800000001,42.913279000000003,0 130.136063000000007,42.903481999999997,0 130.146030999999994,42.902987000000003,0 130.170613000000003,42.912289000000001,0 130.190065000000004,42.909261999999998,0 130.209807000000012,42.902270999999999,0 130.229355999999996,42.901775999999998,0 130.257808000000011,42.906069000000002,0 130.267196000000013,42.902876999999997,0 130.277066999999988,42.893903999999999,0 130.272906000000006,42.872540000000001,0 130.258002000000005,42.860534000000001,0 130.25403399999999,42.828798999999997,0 130.247937000000007,42.821964999999999,0 130.245420999999993,42.799031999999997,0 130.257324000000011,42.791974000000003,0 130.251904999999994,42.781882000000003,0 130.243775999999997,42.780392999999997,0 130.250550000000004,42.766934999999997,0 130.250259999999997,42.755239000000003,0 130.24203399999999,42.738739000000002,0 130.252970000000005,42.725768000000002,0 130.254807999999997,42.714671000000003,0 130.262162999999987,42.708210999999999,0 130.290034999999989,42.703076000000003,0 130.306196999999997,42.685125999999997,0 130.318680999999998,42.662475000000001,0 130.333487999999988,42.649653999999998,0 130.365618000000012,42.636443,0 130.373068999999987,42.630915000000002,0 130.382844000000006,42.609405000000002,0 130.387876000000006,42.603043999999997,0 130.420780000000008,42.616981000000003,0 130.446812999999992,42.607247999999998,0 130.444297000000006,42.600721,0 130.426199999999994,42.585397999999998,0 130.423779999999994,42.574663000000001,0 130.435489999999987,42.553410999999997,0 130.441780999999992,42.549813,0 130.460555999999997,42.552857000000003,0 130.475556000000012,42.561602999999998,0 130.476427000000001,42.569848999999998,0 130.459685000000007,42.588163999999999,0 130.46432999999999,42.604759000000001,0 130.482524000000012,42.626657000000002,0 130.496169000000009,42.629477000000001,0 130.513492000000014,42.627487000000002,0 130.522783000000004,42.622399999999999,0 130.528976999999998,42.606639000000001,0 130.52026699999999,42.593252999999997,0 130.520556999999997,42.583074000000003,0 130.529267000000004,42.572006999999999,0 130.531396000000001,42.554462999999998,0 130.535460999999998,42.544829999999997,0 130.556073999999995,42.523567999999997,0 130.558881000000014,42.496037000000001,0 130.563235999999989,42.492269,0 130.585978000000011,42.485343,0 130.588880999999986,42.480244999999996,0 130.583559000000008,42.472707,0 130.574365,42.450254999999999,0 130.581139000000007,42.435616000000003,0 130.611333999999999,42.433675000000001,0 130.640173000000004,42.422693000000002,0 130.645689000000004,42.426409,0 130.615689000000003,42.443157999999997,0 130.601559000000009,42.448869000000002,0 130.598172000000005,42.467163999999997,0 130.602816999999988,42.470655999999998,0 130.600010999999995,42.486063000000001,0 130.56555800000001,42.506452000000003,0 130.570300000000003,42.520631999999999,0 130.566913,42.528773000000001,0 130.576493999999997,42.541066000000001,0 130.570300000000003,42.554352000000002,0 130.581817000000001,42.561214999999997,0 130.600785000000002,42.559721000000003,0 130.61046300000001,42.554684000000002,0 130.611526999999995,42.565199999999997,0 130.623527999999993,42.573777999999997,0 130.627591999999993,42.586725000000001,0 130.633496000000008,42.590819000000003,0 130.634753999999987,42.600445000000001,0 130.623720999999989,42.614215999999999,0 130.623043999999993,42.631523000000001,0 130.612592000000006,42.633291999999997,0 130.603107999999992,42.642302000000001,0 130.601559000000009,42.654074999999999,0 130.592074999999994,42.671702000000003,0 130.574946000000011,42.680376000000003,0 130.569816000000003,42.687170000000002,0 130.547847999999988,42.693742999999998,0 130.542525000000012,42.699486,0 130.528783000000004,42.703794000000002,0 130.493652999999995,42.690981000000001,0 130.476717000000008,42.692416999999999,0 130.466264999999993,42.688108999999997,0 130.458910000000003,42.694626,0 130.455232999999993,42.704070000000002,0 130.442168000000009,42.706003000000003,0 130.43713600000001,42.710253999999999,0 130.425231999999994,42.706997000000001,0 130.414103000000011,42.716603999999997,0 130.40887699999999,42.726430000000001,0 130.402102000000014,42.729410999999999,0 130.429102999999998,42.732115999999998,0 130.425813000000005,42.741112000000001,0 130.434716000000009,42.751761999999999,0 130.464233000000007,42.762411,0 130.466264999999993,42.772340999999997,0 130.493652999999995,42.775098,0 130.508170000000007,42.783977999999998,0 130.532364000000001,42.787177,0 130.547267000000005,42.798315000000002,0 130.552590000000009,42.808073999999998,0 130.563332000000003,42.815626000000002,0 130.578816999999987,42.818106,0 130.588493999999997,42.813420999999998,0 130.592849000000001,42.818272,0 130.603397999999999,42.819484000000003,0 130.633591999999993,42.835631999999997,0 130.645592999999991,42.834034000000003,0 130.651690000000002,42.841417,0 130.667077000000006,42.848193999999999,0 130.687207000000001,42.850453000000002,0 130.698336000000012,42.846046000000001,0 130.708980999999994,42.846375999999999,0 130.715464999999995,42.842024000000002,0 130.718175000000002,42.832380999999998,0 130.72688500000001,42.831333999999998,0 130.739949999999993,42.843566000000003,0 130.753692000000001,42.845770000000002,0 130.769756999999998,42.837671,0 130.78379000000001,42.841638000000003,0 130.781950999999992,42.851775000000004,0 130.789402999999993,42.863453,0 130.784467000000006,42.866261999999999,0 130.801886999999994,42.879479000000003,0 130.826177999999999,42.882562,0 130.84475900000001,42.881076,0 130.857339999999994,42.869511000000003,0 130.859856000000008,42.862130999999998,0 130.876405000000005,42.864224,0 130.878727999999995,42.859102,0 130.890727999999996,42.852932000000003,0 130.908051,42.859431999999998,0 130.912986999999987,42.870888000000001,0 130.923534999999987,42.869456,0 130.930018999999987,42.875129000000001,0 130.94966500000001,42.877001,0 130.964472000000001,42.865600999999998,0 130.970956000000001,42.866207000000003,0 130.980923999999987,42.857779999999998,0 130.996892000000003,42.860644000000001,0 131.00415000000001,42.858716000000001,0 131.016537999999997,42.864168999999997,0 131.024473,42.861525,0 131.043344999999988,42.863177999999998,0 131.045861000000002,42.866647,0 131.038118999999995,42.877166000000003,0 131.037732000000005,42.885314999999999,0 131.024666999999994,42.894894999999998,0 131.024860999999987,42.905518999999998,0 131.017602000000011,42.912674000000003,0 131.033763999999991,42.928686999999996,0 131.044022000000012,42.922634000000002,0 131.049248000000006,42.925991000000003,0 131.063280999999989,42.918286999999999,0 131.072088000000008,42.926321000000002,0 131.090282000000002,42.916746000000003,0 131.102668999999992,42.918892,0 131.11505600000001,42.915039999999998,0 131.128218000000004,42.931218000000001,0 131.145637999999991,42.936608999999997,0 131.146993000000009,42.946565999999997,0 131.143508999999995,42.957180999999999,0 131.151153999999991,42.968398999999998,0 131.128702000000004,42.966968999999999,0 131.115152999999992,42.975436999999999,0 131.119605000000007,42.980274999999999,0 131.113314000000003,42.993521999999999,0 131.118444000000011,43.000117000000003,0 131.114282000000003,43.015008999999999,0 131.102474999999998,43.021436999999999,0 131.108766000000003,43.037202000000001,0 131.120089000000007,43.050547000000002,0 131.125121000000007,43.052028999999997,0 131.120475999999996,43.068116000000003,0 131.132767000000001,43.072342999999996,0 131.160347999999999,43.075581,0 131.171767999999986,43.069927,0 131.169928999999996,43.091881000000001,0 131.165187000000003,43.095557999999997,0 131.173413000000011,43.110975000000003,0 131.194799999999987,43.117885999999999,0 131.212122999999991,43.143386999999997,0 131.218511000000007,43.147060000000003,0 131.20941400000001,43.168055000000003,0 131.220640000000003,43.181863999999997,0 131.218897999999996,43.191343000000003,0 131.210961999999995,43.199559999999998,0 131.201478000000009,43.202682000000003,0 131.200026000000008,43.211171999999998,0 131.205736000000002,43.221741000000002,0 131.202930000000009,43.228366999999999,0 131.206122999999991,43.237126000000004,0 131.228092000000004,43.249113999999999,0 131.232542999999993,43.253929999999997,0 131.255189000000001,43.265149000000001,0 131.254028000000005,43.281125000000003,0 131.257125000000002,43.288837999999998,0 131.26583500000001,43.292448,0 131.269415000000009,43.299174999999998,0 131.265640999999988,43.313775,0 131.264963999999992,43.331595999999998,0 131.27183500000001,43.345860999999999,0 131.272802000000013,43.358428000000004,0 131.280350999999996,43.378148000000003,0 131.289447999999993,43.383282000000001,0 131.29951299999999,43.380988000000002,0 131.304158000000001,43.390436000000001,0 131.317610000000002,43.397424999999998,0 131.312770999999998,43.405231999999998,0 131.314029000000005,43.417515000000002,0 131.301447999999993,43.423245000000001,0 131.300189999999986,43.437434000000003,0 131.296125999999987,43.441580000000002,0 131.30357699999999,43.455274000000003,0 131.314415999999994,43.461219,0 131.315577999999988,43.483632,0 131.320706999999999,43.489573999999998,0 131.319546000000003,43.498733000000001,0 131.304351999999994,43.502220999999999,0 131.296899999999994,43.494644000000001,0 131.306578000000002,43.486466999999998,0 131.306094000000002,43.479379000000002,0 131.290996000000007,43.477742999999997,0 131.294093000000004,43.470381000000003,0 131.269609000000003,43.468581999999998,0 131.255286000000012,43.475561999999996,0 131.235737,43.475834999999996,0 131.236511000000007,43.464928,0 131.22741400000001,43.457292000000002,0 131.204961999999995,43.454728000000003,0 131.200896999999998,43.442180999999998,0 131.192091000000005,43.439397999999997,0 131.177573999999993,43.445509000000001,0 131.158703000000003,43.430722000000003,0 131.146993000000009,43.430284999999998,0 131.142638000000005,43.425973999999997,0 131.125605000000007,43.433723000000001,0 131.120766000000003,43.447690999999999,0 131.106733999999989,43.450690999999999,0 131.092024000000009,43.457728000000003,0 131.074894,43.472617,0 131.068507000000011,43.482486999999999,0 131.047699999999992,43.491537000000001,0 131.026699000000008,43.508761,0 131.001343999999989,43.507562,0 130.999698999999993,43.502929999999999,0 130.983149999999995,43.492790999999997,0 130.960600999999997,43.486302999999999,0 130.955084999999997,43.476379999999999,0 130.94463300000001,43.476542999999999,0 130.921309000000008,43.455382999999998,0 130.908051,43.434542,0 130.892372999999992,43.433669000000002,0 130.859758999999997,43.439070999999998,0 130.851532999999989,43.449437000000003,0 130.840790999999996,43.454673999999997,0 130.836146000000014,43.472999000000002,0 130.824241999999998,43.491919000000003,0 130.823467999999991,43.502875000000003,0 130.808274000000011,43.505110000000002,0 130.795595999999989,43.515791,0 130.792596000000003,43.527670000000001,0 130.775080000000003,43.521349000000001,0 130.759305000000012,43.542650999999999,0 130.735788000000014,43.545102,0 130.727658999999989,43.560186999999999,0 130.702206999999987,43.560133,0 130.699691000000001,43.568137,0 130.68110999999999,43.569116999999999,0 130.671142000000003,43.564869999999999,0 130.667271,43.583596999999997,0 130.656140999999991,43.581093000000003,0 130.648399000000012,43.587408000000003,0 130.630786000000001,43.583325000000002,0 130.623818,43.589421000000002,0 130.634947000000011,43.614452,0 130.623915000000011,43.624189999999999,0 130.607366000000013,43.620218999999999,0 130.596720000000005,43.621904999999998,0 130.591011000000009,43.613854000000003,0 130.585494000000011,43.613962999999998,0 130.571075000000008,43.626420000000003,0 130.558300000000003,43.630119000000001,0 130.546976999999998,43.62332,0 130.533622000000008,43.631261000000002,0 130.503233999999992,43.639854,0 130.488329999999991,43.656112,0 130.468393999999989,43.656438000000001,0 130.455716999999993,43.647520999999998,0 130.443038999999999,43.652251,0 130.437038999999999,43.646379000000003,0 130.426490000000001,43.651218,0 130.412845000000004,43.652686000000003,0 130.408296000000007,43.664645999999998,0 130.410134999999997,43.669809999999998,0 130.399877000000004,43.674430000000001,0 130.394456999999989,43.703336999999998,0 130.409166999999997,43.717948999999997,0 130.415941000000004,43.736519999999999,0 130.423393000000004,43.744663000000003,0 130.413329000000004,43.756117000000003,0 130.391843999999992,43.767350999999998,0 130.379747000000009,43.781784000000002,0 130.384102000000013,43.788781999999998,0 130.379649999999998,43.825766000000002,0 130.368036999999987,43.833193000000001,0 130.363778999999994,43.845984000000001,0 130.373552999999987,43.852215999999999,0 130.386327999999992,43.854004000000003,0 130.380617999999998,43.864570000000001,0 130.371230999999995,43.870961999999999,0 130.372586000000013,43.876054000000003,0 130.366197999999997,43.890678000000001,0 130.374326999999994,43.901994999999999,0 130.383328000000006,43.905783999999997,0 130.378391999999991,43.912227000000001,0 130.368520999999987,43.915149999999997,0 130.369488999999987,43.920941999999997,0 130.355842999999993,43.940477999999999,0 130.337648999999999,43.947024999999996,0 130.340552000000002,43.953840999999997,0 130.338519999999988,43.964118999999997,0 130.345003999999989,43.963686000000003,0 130.350133,43.975962000000003,0 130.363294999999994,43.990831,0 130.35990799999999,43.999211000000003,0 130.367359999999991,44.014668,0 130.358359000000007,44.023907999999999,0 130.365713999999997,44.033309000000003,0 130.365521000000001,44.044004999999999,0 130.345198000000011,44.050972000000002,0 130.343069000000014,44.046165999999999,0 130.327293999999995,44.039684000000001,0 130.319357999999994,44.039791999999998,0 130.30803499999999,44.021531000000003,0 130.307648,44.002777999999999,0 130.272228000000013,43.980991000000003,0 130.274551000000002,43.967796,0 130.26003399999999,43.956220999999999,0 130.261969999999991,43.949404999999999,0 130.23884000000001,43.940477999999999,0 130.228387999999995,43.949026000000003,0 130.218904000000009,43.944319999999998,0 130.207774999999998,43.948484999999998,0 130.204968000000008,43.943345999999998,0 130.189677999999986,43.940964999999998,0 130.189774,43.934849999999997,0 130.170129000000003,43.927382000000001,0 130.16490300000001,43.918776999999999,0 130.153773000000001,43.915636999999997,0 130.151837999999998,43.904755999999999,0 130.154548000000005,43.891922999999998,0 130.145546999999993,43.887374000000001,0 130.14409599999999,43.879088000000003,0 130.116223999999988,43.878058000000003,0 130.110223999999988,43.869933000000003,0 130.110804999999999,43.852378999999999,0 130.095416999999998,43.842516000000003,0 130.085159000000004,43.841864999999999,0 130.079836,43.835253000000002,0 130.066674000000006,43.834440000000001,0 130.051771000000002,43.842298999999997,0 130.048092999999994,43.851512,0 130.035124999999994,43.854762999999998,0 130.027093000000008,43.851837000000003,0 130.017124999999993,43.867333000000002,0 130.00909200000001,43.888781999999999,0 130.014318000000003,43.906001000000003,0 130.024092999999993,43.916989999999998,0 130.019059999999996,43.938043,0 130.025543999999996,43.943832999999998,0 130.013641000000007,43.956546000000003,0 130.017996000000011,43.961468000000004,0 130.003188999999992,43.964497000000001,0 130.005995000000013,43.969526999999999,0 129.988963000000012,43.982235000000003,0 130.003188999999992,43.989154999999997,0 129.996026999999998,43.993805000000002,0 129.996220999999991,44.001697,0 129.985285000000005,43.998832,0 129.980639999999994,44.014451999999999,0 129.960509999999999,44.020018,0 129.951220000000006,44.027203999999998,0 129.935734999999994,44.027366000000001,0 129.924509,44.015262999999997,0 129.918122000000011,44.023043999999999,0 129.908541000000014,44.024341,0 129.900799000000006,44.011749999999999,0 129.892475999999988,44.012073999999998,0 129.880379000000005,44.000075000000002,0 129.870121000000012,44.002074999999998,0 129.867120999999997,44.011966000000001,0 129.852798000000007,43.997210000000003,0 129.840507000000002,43.996616000000003,0 129.823281000000009,43.982613000000001,0 129.817765000000009,43.973962,0 129.803151000000014,43.964984000000001,0 129.785151000000013,43.964604999999999,0 129.78128000000001,43.955410000000001,0 129.79424800000001,43.939990999999999,0 129.790667000000013,43.932848,0 129.778086000000002,43.929439000000002,0 129.786892999999992,43.917261000000003,0 129.786119000000014,43.901615999999997,0 129.780214999999998,43.892843999999997,0 129.766376000000008,43.892409999999998,0 129.752634,43.896633999999999,0 129.739763000000011,43.895767999999997,0 129.739472000000006,43.8825,0 129.724955999999992,43.878058000000003,0 129.69853599999999,43.883637,0 129.684019000000006,43.877408000000003,0 129.668148000000002,43.876812999999999,0 129.658760999999998,43.872045999999997,0 129.650438000000008,43.873238000000001,0 129.649664000000001,43.880657999999997,0 129.642212000000001,43.878221000000003,0 129.619855999999999,43.879358000000003,0 129.609210999999988,43.882229000000002,0 129.594790999999987,43.874375000000001,0 129.567790000000002,43.871017000000002,0 129.550950999999998,43.874428999999999,0 129.529467000000011,43.870637000000002,0 129.509820999999988,43.873888000000001,0 129.498110999999994,43.880279000000002,0 129.493078999999994,43.875404000000003,0 129.468014000000011,43.874592,0 129.468401,43.866790999999999,0 129.451175000000006,43.851782999999998,0 129.430657999999994,43.844358,0 129.417882999999989,43.843598999999998,0 129.407238000000007,43.829019000000002,0 129.406850999999989,43.819423,0 129.388560000000012,43.817525000000003,0 129.388270000000006,43.81091,0 129.37636599999999,43.808036000000001,0 129.370947000000001,43.801636999999999,0 129.347914000000003,43.798544999999997,0 129.32042899999999,43.811126999999999,0 129.310461000000004,43.812212000000002,0 129.311138999999997,43.801583000000001,0 129.302138000000014,43.796430000000001,0 129.290332000000006,43.797027,0 129.278041000000002,43.813892000000003,0 129.254910999999993,43.819530999999998,0 129.241458999999992,43.807602000000003,0 129.225491000000005,43.798110999999999,0 129.212135999999987,43.784984000000001,0 129.213007000000005,43.769303999999998,0 129.218716999999998,43.751719999999999,0 129.211362000000008,43.747974999999997,0 129.221136000000001,43.742438,0 129.216490999999991,43.723650999999997,0 129.230910999999992,43.714852999999998,0 129.231877999999995,43.708551999999997,0 129.214265000000012,43.695242999999998,0 129.219781000000012,43.682256000000002,0 129.213781000000012,43.666223000000002,0 129.218135999999987,43.648445000000002,0 129.224523000000005,43.648879999999998,0 129.23226600000001,43.635503,0 129.230330000000009,43.594482999999997,0 129.225393999999994,43.588061000000003,0 129.210296999999997,43.584631999999999,0 129.205748999999997,43.574942,0 129.19287700000001,43.576031,0 129.185328999999996,43.568736000000001,0 129.169457999999992,43.561494000000003,0 129.166748000000013,43.570858999999999,0 129.148457000000008,43.570912999999997,0 129.141199,43.564489000000002,0 129.121553000000006,43.555503999999999,0 129.110714000000002,43.559207000000001,0 129.098327000000012,43.556375000000003,0 129.095617000000004,43.548586999999998,0 129.073068000000006,43.547443999999999,0 129.038519000000008,43.540526,0 129.014323999999988,43.523311,0 128.983259000000004,43.536603999999997,0 128.963225999999992,43.539000999999999,0 128.949580999999995,43.554034000000001,0 128.934870999999987,43.55594,0 128.92577399999999,43.553598000000001,0 128.913677000000007,43.543686000000001,0 128.877965999999986,43.540145000000003,0 128.86664300000001,43.558118,0 128.854448999999988,43.557246999999997,0 128.850965000000002,43.575758999999998,0 128.834900000000005,43.587408000000003,0 128.820965000000001,43.637242999999998,0 128.813221999999996,43.638928999999997,0 128.814673999999997,43.645508999999997,0 128.808480000000003,43.653502000000003,0 128.806642000000011,43.666766000000003,0 128.787383000000005,43.686928999999999,0 128.789319000000006,43.695134000000003,0 128.783318000000008,43.704261000000002,0 128.784286000000009,43.715612999999998,0 128.771512000000001,43.720500999999999,0 128.768124999999998,43.732447999999998,0 128.753124000000014,43.727668999999999,0 128.741801000000009,43.734673999999998,0 128.743542999999988,43.739342999999998,0 128.728640000000013,43.737876999999997,0 128.729027000000002,43.745911999999997,0 128.737639999999999,43.753076999999998,0 128.750414000000006,43.757255999999998,0 128.767447000000004,43.758558999999998,0 128.759318000000007,43.760893000000003,0 128.750317999999993,43.784171000000001,0 128.743155999999999,43.793120999999999,0 128.742574999999988,43.801744999999997,0 128.731832999999995,43.811560999999998,0 128.718768000000011,43.817905000000003,0 128.726414000000005,43.831783000000001,0 128.746543000000003,43.849668999999999,0 128.760865999999993,43.857689000000001,0 128.723510000000005,43.894685000000003,0 128.707832999999994,43.897446000000002,0 128.696315999999996,43.903294000000002,0 128.692734999999999,43.895117999999997,0 128.678992999999991,43.892409999999998,0 128.669316000000009,43.897337999999998,0 128.661766999999998,43.890244000000003,0 128.648218000000014,43.894685000000003,0 128.63641100000001,43.891382,0 128.634960000000007,43.903348000000001,0 128.640960000000007,43.907246000000001,0 128.633798000000013,43.910873000000002,0 128.63137900000001,43.925758999999999,0 128.645218,43.935879,0 128.640282000000013,43.947512000000003,0 128.624218000000013,43.950324999999999,0 128.603991000000008,43.967418000000002,0 128.594604000000004,43.981856000000001,0 128.584539000000007,43.990831,0 128.585023000000007,44.002507999999999,0 128.578829000000013,44.012993000000002,0 128.575054999999992,44.031581000000003,0 128.574958000000009,44.047516000000002,0 128.566248000000002,44.050593999999997,0 128.558603000000005,44.069277999999997,0 128.546409000000011,44.083638000000001,0 128.535377000000011,44.091842,0 128.537892999999997,44.099721000000002,0 128.531796000000014,44.102150000000002,0 128.528893000000011,44.112293000000001,0 128.519699000000003,44.119253,0 128.502859999999998,44.123460000000001,0 128.500149999999991,44.132736999999999,0 128.49269799999999,44.136566999999999,0 128.482730000000004,44.151881000000003,0 128.471890999999999,44.157702999999998,0 128.468601000000007,44.174844,0 128.462600000000009,44.186861,0 128.465697000000006,44.196452000000001,0 128.460277999999988,44.202269999999999,0 128.450116000000008,44.203724999999999,0 128.458341999999988,44.212127000000002,0 128.457278000000002,44.226399000000001,0 128.471214000000003,44.236466999999998,0 128.471793999999989,44.247771999999998,0 128.465890999999999,44.253908000000003,0 128.453890999999999,44.257998999999998,0 128.456407000000013,44.267415999999997,0 128.470148999999992,44.288775000000001,0 128.468213999999989,44.297488000000001,0 128.475471999999996,44.310502,0 128.472277999999989,44.319803999999998,0 128.455342000000002,44.330554999999997,0 128.446536000000009,44.339852999999998,0 128.453697000000005,44.343184999999998,0 128.469954999999999,44.343561000000001,0 128.475664999999992,44.347161999999997,0 128.475664999999992,44.362690000000001,0 128.481664999999992,44.375636,0 128.470632999999992,44.392445000000002,0 128.461342000000002,44.399853999999998,0 128.456986999999998,44.410913000000001,0 128.457375000000013,44.421700999999999,0 128.462794000000002,44.433024000000003,0 128.453599999999994,44.438014000000003,0 128.436664000000007,44.452821,0 128.427761000000004,44.473467999999997,0 128.388373000000001,44.489820000000002,0 128.381695000000008,44.505042000000003,0 128.372985,44.514259000000003,0 128.346662000000009,44.509383,0 128.338822999999991,44.505578,0 128.329339000000004,44.495395000000002,0 128.296919000000003,44.482422,0 128.292079999999999,44.467301999999997,0 128.271562999999986,44.460169,0 128.25975600000001,44.458559999999999,0 128.253950000000003,44.446652,0 128.228111000000013,44.445470999999998,0 128.211755000000011,44.432111999999996,0 128.210206999999997,44.424224000000002,0 128.197626000000014,44.397438000000001,0 128.198883999999993,44.393034999999998,0 128.189400000000006,44.373809000000001,0 128.187948000000006,44.363227000000002,0 128.171785999999997,44.346516999999999,0 128.162786000000011,44.344743999999999,0 128.154076000000003,44.356189000000001,0 128.138979000000006,44.357855000000001,0 128.125623999999988,44.348989000000003,0 128.110914000000008,44.357264000000001,0 128.097364999999996,44.354146999999998,0 128.075107000000003,44.369405,0 128.072203000000002,44.374884000000002,0 128.063008999999994,44.356994999999998,0 128.050331999999997,44.350439999999999,0 128.055847999999997,44.343184999999998,0 128.064074000000005,44.341734000000002,0 128.056331999999998,44.329050000000002,0 128.062913000000009,44.324103999999998,0 128.065138999999988,44.307329000000003,0 128.079752000000013,44.307490999999999,0 128.086139000000003,44.294960000000003,0 128.097946000000007,44.295820999999997,0 128.101527000000004,44.290388,0 128.08972,44.275863999999999,0 128.074139000000002,44.269621999999998,0 128.063880000000012,44.26155,0 128.064460999999994,44.251055999999998,0 128.080815999999999,44.246265000000001,0 128.092332999999996,44.247987000000002,0 128.094171999999986,44.241743,0 128.087977999999993,44.238943999999996,0 128.103946000000008,44.230060000000002,0 128.105107000000004,44.214981999999999,0 128.092430000000007,44.215789999999998,0 128.092430000000007,44.181581000000001,0 128.070460999999995,44.181148999999998,0 128.060493000000008,44.168591999999997,0 128.075686999999988,44.158996999999999,0 128.08788100000001,44.158780999999998,0 128.084978000000007,44.147621000000001,0 128.091462000000007,44.139533,0 128.100752,44.135379999999998,0 128.090010000000007,44.132252000000001,0 128.052558000000005,44.107005999999998,0 128.042493000000007,44.103983999999997,0 128.024588999999992,44.107761000000004,0 128.007265999999987,44.094270999999999,0 127.981522999999996,44.090223000000002,0 127.966620000000006,44.090978999999997,0 127.962554999999995,44.087631999999999,0 127.949489999999997,44.088118000000001,0 127.934489999999997,44.077970000000001,0 127.918135000000007,44.070034,0 127.912812000000002,44.064796999999999,0 127.889585999999994,44.069602000000003,0 127.865003999999999,44.062258999999997,0 127.870132999999996,44.055779000000001,0 127.860455999999999,44.049081999999999,0 127.852423000000002,44.048271999999997,0 127.849810000000005,44.041573999999997,0 127.835583999999997,44.037415000000003,0 127.835778000000005,44.031796999999997,0 127.820971,44.020449999999997,0 127.807809000000006,44.017910999999998,0 127.800550999999999,44.008183000000002,0 127.788938000000002,44.002670000000002,0 127.783422000000002,43.995913000000002,0 127.785743999999994,43.989317999999997,0 127.782743999999994,43.978828,0 127.792325000000005,43.973421000000002,0 127.779841000000005,43.971690000000002,0 127.786130999999997,43.956113000000002,0 127.778678999999997,43.949513000000003,0 127.775873000000004,43.936743999999997,0 127.762518,43.937230999999997,0 127.781195999999994,43.929709000000003,0 127.795227999999994,43.916773999999997,0 127.836067999999997,43.901074000000001,0 127.839551999999998,43.896633999999999,0 127.851262000000006,43.896146999999999,0 127.850971999999999,43.888835999999998,0 127.861035999999999,43.882174999999997,0 127.854455999999999,43.857635000000002,0 127.837519999999998,43.867170000000002,0 127.816519,43.853571000000002,0 127.811002999999999,43.840944,0 127.816712999999993,43.836066000000002,0 127.807809000000006,43.827934999999997,0 127.817971,43.81861,0 127.813422000000003,43.812103,0 127.826874000000004,43.809770999999998,0 127.835583999999997,43.801527999999998,0 127.844196999999994,43.800389000000003,0 127.840519999999998,43.795020000000001,0 127.839358000000004,43.779234000000002,0 127.857262000000006,43.754868000000002,0 127.856971999999999,43.746997999999998,0 127.877100999999996,43.734999999999999,0 127.893456999999998,43.729733000000003,0 127.906521999999995,43.732339000000003,0 127.915908999999999,43.730601999999998,0 127.920553999999996,43.721316000000002,0 127.917456999999999,43.716374000000002,0 127.924716000000004,43.707900000000002,0 127.910296000000002,43.703119999999998,0 127.913488999999998,43.694591000000003,0 127.902649999999994,43.689864,0 127.909908999999999,43.684429999999999,0 127.905651000000006,43.670082000000001,0 127.913296000000003,43.666223000000002,0 127.916392999999999,43.657851000000001,0 127.913005999999996,43.651871,0 127.899456999999998,43.645617999999999,0 127.896553999999995,43.625005999999999,0 127.884263000000004,43.620381999999999,0 127.865682000000007,43.624896999999997,0 127.854648999999995,43.616410999999999,0 127.853584999999995,43.610644000000001,0 127.840907000000001,43.595135999999997,0 127.829390000000004,43.598564000000003,0 127.816519,43.590727999999999,0 127.819326000000004,43.583053,0 127.811099999999996,43.581147999999999,0 127.797938000000002,43.572166000000003,0 127.798809000000006,43.564760999999997,0 127.791743999999994,43.563509000000003,0 127.791163999999995,43.554577999999999,0 127.777034,43.555014,0 127.770841000000004,43.549840000000003,0 127.769873000000004,43.531973999999998,0 127.774518,43.525762999999998,0 127.761356000000006,43.523257000000001,0 127.745001000000002,43.503692999999998,0 127.733774999999994,43.504455999999998,0 127.719838999999993,43.510396,0 127.717709999999997,43.502439000000003,0 127.698160999999999,43.484231999999999,0 127.704257999999996,43.480851000000001,0 127.706677999999997,43.464655,0 127.697096999999999,43.451346000000001,0 127.696323000000007,43.437269999999998,0 127.701741999999996,43.430284999999998,0 127.710161999999997,43.430230999999999,0 127.705709999999996,43.409272000000001,0 127.698644999999999,43.401957000000003,0 127.703484000000003,43.395023000000002,0 127.694968000000003,43.378039000000001,0 127.688096000000002,43.375143999999999,0 127.686064000000002,43.367277999999999,0 127.678999000000005,43.364218999999999,0 127.682192999999998,43.354329999999997,0 127.671740999999997,43.349522,0 127.647934000000006,43.346297999999997,0 127.639902000000006,43.340068000000002,0 127.625191999999998,43.341216000000003,0 127.617448999999993,43.334820999999998,0 127.633902000000006,43.323287999999998,0 127.630514000000005,43.312955000000002,0 127.615319999999997,43.305464000000001,0 127.618416999999994,43.300159000000001,0 127.643482000000006,43.292721,0 127.654128,43.283257999999996,0 127.659451000000004,43.273519999999998,0 127.657224999999997,43.260168999999998,0 127.644547000000003,43.249333,0 127.636223999999999,43.236688000000001,0 127.634191999999999,43.223821999999998,0 127.611932999999993,43.206243000000001,0 127.595965000000007,43.197533,0 127.585997000000006,43.195067999999999,0 127.581351999999995,43.187508000000001,0 127.567899999999995,43.186630999999998,0 127.562286999999998,43.178795999999998,0 127.561513000000005,43.168985999999997,0 127.547479999999993,43.161039000000002,0 127.548544000000007,43.157694999999997,0 127.532189000000002,43.146237999999997,0 127.510608000000005,43.140864999999998,0 127.480027000000007,43.139767999999997,0 127.488833,43.129238999999998,0 127.503446999999994,43.120573999999998,0 127.492897999999997,43.091552,0 127.501801,43.070585999999999,0 127.501124000000004,43.065590999999998,0 127.484769,43.060868999999997,0 127.483413999999996,43.053018000000002,0 127.469961999999995,43.038026000000002,0 127.469768000000002,43.028688000000002,0 127.479543000000007,43.021985999999998,0 127.497253000000001,43.023358999999999,0 127.504705000000001,43.011822000000002,0 127.516801999999998,43.003194999999998,0 127.531221000000002,42.984451999999997,0 127.548350999999997,42.978076000000001,0 127.557931999999994,42.979174999999998,0 127.575447999999994,42.966749,0 127.585899999999995,42.955916000000002,0 127.596643,42.957346000000001,0 127.608448999999993,42.954596000000002,0 127.616579000000002,42.945630999999999,0 127.636320999999995,42.937764999999999,0 127.640966000000006,42.921698999999997,0 127.655096,42.917901999999998,0 127.674837999999994,42.902712000000001,0 127.696128999999999,42.900345000000002,0 127.711613,42.891317000000001,0 127.728356000000005,42.892803000000001,0 127.744324000000006,42.890270999999998,0 127.754097999999999,42.901831000000001,0 127.759421000000003,42.902436000000002,0 127.774034,42.895445000000002,0 127.776938000000001,42.887957999999998,0 127.794743999999994,42.874192000000001,0 127.807325000000006,42.878597999999997,0 127.819035,42.875788999999997,0 127.825035999999997,42.868133999999998,0 127.819712999999993,42.864004000000001,0 127.815455,42.840865999999998,0 127.829196999999994,42.834254000000001,0 127.835196999999994,42.818877999999998,0 127.841778000000005,42.818933000000001,0 127.852519999999998,42.811106000000002,0 127.843616999999995,42.805593000000002,0 127.847003999999998,42.801017000000002,0 127.837616999999995,42.788334999999996,0 127.833164999999994,42.775871000000002,0 127.834423000000001,42.762576000000003,0 127.852230000000006,42.757997000000003,0 127.855811000000003,42.753141999999997,0 127.869359000000003,42.751430999999997,0 127.865682000000007,42.740670999999999,0 127.874004999999997,42.734654999999997,0 127.867230000000006,42.730348999999997,0 127.857552999999996,42.735813999999998,0 127.846907000000002,42.730736,0 127.850391000000002,42.724939999999997,0 127.862100999999996,42.719087999999999,0 127.875263000000004,42.696117999999998,0 127.890456999999998,42.695951999999998,0 127.899360000000001,42.689931999999999,0 127.895585999999994,42.684297999999998,0 127.885908000000001,42.689269000000003,0 127.882036999999997,42.684795000000001,0 127.886004999999997,42.674796000000001,0 127.904488999999998,42.670155000000001,0 127.923167000000007,42.673360000000002,0 127.938457999999997,42.663027,0 127.960329000000002,42.657832999999997,0 127.965941999999998,42.653191,0 127.964588000000006,42.644348000000001,0 127.953554999999994,42.641472999999998,0 127.959749000000002,42.630583000000001,0 127.959168000000005,42.620961999999999,0 127.973201000000003,42.622179000000003,0 127.967201000000003,42.612003999999999,0 127.981426999999996,42.610511000000002,0 127.994587999999993,42.600831999999997,0 127.987137000000004,42.598840000000003,0 127.995169000000004,42.588551000000002,0 127.995846,42.581966999999999,0 128.008621000000005,42.578536999999997,0 128.015879000000012,42.569960000000002,0 128.012492000000009,42.563983,0 128.021395000000012,42.565587999999998,0 128.027782999999999,42.561214999999997,0 128.020233999999988,42.541618999999997,0 128.028073000000006,42.541564000000001,0 128.024104999999992,42.529825000000002,0 128.033880000000011,42.528661999999997,0 128.034267,42.500579999999999,0 128.03146000000001,42.496813000000003,0 128.043556999999993,42.480134,0 128.035137999999989,42.465501000000003,0 128.018588999999992,42.450754000000003,0 128.014137000000005,42.436836,0 128.016266000000002,42.427850999999997,0 128.007169000000005,42.414205000000003,0 127.998169000000004,42.413705999999998,0 127.983362,42.403663000000002,0 127.959941999999998,42.392954000000003,0 127.952200000000005,42.374526000000003,0 127.943781000000001,42.367697,0 127.922489999999996,42.369030000000002,0 127.903520999999998,42.366864999999997,0 127.903520999999998,42.349040000000002,0 127.890068999999997,42.338321000000001,0 127.887747000000005,42.330100000000002,0 127.858616999999995,42.327655,0 127.845164999999994,42.330711000000001,0 127.840616999999995,42.326711000000003,0 127.817777000000007,42.323489000000002,0 127.808390000000003,42.307040999999998,0 127.810713000000007,42.296759999999999,0 127.828907000000001,42.280805999999998,0 127.854551999999998,42.283363000000001,0 127.862003999999999,42.274245000000001,0 127.868391000000003,42.276524999999999,0 127.877681999999993,42.266905000000001,0 127.880681999999993,42.250554000000001,0 127.885327000000004,42.243099999999998,0 127.900812000000002,42.239984999999997,0 127.907585999999995,42.243600999999998,0 127.912617999999995,42.231082999999998,0 127.910296000000002,42.221066999999998,0 127.915424999999999,42.204092000000003,0 127.927812000000003,42.188671999999997,0 127.943684000000005,42.181432999999998,0 127.952684000000005,42.172412000000001,0 127.960522999999995,42.172412000000001,0 127.968361999999999,42.164670000000001,0 127.960909999999998,42.145619000000003,0 127.963717000000003,42.140326000000002,0 127.987523999999993,42.125224000000003,0 127.991394999999997,42.115470000000002,0 128.015298999999999,42.087426000000001,0 128.024299000000013,42.071306999999997,0 128.036588999999992,42.042853000000001,0 128.039201999999989,42.029904999999999,0 128.064558000000005,42.011538000000002,0</coordinates></LinearRing></outerBoundaryIs></Polygon></MultiGeometry></Placemark>
</Document>
</kml>