<?xml version="1.0" encoding="UTF-8"?>
<kml xmlns="http://www.opengis.net/kml/2.2">
<Document>
<name>白城市</name>
<Placemark><name>白城市</name><MultiGeometry><Polygon><outerBoundaryIs><LinearRing><coordinates>124.373784999999998,45.458551,0 124.364396999999997,45.481895999999999,0 124.356268,45.486795999999998,0 124.352493999999993,45.496645999999998,0 124.364784,45.505968000000003,0 124.368848999999997,45.512920000000001,0 124.368945999999994,45.525765999999997,0 124.358688000000001,45.544820999999999,0 124.34872,45.546925999999999,0 124.295395999999997,45.539189,0 124.283686000000003,45.541294999999998,0 124.264621000000005,45.555081999999999,0 124.261233000000004,45.569234000000002,0 124.272846999999999,45.584014000000003,0 124.267621000000005,45.592112999999998,0 124.254169000000005,45.593795,0 124.245942999999997,45.591113999999997,0 124.234522999999996,45.593426999999998,0 124.227554999999995,45.598894999999999,0 124.225136000000006,45.608989000000001,0 124.236652000000007,45.623023000000003,0 124.226586999999995,45.633428000000002,0 124.212457999999998,45.630589999999998,0 124.187489999999997,45.615927999999997,0 124.167747000000006,45.615296999999998,0 124.147229999999993,45.623075,0 124.129714000000007,45.637577999999998,0 124.130197999999993,45.643619999999999,0 124.143068999999997,45.648347999999999,0 124.149359000000004,45.661583999999998,0 124.144713999999993,45.665996,0 124.128552999999997,45.665103000000002,0 124.121875000000003,45.669251000000003,0 124.137456,45.679385000000003,0 124.137843000000004,45.687207000000001,0 124.125456,45.695186,0 124.112003999999999,45.696812999999999,0 124.099519000000001,45.703004999999997,0 124.098067999999998,45.722472000000003,0 124.089067999999997,45.727508,0 124.082195999999996,45.736424999999997,0 124.054130999999998,45.751317999999998,0 124.033034000000001,45.750740999999998,0 124.019969000000003,45.747857000000003,0 124.014742999999996,45.749954000000002,0 124.001969000000003,45.770662000000002,0 124.009420000000006,45.781982999999997,0 124.034678999999997,45.784917,0 124.049775999999994,45.794663,0 124.062550999999999,45.796548999999999,0 124.064390000000003,45.802259999999997,0 124.042711999999995,45.815354999999997,0 124.034775999999994,45.826300000000003,0 124.036227999999994,45.838079999999998,0 124.047162999999998,45.840435999999997,0 124.064390000000003,45.839283999999999,0 124.071066999999999,45.845199000000001,0 124.068647999999996,45.868802000000002,0 124.058195999999995,45.889623,0 124.038259999999994,45.894016000000001,0 124.001872000000006,45.904423000000001,0 123.992774999999995,45.910330999999999,0 123.971581,45.931919999999998,0 123.967516000000003,45.94117,0 123.965676999999999,45.960709999999999,0 123.970322999999993,45.971103999999997,0 123.977097000000001,45.975856,0 124.012033000000002,45.982017999999997,0 124.020066,45.989015000000002,0 124.015129999999999,45.998463999999998,0 123.992774999999995,46.007911999999997,0 123.991420000000005,46.017409999999998,0 124.005356000000006,46.021375999999997,0 124.027807999999993,46.016314000000001,0 124.038357000000005,46.018036000000002,0 124.039710999999997,46.031131999999999,0 124.031291999999993,46.048918999999998,0 124.009904000000006,46.057524000000001,0 124.005356000000006,46.069046999999998,0 124.016774999999996,46.076658000000002,0 124.018226999999996,46.084319999999998,0 124.012613999999999,46.090470000000003,0 123.995677999999998,46.098754999999997,0 124.000613999999999,46.110008999999998,0 124.016678999999996,46.118603999999998,0 124.015904000000006,46.124177000000003,0 123.995290999999995,46.137821000000002,0 123.993838999999994,46.147297000000002,0 124.008936000000006,46.154896999999998,0 124.010969000000003,46.161715999999998,0 124.002065000000002,46.166815999999997,0 123.985517000000002,46.163744999999999,0 123.974289999999996,46.165514999999999,0 123.971968000000004,46.170302999999997,0 123.975257999999997,46.183934999999998,0 123.961613,46.194443,0 123.957064000000003,46.206873999999999,0 123.965581,46.213633999999999,0 123.979709999999997,46.218677,0 123.982322999999994,46.226424000000002,0 123.956000000000003,46.244667,0 123.952224999999999,46.259269000000003,0 123.962773999999996,46.269450999999997,0 123.966452000000004,46.277085999999997,0 123.958321999999995,46.289965000000002,0 123.934805999999995,46.285862999999999,0 123.929385999999994,46.279682999999999,0 123.928224999999998,46.267685,0 123.917579000000003,46.256827000000001,0 123.904223999999999,46.258800999999998,0 123.897450000000006,46.264567999999997,0 123.907902000000007,46.278488000000003,0 123.902676,46.291003000000003,0 123.908288999999996,46.295209,0 123.896287999999998,46.303620000000002,0 123.866675000000001,46.299517999999999,0 123.849835999999996,46.302374,0 123.824963999999994,46.285187999999998,0 123.804930999999996,46.283785000000002,0 123.805027999999993,46.276670000000003,0 123.792446999999996,46.273398,0 123.787221000000002,46.267581,0 123.756736000000004,46.259943999999997,0 123.744252000000003,46.264048000000003,0 123.725573999999995,46.255684000000002,0 123.704187000000005,46.25797,0 123.696832000000001,46.254384999999999,0 123.679604999999995,46.253656999999997,0 123.668186000000006,46.258488999999997,0 123.631217000000007,46.253138,0 123.604990999999998,46.251787,0 123.598894000000001,46.245134999999998,0 123.596667999999994,46.234065000000001,0 123.574216000000007,46.230218000000001,0 123.569473000000002,46.223616,0 123.561925000000002,46.236404,0 123.544601999999998,46.235053000000001,0 123.531827000000007,46.241757,0 123.526408000000004,46.24924,0 123.499891000000005,46.259528000000003,0 123.477923000000004,46.249603999999998,0 123.479374000000007,46.244252000000003,0 123.464760999999996,46.240146000000003,0 123.453147999999999,46.232557999999997,0 123.450727999999998,46.237028000000002,0 123.431470000000004,46.243836000000002,0 123.417631,46.24051,0 123.408823999999996,46.244095999999999,0 123.404759999999996,46.239626000000001,0 123.394307999999995,46.244667,0 123.386662000000001,46.227826999999998,0 123.373790999999997,46.222940000000001,0 123.356178,46.228399000000003,0 123.359370999999996,46.230322000000001,0 123.347370999999995,46.245863,0 123.335950999999994,46.244304,0 123.320661000000001,46.254592000000002,0 123.320080000000004,46.251423000000003,0 123.302176000000003,46.248305000000002,0 123.280304999999998,46.253917000000001,0 123.276240000000001,46.261347000000001,0 123.253594000000007,46.265346999999998,0 123.248175000000003,46.273294,0 123.223303000000001,46.270541000000001,0 123.211883999999998,46.262438000000003,0 123.178591999999995,46.248097000000001,0 123.144623999999993,46.229491000000003,0 123.128461999999999,46.210462,0 123.127688000000006,46.174674000000003,0 123.102913000000001,46.172020000000003,0 123.112397000000001,46.130062000000002,0 123.069912000000002,46.123551999999997,0 123.045815000000005,46.100057999999997,0 122.956974000000002,46.090418,0 122.793131000000002,46.073217,0 122.828551000000004,45.912266000000002,0 122.826712000000001,45.897990999999998,0 122.817712,45.881253999999998,0 122.800291999999999,45.856713999999997,0 122.772807999999998,45.856557000000002,0 122.766419999999997,45.845356000000002,0 122.752387999999996,45.834834000000001,0 122.772032999999993,45.806398000000002,0 122.771355999999997,45.801473999999999,0 122.789936999999995,45.774802999999999,0 122.792452999999995,45.766258999999998,0 122.774839999999998,45.753520000000002,0 122.771162000000004,45.746231000000002,0 122.751130000000003,45.736109999999996,0 122.761000999999993,45.722262000000001,0 122.746967999999995,45.720688000000003,0 122.748613000000006,45.712608000000003,0 122.742033000000006,45.705157,0 122.671481999999997,45.700643999999997,0 122.669062999999994,45.716596000000003,0 122.663644000000005,45.721212999999999,0 122.665289000000001,45.729973000000001,0 122.649610999999993,45.732281,0 122.648837,45.745130000000003,0 122.640611000000007,45.771134000000004,0 122.611577999999994,45.774908000000003,0 122.603448,45.778104999999996,0 122.567156999999995,45.806817000000002,0 122.566867000000002,45.814464000000001,0 122.556124999999994,45.821587000000001,0 122.544415000000001,45.815877999999998,0 122.533382000000003,45.80556,0 122.530769000000006,45.798278000000003,0 122.518285000000006,45.784708000000002,0 122.504349000000005,45.787747000000003,0 122.501735999999994,45.806136000000002,0 122.503285000000005,45.821114999999999,0 122.495833000000005,45.858232000000001,0 122.475413000000003,45.877538999999999,0 122.445993000000001,45.916919,0 122.374959000000004,45.920681999999999,0 122.362087000000002,45.917440999999997,0 122.360344999999995,45.903325000000002,0 122.362474000000006,45.887008000000002,0 122.368958000000006,45.862104000000002,0 122.37312,45.856138999999999,0 122.355215999999999,45.855195999999999,0 122.337408999999994,45.859907,0 122.335958000000005,45.849857999999998,0 122.321247999999997,45.84431,0 122.320859999999996,45.830435999999999,0 122.302957000000006,45.829912999999998,0 122.311957000000007,45.825985000000003,0 122.299086000000003,45.818286999999998,0 122.301602000000003,45.812998,0 122.281858999999997,45.809331,0 122.285634000000002,45.802207000000003,0 122.274601000000004,45.805245999999997,0 122.262698,45.794978,0 122.255246,45.796759000000002,0 122.245470999999995,45.810484000000002,0 122.243729000000002,45.825513999999998,0 122.236470999999995,45.831482999999999,0 122.219341999999997,45.830122000000003,0 122.216245000000001,45.845041999999999,0 122.204825,45.850276999999998,0 122.200953999999996,45.856870999999998,0 122.190308999999999,45.854621000000002,0 122.185663000000005,45.859279000000001,0 122.155663000000004,45.866605,0 122.147146000000006,45.864825000000003,0 122.138146000000006,45.873145000000001,0 122.115983999999997,45.873981999999998,0 122.101660999999993,45.881306000000002,0 122.091595999999996,45.881985999999998,0 122.086950999999999,45.894644,0 122.082402999999999,45.896473999999998,0 122.085306000000003,45.909913000000003,0 122.081338000000002,45.920943999999999,0 122.071177000000006,45.930613999999998,0 122.055207999999993,45.932965000000003,0 122.043402,45.943260000000002,0 122.039724000000007,45.959246999999998,0 122.016885000000002,45.961545999999998,0 122.006529999999998,45.966717000000003,0 122.004593999999997,45.984628999999998,0 121.994433000000001,45.982017999999997,0 121.987949,45.971679000000002,0 121.961335000000005,45.981077999999997,0 121.962108999999998,45.986351999999997,0 121.944399000000004,45.989328,0 121.928044,45.988335999999997,0 121.922915000000003,45.997159000000003,0 121.923591999999999,46.004883999999997,0 121.894752999999994,46.008225000000003,0 121.893784999999994,46.002274999999997,0 121.864074000000002,46.002431000000001,0 121.858847999999995,46.010260000000002,0 121.848009000000005,46.014904999999999,0 121.842977000000005,46.024453999999999,0 121.823912000000007,46.023097,0 121.812878999999995,46.025863000000001,0 121.814621000000002,46.021479999999997,0 121.796814999999995,46.010626000000002,0 121.786556000000004,46.011043000000001,0 121.785394999999994,46.003266000000004,0 121.764588000000003,46.000655999999999,0 121.759072000000003,45.993608999999999,0 121.767685,45.984681000000002,0 121.783845999999997,45.986561000000002,0 121.809298999999996,45.961545999999998,0 121.806394999999995,45.957000999999998,0 121.811525000000003,45.94744,0 121.803781999999998,45.942058000000003,0 121.811041000000003,45.937564000000002,0 121.807557000000003,45.932600000000001,0 121.818105000000003,45.927790999999999,0 121.821395999999993,45.918382000000001,0 121.805717999999999,45.900604999999999,0 121.808717999999999,45.887791999999997,0 121.817138,45.875604000000003,0 121.804073000000002,45.873145000000001,0 121.785976000000005,45.860847999999997,0 121.778910999999994,45.848391999999997,0 121.769910999999993,45.843524000000002,0 121.764201,45.831431000000002,0 121.772910999999993,45.826666000000003,0 121.767685,45.819282999999999,0 121.757620000000003,45.818967999999998,0 121.751039000000006,45.804983999999997,0 121.754232999999999,45.794873000000003,0 121.741652000000002,45.791885999999998,0 121.740393999999995,45.786751000000002,0 121.722489999999993,45.785336999999998,0 121.688231000000002,45.763218999999999,0 121.675456999999994,45.769457000000003,0 121.656971999999996,45.770190999999997,0 121.644390999999999,45.752471,0 121.648842999999999,45.747332999999998,0 121.669263000000001,45.739151999999997,0 121.664520999999993,45.729711000000002,0 121.670520999999994,45.723363999999997,0 121.688908999999995,45.712660999999997,0 121.714070000000007,45.701797999999997,0 121.733039000000005,45.699437000000003,0 121.756845999999996,45.690724000000003,0 121.782105000000001,45.693767999999999,0 121.811330999999996,45.686945000000001,0 121.808525000000003,45.693925999999998,0 121.812298999999996,45.704790000000003,0 121.852558000000002,45.717855,0 121.867074000000002,45.719743999999999,0 121.894171999999998,45.713605000000001,0 121.899203999999997,45.718012000000002,0 121.933947000000003,45.710614,0 121.944785999999993,45.714129999999997,0 121.970141999999996,45.692771,0 121.994045,45.637630999999999,0 122.000045999999998,45.633794999999999,0 122.003336000000004,45.623286,0 121.995497,45.605257000000002,0 121.996077999999997,45.598948,0 121.979819000000006,45.595635999999999,0 121.966464000000002,45.596161000000002,0 121.972560999999999,45.568970999999998,0 121.993368000000004,45.552872000000001,0 121.993852000000004,45.539821000000003,0 122.003336000000004,45.524344999999997,0 122.002465000000001,45.507863999999998,0 122.023465999999999,45.490220000000001,0 122.033434,45.487428000000001,0 122.063338000000002,45.472938999999997,0 122.086370000000002,45.466720000000002,0 122.121210000000005,45.453437999999998,0 122.157211000000004,45.446269000000001,0 122.164565999999994,45.443263999999999,0 122.168727000000004,45.430135,0 122.179856999999998,45.409564000000003,0 122.146856,45.374524999999998,0 122.143662000000006,45.354410000000001,0 122.144048999999995,45.322454,0 122.147243000000003,45.295606999999997,0 122.187696000000003,45.286250000000003,0 122.238986999999995,45.276310000000002,0 122.238502999999994,45.263247999999997,0 122.241793999999999,45.247748999999999,0 122.230084000000005,45.206839000000002,0 122.216437999999997,45.193919000000001,0 122.192631000000006,45.180678999999998,0 122.143275000000003,45.183010000000003,0 122.126823000000002,45.159064000000001,0 122.109887000000001,45.142052999999997,0 122.118694000000005,45.099899999999998,0 122.119467999999998,45.068596999999997,0 122.108242000000004,45.049912999999997,0 122.098951,45.021555999999997,0 122.074563999999995,45.006628999999997,0 122.086758000000003,44.952944000000002,0 122.079111999999995,44.914217000000001,0 122.063725000000005,44.911929000000001,0 122.049594999999997,44.912832999999999,0 122.04495,44.899475000000002,0 122.05395,44.896973000000003,0 122.056273000000004,44.882812000000001,0 122.070498999999998,44.882066999999999,0 122.074854000000002,44.860605,0 122.084434999999999,44.851602999999997,0 122.082595999999995,44.839562000000001,0 122.089371,44.833274000000003,0 122.098177000000007,44.818778000000002,0 122.100112999999993,44.809075999999997,0 122.092371,44.799531999999999,0 122.099919,44.782361000000002,0 122.115015999999997,44.776600000000002,0 122.157404999999997,44.777346999999999,0 122.169115000000005,44.770251999999999,0 122.153824,44.763796999999997,0 122.142695000000003,44.753712,0 122.127403999999999,44.757767000000001,0 122.110660999999993,44.767797999999999,0 122.098855,44.744799999999998,0 122.102726000000004,44.736260000000001,0 122.116274000000004,44.739835999999997,0 122.152468999999996,44.743839000000001,0 122.161372,44.728251999999998,0 122.148887999999999,44.715919,0 122.131080999999995,44.710365000000003,0 122.117435999999998,44.702140999999997,0 122.115596999999994,44.688625999999999,0 122.103015999999997,44.673985999999999,0 122.113467999999997,44.615443999999997,0 122.131951999999998,44.603675000000003,0 122.138339999999999,44.588158,0 122.131662000000006,44.577506999999997,0 122.163404999999997,44.567979000000001,0 122.196017999999995,44.559840999999999,0 122.202793,44.554647000000003,0 122.208116000000004,44.540669999999999,0 122.224084000000005,44.526206999999999,0 122.226309999999998,44.518439000000001,0 122.222632000000004,44.497753000000003,0 122.214696000000004,44.493732999999999,0 122.228148000000004,44.480170000000001,0 122.244890999999996,44.475720000000003,0 122.258826999999997,44.476148999999999,0 122.272666000000001,44.473467999999997,0 122.286118000000002,44.477758000000001,0 122.294439999999994,44.410913000000001,0 122.291634000000002,44.310287000000002,0 122.274214000000001,44.273819000000003,0 122.265890999999996,44.267254999999999,0 122.271407999999994,44.255684000000002,0 122.311957000000007,44.234636999999999,0 122.319408999999993,44.232914000000001,0 122.367023000000003,44.235928999999999,0 122.482670999999996,44.236897999999997,0 122.512865000000005,44.250247999999999,0 122.559318000000005,44.260204999999999,0 122.597351000000003,44.272528000000001,0 122.642837,44.283611000000001,0 122.675546999999995,44.285761999999998,0 122.690064000000007,44.296843000000003,0 122.691709000000003,44.303296000000003,0 122.703128000000007,44.318942999999997,0 122.726645000000005,44.342002999999998,0 122.760614000000004,44.369726999999997,0 122.777066000000005,44.375957999999997,0 122.856132000000002,44.398296999999999,0 122.920198999999997,44.431199999999997,0 122.940909000000005,44.445417999999997,0 122.950779999999995,44.449173000000002,0 123.024911000000003,44.492983000000002,0 123.040201999999994,44.499093000000002,0 123.067105999999995,44.506168000000002,0 123.083557999999996,44.506329000000001,0 123.111525999999998,44.509704999999997,0 123.125461999999999,44.509276,0 123.139398,44.522939000000001,0 123.142301000000003,44.545008000000003,0 123.148591999999994,44.554004999999997,0 123.178978999999998,44.569799000000003,0 123.201335,44.576971999999998,0 123.213238000000004,44.574348999999998,0 123.220399999999998,44.590566000000003,0 123.244980999999996,44.596933999999997,0 123.247691000000003,44.606403999999998,0 123.253594000000007,44.605708,0 123.273240000000001,44.620204999999999,0 123.285820999999999,44.624054999999998,0 123.289788999999999,44.635874000000001,0 123.295015000000006,44.638066000000002,0 123.317950999999994,44.639403000000001,0 123.331500000000005,44.649560999999999,0 123.348145000000002,44.652822,0 123.370306999999997,44.662816999999997,0 123.383855999999994,44.663457999999999,0 123.418405000000007,44.671528000000002,0 123.455954000000006,44.696105000000003,0 123.502116999999998,44.707695000000001,0 123.523795000000007,44.707000999999998,0 123.525537,44.727291000000001,0 123.514795000000007,44.734338000000001,0 123.4786,44.778359999999999,0 123.467955000000003,44.793453,0 123.449856999999994,44.812221000000001,0 123.429824999999994,44.849311999999998,0 123.419663,44.855758000000002,0 123.451987000000003,44.892181999999998,0 123.497955000000005,44.930976999999999,0 123.489728999999997,44.952838,0 123.492536000000001,44.959538000000002,0 123.519924000000003,44.966290000000001,0 123.530665999999997,44.951827000000002,0 123.540924000000004,44.952997000000003,0 123.556796000000006,44.960548000000003,0 123.572280000000006,44.963152999999998,0 123.587377000000004,44.971553,0 123.611570999999998,44.995046000000002,0 123.632282000000004,45.009444999999999,0 123.689572999999996,45.033983999999997,0 123.720348000000001,45.048744999999997,0 123.746865,45.064351000000002,0 123.827479999999994,45.130761999999997,0 123.836190000000002,45.142158999999999,0 123.851965000000007,45.151274999999998,0 123.879159000000001,45.172310000000003,0 123.882448999999994,45.178612999999999,0 123.919320999999997,45.209538999999999,0 123.934515000000005,45.213774000000001,0 123.942160999999999,45.219543999999999,0 123.976322999999994,45.225895000000001,0 123.988033000000001,45.225895000000001,0 124.025001000000003,45.230817000000002,0 124.053743999999995,45.231611000000001,0 124.069422000000003,45.236108999999999,0 124.079874000000004,45.249282999999998,0 124.086842000000004,45.263089000000001,0 124.065357000000006,45.285722,0 124.073679999999996,45.314157999999999,0 124.087035,45.32779,0 124.100680999999994,45.332543999999999,0 124.115294000000006,45.332756000000003,0 124.126230000000007,45.336136000000003,0 124.202393000000001,45.374366999999999,0 124.224652000000006,45.382812000000001,0 124.261619999999994,45.402706000000002,0 124.285621000000006,45.420589,0 124.334783999999999,45.436093,0 124.347171000000003,45.445109000000002,0 124.373784999999998,45.458551,0</coordinates></LinearRing></outerBoundaryIs></Polygon></MultiGeometry></Placemark>
</Document>
</kml>