<?xml version="1.0" encoding="UTF-8"?>
<kml xmlns="http://www.opengis.net/kml/2.2">
  <Document>
    <name>天津市 全省轮廓</name>
    <Placemark>
      <name>天津市 全省轮廓</name>
      <Polygon><outerBoundaryIs><LinearRing><coordinates>117.150835000000,38.609323000000,0 117.147577000000,38.606627000000,0 117.138264000000,38.603932000000,0 117.136431000000,38.598728000000,0 117.124606000000,38.599931000000,0 117.121660000000,38.597698000000,0 117.119542000000,38.589661000000,0 117.109483000000,38.589111000000,0 117.109849000000,38.584869000000,0 117.098201000000,38.586896000000,0 117.097468000000,38.590708000000,0 117.093001000000,38.594435000000,0 117.097074000000,38.595517000000,0 117.096871000000,38.600411000000,0 117.087232000000,38.599862000000,0 117.086336000000,38.606370000000,0 117.071551000000,38.607383000000,0 117.070085000000,38.616757000000,0 117.064261000000,38.635708000000,0 117.060501000000,38.635708000000,0 117.060759000000,38.639107000000,0 117.055586000000,38.639261000000,0 117.051717000000,38.643500000000,0 117.056319000000,38.644976000000,0 117.056048000000,38.654191000000,0 117.061980000000,38.674385000000,0 117.068157000000,38.680646000000,0 117.063257000000,38.680440000000,0 117.063379000000,38.682961000000,0 117.054351000000,38.684265000000,0 117.052871000000,38.686718000000,0 117.044590000000,38.686220000000,0 117.045377000000,38.692549000000,0 117.039064000000,38.688467000000,0 117.039281000000,38.694435000000,0 117.041644000000,38.701603000000,0 117.045268000000,38.705770000000,0 117.042309000000,38.706490000000,0 117.015741000000,38.700403000000,0 117.014464000000,38.689942000000,0 117.002938000000,38.690422000000,0 116.992838000000,38.692274000000,0 116.994454000000,38.695721000000,0 116.951173000000,38.689582000000,0 116.947209000000,38.689616000000,0 116.945594000000,38.685877000000,0 116.930823000000,38.685757000000,0 116.926805000000,38.687438000000,0 116.927320000000,38.680062000000,0 116.917722000000,38.679616000000,0 116.921225000000,38.686923000000,0 116.910364000000,38.685568000000,0 116.903291000000,38.681915000000,0 116.896069000000,38.680285000000,0 116.877293000000,38.680697000000,0 116.875596000000,38.682687000000,0 116.875501000000,38.693166000000,0 116.871903000000,38.701878000000,0 116.875162000000,38.712629000000,0 116.872840000000,38.716143000000,0 116.866487000000,38.717000000000,0 116.870138000000,38.729892000000,0 116.867450000000,38.745882000000,0 116.860350000000,38.744974000000,0 116.859115000000,38.741307000000,0 116.812916000000,38.744323000000,0 116.796543000000,38.746688000000,0 116.791221000000,38.745060000000,0 116.791221000000,38.740055000000,0 116.784040000000,38.738342000000,0 116.784515000000,38.740518000000,0 116.778867000000,38.740621000000,0 116.775025000000,38.742798000000,0 116.766350000000,38.741941000000,0 116.762807000000,38.750544000000,0 116.758938000000,38.754879000000,0 116.746299000000,38.754245000000,0 116.747018000000,38.762880000000,0 116.751308000000,38.780200000000,0 116.742321000000,38.780834000000,0 116.742769000000,38.784020000000,0 116.737338000000,38.784482000000,0 116.741425000000,38.796214000000,0 116.745769000000,38.795751000000,0 116.746095000000,38.798594000000,0 116.740760000000,38.799228000000,0 116.744018000000,38.805324000000,0 116.738479000000,38.807053000000,0 116.745253000000,38.816744000000,0 116.746244000000,38.824636000000,0 116.749082000000,38.824430000000,0 116.751199000000,38.831277000000,0 116.743760000000,38.831568000000,0 116.743081000000,38.834923000000,0 116.746027000000,38.851455000000,0 116.723124000000,38.852533000000,0 116.722337000000,38.897060000000,0 116.708028000000,38.897026000000,0 116.708136000000,38.931852000000,0 116.709996000000,38.931937000000,0 116.710186000000,38.939030000000,0 116.716228000000,38.938962000000,0 116.718359000000,38.942978000000,0 116.722622000000,38.956529000000,0 116.723043000000,38.966592000000,0 116.725364000000,38.966456000000,0 116.728609000000,38.975356000000,0 116.734895000000,38.977867000000,0 116.735329000000,38.980617000000,0 116.740366000000,38.980839000000,0 116.745457000000,38.991411000000,0 116.750521000000,38.994007000000,0 116.752394000000,39.003467000000,0 116.754607000000,39.003228000000,0 116.756331000000,39.013080000000,0 116.754960000000,39.019123000000,0 116.759087000000,39.021189000000,0 116.759359000000,39.031636000000,0 116.751715000000,39.034503000000,0 116.751742000000,39.038958000000,0 116.756616000000,39.050306000000,0 116.760743000000,39.050562000000,0 116.773016000000,39.046876000000,0 116.774835000000,39.050425000000,0 116.778840000000,39.049419000000,0 116.781379000000,39.053446000000,0 116.781596000000,39.058462000000,0 116.786809000000,39.059332000000,0 116.787325000000,39.061925000000,0 116.797181000000,39.060253000000,0 116.796136000000,39.056329000000,0 116.785017000000,39.055698000000,0 116.783347000000,39.050187000000,0 116.787800000000,39.052678000000,0 116.797073000000,39.054418000000,0 116.802679000000,39.050903000000,0 116.818984000000,39.050937000000,0 116.821984000000,39.046757000000,0 116.831474000000,39.049521000000,0 116.842145000000,39.049385000000,0 116.860445000000,39.050562000000,0 116.860309000000,39.053531000000,0 116.871645000000,39.054674000000,0 116.869921000000,39.059622000000,0 116.873722000000,39.060544000000,0 116.869880000000,39.069910000000,0 116.877809000000,39.072588000000,0 116.881474000000,39.071718000000,0 116.882818000000,39.077944000000,0 116.886606000000,39.077279000000,0 116.890638000000,39.084852000000,0 116.894195000000,39.084323000000,0 116.896707000000,39.091674000000,0 116.901893000000,39.090974000000,0 116.906047000000,39.103099000000,0 116.909549000000,39.103065000000,0 116.911097000000,39.111044000000,0 116.919283000000,39.109237000000,0 116.923696000000,39.118614000000,0 116.926112000000,39.119636000000,0 116.919786000000,39.119943000000,0 116.918455000000,39.123540000000,0 116.923804000000,39.124000000000,0 116.918998000000,39.138573000000,0 116.915360000000,39.138266000000,0 116.914002000000,39.146157000000,0 116.909251000000,39.150758000000,0 116.893964000000,39.154728000000,0 116.870071000000,39.153654000000,0 116.865808000000,39.157522000000,0 116.865713000000,39.173468000000,0 116.863106000000,39.174967000000,0 116.864328000000,39.182052000000,0 116.863201000000,39.185816000000,0 116.863174000000,39.201364000000,0 116.860771000000,39.205604000000,0 116.857051000000,39.205382000000,0 116.855789000000,39.215682000000,0 116.871659000000,39.217691000000,0 116.875623000000,39.216483000000,0 116.874591000000,39.230066000000,0 116.879397000000,39.230049000000,0 116.880307000000,39.225624000000,0 116.883551000000,39.226202000000,0 116.884651000000,39.221232000000,0 116.887855000000,39.224449000000,0 116.892634000000,39.223939000000,0 116.890502000000,39.227530000000,0 116.891941000000,39.231155000000,0 116.885900000000,39.232738000000,0 116.884923000000,39.240550000000,0 116.882425000000,39.238661000000,0 116.876628000000,39.240924000000,0 116.875772000000,39.253839000000,0 116.878759000000,39.255371000000,0 116.871645000000,39.269287000000,0 116.876329000000,39.270342000000,0 116.874754000000,39.283166000000,0 116.872392000000,39.291279000000,0 116.866880000000,39.290768000000,0 116.863215000000,39.292673000000,0 116.862549000000,39.297485000000,0 116.866907000000,39.298029000000,0 116.867939000000,39.302518000000,0 116.884217000000,39.305392000000,0 116.882085000000,39.313722000000,0 116.887081000000,39.314334000000,0 116.889430000000,39.323106000000,0 116.887068000000,39.332182000000,0 116.889851000000,39.332692000000,0 116.889606000000,39.338164000000,0 116.881597000000,39.340662000000,0 116.875772000000,39.339184000000,0 116.872378000000,39.341240000000,0 116.870967000000,39.346881000000,0 116.872664000000,39.352777000000,0 116.876071000000,39.352675000000,0 116.874605000000,39.356328000000,0 116.870749000000,39.357484000000,0 116.860242000000,39.354188000000,0 116.861586000000,39.349549000000,0 116.857757000000,39.347612000000,0 116.849164000000,39.339473000000,0 116.847127000000,39.343755000000,0 116.842932000000,39.340713000000,0 116.829193000000,39.338861000000,0 116.823138000000,39.357891000000,0 116.833510000000,39.360423000000,0 116.834922000000,39.365961000000,0 116.826872000000,39.363617000000,0 116.820627000000,39.366623000000,0 116.818143000000,39.373520000000,0 116.823749000000,39.372942000000,0 116.837597000000,39.374097000000,0 116.836959000000,39.377885000000,0 116.841167000000,39.381519000000,0 116.837923000000,39.391115000000,0 116.839728000000,39.394035000000,0 116.835099000000,39.397041000000,0 116.834108000000,39.402678000000,0 116.839226000000,39.404630000000,0 116.838153000000,39.410436000000,0 116.840081000000,39.413645000000,0 116.844303000000,39.412542000000,0 116.851960000000,39.413849000000,0 116.852517000000,39.416853000000,0 116.860771000000,39.424237000000,0 116.864599000000,39.425204000000,0 116.864314000000,39.430517000000,0 116.870980000000,39.427377000000,0 116.875881000000,39.434556000000,0 116.868903000000,39.437220000000,0 116.862848000000,39.436830000000,0 116.855504000000,39.443346000000,0 116.847181000000,39.441395000000,0 116.847263000000,39.438663000000,0 116.840244000000,39.439647000000,0 116.832506000000,39.435489000000,0 116.827075000000,39.438612000000,0 116.826763000000,39.445671000000,0 116.815740000000,39.451728000000,0 116.810323000000,39.450795000000,0 116.807431000000,39.445620000000,0 116.799883000000,39.449641000000,0 116.795973000000,39.446842000000,0 116.792335000000,39.453883000000,0 116.797969000000,39.450625000000,0 116.798050000000,39.457344000000,0 116.794425000000,39.461195000000,0 116.791629000000,39.460838000000,0 116.790149000000,39.465385000000,0 116.785099000000,39.465894000000,0 116.788859000000,39.472017000000,0 116.799109000000,39.473408000000,0 116.798498000000,39.475579000000,0 116.811232000000,39.477546000000,0 116.810716000000,39.480311000000,0 116.820722000000,39.482397000000,0 116.817274000000,39.496573000000,0 116.811015000000,39.500829000000,0 116.816405000000,39.501609000000,0 116.813988000000,39.510289000000,0 116.825677000000,39.512306000000,0 116.823098000000,39.527340000000,0 116.825636000000,39.527171000000,0 116.821998000000,39.534458000000,0 116.818373000000,39.533001000000,0 116.819609000000,39.528510000000,0 116.815672000000,39.529578000000,0 116.806209000000,39.528849000000,0 116.803019000000,39.530374000000,0 116.801919000000,39.536712000000,0 116.798471000000,39.536458000000,0 116.795267000000,39.545760000000,0 116.787502000000,39.548742000000,0 116.789090000000,39.555756000000,0 116.792375000000,39.556231000000,0 116.791561000000,39.559754000000,0 116.798104000000,39.566716000000,0 116.796883000000,39.567885000000,0 116.807227000000,39.571476000000,0 116.808463000000,39.576489000000,0 116.811640000000,39.576963000000,0 116.800277000000,39.586091000000,0 116.797901000000,39.594371000000,0 116.804485000000,39.597893000000,0 116.808300000000,39.597402000000,0 116.803671000000,39.601381000000,0 116.805232000000,39.603378000000,0 116.799869000000,39.604005000000,0 116.809820000000,39.608677000000,0 116.807255000000,39.604580000000,0 116.808164000000,39.600450000000,0 116.813948000000,39.600145000000,0 116.812060000000,39.604530000000,0 116.815740000000,39.606561000000,0 116.812386000000,39.615922000000,0 116.819527000000,39.619002000000,0 116.823980000000,39.617175000000,0 116.825039000000,39.613874000000,0 116.835398000000,39.617005000000,0 116.834121000000,39.621491000000,0 116.838439000000,39.622218000000,0 116.826370000000,39.633134000000,0 116.828922000000,39.635148000000,0 116.826899000000,39.638210000000,0 116.834556000000,39.641848000000,0 116.833565000000,39.644116000000,0 116.840760000000,39.644251000000,0 116.839145000000,39.647533000000,0 116.851404000000,39.652845000000,0 116.849951000000,39.667545000000,0 116.860486000000,39.667258000000,0 116.863826000000,39.670336000000,0 116.873166000000,39.671384000000,0 116.883226000000,39.675359000000,0 116.891154000000,39.674073000000,0 116.906658000000,39.677422000000,0 116.905205000000,39.681650000000,0 116.909020000000,39.682867000000,0 116.905952000000,39.687923000000,0 116.912590000000,39.689225000000,0 116.911287000000,39.695379000000,0 116.916867000000,39.699352000000,0 116.916921000000,39.706385000000,0 116.932425000000,39.706672000000,0 116.934828000000,39.703545000000,0 116.937679000000,39.706402000000,0 116.950848000000,39.706825000000,0 116.952667000000,39.699657000000,0 116.948377000000,39.702818000000,0 116.944575000000,39.695143000000,0 116.944141000000,39.686807000000,0 116.951458000000,39.678149000000,0 116.945471000000,39.676610000000,0 116.945689000000,39.670792000000,0 116.957513000000,39.666243000000,0 116.955341000000,39.658665000000,0 116.957744000000,39.651069000000,0 116.964369000000,39.643591000000,0 116.971388000000,39.648887000000,0 116.975352000000,39.644843000000,0 116.974565000000,39.636789000000,0 116.977036000000,39.636366000000,0 116.989919000000,39.641493000000,0 117.004405000000,39.644505000000,0 117.007880000000,39.648582000000,0 117.015768000000,39.654063000000,0 117.033131000000,39.650680000000,0 117.040870000000,39.647956000000,0 117.057066000000,39.644572000000,0 117.078597000000,39.637906000000,0 117.088277000000,39.633489000000,0 117.100930000000,39.629648000000,0 117.103278000000,39.625163000000,0 117.112374000000,39.624402000000,0 117.112659000000,39.621372000000,0 117.127064000000,39.616971000000,0 117.125109000000,39.621914000000,0 117.136078000000,39.618072000000,0 117.140083000000,39.620949000000,0 117.147875000000,39.622608000000,0 117.154161000000,39.626043000000,0 117.150278000000,39.628633000000,0 117.154989000000,39.631374000000,0 117.157949000000,39.636603000000,0 117.172828000000,39.636755000000,0 117.173005000000,39.641205000000,0 117.177892000000,39.642965000000,0 117.177675000000,39.645621000000,0 117.169068000000,39.648159000000,0 117.169258000000,39.651797000000,0 117.164017000000,39.651746000000,0 117.163461000000,39.658800000000,0 117.158899000000,39.661236000000,0 117.159605000000,39.666852000000,0 117.164655000000,39.666699000000,0 117.166135000000,39.672974000000,0 117.170113000000,39.673363000000,0 117.167710000000,39.686875000000,0 117.170357000000,39.689259000000,0 117.168294000000,39.708160000000,0 117.170697000000,39.708295000000,0 117.169149000000,39.713535000000,0 117.164289000000,39.711828000000,0 117.163569000000,39.715817000000,0 117.169203000000,39.717592000000,0 117.166312000000,39.722189000000,0 117.160705000000,39.720803000000,0 117.158858000000,39.723389000000,0 117.153184000000,39.722729000000,0 117.155288000000,39.729236000000,0 117.153740000000,39.736316000000,0 117.160501000000,39.736468000000,0 117.160365000000,39.739019000000,0 117.166122000000,39.738022000000,0 117.161872000000,39.748126000000,0 117.173072000000,39.751876000000,0 117.184734000000,39.751910000000,0 117.186934000000,39.755795000000,0 117.192825000000,39.754984000000,0 117.194957000000,39.759832000000,0 117.201745000000,39.759900000000,0 117.205899000000,39.763852000000,0 117.192242000000,39.775793000000,0 117.180621000000,39.782463000000,0 117.178734000000,39.795345000000,0 117.167764000000,39.799667000000,0 117.157501000000,39.796730000000,0 117.157148000000,39.806757000000,0 117.161669000000,39.807027000000,0 117.156333000000,39.817491000000,0 117.159089000000,39.821862000000,0 117.162524000000,39.817829000000,0 117.167194000000,39.819213000000,0 117.167153000000,39.823736000000,0 117.190531000000,39.826368000000,0 117.195079000000,39.825491000000,0 117.192160000000,39.833084000000,0 117.199858000000,39.834586000000,0 117.200672000000,39.832595000000,0 117.207352000000,39.834991000000,0 117.208438000000,39.831397000000,0 117.212470000000,39.832308000000,0 117.220113000000,39.830637000000,0 117.220670000000,39.827195000000,0 117.226236000000,39.830958000000,0 117.237382000000,39.833911000000,0 117.257230000000,39.829794000000,0 117.252234000000,39.834603000000,0 117.255560000000,39.842667000000,0 117.259959000000,39.843393000000,0 117.247455000000,39.861054000000,0 117.239798000000,39.860447000000,0 117.236893000000,39.855792000000,0 117.230852000000,39.856905000000,0 117.227797000000,39.852772000000,0 117.220045000000,39.856551000000,0 117.213189000000,39.856264000000,0 117.211615000000,39.859519000000,0 117.199125000000,39.862302000000,0 117.192377000000,39.862117000000,0 117.185739000000,39.866434000000,0 117.180105000000,39.865270000000,0 117.181042000000,39.869217000000,0 117.177851000000,39.870886000000,0 117.175584000000,39.866839000000,0 117.168429000000,39.866687000000,0 117.166841000000,39.868947000000,0 117.173833000000,39.873062000000,0 117.170520000000,39.877513000000,0 117.168158000000,39.873028000000,0 117.164642000000,39.872809000000,0 117.162850000000,39.876586000000,0 117.157759000000,39.878744000000,0 117.153672000000,39.875625000000,0 117.152152000000,39.877463000000,0 117.158410000000,39.889316000000,0 117.149124000000,39.896279000000,0 117.150564000000,39.902061000000,0 117.157582000000,39.904589000000,0 117.158831000000,39.909207000000,0 117.144767000000,39.911567000000,0 117.142513000000,39.918797000000,0 117.136716000000,39.919639000000,0 117.137422000000,39.921645000000,0 117.149871000000,39.924240000000,0 117.146396000000,39.933136000000,0 117.150726000000,39.936034000000,0 117.155044000000,39.934147000000,0 117.156863000000,39.938039000000,0 117.146952000000,39.947271000000,0 117.151039000000,39.944862000000,0 117.158641000000,39.950774000000,0 117.164520000000,39.952071000000,0 117.166407000000,39.955373000000,0 117.164873000000,39.963137000000,0 117.172407000000,39.963070000000,0 117.175937000000,39.959112000000,0 117.179670000000,39.965596000000,0 117.178625000000,39.977282000000,0 117.188115000000,39.978797000000,0 117.191142000000,39.981828000000,0 117.190898000000,39.986475000000,0 117.198120000000,39.992737000000,0 117.195744000000,40.003948000000,0 117.197672000000,40.010596000000,0 117.193219000000,40.016772000000,0 117.194088000000,40.021568000000,0 117.187802000000,40.025858000000,0 117.188318000000,40.032555000000,0 117.186811000000,40.041875000000,0 117.188712000000,40.047779000000,0 117.183404000000,40.053026000000,0 117.181775000000,40.059014000000,0 117.184069000000,40.062579000000,0 117.192025000000,40.061486000000,0 117.192364000000,40.066279000000,0 117.202532000000,40.064967000000,0 117.209307000000,40.065791000000,0 117.217873000000,40.064395000000,0 117.222910000000,40.066648000000,0 117.219733000000,40.071121000000,0 117.215117000000,40.073677000000,0 117.213027000000,40.079410000000,0 117.209782000000,40.082235000000,0 117.215117000000,40.085093000000,0 117.211031000000,40.090775000000,0 117.211262000000,40.096607000000,0 117.224430000000,40.094624000000,0 117.224390000000,40.098557000000,0 117.228612000000,40.100255000000,0 117.229019000000,40.103465000000,0 117.235997000000,40.108389000000,0 117.238224000000,40.111750000000,0 117.245364000000,40.113229000000,0 117.249261000000,40.116489000000,0 117.255533000000,40.113279000000,0 117.260393000000,40.114153000000,0 117.266828000000,40.112170000000,0 117.269923000000,40.107196000000,0 117.274363000000,40.105801000000,0 117.276657000000,40.109313000000,0 117.275422000000,40.113464000000,0 117.285414000000,40.121328000000,0 117.297102000000,40.118858000000,0 117.297062000000,40.121261000000,0 117.302994000000,40.125931000000,0 117.307610000000,40.136969000000,0 117.313760000000,40.139959000000,0 117.318566000000,40.138514000000,0 117.323277000000,40.140715000000,0 117.330934000000,40.135759000000,0 117.330608000000,40.133693000000,0 117.349071000000,40.136515000000,0 117.351393000000,40.139925000000,0 117.356348000000,40.140916000000,0 117.356891000000,40.145048000000,0 117.350524000000,40.144813000000,0 117.355275000000,40.148592000000,0 117.351719000000,40.150557000000,0 117.360624000000,40.156973000000,0 117.357339000000,40.164260000000,0 117.351121000000,40.171665000000,0 117.353741000000,40.173680000000,0 117.362878000000,40.172152000000,0 117.364018000000,40.176685000000,0 117.368838000000,40.172991000000,0 117.372028000000,40.176534000000,0 117.377024000000,40.176316000000,0 117.381219000000,40.172454000000,0 117.380595000000,40.176903000000,0 117.393193000000,40.174905000000,0 117.391618000000,40.177608000000,0 117.401230000000,40.183618000000,0 117.404746000000,40.183232000000,0 117.407692000000,40.187496000000,0 117.397714000000,40.192917000000,0 117.388346000000,40.188251000000,0 117.384097000000,40.187832000000,0 117.384382000000,40.195267000000,0 117.381545000000,40.194797000000,0 117.379563000000,40.198926000000,0 117.382346000000,40.204565000000,0 117.383446000000,40.202350000000,0 117.393152000000,40.203390000000,0 117.385686000000,40.207888000000,0 117.378436000000,40.210304000000,0 117.377594000000,40.218610000000,0 117.393723000000,40.221663000000,0 117.390016000000,40.227971000000,0 117.397551000000,40.235168000000,0 117.403009000000,40.233423000000,0 117.405357000000,40.230185000000,0 117.411561000000,40.235604000000,0 117.415363000000,40.236862000000,0 117.412647000000,40.243520000000,0 117.416150000000,40.248921000000,0 117.426739000000,40.248082000000,0 117.429970000000,40.246539000000,0 117.434179000000,40.248116000000,0 117.438849000000,40.252996000000,0 117.450280000000,40.252476000000,0 117.458589000000,40.248183000000,0 117.461439000000,40.248351000000,0 117.472843000000,40.243185000000,0 117.474106000000,40.241105000000,0 117.481097000000,40.241726000000,0 117.484071000000,40.235302000000,0 117.488985000000,40.232534000000,0 117.499194000000,40.230957000000,0 117.505005000000,40.227216000000,0 117.514318000000,40.227719000000,0 117.524011000000,40.229632000000,0 117.527134000000,40.228978000000,0 117.546629000000,40.232920000000,0 117.550905000000,40.228038000000,0 117.554476000000,40.229682000000,0 117.564264000000,40.229045000000,0 117.569491000000,40.225455000000,0 117.571649000000,40.219247000000,0 117.569178000000,40.213895000000,0 117.564467000000,40.211009000000,0 117.563992000000,40.205236000000,0 117.569260000000,40.204162000000,0 117.572830000000,40.200319000000,0 117.572246000000,40.194915000000,0 117.575545000000,40.191894000000,0 117.573170000000,40.190031000000,0 117.576401000000,40.178599000000,0 117.579673000000,40.177961000000,0 117.584112000000,40.171766000000,0 117.588633000000,40.168307000000,0 117.601190000000,40.171212000000,0 117.609974000000,40.160079000000,0 117.613137000000,40.157779000000,0 117.618595000000,40.157611000000,0 117.618459000000,40.151330000000,0 117.621527000000,40.146560000000,0 117.630501000000,40.147836000000,0 117.632334000000,40.140782000000,0 117.636950000000,40.136851000000,0 117.636013000000,40.132097000000,0 117.650159000000,40.128183000000,0 117.648516000000,40.126402000000,0 117.653146000000,40.110758000000,0 117.657558000000,40.109162000000,0 117.650254000000,40.105246000000,0 117.648313000000,40.098607000000,0 117.644878000000,40.096204000000,0 117.649589000000,40.091279000000,0 117.657802000000,40.092741000000,0 117.660802000000,40.097431000000,0 117.663694000000,40.096439000000,0 117.668106000000,40.100927000000,0 117.674541000000,40.092153000000,0 117.674908000000,40.082134000000,0 117.679320000000,40.085664000000,0 117.688253000000,40.082857000000,0 117.690928000000,40.094187000000,0 117.696467000000,40.094926000000,0 117.703947000000,40.092237000000,0 117.707884000000,40.094002000000,0 117.711753000000,40.085849000000,0 117.722003000000,40.079898000000,0 117.730529000000,40.080554000000,0 117.733868000000,40.077393000000,0 117.744566000000,40.078620000000,0 117.751639000000,40.081999000000,0 117.755576000000,40.079545000000,0 117.758454000000,40.073290000000,0 117.753391000000,40.073324000000,0 117.754300000000,40.068666000000,0 117.758196000000,40.065959000000,0 117.767808000000,40.066077000000,0 117.769247000000,40.061688000000,0 117.776144000000,40.058930000000,0 117.772967000000,40.051782000000,0 117.767116000000,40.047997000000,0 117.758291000000,40.044347000000,0 117.747906000000,40.047459000000,0 117.746915000000,40.034439000000,0 117.743738000000,40.031276000000,0 117.744783000000,40.027928000000,0 117.744145000000,40.018438000000,0 117.755834000000,40.010394000000,0 117.758454000000,40.012985000000,0 117.757884000000,40.018135000000,0 117.760654000000,40.020659000000,0 117.767360000000,40.018943000000,0 117.770347000000,40.023553000000,0 117.782443000000,40.023520000000,0 117.784154000000,40.015308000000,0 117.785919000000,40.017916000000,0 117.791946000000,40.015577000000,0 117.791756000000,40.012464000000,0 117.797064000000,40.010141000000,0 117.792951000000,40.005631000000,0 117.796467000000,39.996676000000,0 117.791512000000,39.993747000000,0 117.786665000000,39.981272000000,0 117.787222000000,39.973477000000,0 117.781900000000,39.966354000000,0 117.772153000000,39.970193000000,0 117.769071000000,39.969233000000,0 117.763545000000,39.972719000000,0 117.756445000000,39.965175000000,0 117.752114000000,39.966084000000,0 117.741620000000,39.973342000000,0 117.733923000000,39.971119000000,0 117.727718000000,39.972433000000,0 117.723958000000,39.979959000000,0 117.719437000000,39.979892000000,0 117.711264000000,39.984842000000,0 117.706689000000,39.986020000000,0 117.695693000000,39.985751000000,0 117.688986000000,39.984017000000,0 117.685660000000,39.979488000000,0 117.682090000000,39.979858000000,0 117.674731000000,39.974807000000,0 117.663219000000,39.974756000000,0 117.657504000000,39.972163000000,0 117.638049000000,39.972231000000,0 117.631886000000,39.968711000000,0 117.620007000000,39.970665000000,0 117.611427000000,39.975278000000,0 117.615622000000,39.978781000000,0 117.615337000000,39.982535000000,0 117.610924000000,39.982619000000,0 117.603037000000,39.987754000000,0 117.599643000000,39.993747000000,0 117.592529000000,39.994673000000,0 117.589244000000,39.996861000000,0 117.584641000000,39.994135000000,0 117.578912000000,39.993848000000,0 117.575790000000,39.996424000000,0 117.570604000000,39.995111000000,0 117.566653000000,39.990987000000,0 117.562132000000,39.992872000000,0 117.563028000000,39.995666000000,0 117.547063000000,39.998932000000,0 117.544307000000,39.994454000000,0 117.537492000000,39.997383000000,0 117.537709000000,39.989977000000,0 117.546289000000,39.981424000000,0 117.547335000000,39.976844000000,0 117.538945000000,39.970766000000,0 117.536284000000,39.961537000000,0 117.534424000000,39.961588000000,0 117.532917000000,39.952493000000,0 117.527283000000,39.952358000000,0 117.524323000000,39.946647000000,0 117.519612000000,39.948433000000,0 117.514956000000,39.946681000000,0 117.511141000000,39.941071000000,0 117.512472000000,39.933675000000,0 117.525504000000,39.929615000000,0 117.522056000000,39.924796000000,0 117.521961000000,39.920634000000,0 117.514386000000,39.921442000000,0 117.503484000000,39.918999000000,0 117.504665000000,39.915696000000,0 117.513625000000,39.916673000000,0 117.512743000000,39.910522000000,0 117.514359000000,39.906831000000,0 117.507435000000,39.909055000000,0 117.503932000000,39.904875000000,0 117.507190000000,39.904168000000,0 117.510082000000,39.893817000000,0 117.516829000000,39.895166000000,0 117.518811000000,39.891289000000,0 117.521038000000,39.871375000000,0 117.529808000000,39.860987000000,0 117.534139000000,39.851962000000,0 117.537180000000,39.852840000000,0 117.544728000000,39.844591000000,0 117.545746000000,39.848032000000,0 117.548556000000,39.845535000000,0 117.548108000000,39.839917000000,0 117.543099000000,39.838163000000,0 117.544334000000,39.833017000000,0 117.537275000000,39.835159000000,0 117.540859000000,39.821930000000,0 117.548842000000,39.824073000000,0 117.558426000000,39.811517000000,0 117.561440000000,39.800038000000,0 117.568242000000,39.799245000000,0 117.560395000000,39.795008000000,0 117.554652000000,39.795379000000,0 117.554869000000,39.788727000000,0 117.553118000000,39.784506000000,0 117.548624000000,39.781027000000,0 117.546140000000,39.776147000000,0 117.554842000000,39.771419000000,0 117.550376000000,39.762957000000,0 117.546126000000,39.763667000000,0 117.539162000000,39.760440000000,0 117.543316000000,39.760626000000,0 117.548774000000,39.756809000000,0 117.555453000000,39.762552000000,0 117.559824000000,39.755542000000,0 117.567590000000,39.756792000000,0 117.573536000000,39.754917000000,0 117.575016000000,39.752113000000,0 117.581424000000,39.748937000000,0 117.595896000000,39.746132000000,0 117.591524000000,39.743024000000,0 117.597430000000,39.736586000000,0 117.593411000000,39.735201000000,0 117.589936000000,39.737938000000,0 117.587845000000,39.730841000000,0 117.584003000000,39.731669000000,0 117.583447000000,39.727326000000,0 117.577623000000,39.726938000000,0 117.578166000000,39.723270000000,0 117.585171000000,39.722087000000,0 117.580053000000,39.719451000000,0 117.588443000000,39.719485000000,0 117.592339000000,39.716747000000,0 117.593520000000,39.710746000000,0 117.602439000000,39.705371000000,0 117.614902000000,39.705979000000,0 117.620957000000,39.702953000000,0 117.627134000000,39.703646000000,0 117.634479000000,39.700959000000,0 117.636909000000,39.696783000000,0 117.642597000000,39.701330000000,0 117.646969000000,39.699640000000,0 117.648978000000,39.694838000000,0 117.643968000000,39.688684000000,0 117.649915000000,39.685404000000,0 117.650797000000,39.681920000000,0 117.657436000000,39.682816000000,0 117.653214000000,39.678217000000,0 117.660205000000,39.674462000000,0 117.657028000000,39.668644000000,0 117.663857000000,39.665854000000,0 117.668324000000,39.667088000000,0 117.667536000000,39.661574000000,0 117.663586000000,39.657751000000,0 117.667740000000,39.651526000000,0 117.665337000000,39.646180000000,0 117.666477000000,39.642914000000,0 117.661997000000,39.636332000000,0 117.653200000000,39.639158000000,0 117.651503000000,39.634843000000,0 117.652928000000,39.630003000000,0 117.650892000000,39.627939000000,0 117.643805000000,39.629699000000,0 117.641986000000,39.628413000000,0 117.644620000000,39.623691000000,0 117.640113000000,39.619713000000,0 117.641348000000,39.612841000000,0 117.632144000000,39.613738000000,0 117.630324000000,39.606121000000,0 117.624500000000,39.602684000000,0 117.620034000000,39.606476000000,0 117.619056000000,39.603209000000,0 117.621935000000,39.591679000000,0 117.626510000000,39.594287000000,0 117.632198000000,39.602346000000,0 117.636827000000,39.603700000000,0 117.637153000000,39.597690000000,0 117.639380000000,39.593118000000,0 117.651014000000,39.594168000000,0 117.655779000000,39.588174000000,0 117.655711000000,39.585329000000,0 117.650702000000,39.579233000000,0 117.655657000000,39.574914000000,0 117.660816000000,39.575388000000,0 117.671650000000,39.582044000000,0 117.673795000000,39.589021000000,0 117.681642000000,39.589986000000,0 117.685877000000,39.588191000000,0 117.693602000000,39.581045000000,0 117.705861000000,39.576489000000,0 117.708576000000,39.573796000000,0 117.708250000000,39.568732000000,0 117.704069000000,39.565378000000,0 117.697295000000,39.564785000000,0 117.688796000000,39.569223000000,0 117.685674000000,39.564430000000,0 117.689597000000,39.559517000000,0 117.695774000000,39.557315000000,0 117.703689000000,39.557501000000,0 117.708441000000,39.555079000000,0 117.708712000000,39.548217000000,0 117.707192000000,39.543405000000,0 117.708848000000,39.538085000000,0 117.715948000000,39.530086000000,0 117.723496000000,39.535119000000,0 117.732945000000,39.536102000000,0 117.738036000000,39.540423000000,0 117.744878000000,39.548624000000,0 117.736081000000,39.560822000000,0 117.735783000000,39.567631000000,0 117.737737000000,39.574050000000,0 117.748177000000,39.574423000000,0 117.753133000000,39.576015000000,0 117.755155000000,39.581130000000,0 117.747879000000,39.589410000000,0 117.767713000000,39.599010000000,0 117.775424000000,39.599129000000,0 117.789340000000,39.597199000000,0 117.793928000000,39.601059000000,0 117.801952000000,39.601770000000,0 117.817374000000,39.595489000000,0 117.826565000000,39.590816000000,0 117.839354000000,39.589630000000,0 117.847051000000,39.591137000000,0 117.851395000000,39.589258000000,0 117.853500000000,39.592306000000,0 117.857342000000,39.592035000000,0 117.868270000000,39.596843000000,0 117.884100000000,39.590121000000,0 117.892585000000,39.591510000000,0 117.899821000000,39.589512000000,0 117.914849000000,39.582942000000,0 117.930068000000,39.578149000000,0 117.933992000000,39.574152000000,0 117.931127000000,39.568173000000,0 117.924787000000,39.563312000000,0 117.917931000000,39.554621000000,0 117.917117000000,39.548319000000,0 117.913302000000,39.542151000000,0 117.909813000000,39.541965000000,0 117.909813000000,39.537983000000,0 117.905387000000,39.535102000000,0 117.905292000000,39.530120000000,0 117.910410000000,39.528001000000,0 117.909446000000,39.523171000000,0 117.912691000000,39.521425000000,0 117.912284000000,39.516154000000,0 117.909053000000,39.512001000000,0 117.898585000000,39.509695000000,0 117.897038000000,39.489299000000,0 117.892395000000,39.487043000000,0 117.896522000000,39.485721000000,0 117.899726000000,39.476885000000,0 117.898192000000,39.472509000000,0 117.888322000000,39.469167000000,0 117.886313000000,39.466776000000,0 117.878072000000,39.467200000000,0 117.874081000000,39.454918000000,0 117.870334000000,39.454952000000,0 117.871854000000,39.411557000000,0 117.847078000000,39.408077000000,0 117.848137000000,39.401948000000,0 117.859378000000,39.403289000000,0 117.862501000000,39.397160000000,0 117.860491000000,39.384661000000,0 117.865704000000,39.378276000000,0 117.858034000000,39.373486000000,0 117.852400000000,39.380772000000,0 117.849305000000,39.379040000000,0 117.838973000000,39.377290000000,0 117.820999000000,39.376917000000,0 117.805291000000,39.373299000000,0 117.803377000000,39.362037000000,0 117.806771000000,39.356940000000,0 117.816451000000,39.354341000000,0 117.821012000000,39.356107000000,0 117.833204000000,39.356311000000,0 117.837032000000,39.350823000000,0 117.853228000000,39.360729000000,0 117.848096000000,39.367116000000,0 117.852074000000,39.369613000000,0 117.854749000000,39.366555000000,0 117.853242000000,39.362971000000,0 117.860668000000,39.364806000000,0 117.862935000000,39.362274000000,0 117.853337000000,39.351656000000,0 117.849970000000,39.342361000000,0 117.846155000000,39.342854000000,0 117.841933000000,39.336414000000,0 117.847974000000,39.332233000000,0 117.846875000000,39.328494000000,0 117.849644000000,39.327372000000,0 117.855753000000,39.329225000000,0 117.855319000000,39.331995000000,0 117.861347000000,39.334187000000,0 117.867266000000,39.329853000000,0 117.878534000000,39.331808000000,0 117.888553000000,39.331893000000,0 117.893019000000,39.327372000000,0 117.892164000000,39.323072000000,0 117.902618000000,39.320471000000,0 117.905740000000,39.316136000000,0 117.910315000000,39.319519000000,0 117.933421000000,39.319043000000,0 117.939476000000,39.317598000000,0 117.947377000000,39.317785000000,0 117.951654000000,39.315405000000,0 117.966044000000,39.316425000000,0 117.972276000000,39.314351000000,0 117.972520000000,39.309965000000,0 117.977625000000,39.300665000000,0 117.982675000000,39.298676000000,0 117.983761000000,39.295513000000,0 117.992137000000,39.296669000000,0 117.995206000000,39.293540000000,0 117.995708000000,39.288796000000,0 118.006406000000,39.289510000000,0 118.016846000000,39.284119000000,0 118.022222000000,39.286959000000,0 118.024733000000,39.292435000000,0 118.028412000000,39.290411000000,0 118.031698000000,39.285394000000,0 118.028426000000,39.277690000000,0 118.035309000000,39.274679000000,0 118.033408000000,39.271566000000,0 118.036829000000,39.265034000000,0 118.063656000000,39.256834000000,0 118.064782000000,39.255932000000,0 118.065611000000,39.235427000000,0 118.064742000000,39.231206000000,0 118.037074000000,39.230526000000,0 118.034875000000,39.218593000000,0 118.032838000000,39.219887000000,0 117.977421000000,39.205944000000,0 117.973267000000,39.188797000000,0 117.964605000000,39.172684000000,0 117.925697000000,39.151405000000,0 117.871651000000,39.122586000000,0 117.859039000000,39.106509000000,0 117.846440000000,39.088416000000,0 117.840426000000,39.073782000000,0 117.837385000000,39.057012000000,0 117.839055000000,39.032865000000,0 117.847418000000,39.010724000000,0 117.850717000000,38.992914000000,0 117.852536000000,38.963022000000,0 117.855346000000,38.957640000000,0 117.897907000000,38.948618000000,0 117.899088000000,38.941560000000,0 117.892422000000,38.925066000000,0 117.875574000000,38.920365000000,0 117.859514000000,38.888988000000,0 117.861075000000,38.881514000000,0 117.859908000000,38.871695000000,0 117.847377000000,38.855630000000,0 117.834072000000,38.855254000000,0 117.821949000000,38.857238000000,0 117.778479000000,38.869078000000,0 117.768677000000,38.863980000000,0 117.752196000000,38.847502000000,0 117.689217000000,38.837097000000,0 117.657734000000,38.836172000000,0 117.646086000000,38.829103000000,0 117.646439000000,38.788849000000,0 117.654463000000,38.778299000000,0 117.671527000000,38.771995000000,0 117.729076000000,38.764782000000,0 117.736380000000,38.761373000000,0 117.741267000000,38.753936000000,0 117.740751000000,38.700026000000,0 117.738783000000,38.689102000000,0 117.729062000000,38.680062000000,0 117.656716000000,38.660488000000,0 117.649222000000,38.654500000000,0 117.642231000000,38.643260000000,0 117.639027000000,38.626714000000,0 117.582143000000,38.618560000000,0 117.557802000000,38.613804000000,0 117.554530000000,38.617015000000,0 117.546887000000,38.617856000000,0 117.542271000000,38.611796000000,0 117.538565000000,38.609735000000,0 117.541443000000,38.603571000000,0 117.529143000000,38.600772000000,0 117.524201000000,38.601253000000,0 117.526903000000,38.606610000000,0 117.523224000000,38.606353000000,0 117.523821000000,38.611624000000,0 117.516436000000,38.610353000000,0 117.511603000000,38.613942000000,0 117.505358000000,38.613993000000,0 117.502914000000,38.617908000000,0 117.495393000000,38.615521000000,0 117.478925000000,38.617238000000,0 117.481505000000,38.611538000000,0 117.476061000000,38.608894000000,0 117.471513000000,38.611246000000,0 117.432428000000,38.601321000000,0 117.415553000000,38.590623000000,0 117.410041000000,38.593937000000,0 117.401203000000,38.588012000000,0 117.409213000000,38.585144000000,0 117.396302000000,38.574563000000,0 117.369041000000,38.564753000000,0 117.368865000000,38.582464000000,0 117.354746000000,38.580747000000,0 117.358045000000,38.570543000000,0 117.350782000000,38.565819000000,0 117.350483000000,38.561523000000,0 117.346424000000,38.564925000000,0 117.324920000000,38.564616000000,0 117.315403000000,38.557692000000,0 117.308289000000,38.555578000000,0 117.305628000000,38.556609000000,0 117.304080000000,38.564616000000,0 117.299926000000,38.571471000000,0 117.291591000000,38.571677000000,0 117.292215000000,38.562417000000,0 117.278938000000,38.560080000000,0 117.265389000000,38.556730000000,0 117.263543000000,38.562279000000,0 117.253184000000,38.556180000000,0 117.246491000000,38.566867000000,0 117.245079000000,38.566935000000,0 117.239432000000,38.578720000000,0 117.242310000000,38.578737000000,0 117.262348000000,38.583735000000,0 117.261303000000,38.586724000000,0 117.238359000000,38.581039000000,0 117.237816000000,38.585264000000,0 117.245351000000,38.595311000000,0 117.256673000000,38.598351000000,0 117.255126000000,38.602455000000,0 117.259538000000,38.603056000000,0 117.258940000000,38.608327000000,0 117.255967000000,38.613804000000,0 117.246532000000,38.618663000000,0 117.237246000000,38.619212000000,0 117.235115000000,38.623950000000,0 117.230689000000,38.624002000000,0 117.236608000000,38.631211000000,0 117.225055000000,38.630782000000,0 117.229671000000,38.635657000000,0 117.230336000000,38.641698000000,0 117.225109000000,38.643861000000,0 117.216909000000,38.642917000000,0 117.212972000000,38.639690000000,0 117.210284000000,38.630044000000,0 117.203225000000,38.629684000000,0 117.203795000000,38.626439000000,0 117.200238000000,38.621890000000,0 117.189309000000,38.621358000000,0 117.186092000000,38.616534000000,0 117.183852000000,38.618182000000,0 117.176602000000,38.618234000000,0 117.167113000000,38.615126000000,0 117.165334000000,38.617238000000,0 117.151120000000,38.617719000000,0 117.150835000000,38.609323000000,0</coordinates></LinearRing></outerBoundaryIs><innerBoundaryIs><LinearRing><coordinates>117.673197000000,39.386665000000,0 117.670808000000,39.405275000000,0 117.669097000000,39.412015000000,0 117.663748000000,39.412389000000,0 117.655006000000,39.409740000000,0 117.656295000000,39.407499000000,0 117.643480000000,39.405853000000,0 117.641850000000,39.400165000000,0 117.635823000000,39.398501000000,0 117.635103000000,39.404477000000,0 117.631668000000,39.404308000000,0 117.630976000000,39.408535000000,0 117.614128000000,39.407109000000,0 117.614305000000,39.411065000000,0 117.611305000000,39.413017000000,0 117.611087000000,39.417108000000,0 117.601380000000,39.419484000000,0 117.601788000000,39.416412000000,0 117.597145000000,39.415037000000,0 117.590642000000,39.405462000000,0 117.575518000000,39.404206000000,0 117.571133000000,39.404613000000,0 117.571486000000,39.400318000000,0 117.568690000000,39.397244000000,0 117.560327000000,39.396497000000,0 117.560924000000,39.393033000000,0 117.553688000000,39.392575000000,0 117.557883000000,39.385595000000,0 117.552874000000,39.382572000000,0 117.543981000000,39.381248000000,0 117.545135000000,39.377953000000,0 117.538931000000,39.377324000000,0 117.535333000000,39.374012000000,0 117.537261000000,39.363684000000,0 117.534166000000,39.362410000000,0 117.529428000000,39.366657000000,0 117.526183000000,39.365604000000,0 117.528545000000,39.361340000000,0 117.520875000000,39.357229000000,0 117.529279000000,39.347408000000,0 117.533636000000,39.348954000000,0 117.536229000000,39.338045000000,0 117.569749000000,39.342616000000,0 117.595285000000,39.349124000000,0 117.597511000000,39.345080000000,0 117.606947000000,39.346966000000,0 117.609227000000,39.343160000000,0 117.616667000000,39.344418000000,0 117.617332000000,39.338079000000,0 117.635307000000,39.343789000000,0 117.642108000000,39.344367000000,0 117.642163000000,39.339269000000,0 117.637547000000,39.335972000000,0 117.642556000000,39.331655000000,0 117.646466000000,39.322732000000,0 117.650811000000,39.322120000000,0 117.650811000000,39.315201000000,0 117.663830000000,39.316867000000,0 117.669315000000,39.324142000000,0 117.670944000000,39.357840000000,0 117.687547000000,39.359217000000,0 117.692204000000,39.357959000000,0 117.706201000000,39.351520000000,0 117.744607000000,39.354595000000,0 117.784575000000,39.377002000000,0 117.782362000000,39.394630000000,0 117.765555000000,39.400657000000,0 117.737289000000,39.410555000000,0 117.699738000000,39.407601000000,0 117.702331000000,39.388924000000,0 117.673197000000,39.386665000000,0</coordinates></LinearRing></innerBoundaryIs></Polygon>
    </Placemark>
  </Document>
</kml>
