<?xml version="1.0" encoding="UTF-8"?>
<kml xmlns="http://www.opengis.net/kml/2.2">
  <Document>
    <name><![CDATA[梧州市]]></name>
    <Placemark>
      <name><![CDATA[梧州市]]></name>
      <description><![CDATA[省级目录：广西壮族自治区]]></description>
      <ExtendedData>
        <Data name="adcode"><value>450400</value></Data>
      </ExtendedData>
      <MultiGeometry>
      <Polygon>
        <outerBoundaryIs><LinearRing><coordinates>110.391899,24.04216,0 110.397608,24.033019,0 110.398217,24.0172,0 110.389311,23.997436,0 110.395933,23.978765,0 110.396618,23.96502,0 110.388245,23.946454,0 110.380177,23.939826,0 110.359396,23.931883,0 110.352546,23.912874,0 110.357189,23.891286,0 110.374239,23.882464,0 110.37325,23.877477,0 110.398902,23.878573,0 110.411613,23.863173,0 110.43384,23.865804,0 110.443811,23.864159,0 110.45972,23.848264,0 110.475705,23.853636,0 110.493059,23.841358,0 110.484991,23.828585,0 110.499606,23.804844,0 110.511023,23.799964,0 110.533174,23.803254,0 110.543754,23.813453,0 110.550072,23.826063,0 110.558064,23.826227,0 110.569939,23.809834,0 110.572527,23.795852,0 110.582194,23.783403,0 110.569101,23.759874,0 110.5554,23.74841,0 110.548245,23.717358,0 110.551975,23.702816,0 110.571537,23.706713,0 110.57207,23.698207,0 110.565676,23.681249,0 110.571004,23.677791,0 110.558901,23.667966,0 110.544287,23.666868,0 110.542232,23.657482,0 110.548093,23.646173,0 110.56423,23.641726,0 110.576713,23.634314,0 110.576637,23.629043,0 110.588055,23.620642,0 110.586761,23.599995,0 110.579529,23.588846,0 110.59521,23.589889,0 110.605257,23.577092,0 110.601832,23.561381,0 110.61363,23.558195,0 110.617893,23.551932,0 110.614391,23.540889,0 110.61972,23.515173,0 110.619644,23.50028,0 110.630757,23.483241,0 110.63167,23.469059,0 110.622156,23.460373,0 110.606399,23.453776,0 110.593916,23.452456,0 110.584629,23.438985,0 110.587522,23.427713,0 110.573364,23.390479,0 110.581965,23.374637,0 110.564382,23.36754,0 110.567731,23.359562,0 110.581889,23.363139,0 110.588892,23.353125,0 110.58227,23.344652,0 110.591708,23.333536,0 110.59049,23.323135,0 110.60305,23.323851,0 110.615305,23.329024,0 110.62893,23.319998,0 110.650624,23.315045,0 110.656561,23.30767,0 110.659225,23.294129,0 110.652222,23.256528,0 110.631214,23.24144,0 110.624135,23.225635,0 110.602898,23.214289,0 110.587217,23.217373,0 110.572831,23.225029,0 110.550148,23.208175,0 110.54383,23.191264,0 110.553878,23.162946,0 110.548245,23.145092,0 110.547408,23.1263,0 110.559206,23.108772,0 110.578616,23.109323,0 110.59148,23.098464,0 110.602898,23.103645,0 110.612032,23.12178,0 110.624439,23.121945,0 110.659758,23.116268,0 110.66775,23.11004,0 110.665086,23.101385,0 110.667979,23.089147,0 110.682213,23.088541,0 110.678407,23.073985,0 110.686932,23.063509,0 110.710605,23.059318,0 110.711442,23.042278,0 110.724839,23.041175,0 110.739986,23.057113,0 110.750338,23.045642,0 110.745314,23.03748,0 110.758254,23.021044,0 110.751099,23.009681,0 110.756808,23.002455,0 110.749958,22.989987,0 110.754144,22.969903,0 110.76678,22.963005,0 110.765029,22.953183,0 110.74539,22.951969,0 110.726057,22.923269,0 110.733288,22.911787,0 110.7256,22.906046,0 110.729939,22.900525,0 110.728416,22.887164,0 110.752241,22.852155,0 110.768835,22.846301,0 110.786799,22.860881,0 110.799663,22.855745,0 110.80187,22.846301,0 110.795704,22.82592,0 110.773021,22.772882,0 110.771956,22.76509,0 110.790376,22.741767,0 110.786037,22.728446,0 110.791442,22.721757,0 110.816409,22.714903,0 110.830719,22.706555,0 110.843354,22.709651,0 110.853935,22.703569,0 110.888036,22.641689,0 110.882327,22.630516,0 110.883316,22.622163,0 110.895876,22.613532,0 110.941318,22.608111,0 110.957683,22.616741,0 110.961718,22.625758,0 110.958977,22.636545,0 110.977322,22.641523,0 110.987369,22.640196,0 110.997113,22.631401,0 111.010738,22.645837,0 111.024439,22.651368,0 111.034563,22.645008,0 111.039815,22.64899,0 111.055571,22.648492,0 111.062041,22.66619,0 111.073992,22.667241,0 111.089139,22.689028,0 111.083202,22.708711,0 111.063944,22.719878,0 111.060519,22.731542,0 111.085409,22.729717,0 111.095152,22.733476,0 111.099187,22.741767,0 111.116694,22.745415,0 111.129253,22.738838,0 111.174696,22.740109,0 111.176218,22.73624,0 111.202098,22.740496,0 111.20461,22.750113,0 111.218464,22.748068,0 111.232165,22.759011,0 111.239015,22.768792,0 111.241147,22.781281,0 111.255152,22.787082,0 111.256827,22.793823,0 111.272127,22.790674,0 111.272812,22.798851,0 111.291613,22.807801,0 111.287579,22.816087,0 111.306608,22.839618,0 111.30364,22.843981,0 111.319624,22.851216,0 111.325866,22.866403,0 111.339643,22.868557,0 111.343678,22.876784,0 111.358749,22.889207,0 111.361946,22.909965,0 111.370319,22.91543,0 111.375495,22.926525,0 111.374429,22.938447,0 111.364762,22.947554,0 111.369329,22.95103,0 111.363925,22.968799,0 111.375343,22.967861,0 111.377322,22.973269,0 111.397188,22.981269,0 111.403735,22.991255,0 111.389577,23.005599,0 111.39696,23.013377,0 111.414011,23.016135,0 111.416066,23.025677,0 111.433953,23.036212,0 111.427179,23.060642,0 111.434562,23.071559,0 111.40206,23.066211,0 111.394677,23.068141,0 111.379529,23.081318,0 111.374277,23.092565,0 111.375267,23.108166,0 111.379986,23.123158,0 111.376561,23.142006,0 111.366056,23.144707,0 111.398711,23.15986,0 111.392469,23.169558,0 111.384325,23.167629,0 111.384248,23.194129,0 111.388892,23.210213,0 111.377855,23.215776,0 111.379149,23.221504,0 111.365752,23.236924,0 111.371993,23.264291,0 111.361109,23.270568,0 111.351213,23.265998,0 111.349615,23.27277,0 111.356542,23.283395,0 111.353421,23.288955,0 111.376561,23.304642,0 111.37755,23.313889,0 111.3656,23.319778,0 111.361946,23.330289,0 111.368188,23.350594,0 111.378007,23.369575,0 111.38912,23.376012,0 111.392089,23.391139,0 111.383487,23.399665,0 111.39559,23.438326,0 111.39285,23.446683,0 111.400005,23.456854,0 111.399776,23.469389,0 111.42893,23.466585,0 111.430528,23.475491,0 111.445371,23.488298,0 111.45207,23.500995,0 111.459529,23.499785,0 111.464248,23.511491,0 111.480233,23.532593,0 111.478406,23.543911,0 111.481908,23.558854,0 111.489063,23.561381,0 111.488987,23.592306,0 111.482745,23.605706,0 111.487084,23.626627,0 111.508245,23.625749,0 111.538387,23.630855,0 111.551175,23.640463,0 111.564267,23.633216,0 111.584286,23.644691,0 111.588549,23.638103,0 111.59441,23.643483,0 111.607426,23.637389,0 111.615647,23.638981,0 111.61481,23.658744,0 111.625618,23.676474,0 111.637112,23.678285,0 111.63559,23.684542,0 111.643202,23.696122,0 111.665276,23.699963,0 111.662688,23.706438,0 111.666798,23.718949,0 111.62166,23.725972,0 111.618311,23.73475,0 111.629348,23.736396,0 111.628054,23.788613,0 111.639167,23.786529,0 111.641147,23.797003,0 111.649367,23.811095,0 111.64579,23.815317,0 111.653706,23.821951,0 111.654848,23.833299,0 111.651422,23.860926,0 111.659034,23.872654,0 111.658197,23.885532,0 111.6499,23.903012,0 111.652031,23.929144,0 111.649291,23.945194,0 111.638254,23.961351,0 111.623335,23.972084,0 111.606132,23.973399,0 111.591137,23.993549,0 111.576979,24.000667,0 111.564952,23.998805,0 111.56107,23.99344,0 111.54501,23.999188,0 111.548511,24.006251,0 111.538463,24.026725,0 111.535343,24.043419,0 111.539681,24.056991,0 111.58421,24.088673,0 111.585048,24.093926,0 111.573325,24.107657,0 111.578501,24.115917,0 111.573097,24.123958,0 111.575228,24.143373,0 111.552545,24.140147,0 111.540899,24.150155,0 111.529634,24.150975,0 111.525447,24.160162,0 111.512736,24.167379,0 111.500861,24.163114,0 111.493021,24.151959,0 111.490737,24.140365,0 111.501698,24.13774,0 111.501622,24.130412,0 111.487845,24.132052,0 111.480081,24.113565,0 111.486399,24.096552,0 111.46813,24.084296,0 111.448111,24.090698,0 111.424819,24.074885,0 111.403735,24.081178,0 111.39658,24.075378,0 111.404267,24.05535,0 111.403126,24.041722,0 111.394905,24.031104,0 111.390871,24.019171,0 111.397569,24.005923,0 111.40716,23.997436,0 111.412869,23.973782,0 111.412564,23.950397,0 111.403202,23.923666,0 111.365143,23.882518,0 111.366437,23.86553,0 111.358901,23.864707,0 111.348777,23.872325,0 111.323582,23.867009,0 111.304096,23.869256,0 111.28697,23.884053,0 111.272279,23.886902,0 111.24617,23.883012,0 111.233535,23.888437,0 111.232926,23.90219,0 111.227598,23.919338,0 111.207655,23.941633,0 111.194867,23.939662,0 111.161223,23.944153,0 111.151404,23.937854,0 111.139225,23.899231,0 111.132907,23.888546,0 111.105276,23.878025,0 111.101546,23.854403,0 111.092869,23.836863,0 111.081299,23.828311,0 111.059605,23.828639,0 111.051232,23.813453,0 111.037303,23.805448,0 111.017817,23.814878,0 111.01325,23.811314,0 111.015761,23.79141,0 111.025733,23.778084,0 111.014315,23.759161,0 111.005333,23.757241,0 110.988968,23.76887,0 110.979301,23.763001,0 110.978996,23.740785,0 110.976104,23.731787,0 110.982346,23.721967,0 110.965447,23.726301,0 110.957379,23.721089,0 110.955019,23.707645,0 110.960348,23.698701,0 110.957074,23.688274,0 110.968416,23.671314,0 110.968112,23.663026,0 110.953801,23.651773,0 110.952051,23.667582,0 110.943297,23.669668,0 110.930509,23.659952,0 110.922821,23.663959,0 110.922593,23.672522,0 110.914068,23.684871,0 110.900823,23.687176,0 110.89207,23.703914,0 110.89755,23.745118,0 110.89717,23.752469,0 110.884762,23.762836,0 110.884077,23.770625,0 110.895952,23.785926,0 110.888797,23.802925,0 110.889938,23.816688,0 110.880728,23.820197,0 110.858197,23.80797,0 110.850357,23.824583,0 110.840233,23.837027,0 110.843963,23.842289,0 110.866799,23.85402,0 110.872736,23.873202,0 110.856903,23.894409,0 110.835971,23.899396,0 110.818311,23.908272,0 110.792888,23.941031,0 110.779796,23.948699,0 110.752393,23.947604,0 110.734962,23.951164,0 110.725752,23.945194,0 110.71776,23.955545,0 110.726818,23.971482,0 110.732222,23.989552,0 110.731385,24.002035,0 110.741965,24.010959,0 110.749577,24.011945,0 110.74539,24.022017,0 110.728949,24.028367,0 110.690053,24.038657,0 110.67696,24.059016,0 110.684572,24.078223,0 110.6899,24.099561,0 110.686399,24.12084,0 110.701318,24.147694,0 110.709387,24.152123,0 110.720119,24.167707,0 110.712584,24.181157,0 110.689368,24.187773,0 110.673383,24.211934,0 110.652603,24.217345,0 110.626646,24.230845,0 110.617436,24.254015,0 110.605638,24.263467,0 110.603735,24.27576,0 110.613478,24.298539,0 110.607236,24.306404,0 110.610205,24.314542,0 110.619263,24.319075,0 110.601984,24.324536,0 110.58638,24.32055,0 110.573212,24.327158,0 110.570776,24.333001,0 110.576865,24.351511,0 110.567503,24.362649,0 110.555324,24.366088,0 110.552127,24.371602,0 110.555019,24.38645,0 110.551899,24.404952,0 110.538959,24.401514,0 110.527769,24.38252,0 110.516504,24.375751,0 110.513992,24.364942,0 110.507446,24.360247,0 110.50638,24.345778,0 110.483773,24.348181,0 110.469463,24.357517,0 110.467712,24.350365,0 110.476161,24.340919,0 110.484154,24.321533,0 110.482403,24.31274,0 110.455229,24.313614,0 110.445334,24.317765,0 110.44404,24.329451,0 110.428588,24.330107,0 110.424325,24.338844,0 110.410548,24.325356,0 110.398749,24.321806,0 110.37363,24.323608,0 110.352317,24.314215,0 110.339377,24.300724,0 110.316923,24.296409,0 110.326666,24.26609,0 110.33717,24.275869,0 110.351937,24.278601,0 110.369901,24.271936,0 110.374924,24.264341,0 110.365562,24.26232,0 110.365257,24.244124,0 110.358331,24.218985,0 110.365638,24.227292,0 110.375914,24.224505,0 110.383221,24.214011,0 110.392888,24.220406,0 110.405067,24.220078,0 110.413364,24.214339,0 110.419073,24.201111,0 110.43795,24.196738,0 110.456218,24.184,0 110.443887,24.172246,0 110.444344,24.164864,0 110.432698,24.16727,0 110.428968,24.156498,0 110.420291,24.15699,0 110.407731,24.143756,0 110.423107,24.142225,0 110.429805,24.146491,0 110.437569,24.139381,0 110.448378,24.142991,0 110.45462,24.138451,0 110.458426,24.124833,0 110.447922,24.116354,0 110.411918,24.118761,0 110.412451,24.107493,0 110.407883,24.099834,0 110.401185,24.100873,0 110.403925,24.108915,0 110.386799,24.126309,0 110.364725,24.104812,0 110.362822,24.095403,0 110.376066,24.086211,0 110.374315,24.081725,0 110.354905,24.077129,0 110.343412,24.060384,0 110.361908,24.061917,0 110.360386,24.05234,0 110.373783,24.042105,0 110.379644,24.043692,0 110.381242,24.054857,0 110.397836,24.058031,0 110.400043,24.048071,0 110.391899,24.04216,0</coordinates></LinearRing></outerBoundaryIs>
      </Polygon>
    </MultiGeometry>
    </Placemark>
  </Document>
</kml>
