<?xml version="1.0" encoding="UTF-8"?>
<kml xmlns="http://www.opengis.net/kml/2.2">
  <Document>
    <name><![CDATA[玉林市]]></name>
    <Placemark>
      <name><![CDATA[玉林市]]></name>
      <description><![CDATA[省级目录：广西壮族自治区]]></description>
      <ExtendedData>
        <Data name="adcode"><value>450900</value></Data>
      </ExtendedData>
      <MultiGeometry>
      <Polygon>
        <outerBoundaryIs><LinearRing><coordinates>109.662232,22.662374,0 109.659796,22.660107,0 109.662917,22.625316,0 109.677303,22.603961,0 109.707827,22.589354,0 109.720691,22.578121,0 109.717874,22.560744,0 109.726323,22.561408,0 109.742384,22.555652,0 109.752812,22.564563,0 109.762784,22.557146,0 109.762784,22.584042,0 109.777322,22.586975,0 109.793459,22.584595,0 109.82109,22.575686,0 109.840044,22.571978,0 109.844915,22.563345,0 109.857627,22.556039,0 109.855115,22.540874,0 109.864097,22.528917,0 109.863488,22.517236,0 109.870947,22.515797,0 109.868436,22.507215,0 109.857551,22.506329,0 109.857322,22.497692,0 109.849025,22.490549,0 109.838141,22.471112,0 109.818883,22.453666,0 109.810738,22.440816,0 109.813707,22.432119,0 109.828778,22.424474,0 109.84187,22.410236,0 109.846742,22.396661,0 109.857398,22.384969,0 109.858845,22.37117,0 109.850472,22.363189,0 109.844763,22.347559,0 109.84522,22.324387,0 109.8405,22.317291,0 109.815077,22.309584,0 109.805258,22.313243,0 109.786989,22.329099,0 109.76522,22.335807,0 109.756771,22.347115,0 109.747332,22.349388,0 109.74246,22.356981,0 109.748245,22.363466,0 109.739872,22.369119,0 109.733555,22.38048,0 109.727161,22.374218,0 109.728074,22.357203,0 109.710034,22.358312,0 109.696713,22.343679,0 109.687579,22.346062,0 109.683317,22.332093,0 109.674411,22.339854,0 109.662308,22.318178,0 109.679815,22.300158,0 109.674183,22.297164,0 109.648226,22.317623,0 109.641909,22.318178,0 109.626533,22.308531,0 109.608036,22.302764,0 109.593269,22.2899,0 109.578502,22.249247,0 109.578198,22.231607,0 109.586951,22.22151,0 109.589083,22.203367,0 109.569673,22.184112,0 109.558559,22.16552,0 109.550034,22.121278,0 109.550263,22.098791,0 109.555743,22.081076,0 109.576219,22.06547,0 109.579416,22.059083,0 109.575914,22.048529,0 109.579416,22.038641,0 109.590529,22.023753,0 109.594487,22.011363,0 109.601947,21.968462,0 109.593421,21.961904,0 109.574316,21.970574,0 109.576143,21.959569,0 109.58756,21.950342,0 109.597075,21.947896,0 109.6005,21.940447,0 109.595324,21.933943,0 109.594792,21.918766,0 109.607123,21.928439,0 109.607655,21.908869,0 109.619758,21.895968,0 109.641452,21.908201,0 109.663754,21.895357,0 109.681566,21.895801,0 109.697018,21.902363,0 109.70364,21.890519,0 109.705163,21.872556,0 109.695343,21.861154,0 109.707598,21.845801,0 109.707522,21.836178,0 109.692375,21.823159,0 109.694354,21.813311,0 109.704934,21.809417,0 109.708131,21.800291,0 109.696333,21.76306,0 109.69032,21.729382,0 109.696257,21.728269,0 109.696561,21.702267,0 109.689026,21.686174,0 109.696485,21.667684,0 109.706761,21.659441,0 109.715895,21.669912,0 109.735229,21.660276,0 109.744135,21.659664,0 109.748626,21.652757,0 109.758141,21.667127,0 109.766209,21.666904,0 109.777855,21.670525,0 109.786076,21.646518,0 109.784706,21.638162,0 109.79521,21.630474,0 109.807237,21.628914,0 109.809977,21.644345,0 109.820025,21.637828,0 109.844611,21.638329,0 109.853288,21.649972,0 109.864097,21.646852,0 109.874068,21.658104,0 109.882898,21.648746,0 109.89835,21.649637,0 109.915781,21.668798,0 109.909159,21.675815,0 109.914182,21.683501,0 109.905505,21.684893,0 109.905505,21.693748,0 109.9154,21.705608,0 109.9256,21.70739,0 109.922632,21.727489,0 109.9409,21.739125,0 109.933821,21.750035,0 109.938464,21.765787,0 109.93854,21.787158,0 109.935572,21.798677,0 109.940824,21.806802,0 109.936257,21.812811,0 109.946761,21.824328,0 109.945391,21.830336,0 109.953383,21.842241,0 109.945467,21.844244,0 109.981471,21.871332,0 109.986266,21.879118,0 110.004991,21.880175,0 110.006514,21.875114,0 110.021585,21.869552,0 110.038102,21.869997,0 110.054316,21.856815,0 110.082023,21.864491,0 110.09207,21.883734,0 110.09717,21.886292,0 110.101661,21.870164,0 110.107979,21.870943,0 110.107218,21.882566,0 110.114449,21.88746,0 110.119853,21.901696,0 110.133478,21.899861,0 110.139263,21.882288,0 110.150833,21.89708,0 110.161109,21.894244,0 110.18227,21.899638,0 110.186152,21.893688,0 110.196656,21.89975,0 110.212032,21.893077,0 110.210129,21.887015,0 110.232432,21.87884,0 110.258159,21.880453,0 110.27285,21.894912,0 110.283735,21.892242,0 110.290357,21.917987,0 110.312051,21.906589,0 110.323925,21.892799,0 110.337322,21.887849,0 110.348664,21.890908,0 110.36815,21.889017,0 110.39167,21.893688,0 110.390224,21.904365,0 110.397379,21.906422,0 110.385505,21.92994,0 110.373098,21.93461,0 110.39129,21.95012,0 110.376751,21.96774,0 110.353002,21.97641,0 110.359168,21.98808,0 110.356352,22.007362,0 110.36404,22.005862,0 110.349882,22.031308,0 110.353383,22.044196,0 110.358102,22.085353,0 110.350795,22.096959,0 110.365714,22.098735,0 110.364572,22.125275,0 110.360919,22.132104,0 110.350719,22.133214,0 110.334354,22.148535,0 110.32659,22.15231,0 110.326057,22.16441,0 110.33481,22.170349,0 110.334734,22.180283,0 110.342574,22.183834,0 110.348511,22.195821,0 110.358331,22.186276,0 110.358559,22.17945,0 110.38109,22.164188,0 110.393497,22.17046,0 110.391061,22.179284,0 110.399282,22.187386,0 110.410624,22.190216,0 110.409863,22.202646,0 110.418236,22.209082,0 110.430795,22.206197,0 110.453478,22.192158,0 110.460253,22.178562,0 110.490091,22.155141,0 110.483469,22.150201,0 110.489406,22.144594,0 110.503868,22.142984,0 110.523126,22.150756,0 110.530433,22.156639,0 110.529292,22.16441,0 110.560348,22.196431,0 110.585314,22.185111,0 110.602441,22.183335,0 110.598483,22.163411,0 110.606019,22.155918,0 110.620785,22.157861,0 110.629082,22.14909,0 110.653136,22.159359,0 110.658159,22.167574,0 110.665162,22.165076,0 110.67049,22.172791,0 110.678863,22.17268,0 110.675286,22.188496,0 110.664705,22.203367,0 110.652831,22.207695,0 110.646894,22.223008,0 110.65481,22.239928,0 110.664629,22.245364,0 110.686018,22.248582,0 110.694468,22.258233,0 110.695457,22.27232,0 110.710985,22.276258,0 110.720957,22.294114,0 110.725295,22.295611,0 110.73892,22.281914,0 110.758711,22.274705,0 110.784515,22.280805,0 110.789691,22.286684,0 110.785581,22.294613,0 110.772641,22.295556,0 110.77325,22.307422,0 110.760462,22.324775,0 110.749425,22.329765,0 110.75011,22.344787,0 110.74128,22.362025,0 110.729406,22.366348,0 110.723773,22.359864,0 110.711518,22.369618,0 110.712355,22.395442,0 110.706875,22.40536,0 110.71403,22.417106,0 110.713345,22.437492,0 110.706723,22.44641,0 110.693554,22.448293,0 110.692641,22.457765,0 110.683507,22.473383,0 110.688302,22.477757,0 110.69835,22.47449,0 110.705124,22.46646,0 110.725904,22.461198,0 110.741356,22.4643,0 110.74775,22.476096,0 110.73991,22.488722,0 110.740443,22.498855,0 110.75049,22.51707,0 110.760766,22.516793,0 110.754372,22.536833,0 110.756884,22.548401,0 110.748055,22.554766,0 110.761527,22.559582,0 110.764496,22.565946,0 110.760233,22.580777,0 110.778654,22.58537,0 110.793573,22.57137,0 110.799206,22.55687,0 110.805828,22.558917,0 110.807579,22.570705,0 110.815419,22.578066,0 110.833231,22.584927,0 110.853782,22.582271,0 110.861242,22.587749,0 110.877683,22.582658,0 110.887274,22.583544,0 110.897931,22.59201,0 110.895876,22.613532,0 110.883316,22.622163,0 110.882327,22.630516,0 110.888036,22.641689,0 110.853935,22.703569,0 110.843354,22.709651,0 110.830719,22.706555,0 110.816409,22.714903,0 110.791442,22.721757,0 110.786037,22.728446,0 110.790376,22.741767,0 110.771956,22.76509,0 110.773021,22.772882,0 110.795704,22.82592,0 110.80187,22.846301,0 110.799663,22.855745,0 110.786799,22.860881,0 110.768835,22.846301,0 110.752241,22.852155,0 110.728416,22.887164,0 110.729939,22.900525,0 110.7256,22.906046,0 110.733288,22.911787,0 110.726057,22.923269,0 110.74539,22.951969,0 110.765029,22.953183,0 110.76678,22.963005,0 110.754144,22.969903,0 110.749958,22.989987,0 110.756808,23.002455,0 110.751099,23.009681,0 110.758254,23.021044,0 110.745314,23.03748,0 110.750338,23.045642,0 110.739986,23.057113,0 110.724839,23.041175,0 110.711442,23.042278,0 110.710605,23.059318,0 110.686932,23.063509,0 110.678407,23.073985,0 110.682213,23.088541,0 110.667979,23.089147,0 110.665086,23.101385,0 110.66775,23.11004,0 110.659758,23.116268,0 110.624439,23.121945,0 110.612032,23.12178,0 110.602898,23.103645,0 110.59148,23.098464,0 110.578616,23.109323,0 110.559206,23.108772,0 110.547408,23.1263,0 110.521299,23.111583,0 110.518711,23.099456,0 110.501813,23.091352,0 110.498083,23.084681,0 110.498997,23.070677,0 110.492527,23.065935,0 110.466723,23.070732,0 110.439092,23.05419,0 110.420747,23.049392,0 110.410852,23.062296,0 110.396922,23.060973,0 110.381471,23.047131,0 110.363659,23.041947,0 110.349349,23.048014,0 110.340824,23.043933,0 110.33717,23.05044,0 110.328188,23.047848,0 110.318521,23.023526,0 110.324763,23.017459,0 110.310605,23.011115,0 110.307027,23.025126,0 110.292413,23.01288,0 110.287769,22.998979,0 110.29972,22.99749,0 110.300709,22.977407,0 110.286171,22.959529,0 110.260291,22.938944,0 110.259453,22.926581,0 110.263868,22.916203,0 110.26501,22.88733,0 110.269653,22.870986,0 110.263716,22.867342,0 110.243316,22.870324,0 110.232203,22.868833,0 110.231747,22.888324,0 110.21051,22.905383,0 110.164687,22.907426,0 110.138121,22.900194,0 110.120462,22.887164,0 110.109425,22.913388,0 110.099986,22.924428,0 110.084458,22.959584,0 110.073269,22.958425,0 110.06208,22.942366,0 110.055838,22.941428,0 110.041908,22.955611,0 110.025847,22.956052,0 110.015191,22.96284,0 110.016409,22.974814,0 110.007655,22.979062,0 110.008416,22.985131,0 109.986723,22.998041,0 109.979568,23.007475,0 109.96579,23.010564,0 109.952089,23.022699,0 109.933364,23.024133,0 109.916542,23.020106,0 109.898502,23.026063,0 109.887008,23.023526,0 109.884268,23.012605,0 109.851081,22.994455,0 109.836466,22.9784,0 109.819568,22.969406,0 109.803811,22.976303,0 109.806323,22.961736,0 109.821471,22.958591,0 109.83913,22.927795,0 109.843621,22.932431,0 109.842936,22.917473,0 109.861509,22.904003,0 109.854582,22.900636,0 109.844535,22.905825,0 109.832888,22.898979,0 109.845448,22.887882,0 109.84933,22.878054,0 109.852603,22.88744,0 109.865315,22.871759,0 109.845524,22.877115,0 109.841642,22.885784,0 109.818502,22.885398,0 109.815686,22.858506,0 109.806247,22.85696,0 109.806932,22.848179,0 109.800386,22.844534,0 109.78638,22.855579,0 109.775572,22.852431,0 109.766894,22.857567,0 109.763545,22.846301,0 109.755248,22.838127,0 109.766133,22.810452,0 109.762479,22.807193,0 109.767123,22.790176,0 109.762556,22.775976,0 109.770548,22.769676,0 109.781509,22.768295,0 109.790567,22.755584,0 109.78326,22.73928,0 109.759359,22.733808,0 109.754791,22.72922,0 109.745353,22.737235,0 109.731271,22.73226,0 109.725943,22.725959,0 109.720158,22.707494,0 109.728455,22.70086,0 109.720615,22.692843,0 109.713688,22.69417,0 109.691614,22.689138,0 109.673193,22.676089,0 109.662232,22.662374,0</coordinates></LinearRing></outerBoundaryIs>
      </Polygon>
    </MultiGeometry>
    </Placemark>
  </Document>
</kml>
