<?xml version="1.0" encoding="UTF-8"?>
<kml xmlns="http://www.opengis.net/kml/2.2">
  <Document>
    <name><![CDATA[百色市]]></name>
    <Placemark>
      <name><![CDATA[百色市]]></name>
      <description><![CDATA[省级目录：广西壮族自治区]]></description>
      <ExtendedData>
        <Data name="adcode"><value>451000</value></Data>
      </ExtendedData>
      <MultiGeometry>
      <Polygon>
        <outerBoundaryIs><LinearRing><coordinates>106.571158,25.083504,0 106.551291,25.082799,0 106.531881,25.073299,0 106.515973,25.051856,0 106.463527,25.040291,0 106.449978,25.033232,0 106.445259,25.022317,0 106.435744,25.017755,0 106.411615,25.012161,0 106.406058,25.005589,0 106.388703,25.005372,0 106.369902,24.998854,0 106.353689,24.990218,0 106.332528,24.988479,0 106.316391,24.983102,0 106.304974,24.974029,0 106.278561,24.979299,0 106.261434,24.977343,0 106.253746,24.971204,0 106.242176,24.972073,0 106.228171,24.980222,0 106.215383,24.981852,0 106.196886,24.963109,0 106.191634,24.953383,0 106.183261,24.951699,0 106.175345,24.956752,0 106.153042,24.96099,0 106.145354,24.954035,0 106.149921,24.944417,0 106.164308,24.934418,0 106.167657,24.92469,0 106.182348,24.903764,0 106.192167,24.896969,0 106.197495,24.88577,0 106.196506,24.872069,0 106.204041,24.861412,0 106.206097,24.85108,0 106.201073,24.841835,0 106.198485,24.817032,0 106.192471,24.804466,0 106.186154,24.802072,0 106.187828,24.791627,0 106.172833,24.760229,0 106.164079,24.757563,0 106.149921,24.762842,0 106.143223,24.756692,0 106.138884,24.737098,0 106.133556,24.729804,0 106.120159,24.726103,0 106.113613,24.714072,0 106.097248,24.705905,0 106.084156,24.705197,0 106.065811,24.697248,0 106.047086,24.684071,0 106.046173,24.673125,0 106.039246,24.655588,0 106.023185,24.632383,0 106.014355,24.634235,0 105.989084,24.650849,0 105.988247,24.658638,0 105.977743,24.668605,0 105.961834,24.677591,0 105.95308,24.6881,0 105.946458,24.703945,0 105.941967,24.724796,0 105.904898,24.725232,0 105.892262,24.722782,0 105.882062,24.729804,0 105.864099,24.729478,0 105.856106,24.716903,0 105.827562,24.702965,0 105.805488,24.701549,0 105.795212,24.704816,0 105.766287,24.720332,0 105.75898,24.734921,0 105.737743,24.742432,0 105.725107,24.75544,0 105.705697,24.768501,0 105.678295,24.775575,0 105.650359,24.772202,0 105.626078,24.777208,0 105.614356,24.785587,0 105.607657,24.803704,0 105.590607,24.807567,0 105.572871,24.797285,0 105.544327,24.798536,0 105.523395,24.801583,0 105.497515,24.809308,0 105.493252,24.816652,0 105.492795,24.83335,0 105.484498,24.846892,0 105.470949,24.852657,0 105.456639,24.877887,0 105.447277,24.914907,0 105.443166,24.921864,0 105.428171,24.930723,0 105.391863,24.941646,0 105.365602,24.943494,0 105.338961,24.933386,0 105.334013,24.926375,0 105.308818,24.923929,0 105.280046,24.929419,0 105.265507,24.930179,0 105.257591,24.942081,0 105.263985,24.956209,0 105.251501,24.967455,0 105.234831,24.965554,0 105.232167,24.980711,0 105.215269,24.981255,0 105.212681,24.995378,0 105.196011,24.994672,0 105.178504,24.985437,0 105.157267,24.958871,0 105.145469,24.96463,0 105.132529,24.96137,0 105.125222,24.946211,0 105.118067,24.944852,0 105.095916,24.928658,0 105.096221,24.928114,0 105.100255,24.924908,0 105.088304,24.914581,0 105.081987,24.915614,0 105.077952,24.918331,0 105.070417,24.895012,0 105.038828,24.872994,0 105.036925,24.865653,0 105.04172,24.854016,0 105.037762,24.834057,0 105.026801,24.815564,0 105.034108,24.795435,0 105.033347,24.787818,0 105.017058,24.785261,0 104.9825,24.77046,0 104.89938,24.752937,0 104.875707,24.739874,0 104.866268,24.730621,0 104.860483,24.701495,0 104.841911,24.676175,0 104.822957,24.670402,0 104.81055,24.671709,0 104.803167,24.665718,0 104.76427,24.657058,0 104.75133,24.647145,0 104.743338,24.622249,0 104.729484,24.618218,0 104.708933,24.624156,0 104.698961,24.632764,0 104.703604,24.645838,0 104.697972,24.649433,0 104.666078,24.656895,0 104.632967,24.659237,0 104.62878,24.661198,0 104.599779,24.695996,0 104.593994,24.710261,0 104.574356,24.714072,0 104.558523,24.72779,0 104.529446,24.731383,0 104.520236,24.727137,0 104.514223,24.704272,0 104.504784,24.691422,0 104.497781,24.665664,0 104.489789,24.653409,0 104.479132,24.652102,0 104.465583,24.640391,0 104.450893,24.643768,0 104.450893,24.638266,0 104.461854,24.632546,0 104.471749,24.635052,0 104.475327,24.64513,0 104.486059,24.644966,0 104.489104,24.63685,0 104.505545,24.626662,0 104.502729,24.590755,0 104.508666,24.572825,0 104.515517,24.564213,0 104.520921,24.535103,0 104.530131,24.530578,0 104.534775,24.534994,0 104.542615,24.522999,0 104.549922,24.51891,0 104.542539,24.508877,0 104.547258,24.488917,0 104.556468,24.476154,0 104.566592,24.473154,0 104.566516,24.463117,0 104.573595,24.447296,0 104.570246,24.443095,0 104.576411,24.423561,0 104.583642,24.418159,0 104.59095,24.422415,0 104.616297,24.421761,0 104.623376,24.414339,0 104.629846,24.397857,0 104.620103,24.393109,0 104.610969,24.377116,0 104.641644,24.367835,0 104.660826,24.355661,0 104.683737,24.330653,0 104.695155,24.322789,0 104.709009,24.321314,0 104.717229,24.32896,0 104.721111,24.33999,0 104.719208,24.357135,0 104.704365,24.409482,0 104.703757,24.421379,0 104.717306,24.442768,0 104.728647,24.445932,0 104.744936,24.43693,0 104.752853,24.435948,0 104.754375,24.456952,0 104.76526,24.459462,0 104.784974,24.443804,0 104.822881,24.443804,0 104.836658,24.446641,0 104.873652,24.434965,0 104.888951,24.433219,0 104.913918,24.42629,0 104.929903,24.410846,0 104.943528,24.408227,0 104.979989,24.412866,0 104.997572,24.423834,0 105.003281,24.43191,0 105.019418,24.438676,0 105.042862,24.44184,0 105.054584,24.43933,0 105.059456,24.429345,0 105.07506,24.427545,0 105.085031,24.42056,0 105.095612,24.41925,0 105.109008,24.41232,0 105.102919,24.382247,0 105.116773,24.371602,0 105.138542,24.376733,0 105.144632,24.375587,0 105.170055,24.356916,0 105.187867,24.347089,0 105.19624,24.337042,0 105.196772,24.326994,0 105.180559,24.313341,0 105.171654,24.299577,0 105.176373,24.287341,0 105.166478,24.289035,0 105.160236,24.278928,0 105.16838,24.277672,0 105.181625,24.261773,0 105.178504,24.253468,0 105.197153,24.252157,0 105.204841,24.232594,0 105.215269,24.21494,0 105.231635,24.219532,0 105.232548,24.211934,0 105.243052,24.206741,0 105.235212,24.178205,0 105.229579,24.165739,0 105.209332,24.157209,0 105.208799,24.166614,0 105.182843,24.167051,0 105.178504,24.150319,0 105.1833,24.149772,0 105.181853,24.132873,0 105.195022,24.12177,0 105.200654,24.105359,0 105.228057,24.0855,0 105.234908,24.075049,0 105.251882,24.069578,0 105.260179,24.06126,0 105.265431,24.064598,0 105.28446,24.06509,0 105.293062,24.079208,0 105.273119,24.092831,0 105.272967,24.101256,0 105.283851,24.099013,0 105.293518,24.113182,0 105.306002,24.112307,0 105.320236,24.116354,0 105.328913,24.106235,0 105.332795,24.094965,0 105.339341,24.095731,0 105.345964,24.086157,0 105.359437,24.084077,0 105.364536,24.077676,0 105.376639,24.077019,0 105.381587,24.068155,0 105.396734,24.064598,0 105.402976,24.049056,0 105.413024,24.038985,0 105.42779,24.034224,0 105.460978,24.029626,0 105.481834,24.019225,0 105.493024,24.017255,0 105.500103,24.024645,0 105.509237,24.024864,0 105.510226,24.034278,0 105.504746,24.044404,0 105.509237,24.061205,0 105.518066,24.07587,0 105.517762,24.096716,0 105.531083,24.114057,0 105.527581,24.123082,0 105.533823,24.12981,0 105.54623,24.123575,0 105.568609,24.131451,0 105.587638,24.129755,0 105.594641,24.137522,0 105.613062,24.134349,0 105.628437,24.126583,0 105.628209,24.103445,0 105.634298,24.101639,0 105.63818,24.076144,0 105.643433,24.063722,0 105.641606,24.044678,0 105.649446,24.033074,0 105.675326,24.03811,0 105.690169,24.051136,0 105.695193,24.061698,0 105.704479,24.066513,0 105.739341,24.059509,0 105.765374,24.073736,0 105.790416,24.069851,0 105.804422,24.057265,0 105.789427,24.039478,0 105.787981,24.031979,0 105.796506,24.023659,0 105.825126,24.030939,0 105.841492,24.03083,0 105.850702,24.048071,0 105.849864,24.056006,0 105.859227,24.056718,0 105.892262,24.040299,0 105.901625,24.046921,0 105.907866,24.069468,0 105.904974,24.074393,0 105.902158,24.099287,0 105.91015,24.114878,0 105.919436,24.122207,0 105.93329,24.123793,0 105.953842,24.112854,0 105.963813,24.111048,0 105.998294,24.124231,0 105.99799,24.120676,0 106.011843,24.099506,0 106.024251,24.103335,0 106.034983,24.095512,0 106.049979,24.089822,0 106.053784,24.076198,0 106.053784,24.051136,0 106.069617,24.037179,0 106.075554,24.028422,0 106.088647,24.030775,0 106.096563,24.017912,0 106.091843,23.999845,0 106.081644,23.993221,0 106.096258,23.989607,0 106.119703,23.960967,0 106.127771,23.95686,0 106.136144,23.935553,0 106.139113,23.921037,0 106.154489,23.908546,0 106.155478,23.893916,0 106.169179,23.883395,0 106.192471,23.878902,0 106.197724,23.87112,0 106.192015,23.862351,0 106.172833,23.861638,0 106.191482,23.835547,0 106.192319,23.824747,0 106.176639,23.816194,0 106.155706,23.813837,0 106.144517,23.806489,0 106.136905,23.795413,0 106.144974,23.744296,0 106.157305,23.724161,0 106.158142,23.709456,0 106.152966,23.699798,0 106.149541,23.665386,0 106.137286,23.632063,0 106.120768,23.605377,0 106.124879,23.58588,0 106.135383,23.579948,0 106.141472,23.569676,0 106.120616,23.559239,0 106.107295,23.533692,0 106.086211,23.524186,0 106.072205,23.495608,0 106.062995,23.488408,0 106.036049,23.482692,0 106.022348,23.472742,0 106.010473,23.455865,0 105.999817,23.447948,0 105.991824,23.448333,0 105.986953,23.457239,0 105.997381,23.474116,0 105.996772,23.480493,0 105.986192,23.489617,0 105.959931,23.494179,0 105.935802,23.508909,0 105.925602,23.508579,0 105.912966,23.499291,0 105.902158,23.505666,0 105.892034,23.524845,0 105.880768,23.529186,0 105.852376,23.526933,0 105.826116,23.515558,0 105.813785,23.502149,0 105.811577,23.473897,0 105.806173,23.467465,0 105.77877,23.465926,0 105.758675,23.459548,0 105.738047,23.430682,0 105.715212,23.4149,0 105.699836,23.401425,0 105.690626,23.400875,0 105.671901,23.40863,0 105.665126,23.400655,0 105.648456,23.404395,0 105.630873,23.400545,0 105.647467,23.39807,0 105.668856,23.387949,0 105.675022,23.374637,0 105.688647,23.371446,0 105.694279,23.363304,0 105.682938,23.355491,0 105.673119,23.357747,0 105.674184,23.348393,0 105.682405,23.348888,0 105.697248,23.336122,0 105.700597,23.328418,0 105.685221,23.326822,0 105.681035,23.321539,0 105.671672,23.326437,0 105.674869,23.337388,0 105.667029,23.346797,0 105.649294,23.345917,0 105.648837,23.340029,0 105.631787,23.332601,0 105.623185,23.324236,0 105.614127,23.322089,0 105.615726,23.314274,0 105.593271,23.312568,0 105.569674,23.282404,0 105.560312,23.257354,0 105.531844,23.248158,0 105.526439,23.234556,0 105.532072,23.21875,0 105.550036,23.197875,0 105.542652,23.184213,0 105.552852,23.183827,0 105.562824,23.170605,0 105.566782,23.139692,0 105.563585,23.120237,0 105.567924,23.109213,0 105.559246,23.084957,0 105.564803,23.072827,0 105.575079,23.066211,0 105.602862,23.072056,0 105.625545,23.064336,0 105.641834,23.078341,0 105.649065,23.078562,0 105.677229,23.065108,0 105.690778,23.061028,0 105.714451,23.058105,0 105.724422,23.062186,0 105.733556,23.051488,0 105.736297,23.034612,0 105.748171,23.030145,0 105.7621,23.031634,0 105.779912,23.022368,0 105.805868,22.994731,0 105.828019,22.991697,0 105.839132,22.987614,0 105.842633,22.970344,0 105.856487,22.957046,0 105.857629,22.94347,0 105.867524,22.940103,0 105.878942,22.916921,0 105.896753,22.916479,0 105.889674,22.925697,0 105.894165,22.936516,0 105.91289,22.93773,0 105.925374,22.944187,0 105.936563,22.935577,0 105.958713,22.93911,0 105.959322,22.948933,0 105.981853,22.945291,0 105.995326,22.937675,0 106.012224,22.95241,0 106.010854,22.969958,0 106.004688,22.979007,0 106.019912,22.990483,0 106.056905,22.984745,0 106.069617,22.987283,0 106.085982,22.996441,0 106.106534,22.980938,0 106.116049,22.985297,0 106.138275,22.988111,0 106.158903,22.987669,0 106.176334,22.980662,0 106.206858,22.9784,0 106.240197,22.942311,0 106.270036,22.90726,0 106.268437,22.898814,0 106.258085,22.890035,0 106.270645,22.874962,0 106.287162,22.866955,0 106.305583,22.866734,0 106.319056,22.860439,0 106.336563,22.865519,0 106.353994,22.855524,0 106.366325,22.858064,0 106.371196,22.878275,0 106.374393,22.880097,0 106.41367,22.877336,0 106.42288,22.888655,0 106.446629,22.886281,0 106.458199,22.900525,0 106.468856,22.896771,0 106.479588,22.902568,0 106.489864,22.901353,0 106.504555,22.910462,0 106.50623,22.926967,0 106.511253,22.938558,0 106.526172,22.946615,0 106.562329,22.923434,0 106.575116,22.921944,0 106.596962,22.929892,0 106.605792,22.925587,0 106.621624,22.895336,0 106.633956,22.887993,0 106.631139,22.880925,0 106.656867,22.863255,0 106.670188,22.875072,0 106.67072,22.889097,0 106.667295,22.907426,0 106.681453,22.921502,0 106.711976,22.941593,0 106.727352,22.965764,0 106.747904,22.974538,0 106.765259,23.00422,0 106.786115,23.014315,0 106.797761,23.023747,0 106.795935,23.048565,0 106.80956,23.066211,0 106.802785,23.081153,0 106.79464,23.084847,0 106.776296,23.07404,0 106.768532,23.075639,0 106.761834,23.087107,0 106.771957,23.099952,0 106.772414,23.108221,0 106.765487,23.118583,0 106.770663,23.131425,0 106.783756,23.14658,0 106.785506,23.153028,0 106.776753,23.175067,0 106.779493,23.180577,0 106.805525,23.19187,0 106.838561,23.19826,0 106.857666,23.20834,0 106.899683,23.223487,0 106.91681,23.242817,0 106.918561,23.259556,0 106.923051,23.268971,0 106.944669,23.291762,0 106.962937,23.298918,0 106.994298,23.299854,0 107.005868,23.310202,0 107.026039,23.303211,0 107.042024,23.304973,0 107.034336,23.291652,0 107.044231,23.286092,0 107.041187,23.273375,0 107.057704,23.276954,0 107.116391,23.283615,0 107.148741,23.302386,0 107.158941,23.311578,0 107.18033,23.325061,0 107.198751,23.333481,0 107.210701,23.318292,0 107.22288,23.315045,0 107.247771,23.32308,0 107.274412,23.343716,0 107.303413,23.351474,0 107.314374,23.34047,0 107.343299,23.333371,0 107.350758,23.320493,0 107.35289,23.295175,0 107.366667,23.281853,0 107.367124,23.270347,0 107.382728,23.268475,0 107.378008,23.250581,0 107.385696,23.244359,0 107.398256,23.238466,0 107.413556,23.25394,0 107.42954,23.260217,0 107.438979,23.25003,0 107.462043,23.246561,0 107.469883,23.250526,0 107.477571,23.242872,0 107.463261,23.228113,0 107.471253,23.223322,0 107.485106,23.230151,0 107.490511,23.225855,0 107.498503,23.230977,0 107.499949,23.224038,0 107.51974,23.219356,0 107.53032,23.204099,0 107.561681,23.204485,0 107.569445,23.22178,0 107.584821,23.230426,0 107.585506,23.247442,0 107.57622,23.258675,0 107.581167,23.265062,0 107.579188,23.276954,0 107.584897,23.291047,0 107.611919,23.292368,0 107.649673,23.282074,0 107.656067,23.274642,0 107.671748,23.282239,0 107.702423,23.280037,0 107.716124,23.298092,0 107.743679,23.30767,0 107.750834,23.314054,0 107.748018,23.333866,0 107.764383,23.344872,0 107.782347,23.349659,0 107.800768,23.343496,0 107.818503,23.34091,0 107.81797,23.333371,0 107.829236,23.333591,0 107.836924,23.342065,0 107.821396,23.343276,0 107.832128,23.351584,0 107.827333,23.367595,0 107.832433,23.374912,0 107.848113,23.379423,0 107.85915,23.395485,0 107.866914,23.401315,0 107.864098,23.41468,0 107.88366,23.438875,0 107.87072,23.446133,0 107.853365,23.433102,0 107.843698,23.436181,0 107.835325,23.427658,0 107.827104,23.433542,0 107.821015,23.430187,0 107.805791,23.435136,0 107.794298,23.430627,0 107.775725,23.440195,0 107.769026,23.449817,0 107.749236,23.442669,0 107.736828,23.450917,0 107.741548,23.461363,0 107.733099,23.478294,0 107.735839,23.491101,0 107.72975,23.496433,0 107.738122,23.521053,0 107.734849,23.533252,0 107.7213,23.543087,0 107.716277,23.554075,0 107.706229,23.588791,0 107.705316,23.601862,0 107.710644,23.628,0 107.731424,23.642385,0 107.757609,23.656,0 107.764231,23.667033,0 107.780216,23.669283,0 107.797114,23.66341,0 107.808379,23.663136,0 107.82307,23.670381,0 107.83053,23.710499,0 107.828551,23.723832,0 107.815458,23.739962,0 107.812033,23.754224,0 107.803356,23.764098,0 107.792623,23.768102,0 107.779911,23.766785,0 107.765677,23.759051,0 107.753422,23.757296,0 107.738046,23.778797,0 107.738808,23.787352,0 107.746343,23.797442,0 107.724345,23.799142,0 107.714374,23.795687,0 107.680349,23.803145,0 107.65523,23.785981,0 107.636429,23.777974,0 107.606438,23.7845,0 107.582766,23.795577,0 107.57013,23.80479,0 107.567618,23.814001,0 107.569673,23.833244,0 107.558484,23.837904,0 107.535573,23.841248,0 107.529559,23.851334,0 107.531386,23.862351,0 107.544859,23.871449,0 107.542652,23.883834,0 107.518979,23.891779,0 107.503755,23.885916,0 107.495611,23.877203,0 107.479321,23.871065,0 107.466534,23.858843,0 107.455344,23.841686,0 107.440806,23.833683,0 107.432128,23.835328,0 107.421396,23.854403,0 107.406172,23.874846,0 107.39346,23.873038,0 107.385849,23.879998,0 107.388665,23.900985,0 107.383261,23.903888,0 107.37405,23.921091,0 107.363318,23.920872,0 107.359283,23.908491,0 107.330891,23.913476,0 107.325715,23.921365,0 107.305316,23.923776,0 107.294355,23.955436,0 107.279816,23.977232,0 107.277076,23.985938,0 107.280882,23.998696,0 107.275021,24.003842,0 107.26817,24.000283,0 107.250283,23.975151,0 107.237266,23.966718,0 107.200273,23.972961,0 107.177818,23.982653,0 107.149122,23.991249,0 107.144935,24.006853,0 107.135801,24.02136,0 107.123622,24.050041,0 107.111976,24.052723,0 107.107029,24.048563,0 107.078028,24.052285,0 107.060444,24.06022,0 107.039131,24.031815,0 107.017666,24.024371,0 107.00328,24.042653,0 106.997343,24.043473,0 106.987371,24.061096,0 106.975877,24.062956,0 106.965982,24.074831,0 106.956543,24.073189,0 106.953346,24.081342,0 106.943908,24.085445,0 106.94307,24.093269,0 106.964384,24.101038,0 106.958751,24.109407,0 106.946876,24.112854,0 106.942309,24.104101,0 106.935002,24.104593,0 106.91407,24.098083,0 106.90425,24.109079,0 106.890625,24.115425,0 106.893974,24.122535,0 106.866953,24.164153,0 106.859797,24.181431,0 106.86132,24.192146,0 106.885069,24.206632,0 106.902424,24.211989,0 106.918865,24.227456,0 106.924117,24.254889,0 106.901206,24.276361,0 106.897856,24.293132,0 106.885221,24.316126,0 106.890854,24.329342,0 106.899988,24.340973,0 106.883394,24.359865,0 106.883394,24.364669,0 106.90387,24.378753,0 106.891919,24.397584,0 106.885678,24.399713,0 106.863299,24.395074,0 106.851348,24.402496,0 106.84701,24.421106,0 106.835364,24.437475,0 106.809103,24.453952,0 106.808418,24.462189,0 106.815345,24.475445,0 106.811463,24.496334,0 106.797761,24.514275,0 106.782462,24.512366,0 106.771957,24.523054,0 106.767086,24.5411,0 106.77523,24.555001,0 106.77622,24.587322,0 106.773632,24.602471,0 106.755135,24.619743,0 106.725297,24.617727,0 106.729179,24.609609,0 106.701624,24.600945,0 106.68602,24.599638,0 106.691501,24.619144,0 106.700787,24.62067,0 106.718751,24.646165,0 106.728646,24.642842,0 106.738922,24.648507,0 106.767695,24.655207,0 106.797685,24.658202,0 106.81131,24.665664,0 106.81466,24.675684,0 106.784136,24.697248,0 106.775687,24.713799,0 106.764193,24.726048,0 106.739836,24.73122,0 106.686249,24.759195,0 106.672471,24.771168,0 106.662728,24.785587,0 106.67034,24.801692,0 106.683356,24.80958,0 106.719208,24.81725,0 106.730549,24.814258,0 106.760159,24.794565,0 106.782538,24.788253,0 106.791444,24.796686,0 106.790758,24.809525,0 106.800806,24.823342,0 106.793423,24.828999,0 106.80583,24.836831,0 106.811843,24.845043,0 106.818694,24.842868,0 106.824022,24.852874,0 106.836962,24.859617,0 106.839246,24.852548,0 106.851196,24.849231,0 106.850892,24.860379,0 106.84366,24.86897,0 106.840159,24.880823,0 106.827676,24.897241,0 106.809407,24.904253,0 106.80309,24.909798,0 106.802481,24.920125,0 106.78033,24.930342,0 106.770359,24.940505,0 106.759855,24.956861,0 106.733366,24.988642,0 106.726363,25.006078,0 106.726515,25.022588,0 106.73367,25.029919,0 106.748285,25.027096,0 106.763813,25.031331,0 106.759246,25.04648,0 106.742728,25.062822,0 106.739759,25.072919,0 106.755516,25.084264,0 106.743718,25.098267,0 106.721187,25.099298,0 106.701472,25.092188,0 106.700787,25.082907,0 106.684802,25.076068,0 106.683737,25.070694,0 106.6676,25.058262,0 106.654888,25.064668,0 106.640806,25.061194,0 106.620939,25.063582,0 106.620483,25.053159,0 106.603584,25.048164,0 106.578389,25.070639,0 106.571158,25.083504,0</coordinates></LinearRing></outerBoundaryIs>
      </Polygon>
      <Polygon>
        <outerBoundaryIs><LinearRing><coordinates>105.096221,24.928114,0 105.095916,24.928658,0 105.077952,24.918331,0 105.081987,24.915614,0 105.096221,24.928114,0</coordinates></LinearRing></outerBoundaryIs>
      </Polygon>
    </MultiGeometry>
    </Placemark>
  </Document>
</kml>
