<?xml version="1.0" encoding="UTF-8"?>
<kml xmlns="http://www.opengis.net/kml/2.2">
<Document>
<name>云南省_全省轮廓</name>
<Placemark><name>云南省_全省轮廓</name><Polygon><outerBoundaryIs><LinearRing><coordinates>102.270201999999998,22.419620999999999,0 102.236475999999996,22.426811000000001,0 102.179428999999999,22.430530999999998,0 102.167377999999999,22.425571999999999,0 102.145269999999996,22.397798999999999,0 102.128190000000004,22.417141000000001,0 102.131398000000004,22.430861,0 102.087789000000001,22.439208000000001,0 102.046434000000005,22.457884,0 101.978549000000001,22.427803000000001,0 101.936239999999998,22.438960000000002,0 101.907889999999995,22.437225000000002,0 101.911184000000006,22.396972000000002,0 101.901387,22.384323999999999,0 101.862719999999996,22.389201,0 101.823012000000006,22.426811000000001,0 101.824225999999996,22.456892,0 101.792580999999998,22.482423000000001,0 101.782177000000004,22.501422999999999,0 101.764577000000003,22.506378999999999,0 101.715245999999993,22.478209,0 101.677965999999998,22.477218000000001,0 101.667128000000005,22.432762,0 101.648488,22.400444,0 101.671809999999994,22.372748999999999,0 101.648921999999999,22.362991999999998,0 101.647968000000006,22.33165,0 101.635484000000005,22.314776999999999,0 101.625512999999998,22.282596999999999,0 101.604445999999996,22.270682999999998,0 101.564304000000007,22.269607000000001,0 101.547657999999998,22.231127000000001,0 101.596468999999999,22.161090999999999,0 101.602971999999994,22.132023,0 101.573927999999995,22.115126,0 101.587278999999995,22.078177,0 101.616583000000006,22.034175000000001,0 101.626206999999994,22.006157999999999,0 101.606440000000006,21.967855,0 101.654383999999993,21.946542999999998,0 101.662447,21.935760999999999,0 101.687763000000004,21.942644999999999,0 101.703975,21.929043,0 101.700333999999998,21.897023999999998,0 101.714292,21.881924000000001,0 101.735012999999995,21.875783999999999,0 101.740215000000006,21.845413000000001,0 101.777062000000001,21.826905,0 101.760588999999996,21.791625,0 101.759636,21.766632999999999,0 101.747324000000006,21.73001,0 101.767612,21.716221000000001,0 101.771165999999994,21.660391000000001,0 101.779922999999997,21.640861000000001,0 101.807665999999998,21.644186000000001,0 101.828474,21.617090000000001,0 101.804805000000002,21.577684999999999,0 101.789113,21.572613,0 101.755127000000002,21.584917999999998,0 101.745503999999997,21.570367999999998,0 101.758854999999997,21.562801,0 101.754779999999997,21.542261,0 101.772467000000006,21.513233,0 101.741082000000006,21.482868,0 101.750099000000006,21.409300999999999,0 101.739954999999995,21.40081,0 101.730332000000004,21.336946999999999,0 101.745677000000001,21.297298999999999,0 101.766570999999999,21.286301999999999,0 101.791627000000005,21.285802,0 101.803764999999999,21.26464,0 101.833675999999997,21.252473999999999,0 101.835409999999996,21.208051999999999,0 101.795095000000003,21.208302,0 101.781049999999993,21.172038000000001,0 101.764663999999996,21.147856999999998,0 101.740735000000001,21.141769,0 101.702848000000003,21.146106,0 101.696606000000003,21.168786000000001,0 101.672504000000004,21.194965,0 101.637651000000005,21.191880000000001,0 101.605659000000003,21.172288000000002,0 101.588666000000003,21.19163,0 101.600631000000007,21.212636,0 101.601585,21.233139999999999,0 101.532658999999995,21.252389999999998,0 101.476478999999998,21.24164,0 101.445960999999997,21.227473,0 101.387613000000002,21.225971999999999,0 101.340969000000001,21.196964999999999,0 101.290250999999998,21.178291000000002,0 101.222193000000004,21.234390000000001,0 101.228781999999995,21.255890000000001,0 101.246641999999994,21.275721000000001,0 101.249675999999994,21.296882,0 101.183699000000004,21.334697999999999,0 101.142864000000003,21.409134999999999,0 101.185952999999998,21.415711000000002,0 101.195055999999994,21.425115999999999,0 101.192888999999994,21.474215000000001,0 101.225487000000001,21.501919999999998,0 101.210314999999994,21.508991000000002,0 101.208928,21.557313000000001,0 101.179624000000004,21.555067999999999,0 101.145205000000004,21.561304,0 101.149452999999994,21.587246,0 101.166011999999995,21.588909000000001,0 101.160809999999998,21.643853,0 101.151619999999994,21.670030000000001,0 101.136188000000004,21.671441999999999,0 101.117200999999994,21.692546,0 101.120408999999995,21.70833,0 101.111479000000003,21.748612999999999,0 101.123356999999999,21.771864000000001,0 101.090325000000007,21.773774,0 101.019578999999993,21.720124999999999,0 101.014983999999998,21.707083999999998,0 100.967993000000007,21.695537000000002,0 100.940943000000004,21.697115,0 100.914153999999996,21.682161000000001,0 100.887364000000005,21.685068000000001,0 100.871410999999995,21.672605000000001,0 100.844881999999998,21.634295999999999,0 100.834390999999997,21.633714000000001,0 100.804653999999999,21.609940999999999,0 100.783672999999993,21.567374000000001,0 100.753587999999993,21.555316999999999,0 100.730613000000005,21.518723000000001,0 100.691858999999994,21.510904,0 100.669837999999999,21.487361,0 100.644347999999994,21.482451999999999,0 100.578890999999999,21.451915,0 100.557997,21.450583000000002,0 100.526612,21.471136999999999,0 100.482830000000007,21.459237999999999,0 100.464363000000006,21.478625000000001,0 100.437139999999999,21.532945999999999,0 100.423181,21.540514000000002,0 100.389802000000003,21.523630000000001,0 100.350960999999998,21.529368999999999,0 100.316541999999998,21.489191000000002,0 100.292787000000004,21.477043999999999,0 100.280908999999994,21.482619,0 100.247356999999994,21.463730999999999,0 100.229757000000006,21.471969000000001,0 100.206434999999999,21.509322999999998,0 100.180251999999996,21.514313999999999,0 100.168722000000002,21.483035000000001,0 100.126932999999994,21.508241999999999,0 100.120170000000002,21.543092000000001,0 100.122771,21.567125000000001,0 100.108553000000001,21.583753999999999,0 100.111413999999996,21.599467000000001,0 100.135169000000005,21.616591,0 100.153548999999998,21.647344,0 100.169934999999995,21.646014000000001,0 100.169155000000003,21.664047,0 100.147566999999995,21.687394999999999,0 100.118956999999995,21.703512,0 100.097542000000004,21.704509000000002,0 100.046042999999997,21.669613999999999,0 100.030698000000001,21.674433000000001,0 100.033558999999997,21.692129999999999,0 99.991684000000006,21.703595,0 99.983620999999999,21.716387000000001,0 99.959085000000002,21.79561,0 99.944173000000006,21.821344,0 99.946167000000003,21.861595000000001,0 99.964113999999995,21.885574999999999,0 99.959952000000001,21.907145,0 99.981539999999995,21.91826,0 99.981193000000005,21.934932,0 99.998098999999996,21.968185999999999,0 99.992723999999995,21.986426999999999,0 99.965761000000001,22.014199000000001,0 99.958911999999998,22.037241000000002,0 99.972436999999999,22.052987000000002,0 99.871432999999996,22.066908999999999,0 99.869958999999994,22.029450000000001,0 99.834586000000002,22.028123999999998,0 99.824962999999997,22.043125,0 99.763147000000004,22.067903000000001,0 99.721445000000003,22.060611000000002,0 99.712254999999999,22.036992999999999,0 99.690406999999993,22.045280000000002,0 99.696128999999999,22.067654000000001,0 99.676621999999995,22.074946000000001,0 99.648792,22.100546000000001,0 99.612984999999995,22.093919,0 99.592264,22.112558,0 99.575618000000006,22.094498999999999,0 99.562613999999996,22.113220999999999,0 99.516576999999998,22.099551999999999,0 99.487273000000002,22.128627000000002,0 99.471926999999994,22.130946000000002,0 99.448605000000001,22.113302999999998,0 99.399880999999993,22.100214999999999,0 99.365027999999995,22.104191,0 99.354710999999995,22.095659000000001,0 99.300957999999994,22.100297999999999,0 99.292981999999995,22.110569999999999,0 99.272347999999994,22.100380999999999,0 99.256221999999994,22.112144000000001,0 99.220329000000007,22.111066999999998,0 99.187556999999998,22.139807999999999,0 99.169696999999999,22.146350000000002,0 99.158426000000006,22.165645000000001,0 99.187989999999999,22.163077999999999,0 99.174205000000001,22.177982,0 99.208190999999999,22.232202999999998,0 99.235760999999997,22.250658000000001,0 99.233767,22.296496000000001,0 99.254487999999995,22.329830999999999,0 99.277722999999995,22.344964999999998,0 99.276683000000006,22.36233,0 99.253620999999995,22.380355000000002,0 99.251540000000006,22.393416999999999,0 99.282230999999996,22.401436,0 99.302171999999999,22.416975999999998,0 99.312576000000007,22.437638,0 99.333556999999999,22.445985,0 99.381414000000007,22.503240000000002,0 99.359740000000002,22.520751000000001,0 99.359652999999994,22.535368999999999,0 99.386009000000001,22.573518,0 99.371964000000006,22.601503000000001,0 99.361126999999996,22.662078000000001,0 99.348556000000002,22.672473,0 99.339105000000004,22.709346,0 99.314830000000001,22.737057,0 99.326794000000007,22.751569,0 99.386268999999999,22.762371000000002,0 99.386876000000001,22.788257000000002,0 99.401180999999994,22.826087999999999,0 99.419908000000007,22.827324000000001,0 99.442103000000003,22.844711,0 99.462911000000005,22.844792999999999,0 99.436728000000002,22.91366,0 99.446785000000006,22.934742,0 99.506,22.902788999999999,0 99.531488999999993,22.897106000000001,0 99.554463999999996,22.907071999999999,0 99.563306999999995,22.925601,0 99.544927000000001,22.958784000000001,0 99.533569999999997,22.961417999999998,0 99.517097000000007,23.006772999999999,0 99.529408000000004,23.046023999999999,0 99.528020999999995,23.065604,0 99.513976,23.073172,0 99.477475999999996,23.083043,0 99.440715999999995,23.079177000000001,0 99.380634000000001,23.099903000000001,0 99.348556000000002,23.128685000000001,0 99.325320000000005,23.132384999999999,0 99.325320000000005,23.111006,0 99.307721000000001,23.100808000000001,0 99.282145,23.101137000000001,0 99.255442000000002,23.077943000000001,0 99.216686999999993,23.08954,0 99.200560999999993,23.109196000000001,0 99.186775999999995,23.100560999999999,0 99.123572999999993,23.097272,0 99.106493999999998,23.086579,0 99.048406,23.114706000000002,0 99.057508999999996,23.164448,0 99.002803,23.160256,0 98.951824000000002,23.176942,0 98.907173999999998,23.185490000000001,0 98.890441999999993,23.176449000000002,0 98.890007999999995,23.212035,0 98.910815999999997,23.230934000000001,0 98.910556,23.248926000000001,0 98.930235999999994,23.266750999999999,0 98.925293999999994,23.296482999999998,0 98.936912000000007,23.310113999999999,0 98.906914,23.331707999999999,0 98.882031999999995,23.323661999999999,0 98.872842000000006,23.329820000000002,0 98.894689999999997,23.353463000000001,0 98.920613000000003,23.353873,0 98.907261000000005,23.392284,0 98.912549999999996,23.426335000000002,0 98.896163999999999,23.441265999999999,0 98.898505,23.458573999999999,0 98.871802000000002,23.484572,0 98.825851,23.470056,0 98.803657000000001,23.521222999999999,0 98.803742999999997,23.540569000000001,0 98.844665000000006,23.578925999999999,0 98.882119000000003,23.595313999999998,0 98.881945000000002,23.619973999999999,0 98.847266000000005,23.631934000000001,0 98.836082000000005,23.683693000000002,0 98.811892999999998,23.703097,0 98.824117000000001,23.727492000000002,0 98.786230000000003,23.781421999999999,0 98.751378000000003,23.776267000000001,0 98.736812,23.78764,0 98.69511,23.784939999999999,0 98.684792999999999,23.802039000000001,0 98.668841,23.800730000000001,0 98.701438999999993,23.834347999999999,0 98.690861999999996,23.850622999999999,0 98.693723000000006,23.885781000000001,0 98.687827999999996,23.922075,0 98.701093,23.946345999999998,0 98.673175999999998,23.960646000000001,0 98.701178999999996,23.981479,0 98.727621999999997,23.970368000000001,0 98.746782999999994,23.983276,0 98.773919000000006,24.022237000000001,0 98.807471000000007,24.025176999999999,0 98.821169999999995,24.041672999999999,0 98.860270999999997,24.064451999999999,0 98.866772999999995,24.080779,0 98.899891999999994,24.108938999999999,0 98.876829999999998,24.151533000000001,0 98.855328999999998,24.130727,0 98.818482000000003,24.133500999999999,0 98.757706999999996,24.124362000000001,0 98.716525000000004,24.127625999999999,0 98.709502000000001,24.121261000000001,0 98.680544999999995,24.099798,0 98.648206999999999,24.106490000000001,0 98.593760000000003,24.080534,0 98.589945,24.091145999999998,0 98.555439000000007,24.108694,0 98.551017999999999,24.124689,0 98.483999999999995,24.122567,0 98.461631999999994,24.125913000000001,0 98.36609,24.111467999999999,0 98.360367999999994,24.096858999999998,0 98.328550000000007,24.103225999999999,0 98.290402999999998,24.101593000000001,0 98.220177000000007,24.113427000000001,0 98.197288999999998,24.098329,0 98.110504000000006,24.092697000000001,0 98.073830000000001,24.075800000000001,0 98.056577000000004,24.076778999999998,0 97.995455000000007,24.046327000000002,0 97.985138000000006,24.032036999999999,0 97.938321000000002,24.017337000000001,0 97.902168000000003,24.014233999999998,0 97.883441000000005,23.995203,0 97.896792000000005,23.975679,0 97.863152999999997,23.978864999999999,0 97.839310999999995,23.971430999999999,0 97.810094000000007,23.943404999999998,0 97.795874999999995,23.952065999999999,0 97.765878000000001,23.927631999999999,0 97.763884000000004,23.907198999999999,0 97.728251,23.895510000000002,0 97.710998000000004,23.861498000000001,0 97.684207999999998,23.877033000000001,0 97.680999999999997,23.860681,0 97.663487000000003,23.851931,0 97.658545000000004,23.865096000000001,0 97.647013999999999,23.841054,0 97.633229,23.880711999999999,0 97.598462999999995,23.894447,0 97.572193999999996,23.912348000000001,0 97.528671000000003,23.926324999999999,0 97.529538000000002,23.942668999999999,0 97.567858999999999,23.967182000000001,0 97.572714000000005,23.982868,0 97.628634000000005,24.004923000000002,0 97.635744000000003,24.047878000000001,0 97.675278000000006,24.070739,0 97.692010999999994,24.093267999999998,0 97.730592000000001,24.111877,0 97.734840000000005,24.149493,0 97.754174000000006,24.164014999999999,0 97.744462999999996,24.182613,0 97.728684000000001,24.183592000000001,0 97.729898000000006,24.227058,0 97.767525000000006,24.259098000000002,0 97.749578999999997,24.282734999999999,0 97.721142,24.295774000000002,0 97.698426999999995,24.290966000000001,0 97.665221000000003,24.296344999999999,0 97.662272999999999,24.339120999999999,0 97.684121000000005,24.337655000000002,0 97.715506000000005,24.355494,0 97.714466000000002,24.374227000000001,0 97.690971000000005,24.385629000000002,0 97.677879000000004,24.408835,0 97.678573,24.438876,0 97.669815999999997,24.452794000000001,0 97.588840000000005,24.435782,0 97.576875999999999,24.441725000000002,0 97.531879000000004,24.431467999999999,0 97.529972000000001,24.441887000000001,0 97.555114000000003,24.493727,0 97.561357000000001,24.568967000000001,0 97.567511999999994,24.606286000000001,0 97.569506000000004,24.675446000000001,0 97.564304000000007,24.72589,0 97.547310999999993,24.738883000000001,0 97.571240000000003,24.767140000000001,0 97.588666000000003,24.766490000000001,0 97.651955999999998,24.791087999999998,0 97.680132999999998,24.827041000000001,0 97.701374000000001,24.842376999999999,0 97.710303999999994,24.833939000000001,0 97.765530999999996,24.824200999999999,0 97.797696000000002,24.845946999999999,0 97.784864999999996,24.877018,0 97.764144000000002,24.878803000000001,0 97.729725000000002,24.908567999999999,0 97.731632000000005,24.947163,0 97.716547000000006,24.978289,0 97.718541000000002,25.012405999999999,0 97.727731000000006,25.043759000000001,0 97.720187999999993,25.080691000000002,0 97.745329999999996,25.080044000000001,0 97.777062000000001,25.122226999999999,0 97.797003000000004,25.157356,0 97.819890999999998,25.232597999999999,0 97.839658,25.270605,0 97.873557000000005,25.259042999999998,0 97.903987999999998,25.216501999999998,0 97.914738999999997,25.211324000000001,0 97.948464000000001,25.219818,0 98.007245999999995,25.280792999999999,0 98.004384999999999,25.291706999999999,0 98.023804999999996,25.308439,0 98.038978,25.301891999999999,0 98.070622,25.312885000000001,0 98.073137000000003,25.329453000000001,0 98.089436000000006,25.336079999999999,0 98.099665999999999,25.354179999999999,0 98.101140000000001,25.388434,0 98.137207000000004,25.381568000000001,0 98.151685000000001,25.407415,0 98.157841000000005,25.457315999999999,0 98.131570999999994,25.510262999999998,0 98.163650000000004,25.524545,0 98.186364999999995,25.554718000000001,0 98.189571999999998,25.568913999999999,0 98.170586,25.620360999999999,0 98.194773999999995,25.613023999999999,0 98.247659999999996,25.607783000000001,0 98.274797000000007,25.590931000000001,0 98.314590999999993,25.543263,0 98.326729,25.566333,0 98.371379000000005,25.583753000000002,0 98.382302999999993,25.595365999999999,0 98.402330000000006,25.594398000000002,0 98.409612999999993,25.619956999999999,0 98.408051999999998,25.652764999999999,0 98.415768,25.671302000000001,0 98.457903999999999,25.682986,0 98.467267000000007,25.702725999999998,0 98.461285000000004,25.735188999999998,0 98.481138999999999,25.759751999999999,0 98.479057999999995,25.784148999999999,0 98.528996000000006,25.840733,0 98.568096999999995,25.841377000000001,0 98.605723999999995,25.811277,0 98.640750999999995,25.7988,0 98.664506000000003,25.816831000000001,0 98.677771000000007,25.816186999999999,0 98.680805000000007,25.833570999999999,0 98.706208000000004,25.856344,0 98.703086999999996,25.893269,0 98.686614000000006,25.925840999999998,0 98.661124999999998,25.955348999999998,0 98.637369000000007,25.971587,0 98.614394000000004,25.968772999999999,0 98.601303000000001,26.027920999999999,0 98.601215999999994,26.057323,0 98.575293000000002,26.11787,0 98.590292000000005,26.139464,0 98.604423999999995,26.128708,0 98.627658999999994,26.144521000000001,0 98.654708999999997,26.140747999999999,0 98.667019999999994,26.116023999999999,0 98.662165000000002,26.087198999999998,0 98.701438999999993,26.110403999999999,0 98.720426000000003,26.128066,0 98.708809000000002,26.146847999999999,0 98.730917000000005,26.164664999999999,0 98.735512,26.183361999999999,0 98.713317000000004,26.231093000000001,0 98.672916000000001,26.239995,0 98.683666000000002,26.307261,0 98.707594999999998,26.32321,0 98.733084000000005,26.349412999999998,0 98.729962999999998,26.377372000000001,0 98.742794000000004,26.385061,0 98.749556999999996,26.425183000000001,0 98.746262000000002,26.444478,0 98.755712000000003,26.499383000000002,0 98.753545000000003,26.5593,0 98.768197000000001,26.570416999999999,0 98.781115,26.601040000000001,0 98.781462000000005,26.620705000000001,0 98.762388000000001,26.661624,0 98.770711000000006,26.689747000000001,0 98.747388999999998,26.695658000000002,0 98.743835000000004,26.711632999999999,0 98.756926000000007,26.745812000000001,0 98.762128000000004,26.798656999999999,0 98.730829999999997,26.851317999999999,0 98.757272999999998,26.881547000000001,0 98.751811000000004,26.918385000000001,0 98.736204999999998,26.968361000000002,0 98.742447999999996,26.987006999999998,0 98.732911000000001,27.003019999999999,0 98.762647999999999,27.018235000000001,0 98.765596000000002,27.050968000000001,0 98.740713999999997,27.071669,0 98.712622999999994,27.075809,0 98.713924000000006,27.13964,0 98.695891000000003,27.209955000000001,0 98.722767000000005,27.22053,0 98.717132000000007,27.231819999999999,0 98.731177000000002,27.245175,0 98.715484000000004,27.257496,0 98.734992000000005,27.287217999999999,0 98.740799999999993,27.330278,0 98.732737,27.351483999999999,0 98.706727999999998,27.362124999999999,0 98.702652999999998,27.412617000000001,0 98.687047000000007,27.425236000000002,0 98.690428999999995,27.447375999999998,0 98.704127,27.463719999999999,0 98.684967,27.486646,0 98.705081000000007,27.517416999999998,0 98.698231000000007,27.535336000000001,0 98.703779999999995,27.560942000000001,0 98.685834,27.563556999999999,0 98.664592999999996,27.5867,0 98.644824999999997,27.564429000000001,0 98.586736999999999,27.584955999999998,0 98.556566000000004,27.645800999999999,0 98.537492999999998,27.635504999999998,0 98.535325,27.62077,0 98.507495000000006,27.624573000000002,0 98.505240999999998,27.632732000000001,0 98.474722999999997,27.634474999999998,0 98.444119000000001,27.665205,0 98.429986999999997,27.653721000000001,0 98.438050000000004,27.622987999999999,0 98.429207000000005,27.548814,0 98.401809999999998,27.540171999999998,0 98.390366,27.516862,0 98.372506000000001,27.507663000000001,0 98.337479999999999,27.508932000000001,0 98.317452000000003,27.519558,0 98.306442000000004,27.553887,0 98.310343000000003,27.583608999999999,0 98.288409000000001,27.632574000000002,0 98.28416,27.653245999999999,0 98.266907000000003,27.657997999999999,0 98.263785999999996,27.671697999999999,0 98.234222000000003,27.690621,0 98.221216999999996,27.710808,0 98.223905000000002,27.725055000000001,0 98.245666,27.735026999999999,0 98.224339000000001,27.751645,0 98.217055999999999,27.775221999999999,0 98.222690999999998,27.812476,0 98.208820000000003,27.813267,0 98.176220999999998,27.832640000000001,0 98.169371999999996,27.850902999999999,0 98.181595999999999,27.872561999999999,0 98.197029000000001,27.872246000000001,0 98.205178000000004,27.889633,0 98.188098999999994,27.939012999999999,0 98.154979999999995,27.938697000000001,0 98.140587999999994,27.951888,0 98.132437999999993,27.983160000000002,0 98.144576000000001,28.017894999999999,0 98.139374000000004,28.043230000000001,0 98.151077999999998,28.05696,0 98.160528999999997,28.09948,0 98.149084000000002,28.112572,0 98.140067999999999,28.141669,0 98.150037999999995,28.155465,0 98.174574000000007,28.163584,0 98.169025000000005,28.204329000000001,0 98.201189999999997,28.219692999999999,0 98.217055999999999,28.212838999999999,0 98.228413000000003,28.225681000000002,0 98.265000000000001,28.239939,0 98.244539000000003,28.278449999999999,0 98.236735999999993,28.309311999999998,0 98.207431999999997,28.330406,0 98.209772999999998,28.358577,0 98.229973999999999,28.347246999999999,0 98.234915999999998,28.370063999999999,0 98.273409999999998,28.380763000000002,0 98.281212999999994,28.393978000000001,0 98.300112999999996,28.385954999999999,0 98.304013999999995,28.359127999999998,0 98.321961000000002,28.346774,0 98.318145999999999,28.324581999999999,0 98.338866999999993,28.296006999999999,0 98.353346000000002,28.292936999999998,0 98.377448000000001,28.245925,0 98.377795000000006,28.207795999999998,0 98.370251999999994,28.183841000000001,0 98.390191999999999,28.164373000000001,0 98.389324999999999,28.114623000000002,0 98.400075999999999,28.104686000000001,0 98.428773000000007,28.104527999999998,0 98.459030999999996,28.131654999999999,0 98.464405999999997,28.151129000000001,0 98.507495000000006,28.144269999999999,0 98.525789000000003,28.170521000000001,0 98.559513999999993,28.182894999999998,0 98.585350000000005,28.181318999999998,0 98.626531999999997,28.165555000000001,0 98.650200999999996,28.200232,0 98.696064000000007,28.215517999999999,0 98.712362999999996,28.229462000000002,0 98.710195999999996,28.288843,0 98.719126000000003,28.310334999999998,0 98.746696,28.321276000000001,0 98.753631999999996,28.336938,0 98.734211000000002,28.368569000000001,0 98.705167000000003,28.393270000000001,0 98.706815000000006,28.412852999999998,0 98.692768999999998,28.431804,0 98.673868999999996,28.478733999999999,0 98.629739999999998,28.487143,0 98.620115999999996,28.511502,0 98.633381,28.531376999999999,0 98.631994000000006,28.566642000000002,0 98.613701000000006,28.611785000000001,0 98.620810000000006,28.620025999999999,0 98.594194000000002,28.669539,0 98.594279999999998,28.682796,0 98.634247999999999,28.689150000000001,0 98.637889000000001,28.700444000000001,0 98.666673000000003,28.712285000000001,0 98.681672000000006,28.730868999999998,0 98.678984,28.771630999999999,0 98.663811999999993,28.785893000000002,0 98.652281000000002,28.815902000000001,0 98.668233999999998,28.843551999999999,0 98.653495000000007,28.857492000000001,0 98.643872000000002,28.893742,0 98.656963000000005,28.927085000000002,0 98.633640999999997,28.940466000000001,0 98.630780000000001,28.972854000000002,0 98.655835999999994,28.976842999999999,0 98.707421999999994,28.965344999999999,0 98.722074000000006,28.981380000000001,0 98.766030000000001,29.005858,0 98.785709999999995,28.998819999999998,0 98.785623000000001,28.987636999999999,0 98.815448000000004,28.948916000000001,0 98.810939000000005,28.929589,0 98.821516000000003,28.920981000000001,0 98.817875000000001,28.896011999999999,0 98.829059000000001,28.845901999999999,0 98.828018999999998,28.821621,0 98.851947999999993,28.798587000000001,0 98.875269000000003,28.808146000000001,0 98.896511000000004,28.799606000000001,0 98.922173000000001,28.806813999999999,0 98.922606999999999,28.823266,0 98.972198000000006,28.834467,0 98.965261999999996,28.851462000000001,0 98.973759000000001,28.864930999999999,0 98.917317999999995,28.887948999999999,0 98.917491999999996,28.915814999999998,0 98.926074999999997,28.978486,0 98.952691000000002,28.987168,0 98.959974000000003,29.003824999999999,0 99.015373999999994,29.042448,0 99.006530999999995,29.077929999999999,0 98.991271999999995,29.105900999999999,0 98.967429999999993,29.128319000000001,0 98.961100999999999,29.169550000000001,0 98.974106000000006,29.181571999999999,0 98.976445999999996,29.204519999999999,0 99.024216999999993,29.188676000000001,0 99.037569000000005,29.207719999999998,0 99.074675999999997,29.210607,0 99.093489000000005,29.223327000000001,0 99.113776000000001,29.221375999999999,0 99.119152,29.198900999999999,0 99.105800000000002,29.166895,0 99.115076999999999,29.154558999999999,0 99.108748000000006,29.138705999999999,0 99.117937999999995,29.102385999999999,0 99.113950000000003,29.072538000000002,0 99.118632000000005,29.033771000000002,0 99.127387999999996,29.018916000000001,0 99.122967000000003,28.998351,0 99.131722999999994,28.949463000000002,0 99.123572999999993,28.890141,0 99.104066000000003,28.841906999999999,0 99.104326,28.814257000000001,0 99.117851000000002,28.779311,0 99.114557000000005,28.762930999999998,0 99.133889999999994,28.734788999999999,0 99.126954999999995,28.699503,0 99.142474000000007,28.676599,0 99.147328999999999,28.641058000000001,0 99.164407999999995,28.632897,0 99.172730999999999,28.613824999999999,0 99.166141999999994,28.595849000000001,0 99.183741999999995,28.588940999999998,0 99.17013,28.565228000000001,0 99.172123999999997,28.545123,0 99.191631999999998,28.496729999999999,0 99.183395000000004,28.472760999999998,0 99.187209999999993,28.439902,0 99.165448999999995,28.424492000000001,0 99.174464999999998,28.403416,0 99.202382,28.374548000000001,0 99.200907999999998,28.3644,0 99.230818999999997,28.348977999999999,0 99.238449000000003,28.317025999999998,0 99.280584000000005,28.298054,0 99.289513999999997,28.286086999999998,0 99.281537999999998,28.259944000000001,0 99.299571,28.259077999999999,0 99.30668,28.227571000000001,0 99.332515999999998,28.216621,0 99.361126999999996,28.181082,0 99.375951999999998,28.180845999999999,0 99.402394999999999,28.150735000000001,0 99.388350000000003,28.183368000000002,0 99.388002999999998,28.21536,0 99.405690000000007,28.262307,0 99.417653999999999,28.266717,0 99.413838999999996,28.29278,0 99.393118000000001,28.317734000000002,0 99.408984000000004,28.331744,0 99.406989999999993,28.357790000000001,0 99.420862,28.368804999999998,0 99.437335000000004,28.398540000000001,0 99.431526000000005,28.415683999999999,0 99.417827000000003,28.416706999999999,0 99.404476000000003,28.444226,0 99.426496999999998,28.452559999999998,0 99.414012999999997,28.476769000000001,0 99.395633000000004,28.493115,0 99.402828999999997,28.514173,0 99.394592000000003,28.524149999999999,0 99.402914999999993,28.545750999999999,0 99.426756999999995,28.555333000000001,0 99.463431,28.549206999999999,0 99.466031999999998,28.579754999999999,0 99.497069999999994,28.602836,0 99.496723000000003,28.616258999999999,0 99.518224000000004,28.613824999999999,0 99.540766000000005,28.623557999999999,0 99.542586,28.670638,0 99.531661999999997,28.679971999999999,0 99.55377,28.710402999999999,0 99.601107999999996,28.726400000000002,0 99.615846000000005,28.742158,0 99.605789000000001,28.771552,0 99.622522000000004,28.795297000000001,0 99.625557000000001,28.814647999999998,0 99.678355999999994,28.810261000000001,0 99.717804000000001,28.846292999999999,0 99.723612000000003,28.810731000000001,0 99.722745000000003,28.755955,0 99.736444000000006,28.73471,0 99.733148999999997,28.7195,0 99.756471000000005,28.700365000000001,0 99.794444999999996,28.699110000000001,0 99.841695999999999,28.653220000000001,0 99.834500000000006,28.628031,0 99.873254000000003,28.631798,0 99.880449999999996,28.607703000000001,0 99.918683999999999,28.599067999999999,0 99.961599000000007,28.561537000000001,0 99.964460000000003,28.539625000000001,0 99.987002000000004,28.524463999999998,0 99.982406999999995,28.503252,0 100.000873999999996,28.464901000000001,0 100.045263000000006,28.446192,0 100.060956000000004,28.447686000000001,0 100.074653999999995,28.424334000000002,0 100.060956000000004,28.405854000000001,0 100.054192999999998,28.376594000000001,0 100.065550999999999,28.370221000000001,0 100.136470000000003,28.350079000000001,0 100.172623000000002,28.321117999999998,0 100.168722000000002,28.296322,0 100.147566999999995,28.288764,0 100.188401999999996,28.252776999999998,0 100.163520000000005,28.233478999999999,0 100.168200999999996,28.220717,0 100.153289000000001,28.208269000000001,0 100.109679999999997,28.203541000000001,0 100.091994,28.182342999999999,0 100.063990000000004,28.193691000000001,0 100.050291999999999,28.181791,0 100.033299,28.184629000000001,0 100.021161000000006,28.147424000000001,0 100.039714000000004,28.13063,0 100.056533999999999,28.097902999999999,0 100.078035,28.041730000000001,0 100.086444999999998,28.030602999999999,0 100.120951000000005,28.018685000000001,0 100.137163000000001,27.996818000000001,0 100.196205000000006,27.937353999999999,0 100.169934999999995,27.90765,0 100.210509999999999,27.877224999999999,0 100.257846999999998,27.864974,0 100.294867999999994,27.869558999999999,0 100.309173000000001,27.859124999999999,0 100.308565999999999,27.830425999999999,0 100.286023999999998,27.805911999999999,0 100.302843999999993,27.792387999999999,0 100.307091999999997,27.748638,0 100.299463000000003,27.736135000000001,0 100.327725999999998,27.720465000000001,0 100.344372000000007,27.734314999999999,0 100.350787999999994,27.755997000000001,0 100.374717000000004,27.754573000000001,0 100.376970999999998,27.775618000000001,0 100.392837,27.787483000000002,0 100.411910000000006,27.816351000000001,0 100.414685000000006,27.840073,0 100.443207999999998,27.866239,0 100.473725999999999,27.859677999999999,0 100.495660999999998,27.844657999999999,0 100.504330999999993,27.85201,0 100.511179999999996,27.827659000000001,0 100.536581999999996,27.824653999999999,0 100.546379000000002,27.808600999999999,0 100.559904000000003,27.824100999999999,0 100.609495999999993,27.859994,0 100.609061999999994,27.876197999999999,0 100.634637999999995,27.915393000000002,0 100.654404999999997,27.910494,0 100.681281999999996,27.922266,0 100.703130000000002,27.888922000000001,0 100.702089999999998,27.867028999999999,0 100.719515999999999,27.858255,0 100.703909999999993,27.818565,0 100.709458999999995,27.798556999999999,0 100.757402999999996,27.766756999999998,0 100.776129999999995,27.739934000000002,0 100.781504999999996,27.693629999999999,0 100.789047999999994,27.684367000000002,0 100.836472000000001,27.681674999999998,0 100.848436000000007,27.670667999999999,0 100.832223999999997,27.650395,0 100.851817999999994,27.643346000000001,0 100.828148999999996,27.6157,0 100.855284999999995,27.623622000000001,0 100.854072000000002,27.596605,0 100.868116999999998,27.591850999999998,0 100.912073000000007,27.521699000000002,0 100.901582000000005,27.486249000000001,0 100.901321999999993,27.453406000000001,0 100.921262999999996,27.471336000000001,0 100.936781999999994,27.469194000000002,0 100.957676000000006,27.439997000000002,0 100.952127000000004,27.426268,0 100.995216999999997,27.368238999999999,0 100.996690000000001,27.355058,0 101.020272000000006,27.344494999999998,0 101.010215000000002,27.312245999999998,0 101.029983000000001,27.294608,0 101.028075000000001,27.266556000000001,0 101.042553999999996,27.247002999999999,0 101.042379999999994,27.221643,0 101.060327000000001,27.198345,0 101.074892000000006,27.194130000000001,0 101.118674999999996,27.208683000000001,0 101.170434,27.195640999999998,0 101.170347000000007,27.175121000000001,0 101.145291,27.103750000000002,0 101.156822000000005,27.095949000000001,0 101.137401999999994,27.022376999999999,0 101.227221,26.984376999999999,0 101.227047999999996,26.958957999999999,0 101.264500999999996,26.955531000000001,0 101.255572000000001,26.923886,0 101.267796000000004,26.902998,0 101.293978999999993,26.896139999999999,0 101.311578999999995,26.902918,0 101.323283000000004,26.888245999999999,0 101.365418000000005,26.883700000000001,0 101.374695000000003,26.865356999999999,0 101.399316999999996,26.841905000000001,0 101.372006999999996,26.800332999999998,0 101.379897,26.786446000000002,0 101.357788999999997,26.770641000000001,0 101.390214,26.749963999999999,0 101.389694000000006,26.723213000000001,0 101.421339000000003,26.724810000000002,0 101.436076999999997,26.740542000000001,0 101.457058000000004,26.729762000000001,0 101.459138999999993,26.747409000000001,0 101.445960999999997,26.774232999999999,0 101.460612999999995,26.786605000000002,0 101.497200000000007,26.770481,0 101.512631999999996,26.769683000000001,0 101.510638,26.754435000000001,0 101.492170999999999,26.746449999999999,0 101.498934000000006,26.732237000000001,0 101.472751000000002,26.721456,0 101.454457000000005,26.703645999999999,0 101.454024000000004,26.691184,0 101.481246999999996,26.673209,0 101.461046999999994,26.640767,0 101.462174000000005,26.607116000000001,0 101.452117000000001,26.600960000000001,0 101.400271000000004,26.605117,0 101.396023,26.592006000000001,0 101.406599999999997,26.556341,0 101.422899000000001,26.531706,0 101.438505000000006,26.538505000000001,0 101.440325999999999,26.511865,0 101.458706000000006,26.495462,0 101.506910000000005,26.499703,0 101.529972000000001,26.467210999999999,0 101.563871000000006,26.455525000000002,0 101.588145999999995,26.425823000000001,0 101.620225000000005,26.408607,0 101.619011,26.396595000000001,0 101.637563999999998,26.389066,0 101.635570000000001,26.357585,0 101.660625999999993,26.346848999999999,0 101.640338999999997,26.318881999999999,0 101.660365999999996,26.310867999999999,0 101.646928000000003,26.305177,0 101.621004999999997,26.312871000000001,0 101.597423000000006,26.303414,0 101.586239000000006,26.279686000000002,0 101.594475000000003,26.261565999999998,0 101.615716000000006,26.252264,0 101.630368000000004,26.224837000000001,0 101.649962000000002,26.234300999999999,0 101.671637000000004,26.231895000000002,0 101.690016999999997,26.241679000000001,0 101.705016000000001,26.224435,0 101.735707000000005,26.219944000000002,0 101.773160000000004,26.168275999999999,0 101.807580000000002,26.156319,0 101.799082999999996,26.146929,0 101.796569000000005,26.114820000000002,0 101.819543999999993,26.087119000000001,0 101.839917999999997,26.082381000000002,0 101.835409999999996,26.045836000000001,0 101.858037999999993,26.04937,0 101.899739999999994,26.099243999999999,0 101.922888,26.107994999999999,0 101.954706999999999,26.084468999999999,0 102.020770999999996,26.096273,0 102.052588999999998,26.075474,0 102.084321000000003,26.065194000000002,0 102.107816,26.068245999999998,0 102.115532000000002,26.085272,0 102.130964000000006,26.087119000000001,0 102.137033000000002,26.108317,0 102.152292000000003,26.109601000000001,0 102.175094000000001,26.147009000000001,0 102.199629000000002,26.158486,0 102.236475999999996,26.185127000000001,0 102.244885999999994,26.21088,0 102.257457000000002,26.220103999999999,0 102.282773000000006,26.220184,0 102.349011000000004,26.244726,0 102.396088000000006,26.297642,0 102.438050000000004,26.300046999999999,0 102.541914000000006,26.338515000000001,0 102.551625000000001,26.362151000000001,0 102.571132000000006,26.362632000000001,0 102.629392999999993,26.336832999999999,0 102.638582999999997,26.307662000000001,0 102.611272999999997,26.282330999999999,0 102.601303000000001,26.249057000000001,0 102.620115999999996,26.245768999999999,0 102.659131000000002,26.221388000000001,0 102.674563000000006,26.205425000000002,0 102.719733000000005,26.218178999999999,0 102.723546999999996,26.245688999999999,0 102.739932999999994,26.268622000000001,0 102.764815999999996,26.277681000000001,0 102.78519,26.298925000000001,0 102.833393999999998,26.306619999999999,0 102.867467000000005,26.338996000000002,0 102.879518000000004,26.365516,0 102.894689999999997,26.338515000000001,0 102.971591000000004,26.340278000000001,0 102.985116000000005,26.345727,0 102.998208000000005,26.371925000000001,0 102.988324000000006,26.409088000000001,0 102.998120999999998,26.450322,0 102.989885000000001,26.482658000000001,0 103.031846999999999,26.486899999999999,0 103.052481,26.514585,0 103.054562000000004,26.541864,0 103.036702000000005,26.555382000000002,0 103.019362000000001,26.594324,0 103.029679000000002,26.601680000000002,0 103.024390999999994,26.641245999999999,0 103.027424999999994,26.662583000000001,0 103.005229999999997,26.680479999999999,0 103.010431999999994,26.701329000000001,0 102.983642000000003,26.765612000000001,0 102.991704999999996,26.774632,0 102.962748000000005,26.840547999999998,0 102.947401999999997,26.844297999999998,0 102.909429000000003,26.902678999999999,0 102.896597,26.911370000000002,0 102.888880999999998,26.951625,0 102.894863000000001,27.001586,0 102.872581999999994,27.022694999999999,0 102.885326000000006,27.059567000000001,0 102.898938000000001,27.076287000000001,0 102.913503000000006,27.140038000000001,0 102.902232999999995,27.195879999999999,0 102.900498999999996,27.237304999999999,0 102.882986000000002,27.259323999999999,0 102.882119000000003,27.293337000000001,0 102.900064999999998,27.317647999999998,0 102.911422999999999,27.349101000000001,0 102.944974999999999,27.410474000000001,0 102.955292,27.411425999999999,0 102.962487999999993,27.389914000000001,0 102.985290000000006,27.367366000000001,0 103.025863999999999,27.382531,0 103.055601999999993,27.409521000000002,0 103.079531000000003,27.397296999999998,0 103.111609000000001,27.401028,0 103.142906999999994,27.421903,0 103.144553999999999,27.45055,0 103.190331,27.523522,0 103.204463000000004,27.529152,0 103.218160999999995,27.562131000000001,0 103.236193999999998,27.570453000000001,0 103.278677000000002,27.561893000000001,0 103.295582999999993,27.566966000000001,0 103.298530999999997,27.601201,0 103.280411000000001,27.617998,0 103.314570000000003,27.655304999999998,0 103.349768999999995,27.678428,0 103.370057000000003,27.708670999999999,0 103.393032000000005,27.709382999999999,0 103.420862,27.742940999999998,0 103.448172,27.755126000000001,0 103.459789000000001,27.777595000000002,0 103.489526999999995,27.797450000000001,0 103.508600999999999,27.839124000000002,0 103.499931000000004,27.877541999999998,0 103.502965000000003,27.911757999999999,0 103.541978999999998,27.953624999999999,0 103.556718000000004,27.955204999999999,0 103.563220999999999,27.977632,0 103.541719000000001,27.966418999999998,0 103.515535999999997,27.965551000000001,0 103.498890000000003,27.984107000000002,0 103.496116000000001,28.022473000000002,0 103.479209999999995,28.033995999999998,0 103.459442999999993,28.021367999999999,0 103.430831999999995,28.044650000000001,0 103.432912999999999,28.072187,0 103.453633999999994,28.087727999999998,0 103.455021000000002,28.123691000000001,0 103.470280000000002,28.122192999999999,0 103.533135999999999,28.16855,0 103.552643000000003,28.191248000000002,0 103.573190999999994,28.230958999999999,0 103.618100999999996,28.243641,0 103.632406000000003,28.260023,0 103.649484999999999,28.25703,0 103.694654999999997,28.227335,0 103.702025000000006,28.198971,0 103.721271999999999,28.201965000000001,0 103.739998,28.236000000000001,0 103.770775999999998,28.233557999999999,0 103.785861999999995,28.254037,0 103.812997999999993,28.265142000000001,0 103.828951000000004,28.284984999999999,0 103.868919000000005,28.300336999999999,0 103.875595000000004,28.322220000000002,0 103.853399999999993,28.356767999999999,0 103.859814999999998,28.383516,0 103.851231999999996,28.406718999999999,0 103.828951000000004,28.439824000000002,0 103.830251000000004,28.458376999999999,0 103.810396999999995,28.495394000000001,0 103.783693999999997,28.526585000000001,0 103.800686999999996,28.533812000000001,0 103.801381000000006,28.561851000000001,0 103.835453000000001,28.582581000000001,0 103.834845999999999,28.622302000000001,0 103.851146,28.667107000000001,0 103.873687000000004,28.652750000000001,0 103.874640999999997,28.626462,0 103.896315000000001,28.619712,0 103.909926999999996,28.631249,0 103.936717000000002,28.622616000000001,0 103.942526000000001,28.603071,0 104.059567999999999,28.627638999999999,0 104.089652999999998,28.604012999999998,0 104.103351000000004,28.606290000000001,0 104.125198999999995,28.637291999999999,0 104.170368999999994,28.64302,0 104.190396000000007,28.634153000000001,0 104.231058000000004,28.635801000000001,0 104.241461000000001,28.660831000000002,0 104.252645000000001,28.660674,0 104.269638,28.635173000000002,0 104.296428000000006,28.634388000000001,0 104.314895000000007,28.615631,0 104.343939000000006,28.640979999999999,0 104.374110000000002,28.649297000000001,0 104.404888,28.640666,0 104.425262000000004,28.626697,0 104.417286000000004,28.598047000000001,0 104.387720999999999,28.598911000000001,0 104.368387999999996,28.585957000000001,0 104.356769999999997,28.555726,0 104.330933999999999,28.559730999999999,0 104.323477999999994,28.541195999999999,0 104.287757999999997,28.532556,0 104.262009000000006,28.536954000000001,0 104.248311000000001,28.528392,0 104.248656999999994,28.509616000000001,0 104.266690999999994,28.502072999999999,0 104.261142000000007,28.482585,0 104.269812000000002,28.468359,0 104.258368000000004,28.453188000000001,0 104.267644000000004,28.420480999999999,0 104.254900000000006,28.410101000000001,0 104.278395000000003,28.346616999999998,0 104.30189,28.328517000000002,0 104.290012000000004,28.314743,0 104.313941,28.306635,0 104.340991000000002,28.332688000000001,0 104.358243999999999,28.338905,0 104.384773999999993,28.330090999999999,0 104.393617000000006,28.289944999999999,0 104.408269000000004,28.269867000000001,0 104.447282999999999,28.271204999999998,0 104.444074999999998,28.259235,0 104.460808,28.244350000000001,0 104.435839000000001,28.209292999999999,0 104.402287000000001,28.202832000000001,0 104.406362000000001,28.173358,0 104.444682,28.162087,0 104.451010999999994,28.116358000000002,0 104.433757999999997,28.113913,0 104.421447000000001,28.097193000000001,0 104.400639999999996,28.091514,0 104.398124999999993,28.068795000000001,0 104.376451000000003,28.052303999999999,0 104.341425000000001,28.057907,0 104.304057999999998,28.050726000000001,0 104.298768999999993,28.043861,0 104.326599000000002,28.025473000000002,0 104.356162999999995,28.018447999999999,0 104.378792000000004,27.993739000000001,0 104.383472999999995,27.968709,0 104.401160000000004,27.952283000000001,0 104.451965000000001,27.926216,0 104.468176999999997,27.907412999999998,0 104.496181000000007,27.896902999999998,0 104.509533000000005,27.877700000000001,0 104.526698999999994,27.889475000000001,0 104.558344000000005,27.867978000000001,0 104.557997,27.852643,0 104.580884999999995,27.842048999999999,0 104.607934999999998,27.858176,0 104.633598000000006,27.850902999999999,0 104.679113999999998,27.882283999999999,0 104.743705000000006,27.90204,0 104.766679999999994,27.884733000000001,0 104.795289999999994,27.900538000000001,0 104.858407,27.902435000000001,0 104.887017,27.913022000000002,0 104.894733000000002,27.934906000000002,0 104.921088999999995,27.941699,0 104.903056000000007,27.960417,0 104.929238999999995,27.984976,0 104.947098999999994,27.980554000000001,0 104.946926000000005,27.994845000000002,0 104.975015999999997,28.019869,0 104.976315999999997,28.060116000000001,0 105.011082000000002,28.066742999999999,0 105.059112999999996,28.098140000000001,0 105.078273999999993,28.083310000000001,0 105.108097999999998,28.081102000000001,0 105.144250999999997,28.066663999999999,0 105.166359,28.071950000000001,0 105.185518999999999,28.056802000000001,0 105.183785,28.040310000000002,0 105.167573000000004,28.023657,0 105.184392000000003,27.996424000000001,0 105.215603999999999,27.990580999999999,0 105.248808999999994,28.008106999999999,0 105.270830000000004,27.995792000000002,0 105.268749999999997,27.983160000000002,0 105.283401999999995,27.959944,0 105.280887000000007,27.929138999999999,0 105.264155000000002,27.9116,0 105.248202000000006,27.912469000000002,0 105.232682999999994,27.892952000000001,0 105.250196000000003,27.844816000000002,0 105.24118,27.830822000000001,0 105.274384999999995,27.817142,0 105.314179999999993,27.819434999999999,0 105.273865000000001,27.795235000000002,0 105.292939000000004,27.771267000000002,0 105.287909999999997,27.742387000000001,0 105.290510999999995,27.71247,0 105.305683000000002,27.707878999999998,0 105.301348000000004,27.682783000000001,0 105.309844999999996,27.654989,0 105.295018999999996,27.632891000000001,0 105.304295999999994,27.611896999999999,0 105.257912000000005,27.583687999999999,0 105.234763999999998,27.540171999999998,0 105.246728000000004,27.545166999999999,0 105.260166999999996,27.519636999999999,0 105.248029000000002,27.494657,0 105.235890999999995,27.490532000000002,0 105.239012000000002,27.469829000000001,0 105.226094000000003,27.441108,0 105.232770000000002,27.436346,0 105.213262999999998,27.401107,0 105.182658000000004,27.367604,0 105.184738999999993,27.392455000000002,0 105.167225999999999,27.408806999999999,0 105.150926999999996,27.404997000000002,0 105.121448999999998,27.418489999999998,0 105.097173999999995,27.411902999999999,0 105.070384000000004,27.419046000000002,0 105.031456000000006,27.400234000000001,0 105.012123000000003,27.380229,0 104.943804,27.346639,0 104.913546999999994,27.327100999999999,0 104.904096999999993,27.306049000000002,0 104.871238000000005,27.290873000000001,0 104.850516999999996,27.304300999999999,0 104.856498999999999,27.332581000000001,0 104.826068000000006,27.352357000000001,0 104.808988999999997,27.35474,0 104.789135000000002,27.321064,0 104.771015000000006,27.317409000000001,0 104.754368999999997,27.345369000000002,0 104.735641999999999,27.334647,0 104.722637000000006,27.34243,0 104.686137000000002,27.334804999999999,0 104.680242000000007,27.319634000000001,0 104.630824000000004,27.317886000000001,0 104.611316000000002,27.307002000000001,0 104.594757000000001,27.311292000000002,0 104.570221000000004,27.331707999999999,0 104.539356999999995,27.329722,0 104.507625000000004,27.387533000000001,0 104.517249000000007,27.400393000000001,0 104.490892000000002,27.401900999999999,0 104.497654999999995,27.411584999999999,0 104.467136999999994,27.414283999999999,0 104.416591999999994,27.435552999999999,0 104.410176000000007,27.457929,0 104.353128999999996,27.466894,0 104.332755000000006,27.444044000000002,0 104.342637999999994,27.436346,0 104.322438000000005,27.407854,0 104.308825999999996,27.407298999999998,0 104.295821000000004,27.374670999999999,0 104.270419000000004,27.360934,0 104.247877000000003,27.336393999999999,0 104.259928000000002,27.308353,0 104.250390999999993,27.291509000000001,0 104.210857000000004,27.297229999999999,0 104.219179999999994,27.279827999999998,0 104.190483,27.287694999999999,0 104.174183999999997,27.263058999999998,0 104.131528000000003,27.306605000000001,0 104.134215999999995,27.322334999999999,0 104.113840999999994,27.337982,0 104.084363999999994,27.330992999999999,0 104.057834,27.355613000000002,0 104.029831000000001,27.368001,0 104.017520000000005,27.384516000000001,0 104.015265999999997,27.429283999999999,0 103.992637000000002,27.419681000000001,0 103.956484000000003,27.425395000000002,0 103.932468999999998,27.443964000000001,0 103.925880000000006,27.413886999999999,0 103.904899,27.384595000000001,0 103.903338000000005,27.349737000000001,0 103.885738000000003,27.330755,0 103.874033999999995,27.330356999999999,0 103.865450999999993,27.281735000000001,0 103.845510000000004,27.287535999999999,0 103.824876000000003,27.264171999999999,0 103.802334000000002,27.267271999999998,0 103.801381000000006,27.250738999999999,0 103.764533999999998,27.212022000000001,0 103.749622000000002,27.211307000000001,0 103.696216000000007,27.126670000000001,0 103.674715000000006,27.131125999999998,0 103.624516,27.112186000000001,0 103.620441,27.096744999999999,0 103.653300000000002,27.092606,0 103.659801999999999,27.065778000000002,0 103.617926999999995,27.079789999999999,0 103.601454000000004,27.062194999999999,0 103.623649,27.035359,0 103.628157999999999,27.016083999999999,0 103.614373000000001,27.005410000000001,0 103.653907000000004,27.022855,0 103.675582000000006,27.051684000000002,0 103.705145999999999,27.049136000000001,0 103.730635000000007,27.021101999999999,0 103.754216999999997,26.963101999999999,0 103.775110999999995,26.950907999999998,0 103.777191999999999,26.934967,0 103.765227999999993,26.916871,0 103.774071000000006,26.866952000000001,0 103.722224999999995,26.851478,0 103.707920000000001,26.829858000000002,0 103.705665999999994,26.794746,0 103.720490999999996,26.770721000000002,0 103.725432999999995,26.742778000000001,0 103.749968999999993,26.725928,0 103.767394999999993,26.736070000000002,0 103.773376999999996,26.716904,0 103.759418999999994,26.689426999999998,0 103.760979000000006,26.648997999999999,0 103.748407999999998,26.624222,0 103.770690000000002,26.597522999999999,0 103.764100999999997,26.586009000000001,0 103.814905999999993,26.553622000000001,0 103.819327000000001,26.530266000000001,0 103.840828999999999,26.531865,0 103.865623999999997,26.512264999999999,0 103.887646000000004,26.517545999999999,0 103.916690000000003,26.513224999999998,0 103.955184000000003,26.521546000000001,0 104.000960000000006,26.519705999999999,0 104.008675999999994,26.511785,0 104.042574999999999,26.514344999999999,0 104.052546000000007,26.507144,0 104.071966000000003,26.519145999999999,0 104.064423000000005,26.560420000000001,0 104.068498000000005,26.573374999999999,0 104.093901000000002,26.596402999999999,0 104.121037000000001,26.637810000000002,0 104.160572000000002,26.646840000000001,0 104.174357000000001,26.635252000000001,0 104.190916000000001,26.638608999999999,0 104.203574000000003,26.626539999999999,0 104.229844,26.619906,0 104.248917000000006,26.626860000000001,0 104.271458999999993,26.619426000000001,0 104.289665999999997,26.633654,0 104.312640999999999,26.612791999999999,0 104.348793999999998,26.619506000000001,0 104.365007000000006,26.642765000000001,0 104.379919000000001,26.648838000000001,0 104.398212000000001,26.685911999999998,0 104.398819000000003,26.707719000000001,0 104.421273999999997,26.712032000000001,0 104.441734999999994,26.68703,0 104.442688000000004,26.67257,0 104.467831000000004,26.644922000000001,0 104.458293999999995,26.610552999999999,0 104.463496000000006,26.595763999999999,0 104.487510999999998,26.579533000000001,0 104.500688999999994,26.589286999999999,0 104.542304999999999,26.584810000000001,0 104.556522999999999,26.590406999999999,0 104.579672000000002,26.568097000000002,0 104.570655000000002,26.524585999999999,0 104.593109999999996,26.522746000000001,0 104.615131000000005,26.508984999999999,0 104.638626000000002,26.478096000000001,0 104.632210999999998,26.451843,0 104.642094,26.439114,0 104.664895999999999,26.434951000000002,0 104.665415999999993,26.396273999999998,0 104.680935000000005,26.378733,0 104.680502000000004,26.364153999999999,0 104.658394000000001,26.354299999999999,0 104.659520999999998,26.335550999999999,0 104.621979999999994,26.328980000000001,0 104.591808999999998,26.317119000000002,0 104.580365,26.292992999999999,0 104.555308999999994,26.273512,0 104.542044000000004,26.253146000000001,0 104.549847,26.216173999999999,0 104.528693000000004,26.175177000000001,0 104.519503,26.168116000000001,0 104.518895999999998,26.132802000000002,0 104.526698999999994,26.100368,0 104.503550000000004,26.072583000000002,0 104.459941000000001,26.085833999999998,0 104.456733,26.072101,0 104.472773000000004,26.053305999999999,0 104.462368999999995,26.029608,0 104.470517999999998,26.009520999999999,0 104.462455000000006,25.985973999999999,0 104.443989000000002,25.959849999999999,0 104.438353000000006,25.927689999999998,0 104.414597999999998,25.909918000000001,0 104.418413000000001,25.892786000000001,0 104.434278000000006,25.895199000000002,0 104.441907999999998,25.869136000000001,0 104.423614999999998,25.842182000000001,0 104.430897000000002,25.821660000000001,0 104.403239999999997,25.798477999999999,0 104.397952000000004,25.761523,0 104.373069000000001,25.731563999999999,0 104.328852999999995,25.760477000000002,0 104.322264000000004,25.732692,0 104.323477999999994,25.703451000000001,0 104.311687000000006,25.647123000000001,0 104.312988000000004,25.632936999999998,0 104.331021000000007,25.615604000000001,0 104.334834999999998,25.598106999999999,0 104.357636999999997,25.600283999999998,0 104.368994999999998,25.583349999999999,0 104.389109000000005,25.595445999999999,0 104.421706999999998,25.58464,0 104.423181,25.563752000000001,0 104.434191999999996,25.555444000000001,0 104.436186000000006,25.520430000000001,0 104.418672999999998,25.499369000000002,0 104.434712000000005,25.472249999999999,0 104.449710999999994,25.495011000000002,0 104.481789000000006,25.494446,0 104.524530999999996,25.526805,0 104.547766999999993,25.516638,0 104.556956999999997,25.524142000000001,0 104.540571,25.402730999999999,0 104.559990999999997,25.394169000000002,0 104.567794000000006,25.402892000000001,0 104.615998000000005,25.364602999999999,0 104.645821999999995,25.356766,0 104.640967000000003,25.294858999999999,0 104.662035000000003,25.284835000000001,0 104.671225000000007,25.293485,0 104.707205000000002,25.296880000000002,0 104.709546000000003,25.281763000000002,0 104.735901999999996,25.267855999999998,0 104.754194999999996,25.275942000000001,0 104.779944999999998,25.270039000000001,0 104.796677000000003,25.253544000000002,0 104.817397999999997,25.261064000000001,0 104.827974999999995,25.237127000000001,0 104.807168000000004,25.224024,0 104.815837999999999,25.198381000000001,0 104.808642000000006,25.190290000000001,0 104.823034000000007,25.171275000000001,0 104.804739999999995,25.161645,0 104.777343999999999,25.186406000000002,0 104.767200000000003,25.204447999999999,0 104.745958999999999,25.213266000000001,0 104.724543999999995,25.195710999999999,0 104.734948000000003,25.174188000000001,0 104.718301999999994,25.140926,0 104.695673999999997,25.121822999999999,0 104.686483999999993,25.076236999999999,0 104.670964999999995,25.066842999999999,0 104.619552999999996,25.060687999999999,0 104.683796000000001,25.054856000000001,0 104.700529000000003,25.036306,0 104.713014000000001,24.996199000000001,0 104.687697999999997,24.988095000000001,0 104.687004000000002,24.974965999999998,0 104.663421999999997,24.963132000000002,0 104.663942000000006,24.951053999999999,0 104.638712999999996,24.918299000000001,0 104.635418999999999,24.903945,0 104.596317999999997,24.88448,0 104.539789999999996,24.813894999999999,0 104.542390999999995,24.755773000000001,0 104.520283000000006,24.727188999999999,0 104.499476000000001,24.668865,0 104.475286999999994,24.645136999999998,0 104.505544,24.626688000000001,0 104.502769999999998,24.590758000000001,0 104.515514999999994,24.564250999999999,0 104.520889999999994,24.535053999999999,0 104.534762000000001,24.535053999999999,0 104.549933999999993,24.518215999999999,0 104.547246000000001,24.488927,0 104.567014,24.472652,0 104.578023999999999,24.420152000000002,0 104.616344999999995,24.421779999999998,0 104.629869999999997,24.397843000000002,0 104.610969999999995,24.377158999999999,0 104.660820999999999,24.355657000000001,0 104.683708999999993,24.330648,0 104.708939000000001,24.321279000000001,0 104.721075999999996,24.340017,0 104.703737000000004,24.421372999999999,0 104.717262000000005,24.442782999999999,0 104.752894999999995,24.435945,0 104.752808000000002,24.455235999999999,0 104.768153999999996,24.459305000000001,0 104.784972999999994,24.443840999999999,0 104.836645000000004,24.44669,0 104.913893999999999,24.426258000000001,0 104.929845999999998,24.410871,0 104.979957999999996,24.412906,0 105.019405000000006,24.438713,0 105.054604999999995,24.439283,0 105.108964999999998,24.412336,0 105.102896000000001,24.382290000000001,0 105.116767999999993,24.37154,0 105.144598000000002,24.375612,0 105.187860000000001,24.347104000000002,0 105.196789999999993,24.326982000000001,0 105.171648000000005,24.299605,0 105.168352999999996,24.277681999999999,0 105.179884000000001,24.252413000000001,0 105.201297999999994,24.248173999999999,0 105.215256999999994,24.214908000000001,0 105.232770000000002,24.219311999999999,0 105.243087000000003,24.206754,0 105.229562000000001,24.165728000000001,0 105.182832000000005,24.167033,0 105.181877999999998,24.132849,0 105.200604999999996,24.105347999999999,0 105.234937000000002,24.074984000000001,0 105.260166999999996,24.061267999999998,0 105.293025,24.074819999999999,0 105.273171000000005,24.092860000000002,0 105.293544999999995,24.113181999999998,0 105.318948000000006,24.117180999999999,0 105.345911000000001,24.086167,0 105.396803000000006,24.064616000000001,0 105.413015999999999,24.038978,0 105.461046999999994,24.029586999999999,0 105.494771999999998,24.017909,0 105.509251000000006,24.024851000000002,0 105.504743000000005,24.044367000000001,0 105.518094000000005,24.075880999999999,0 105.517747,24.096696000000001,0 105.545664000000002,24.123628,0 105.595256000000006,24.137826,0 105.628461000000001,24.126564999999999,0 105.628201000000004,24.103470000000002,0 105.643372999999997,24.063718000000001,0 105.649441999999993,24.033099,0 105.675364999999999,24.038080000000001,0 105.700247000000005,24.065594999999998,0 105.739348000000007,24.059472,0 105.765358000000006,24.073758999999999,0 105.790413000000001,24.069841,0 105.801944000000006,24.052206000000002,0 105.789372999999998,24.039467999999999,0 105.796481999999997,24.023707000000002,0 105.841479000000007,24.030812000000001,0 105.859251999999998,24.056778000000001,0 105.892284000000004,24.040285000000001,0 105.907889999999995,24.069514000000002,0 105.902168000000003,24.099308000000001,0 105.910144000000003,24.114896000000002,0 105.933291999999994,24.123791000000001,0 105.963809999999995,24.111059999999998,0 105.998316000000003,24.124199000000001,0 106.011841000000004,24.099471000000001,0 106.024238999999994,24.103307000000001,0 106.052502000000004,24.084208,0 106.054322999999997,24.049838000000001,0 106.075477000000006,24.028444,0 106.096545000000006,24.017909,0 106.090215999999998,23.99896,0 106.127757000000003,23.956886999999998,0 106.139114000000006,23.921012000000001,0 106.155500000000004,23.893955999999999,0 106.192434000000006,23.878914000000002,0 106.192087000000001,23.862397999999999,0 106.172839999999994,23.861661999999999,0 106.192260000000005,23.824778999999999,0 106.155672999999993,23.813818000000001,0 106.136859999999999,23.795411999999999,0 106.145009999999999,23.744271000000001,0 106.157320999999996,23.724136000000001,0 106.149518,23.665431999999999,0 106.137293,23.632097999999999,0 106.120733999999999,23.605391999999998,0 106.124896000000007,23.585891,0 106.141454999999993,23.569665000000001,0 106.120560999999995,23.559256999999999,0 106.107296000000005,23.533684000000001,0 106.086228000000006,23.524173999999999,0 106.072182999999995,23.495642,0 106.036029999999997,23.482686000000001,0 106.010540000000006,23.455867000000001,0 105.991814000000005,23.448321,0 105.997361999999995,23.474074999999999,0 105.986265000000003,23.489574000000001,0 105.959908999999996,23.494166,0 105.935806999999997,23.508925000000001,0 105.912918000000005,23.499331999999999,0 105.892024000000006,23.524830000000001,0 105.852402999999995,23.526962000000001,0 105.813822000000002,23.502202,0 105.806192999999993,23.467431999999999,0 105.758681999999993,23.459558000000001,0 105.738048000000006,23.430682999999998,0 105.6999,23.401392999999999,0 105.671897000000001,23.408612999999999,0 105.647535000000005,23.398109999999999,0 105.668862000000004,23.387934999999999,0 105.694265000000001,23.363313000000002,0 105.674150999999995,23.348372999999999,0 105.700593999999995,23.328423999999998,0 105.671637000000004,23.326453999999998,0 105.666955000000002,23.346813999999998,0 105.593260999999998,23.312577999999998,0 105.569680000000005,23.282439,0 105.560316,23.257304999999999,0 105.531791999999996,23.248186,0 105.526416999999995,23.234549000000001,0 105.546357999999998,23.200119000000001,0 105.542630000000003,23.184256999999999,0 105.501968000000005,23.202749000000001,0 105.497200000000007,23.220745000000001,0 105.475785000000002,23.249500999999999,0 105.459918999999999,23.259440999999999,0 105.439632000000003,23.296565000000001,0 105.415790000000001,23.283753000000001,0 105.393508999999995,23.308308,0 105.373133999999993,23.317668000000001,0 105.355187999999998,23.341888000000001,0 105.349378999999999,23.368811999999998,0 105.325536999999997,23.390067999999999,0 105.279414000000003,23.339424999999999,0 105.261294000000007,23.338111999999999,0 105.260080000000002,23.317914999999999,0 105.244213999999999,23.289256000000002,0 105.238145000000003,23.264286999999999,0 105.182051000000001,23.278907,0 105.122142999999994,23.247693999999999,0 105.108183999999994,23.245885999999999,0 105.093186000000003,23.261084,0 105.055211999999997,23.245228999999998,0 105.036137999999994,23.224606999999999,0 105.003625999999997,23.213021000000001,0 104.997297000000003,23.196092,0 104.973714999999999,23.197406999999998,0 104.958803000000003,23.188613,0 104.948832999999993,23.152199,0 104.920483000000004,23.164037,0 104.912593000000001,23.175792000000001,0 104.886583999999999,23.168804999999999,0 104.874272000000005,23.123422999999999,0 104.856413000000003,23.123422999999999,0 104.804479999999998,23.110019000000001,0 104.807861000000003,23.080656999999999,0 104.816964999999996,23.072925000000001,0 104.820779999999999,23.032201000000001,0 104.837425999999994,22.994344999999999,0 104.860314000000002,22.970967999999999,0 104.861614000000003,22.940011999999999,0 104.846269000000007,22.926342000000002,0 104.772661999999997,22.893481999999999,0 104.760958000000002,22.862507999999998,0 104.732781000000003,22.852125999999998,0 104.737723000000003,22.826004999999999,0 104.674172999999996,22.817187000000001,0 104.657786999999999,22.830867000000001,0 104.620333000000002,22.834987999999999,0 104.614870999999994,22.813148999999999,0 104.595450999999997,22.846276,0 104.579498000000001,22.846359,0 104.559383999999994,22.828313000000001,0 104.527826000000005,22.814219999999999,0 104.525919000000002,22.802764,0 104.501555999999994,22.776633,0 104.456733,22.747776999999999,0 104.422747999999999,22.734995000000001,0 104.402894000000003,22.702335999999999,0 104.376017000000004,22.690127,0 104.344545999999994,22.704563,0 104.340817999999999,22.719325999999999,0 104.322524000000001,22.728974999999998,0 104.299982999999997,22.728480000000001,0 104.272065999999995,22.738541000000001,0 104.256634000000005,22.773913,0 104.274232999999995,22.827901000000001,0 104.261488999999997,22.841992000000001,0 104.224035000000001,22.826335,0 104.168460999999994,22.819659999999999,0 104.137249999999995,22.803011000000001,0 104.117395999999999,22.808945000000001,0 104.093380999999994,22.773994999999999,0 104.067110999999997,22.753961,0 104.045349999999999,22.728151,0 104.031478000000007,22.684764999999999,0 104.036247000000003,22.666533000000001,0 104.030957999999998,22.626760000000001,0 104.009022999999999,22.572692,0 104.015351999999993,22.542141000000001,0 104.008242999999993,22.517199999999999,0 103.964200000000005,22.502827,0 103.930301,22.534956000000001,0 103.889725999999996,22.566583000000001,0 103.878629000000004,22.563528000000002,0 103.863543000000007,22.584085000000002,0 103.826956999999993,22.613966999999999,0 103.769649000000001,22.687239999999999,0 103.754649999999998,22.686662999999999,0 103.741386000000006,22.706872000000001,0 103.708267000000006,22.738375999999999,0 103.685638999999995,22.750250000000001,0 103.664396999999994,22.782239000000001,0 103.643416000000002,22.794604,0 103.620527999999993,22.783888000000001,0 103.612465,22.756682000000001,0 103.584635000000006,22.728480000000001,0 103.567902000000004,22.700932999999999,0 103.580039999999997,22.668265000000002,0 103.573363999999998,22.641943999999999,0 103.554723999999993,22.633939000000002,0 103.533655999999993,22.593495999999998,0 103.508947000000006,22.601008,0 103.458229000000003,22.658365,0 103.460482999999996,22.676763000000001,0 103.435513999999998,22.698789000000001,0 103.432826000000006,22.732769000000001,0 103.441063,22.752970999999999,0 103.415053,22.773417999999999,0 103.390691000000004,22.778859000000001,0 103.375172000000006,22.794933,0 103.323325999999994,22.807874000000002,0 103.321419000000006,22.778034999999999,0 103.287953000000002,22.731202,0 103.290380999999996,22.705469999999998,0 103.282751000000005,22.678495999999999,0 103.248159000000001,22.665624999999999,0 103.216514000000004,22.643595000000001,0 103.195880000000002,22.648381000000001,0 103.166662000000002,22.609014999999999,0 103.164581999999996,22.580204999999999,0 103.183829000000003,22.557665,0 103.157559000000006,22.538589999999999,0 103.139438999999996,22.537846999999999,0 103.118977999999998,22.518273000000001,0 103.083518999999995,22.508444000000001,0 103.072074999999998,22.488206000000002,0 103.081784999999996,22.454248,0 103.071988000000005,22.445323999999999,0 103.030198999999996,22.44144,0 103.009738999999996,22.458874999999999,0 102.993352999999999,22.460940999999998,0 102.985116000000005,22.478375,0 102.928849,22.483661999999999,0 102.924254000000005,22.503654000000001,0 102.892002000000005,22.534956000000001,0 102.874576000000005,22.571124000000001,0 102.880125000000007,22.586891999999999,0 102.858969999999999,22.607281,0 102.823424000000003,22.623128000000001,0 102.801056000000003,22.620487000000001,0 102.787097000000003,22.641532000000002,0 102.758313000000001,22.650525999999999,0 102.750684000000007,22.666862999999999,0 102.737071999999998,22.665130000000001,0 102.692162999999994,22.699614,0 102.657397000000003,22.688148000000002,0 102.607371999999998,22.730706999999999,0 102.570437999999996,22.700272999999999,0 102.565755999999993,22.717842000000001,0 102.511916999999997,22.773171000000001,0 102.498131999999998,22.777787,0 102.459723999999994,22.762865000000001,0 102.456255999999996,22.731202,0 102.436488999999995,22.699531,0 102.407792000000001,22.682043,0 102.384557000000001,22.679732999999999,0 102.403631000000004,22.645244999999999,0 102.418890000000005,22.638065999999998,0 102.404843999999997,22.629978000000001,0 102.376928000000007,22.593744000000001,0 102.347537000000003,22.585241,0 102.356727000000006,22.563610000000001,0 102.322568000000004,22.554031999999999,0 102.256157000000002,22.457388000000002,0 102.270201999999998,22.419620999999999,0</coordinates></LinearRing></outerBoundaryIs></Polygon></Placemark>
</Document>
</kml>