<?xml version="1.0" encoding="UTF-8"?>
<kml xmlns="http://www.opengis.net/kml/2.2">
  <Document>
    <name>大理白族自治州</name>
    <Placemark>
      <name>大理白族自治州</name>
      <Polygon><outerBoundaryIs><LinearRing><coordinates>98.888014000000,25.634791000000,0 98.915064000000,25.627294000000,0 98.954165000000,25.638499000000,0 99.010952000000,25.629067000000,0 99.002543000000,25.561171000000,0 99.056296000000,25.564478000000,0 99.078750000000,25.522609000000,0 99.066353000000,25.496867000000,0 99.088461000000,25.466923000000,0 99.123400000000,25.475156000000,0 99.161287000000,25.498159000000,0 99.154871000000,25.520269000000,0 99.188684000000,25.514459000000,0 99.217988000000,25.539229000000,0 99.252407000000,25.546490000000,0 99.291942000000,25.520430000000,0 99.329915000000,25.514137000000,0 99.325927000000,25.496141000000,0 99.353064000000,25.459657000000,0 99.341099000000,25.438263000000,0 99.345261000000,25.412341000000,0 99.335377000000,25.407415000000,0 99.285786000000,25.423809000000,0 99.295670000000,25.375105000000,0 99.285179000000,25.365492000000,0 99.305033000000,25.345454000000,0 99.314743000000,25.323958000000,0 99.343527000000,25.287179000000,0 99.358959000000,25.287988000000,0 99.388090000000,25.235995000000,0 99.429965000000,25.197976000000,0 99.462304000000,25.157032000000,0 99.506346000000,25.118908000000,0 99.543280000000,25.131294000000,0 99.554464000000,25.117451000000,0 99.628071000000,25.093162000000,0 99.655207000000,25.067653000000,0 99.678096000000,25.066276000000,0 99.693615000000,25.051130000000,0 99.737658000000,25.060607000000,0 99.734536000000,25.073160000000,0 99.754910000000,25.085145000000,0 99.825223000000,25.087251000000,0 99.825570000000,25.109841000000,0 99.859295000000,25.154766000000,0 99.853486000000,25.174350000000,0 99.879149000000,25.190371000000,0 99.895622000000,25.190371000000,0 99.928567000000,25.204286000000,0 99.926747000000,25.186083000000,0 99.940878000000,25.162212000000,0 99.959432000000,25.151367000000,0 99.978505000000,25.118504000000,0 99.981193000000,25.098425000000,0 99.994545000000,25.107169000000,0 100.021681000000,25.108222000000,0 100.038847000000,25.099397000000,0 100.029224000000,25.084821000000,0 100.046650000000,25.052669000000,0 100.014919000000,25.035739000000,0 99.993764000000,25.032741000000,0 100.014745000000,25.016538000000,0 100.025409000000,24.953648000000,0 100.060695000000,24.947325000000,0 100.075174000000,24.978208000000,0 100.101184000000,24.988258000000,0 100.146007000000,24.980315000000,0 100.182593000000,24.983962000000,0 100.185368000000,24.973831000000,0 100.210077000000,24.966780000000,0 100.198372000000,24.909054000000,0 100.179472000000,24.877667000000,0 100.180513000000,24.861524000000,0 100.150948000000,24.818115000000,0 100.152942000000,24.792630000000,0 100.135429000000,24.762918000000,0 100.131441000000,24.733524000000,0 100.094768000000,24.712002000000,0 100.098409000000,24.667077000000,0 100.126673000000,24.663421000000,0 100.137597000000,24.705097000000,0 100.170716000000,24.722235000000,0 100.190049000000,24.738965000000,0 100.238254000000,24.741888000000,0 100.294521000000,24.757478000000,0 100.321484000000,24.758046000000,0 100.338390000000,24.745867000000,0 100.350875000000,24.750495000000,0 100.369948000000,24.726621000000,0 100.385814000000,24.728570000000,0 100.408182000000,24.707291000000,0 100.420060000000,24.708346000000,0 100.442081000000,24.732549000000,0 100.512914000000,24.736204000000,0 100.514995000000,24.719799000000,0 100.531034000000,24.709890000000,0 100.565366000000,24.703879000000,0 100.623974000000,24.745542000000,0 100.631257000000,24.786298000000,0 100.643742000000,24.822010000000,0 100.689865000000,24.807970000000,0 100.695847000000,24.795877000000,0 100.739023000000,24.784269000000,0 100.747433000000,24.784188000000,0 100.743271000000,24.813570000000,0 100.762692000000,24.816329000000,0 100.759050000000,24.831748000000,0 100.743271000000,24.837103000000,0 100.736942000000,24.867771000000,0 100.760958000000,24.895511000000,0 100.758097000000,24.933785000000,0 100.743531000000,24.933704000000,0 100.738329000000,24.955107000000,0 100.720556000000,24.973669000000,0 100.742404000000,24.990608000000,0 100.780291000000,25.005113000000,0 100.746913000000,25.046432000000,0 100.772489000000,25.061416000000,0 100.750727000000,25.102554000000,0 100.759137000000,25.127246000000,0 100.750901000000,25.148292000000,0 100.775176000000,25.181552000000,0 100.779251000000,25.201536000000,0 100.801619000000,25.202021000000,0 100.819826000000,25.192636000000,0 100.817918000000,25.227987000000,0 100.830403000000,25.232759000000,0 100.818525000000,25.271252000000,0 100.828929000000,25.276669000000,0 100.848176000000,25.261792000000,0 100.888404000000,25.254029000000,0 100.907565000000,25.241009000000,0 100.933921000000,25.242546000000,0 100.944065000000,25.259366000000,0 100.981085000000,25.250552000000,0 100.988107000000,25.266563000000,0 100.960971000000,25.301569000000,0 100.974236000000,25.306095000000,0 100.969467000000,25.324766000000,0 100.992789000000,25.331554000000,0 100.995997000000,25.344969000000,0 101.034924000000,25.348363000000,0 101.027035000000,25.370420000000,0 101.035618000000,25.403296000000,0 101.017325000000,25.413149000000,0 100.980998000000,25.412261000000,0 100.979351000000,25.424455000000,0 100.952388000000,25.440523000000,0 100.957763000000,25.459657000000,0 100.941464000000,25.473623000000,0 100.947793000000,25.525836000000,0 100.957156000000,25.560041000000,0 101.002066000000,25.562058000000,0 101.001459000000,25.587866000000,0 100.987500000000,25.656312000000,0 100.948139000000,25.657359000000,0 100.956289000000,25.676620000000,0 100.933401000000,25.699826000000,0 100.965566000000,25.728504000000,0 100.973455000000,25.745095000000,0 100.934788000000,25.741632000000,0 100.948920000000,25.766757000000,0 100.924211000000,25.801940000000,0 100.898635000000,25.809506000000,0 100.889618000000,25.822545000000,0 100.934788000000,25.860125000000,0 100.916494000000,25.878388000000,0 100.950307000000,25.898738000000,0 100.962098000000,25.945942000000,0 100.943978000000,25.970381000000,0 100.921003000000,25.967326000000,0 100.904443000000,25.992564000000,0 100.920049000000,26.014824000000,0 100.940943000000,26.029849000000,0 100.937042000000,26.043185000000,0 100.914500000000,26.053547000000,0 100.919529000000,26.151744000000,0 100.909905000000,26.166912000000,0 100.895253000000,26.151985000000,0 100.865689000000,26.153510000000,0 100.851124000000,26.169159000000,0 100.827975000000,26.178307000000,0 100.823467000000,26.197242000000,0 100.788701000000,26.183923000000,0 100.770668000000,26.186651000000,0 100.762778000000,26.168276000000,0 100.740930000000,26.155757000000,0 100.707031000000,26.148052000000,0 100.687698000000,26.127183000000,0 100.647383000000,26.095229000000,0 100.652758000000,26.041257000000,0 100.669057000000,25.998592000000,0 100.624841000000,26.001003000000,0 100.570308000000,25.985251000000,0 100.567274000000,26.009521000000,0 100.528259000000,26.025269000000,0 100.519850000000,26.013217000000,0 100.491499000000,26.015467000000,0 100.482830000000,26.039570000000,0 100.477107000000,26.101572000000,0 100.491759000000,26.112973000000,0 100.469131000000,26.136414000000,0 100.451271000000,26.128307000000,0 100.423268000000,26.143397000000,0 100.416159000000,26.181837000000,0 100.445549000000,26.201895000000,0 100.432284000000,26.212805000000,0 100.412170000000,26.284335000000,0 100.394657000000,26.298364000000,0 100.405581000000,26.314955000000,0 100.427863000000,26.324732000000,0 100.450664000000,26.353739000000,0 100.434539000000,26.352938000000,0 100.452659000000,26.398196000000,0 100.494447000000,26.395634000000,0 100.493840000000,26.413732000000,0 100.463756000000,26.427905000000,0 100.444769000000,26.422060000000,0 100.443382000000,26.441756000000,0 100.426649000000,26.474815000000,0 100.440607000000,26.484819000000,0 100.469998000000,26.484419000000,0 100.443902000000,26.511065000000,0 100.450838000000,26.536265000000,0 100.416332000000,26.534825000000,0 100.405235000000,26.562020000000,0 100.363966000000,26.563939000000,0 100.369948000000,26.586969000000,0 100.357897000000,26.612232000000,0 100.339257000000,26.598402000000,0 100.345586000000,26.624142000000,0 100.308132000000,26.624302000000,0 100.296602000000,26.632615000000,0 100.296602000000,26.652354000000,0 100.242849000000,26.641486000000,0 100.241982000000,26.695897000000,0 100.198979000000,26.685912000000,0 100.157277000000,26.617428000000,0 100.134996000000,26.604158000000,0 100.110634000000,26.603199000000,0 100.080723000000,26.638209000000,0 100.056187000000,26.643724000000,0 100.053673000000,26.594964000000,0 100.016219000000,26.582731000000,0 99.992724000000,26.595444000000,0 99.946947000000,26.610234000000,0 99.939838000000,26.623503000000,0 99.913915000000,26.641086000000,0 99.894148000000,26.643724000000,0 99.895275000000,26.620066000000,0 99.827390000000,26.620945000000,0 99.789850000000,26.643963000000,0 99.751009000000,26.633973000000,0 99.727427000000,26.619826000000,0 99.703498000000,26.624142000000,0 99.690927000000,26.657229000000,0 99.663617000000,26.675446000000,0 99.643330000000,26.677124000000,0 99.628158000000,26.668016000000,0 99.617234000000,26.623183000000,0 99.594779000000,26.623743000000,0 99.573798000000,26.609514000000,0 99.513629000000,26.584330000000,0 99.490827000000,26.571056000000,0 99.504612000000,26.514985000000,0 99.498457000000,26.476416000000,0 99.520998000000,26.448641000000,0 99.512242000000,26.425743000000,0 99.484759000000,26.401240000000,0 99.480770000000,26.389146000000,0 99.457709000000,26.374969000000,0 99.429879000000,26.343724000000,0 99.386876000000,26.348371000000,0 99.349336000000,26.313352000000,0 99.322373000000,26.319123000000,0 99.301738000000,26.273192000000,0 99.325494000000,26.259241000000,0 99.311449000000,26.240075000000,0 99.293675000000,26.231494000000,0 99.270700000000,26.233098000000,0 99.259950000000,26.223553000000,0 99.201515000000,26.196520000000,0 99.173772000000,26.166029000000,0 99.159120000000,26.160492000000,0 99.174032000000,26.129109000000,0 99.203336000000,26.117710000000,0 99.197094000000,26.107112000000,0 99.134324000000,26.136494000000,0 99.104413000000,26.127424000000,0 99.100252000000,26.151664000000,0 99.047366000000,26.157523000000,0 99.025951000000,26.144441000000,0 99.025344000000,26.131919000000,0 99.006444000000,26.113455000000,0 98.998121000000,26.064070000000,0 99.010259000000,26.033705000000,0 99.002716000000,26.004940000000,0 99.008785000000,25.959609000000,0 99.030633000000,25.957117000000,0 99.056902000000,25.967809000000,0 99.068260000000,25.955911000000,0 99.089241000000,25.914502000000,0 99.094529000000,25.886754000000,0 99.115250000000,25.842182000000,0 99.137185000000,25.784471000000,0 99.099211000000,25.787852000000,0 99.072075000000,25.777788000000,0 99.060544000000,25.798478000000,0 99.067219000000,25.809587000000,0 99.026298000000,25.818038000000,0 99.026731000000,25.791797000000,0 99.017715000000,25.784954000000,0 99.046585000000,25.756611000000,0 99.049273000000,25.739538000000,0 99.027512000000,25.743565000000,0 99.021529000000,25.730437000000,0 99.000809000000,25.725201000000,0 98.963702000000,25.735994000000,0 98.940033000000,25.755967000000,0 98.911163000000,25.759752000000,0 98.907174000000,25.780365000000,0 98.869201000000,25.776661000000,0 98.864692000000,25.756772000000,0 98.889835000000,25.738491000000,0 98.875876000000,25.723026000000,0 98.873709000000,25.696200000000,0 98.888014000000,25.634791000000,0</coordinates></LinearRing></outerBoundaryIs></Polygon>
    </Placemark>
  </Document>
</kml>
