<?xml version="1.0" encoding="UTF-8"?>
<kml xmlns="http://www.opengis.net/kml/2.2">
  <Document>
    <name>德宏傣族景颇族自治州</name>
    <Placemark>
      <name>德宏傣族景颇族自治州</name>
      <Polygon><outerBoundaryIs><LinearRing><coordinates>98.089436000000,25.336080000000,0 98.073137000000,25.329453000000,0 98.070622000000,25.312885000000,0 98.038978000000,25.301892000000,0 98.023805000000,25.308439000000,0 98.004385000000,25.291707000000,0 98.007246000000,25.280793000000,0 97.948464000000,25.219818000000,0 97.914739000000,25.211324000000,0 97.903988000000,25.216502000000,0 97.873557000000,25.259043000000,0 97.839658000000,25.270605000000,0 97.819891000000,25.232598000000,0 97.797003000000,25.157356000000,0 97.777062000000,25.122227000000,0 97.745330000000,25.080044000000,0 97.720188000000,25.080691000000,0 97.727731000000,25.043759000000,0 97.718541000000,25.012406000000,0 97.716547000000,24.978289000000,0 97.731632000000,24.947163000000,0 97.729725000000,24.908568000000,0 97.764144000000,24.878803000000,0 97.784865000000,24.877018000000,0 97.797696000000,24.845947000000,0 97.765531000000,24.824201000000,0 97.710304000000,24.833939000000,0 97.701374000000,24.842377000000,0 97.680133000000,24.827041000000,0 97.651956000000,24.791088000000,0 97.588666000000,24.766490000000,0 97.571240000000,24.767140000000,0 97.547311000000,24.738883000000,0 97.564304000000,24.725890000000,0 97.569506000000,24.675446000000,0 97.567512000000,24.606286000000,0 97.561357000000,24.568967000000,0 97.555114000000,24.493727000000,0 97.529972000000,24.441887000000,0 97.531879000000,24.431468000000,0 97.576876000000,24.441725000000,0 97.588840000000,24.435782000000,0 97.669816000000,24.452794000000,0 97.678573000000,24.438876000000,0 97.677879000000,24.408835000000,0 97.690971000000,24.385629000000,0 97.714466000000,24.374227000000,0 97.715506000000,24.355494000000,0 97.684121000000,24.337655000000,0 97.662273000000,24.339121000000,0 97.665221000000,24.296345000000,0 97.698427000000,24.290966000000,0 97.721142000000,24.295774000000,0 97.749579000000,24.282735000000,0 97.767525000000,24.259098000000,0 97.729898000000,24.227058000000,0 97.728684000000,24.183592000000,0 97.744463000000,24.182613000000,0 97.754174000000,24.164015000000,0 97.734840000000,24.149493000000,0 97.730592000000,24.111877000000,0 97.692011000000,24.093268000000,0 97.675278000000,24.070739000000,0 97.635744000000,24.047878000000,0 97.628634000000,24.004923000000,0 97.572714000000,23.982868000000,0 97.567859000000,23.967182000000,0 97.529538000000,23.942669000000,0 97.528671000000,23.926325000000,0 97.572194000000,23.912348000000,0 97.598463000000,23.894447000000,0 97.633229000000,23.880712000000,0 97.647014000000,23.841054000000,0 97.658545000000,23.865096000000,0 97.663487000000,23.851931000000,0 97.681000000000,23.860681000000,0 97.684208000000,23.877033000000,0 97.710998000000,23.861498000000,0 97.728251000000,23.895510000000,0 97.763884000000,23.907199000000,0 97.765878000000,23.927632000000,0 97.795875000000,23.952066000000,0 97.810094000000,23.943405000000,0 97.839311000000,23.971431000000,0 97.863153000000,23.978865000000,0 97.896792000000,23.975679000000,0 97.883441000000,23.995203000000,0 97.902168000000,24.014234000000,0 97.938321000000,24.017337000000,0 97.985138000000,24.032037000000,0 97.995455000000,24.046327000000,0 98.056577000000,24.076779000000,0 98.073830000000,24.075800000000,0 98.110504000000,24.092697000000,0 98.197289000000,24.098329000000,0 98.220177000000,24.113427000000,0 98.290403000000,24.101593000000,0 98.328550000000,24.103226000000,0 98.360368000000,24.096859000000,0 98.366090000000,24.111468000000,0 98.461632000000,24.125913000000,0 98.484000000000,24.122567000000,0 98.551018000000,24.124689000000,0 98.555439000000,24.108694000000,0 98.589945000000,24.091146000000,0 98.593760000000,24.080534000000,0 98.648207000000,24.106490000000,0 98.680545000000,24.099798000000,0 98.709502000000,24.121261000000,0 98.683233000000,24.133828000000,0 98.692249000000,24.164341000000,0 98.689822000000,24.185875000000,0 98.726235000000,24.206101000000,0 98.717652000000,24.238309000000,0 98.703087000000,24.252169000000,0 98.699705000000,24.283713000000,0 98.721987000000,24.330241000000,0 98.713404000000,24.339610000000,0 98.724848000000,24.365431000000,0 98.713317000000,24.390107000000,0 98.689822000000,24.412988000000,0 98.696151000000,24.422025000000,0 98.684793000000,24.444899000000,0 98.726929000000,24.488276000000,0 98.710976000000,24.495599000000,0 98.682886000000,24.538795000000,0 98.697971000000,24.545058000000,0 98.691122000000,24.563438000000,0 98.659737000000,24.564576000000,0 98.616302000000,24.580920000000,0 98.578935000000,24.573521000000,0 98.546856000000,24.553516000000,0 98.523794000000,24.546766000000,0 98.504547000000,24.552540000000,0 98.484867000000,24.541561000000,0 98.475677000000,24.553354000000,0 98.485994000000,24.567260000000,0 98.477758000000,24.586774000000,0 98.461458000000,24.596693000000,0 98.460591000000,24.612708000000,0 98.440564000000,24.634653000000,0 98.414815000000,24.636360000000,0 98.415422000000,24.648388000000,0 98.452008000000,24.674552000000,0 98.439264000000,24.703067000000,0 98.449581000000,24.725484000000,0 98.420970000000,24.762837000000,0 98.432068000000,24.776963000000,0 98.468308000000,24.781834000000,0 98.498392000000,24.809918000000,0 98.546076000000,24.799529000000,0 98.555960000000,24.827447000000,0 98.534805000000,24.859902000000,0 98.533678000000,24.891699000000,0 98.512004000000,24.901837000000,0 98.492063000000,24.890158000000,0 98.464753000000,24.888860000000,0 98.445333000000,24.874585000000,0 98.436663000000,24.900296000000,0 98.362796000000,24.897620000000,0 98.334185000000,24.908162000000,0 98.329330000000,24.945703000000,0 98.317799000000,24.957701000000,0 98.288409000000,24.936866000000,0 98.272803000000,24.936785000000,0 98.251562000000,24.918136000000,0 98.235783000000,24.930542000000,0 98.239944000000,24.947649000000,0 98.221304000000,24.961997000000,0 98.225032000000,25.006491000000,0 98.248874000000,25.041490000000,0 98.254076000000,25.067248000000,0 98.269595000000,25.084416000000,0 98.257717000000,25.105874000000,0 98.234222000000,25.100287000000,0 98.197896000000,25.135989000000,0 98.179515000000,25.140522000000,0 98.167725000000,25.171761000000,0 98.192347000000,25.208978000000,0 98.185844000000,25.222568000000,0 98.192607000000,25.245133000000,0 98.159488000000,25.262843000000,0 98.152552000000,25.279903000000,0 98.125242000000,25.282490000000,0 98.111024000000,25.294213000000,0 98.104782000000,25.323392000000,0 98.089436000000,25.336080000000,0</coordinates></LinearRing></outerBoundaryIs></Polygon>
    </Placemark>
  </Document>
</kml>
