<?xml version="1.0" encoding="UTF-8"?>
<kml xmlns="http://www.opengis.net/kml/2.2">
<Document>
<name>昆明市</name>
<Placemark><name>昆明市</name><MultiGeometry><Polygon><outerBoundaryIs><LinearRing><coordinates>103.109094999999996,24.506989000000001,0 103.139178999999999,24.526105999999999,0 103.152704,24.527327,0 103.167876000000007,24.510812999999999,0 103.176286000000005,24.523990999999999,0 103.237408000000002,24.507559000000001,0 103.247378999999995,24.514147999999999,0 103.237755000000007,24.532126000000002,0 103.263070999999997,24.552703000000001,0 103.251019999999997,24.584171999999999,0 103.260122999999993,24.607341999999999,0 103.278677000000002,24.603766,0 103.284225000000006,24.622948999999998,0 103.269572999999994,24.633353,0 103.288734000000005,24.656839000000002,0 103.305727000000005,24.640992000000001,0 103.323932999999997,24.639367,0 103.385921999999994,24.604659999999999,0 103.419647999999995,24.577099,0 103.448952000000006,24.571081,0 103.460656,24.558233000000001,0 103.491348000000002,24.555875,0 103.472621000000004,24.541805,0 103.483805000000004,24.530987,0 103.453199999999995,24.511301,0 103.474962000000005,24.499096999999999,0 103.535303999999996,24.527408000000001,0 103.543367000000003,24.554898999999999,0 103.562787,24.555631000000002,0 103.617754000000005,24.596285999999999,0 103.631625,24.616609,0 103.619748000000001,24.624980999999998,0 103.640294999999995,24.65757,0 103.633013000000005,24.663502000000001,0 103.666565000000006,24.724184000000001,0 103.658589000000006,24.734579,0 103.670033000000004,24.760238999999999,0 103.654774000000003,24.782157999999999,0 103.664136999999997,24.792873,0 103.652345999999994,24.823633000000001,0 103.657722000000007,24.868987000000001,0 103.648444999999995,24.88083,0 103.611772000000002,24.877586000000001,0 103.586108999999993,24.889671,0 103.575445000000002,24.849111000000001,0 103.547094999999999,24.865660999999999,0 103.522818999999998,24.831423000000001,0 103.497242999999997,24.832965000000002,0 103.447391999999994,24.892105000000001,0 103.444184000000007,24.923487999999999,0 103.467245000000005,24.939541999999999,0 103.469413000000003,24.975047,0 103.461437000000004,24.999927,0 103.438202000000004,25.019293000000001,0 103.442189999999997,25.026907999999999,0 103.409591000000006,25.045622000000002,0 103.408636999999999,25.061983000000001,0 103.422421999999997,25.071701999999998,0 103.454327000000006,25.073727000000002,0 103.494122000000004,25.107655000000001,0 103.469673,25.122875000000001,0 103.480164000000002,25.142302000000001,0 103.463431,25.154685000000001,0 103.465338000000003,25.182037000000001,0 103.417653999999999,25.190208999999999,0 103.406989999999993,25.181470999999998,0 103.404649000000006,25.151367,0 103.377599000000004,25.164154,0 103.328528000000006,25.162859000000001,0 103.325580000000002,25.139226000000001,0 103.311102000000005,25.146673,0 103.311362000000003,25.174997999999999,0 103.289946999999998,25.184546000000001,0 103.298963999999998,25.205984999999998,0 103.258302999999998,25.216906000000002,0 103.273821999999996,25.257829999999998,0 103.295148999999995,25.261388,0 103.291507999999993,25.284026000000001,0 103.303386000000003,25.288311,0 103.304946000000001,25.311267999999998,0 103.318731,25.325735999999999,0 103.294715999999994,25.325251000000002,0 103.272087999999997,25.340767,0 103.304513,25.405154,0 103.342226999999994,25.424292999999999,0 103.370402999999996,25.453118,0 103.358091999999999,25.472007999999999,0 103.368669999999995,25.489038999999998,0 103.394678999999996,25.481694000000001,0 103.425629999999998,25.486778999999999,0 103.432739999999995,25.514137000000002,0 103.419128000000001,25.532775000000001,0 103.432393000000005,25.553104000000001,0 103.417827000000003,25.572140000000001,0 103.434213,25.577786,0 103.447305,25.562218999999999,0 103.484672000000003,25.554556000000002,0 103.514668999999998,25.573753,0 103.533223000000007,25.571494999999999,0 103.545013999999995,25.583834,0 103.523773000000006,25.609556999999999,0 103.503658999999999,25.605848000000002,0 103.491174000000001,25.622859999999999,0 103.492474999999999,25.651637000000001,0 103.516750000000002,25.679601999999999,0 103.510248000000004,25.696603,0 103.531142000000003,25.720127000000002,0 103.514668999999998,25.736961000000001,0 103.517269999999996,25.75339,0 103.556718000000004,25.779800999999999,0 103.540419,25.801939999999998,0 103.543800000000005,25.817314,0 103.514235999999997,25.806287000000001,0 103.502272000000005,25.829547000000002,0 103.476348999999999,25.816268000000001,0 103.465512000000004,25.823350000000001,0 103.471666999999997,25.856584999999999,0 103.460396000000003,25.865113000000001,0 103.440629000000001,25.854894999999999,0 103.418087999999997,25.829628,0 103.385401999999999,25.839445999999999,0 103.390517000000003,25.855619000000001,0 103.361819999999994,25.845238999999999,0 103.348294999999993,25.856584999999999,0 103.328181000000001,25.857389000000001,0 103.318123999999997,25.839607000000001,0 103.300611000000004,25.856907,0 103.289946999999998,25.889247000000001,0 103.306332999999995,25.914904,0 103.304860000000005,25.943209,0 103.290728000000001,25.948193,0 103.291768000000005,25.973275000000001,0 103.282318000000004,26.001726000000001,0 103.305813000000001,26.048406,0 103.298877000000005,26.064311,0 103.268619999999999,26.092016999999998,0 103.253101000000001,26.122686999999999,0 103.255875000000003,26.145163,0 103.237582000000003,26.155356000000001,0 103.254920999999996,26.172609999999999,0 103.244257000000005,26.188255999999999,0 103.211918999999995,26.214649999999999,0 103.189550999999994,26.217055999999999,0 103.189464000000001,26.201815,0 103.170823999999996,26.204622000000001,0 103.167789999999997,26.221708,0 103.151489999999995,26.222912000000001,0 103.149236000000002,26.247774,0 103.131895999999998,26.243924,0 103.107620999999995,26.260524,0 103.114903999999996,26.295076999999999,0 103.097736999999995,26.325454000000001,0 103.100858000000002,26.362071,0 103.083866,26.413492000000002,0 103.081438000000006,26.447040000000001,0 103.05959,26.513304999999999,0 103.062278000000006,26.534665,0 103.054562000000004,26.541864,0 103.052481,26.514585,0 103.031846999999999,26.486899999999999,0 102.989885000000001,26.482658000000001,0 102.998120999999998,26.450322,0 102.988324000000006,26.409088000000001,0 102.998208000000005,26.371925000000001,0 102.985116000000005,26.345727,0 102.971591000000004,26.340278000000001,0 102.894689999999997,26.338515000000001,0 102.879518000000004,26.365516,0 102.867467000000005,26.338996000000002,0 102.833393999999998,26.306619999999999,0 102.78519,26.298925000000001,0 102.764815999999996,26.277681000000001,0 102.739932999999994,26.268622000000001,0 102.723546999999996,26.245688999999999,0 102.719733000000005,26.218178999999999,0 102.674563000000006,26.205425000000002,0 102.659131000000002,26.221388000000001,0 102.620115999999996,26.245768999999999,0 102.601303000000001,26.249057000000001,0 102.611272999999997,26.282330999999999,0 102.638582999999997,26.307662000000001,0 102.629392999999993,26.336832999999999,0 102.571132000000006,26.362632000000001,0 102.551625000000001,26.362151000000001,0 102.541914000000006,26.338515000000001,0 102.438050000000004,26.300046999999999,0 102.396088000000006,26.297642,0 102.349011000000004,26.244726,0 102.282773000000006,26.220184,0 102.257457000000002,26.220103999999999,0 102.244885999999994,26.21088,0 102.236475999999996,26.185127000000001,0 102.248526999999996,26.157361999999999,0 102.263439000000005,26.142835000000002,0 102.259884999999997,26.127424000000001,0 102.294303999999997,26.110565000000001,0 102.314678000000001,26.088484000000001,0 102.347883999999993,26.075794999999999,0 102.353519000000006,26.060936999999999,0 102.343635000000006,26.023823,0 102.332451000000006,26.004377999999999,0 102.335919000000004,25.989832,0 102.321613999999997,25.964110999999999,0 102.322394000000003,25.945058,0 102.340428000000003,25.927771,0 102.328462999999999,25.922222000000001,0 102.330544000000003,25.898256,0 102.322308000000007,25.888041000000001,0 102.328982999999994,25.852964,0 102.352305000000001,25.847090000000001,0 102.377533999999997,25.828178999999999,0 102.371725999999995,25.801456999999999,0 102.379007999999999,25.787610999999998,0 102.362448999999998,25.782619,0 102.357073999999997,25.717790000000001,0 102.384209999999996,25.693299,0 102.380222000000003,25.661308999999999,0 102.365830000000003,25.638014999999999,0 102.379095000000007,25.628906000000001,0 102.382042999999996,25.609960000000001,0 102.421576999999999,25.588833999999999,0 102.430160000000001,25.573027,0 102.451401000000004,25.581817999999998,0 102.448106999999993,25.534389000000001,0 102.463712999999998,25.526320999999999,0 102.460245,25.501951999999999,0 102.477411000000004,25.491136999999998,0 102.479057999999995,25.453037999999999,0 102.457556999999994,25.428735,0 102.457296999999997,25.417752,0 102.430767000000003,25.398530999999998,0 102.435275000000004,25.381487,0 102.393747000000005,25.368884999999999,0 102.377795000000006,25.389645999999999,0 102.358373999999998,25.370823999999999,0 102.349011000000004,25.349494,0 102.368604000000005,25.336403000000001,0 102.362448999999998,25.310703,0 102.373806000000002,25.299790000000002,0 102.378315000000001,25.269877999999999,0 102.406317999999999,25.277559,0 102.413427999999996,25.250793999999999,0 102.407532000000003,25.208493000000001,0 102.390625999999997,25.211244000000001,0 102.373373000000001,25.190776,0 102.359328000000005,25.153229,0 102.366609999999994,25.114699000000002,0 102.351438000000002,25.089842000000001,0 102.342507999999995,25.059149000000001,0 102.300112999999996,25.066762000000001,0 102.281299000000004,25.048781000000002,0 102.235089000000002,25.03266,0 102.233962000000005,25.051210999999999,0 102.200582999999995,25.065628,0 102.20093,25.085874,0 102.187664999999996,25.083687999999999,0 102.171105999999995,25.053073999999999,0 102.182377000000002,25.040679999999998,0 102.179081999999994,25.018481999999999,0 102.203790999999995,24.991499000000001,0 102.228153000000006,25.000332,0 102.247574,24.981449999999999,0 102.246013000000005,24.964428999999999,0 102.229714000000001,24.940028000000002,0 102.226853000000006,24.910675999999999,0 102.263092999999998,24.919920000000001,0 102.263006000000004,24.889427999999999,0 102.292050000000003,24.878883999999999,0 102.296470999999997,24.849598,0 102.287975000000003,24.823713999999999,0 102.295518000000001,24.802856999999999,0 102.285286999999997,24.801314999999999,0 102.297165000000007,24.755205,0 102.291529999999995,24.696892999999999,0 102.282946999999993,24.686657,0 102.292223000000007,24.660495999999998,0 102.271242000000001,24.654319999999998,0 102.287542000000002,24.624331000000002,0 102.296037999999996,24.591652,0 102.283986999999996,24.559533999999999,0 102.267341000000002,24.559697,0 102.250434999999996,24.532775999999998,0 102.230233999999996,24.526593999999999,0 102.210292999999993,24.507396,0 102.197809000000007,24.509347999999999,0 102.207691999999994,24.480789999999999,0 102.215841999999995,24.482824000000001,0 102.244018999999994,24.458085000000001,0 102.249741,24.439038,0 102.261532000000003,24.440829000000001,0 102.306442000000004,24.416976999999999,0 102.292657000000005,24.406880999999998,0 102.311556999999993,24.386116999999999,0 102.335832999999994,24.39996,0 102.360021000000003,24.398575999999998,0 102.373373000000001,24.436271000000001,0 102.356899999999996,24.444004,0 102.373892999999995,24.451979999999999,0 102.380308999999997,24.481929000000001,0 102.404670999999993,24.497063000000001,0 102.420536999999996,24.477535,0 102.453221999999997,24.513904,0 102.489462000000003,24.50048,0 102.507929000000004,24.524235000000001,0 102.540093999999996,24.513497000000001,0 102.565323000000006,24.538226000000002,0 102.599395000000001,24.53481,0 102.609712000000002,24.513822999999999,0 102.587691000000007,24.503571999999998,0 102.612834000000007,24.491368000000001,0 102.669967999999997,24.503409000000001,0 102.686614000000006,24.490635000000001,0 102.683318999999997,24.472327,0 102.695369999999997,24.462478999999998,0 102.742794000000004,24.485590999999999,0 102.763948999999997,24.47786,0 102.775392999999994,24.497306999999999,0 102.815708000000001,24.511869999999998,0 102.798021000000006,24.520900000000001,0 102.789090999999999,24.553515999999998,0 102.801489000000004,24.581896,0 102.797934999999995,24.593522,0 102.815100999999999,24.611001000000002,0 102.805650999999997,24.628475999999999,0 102.822209999999998,24.640585999999999,0 102.827584999999999,24.669108000000001,0 102.856716000000006,24.706883999999999,0 102.840243000000001,24.748464999999999,0 102.870935000000003,24.746029,0 102.914976999999993,24.768439000000001,0 102.903620000000004,24.803343999999999,0 102.911163000000002,24.854790999999999,0 102.925554000000005,24.846433999999999,0 102.938472000000004,24.859739000000001,0 102.959280000000007,24.862172999999999,0 102.965089000000006,24.883344999999998,0 102.982602,24.882453000000002,0 103.000202000000002,24.896889999999999,0 103.000635000000003,24.919515000000001,0 103.017801000000006,24.897133,0 103.030719000000005,24.863958,0 103.023870000000002,24.800747000000001,0 103.016501000000005,24.796364000000001,0 103.015546999999998,24.762267999999999,0 103.026818000000006,24.754798999999998,0 103.042077000000006,24.772010999999999,0 103.076930000000004,24.754311000000001,0 103.059849999999997,24.712083,0 103.046931999999998,24.699573999999998,0 103.032799999999995,24.641235999999999,0 103.044071000000002,24.602384000000001,0 103.041989999999998,24.568235000000001,0 103.052740999999997,24.555631000000002,0 103.086119999999994,24.553272,0 103.111001999999999,24.565877,0 103.109094999999996,24.506989000000001,0</coordinates></LinearRing></outerBoundaryIs></Polygon></MultiGeometry></Placemark>
</Document>
</kml>