<?xml version="1.0" encoding="UTF-8"?>
<kml xmlns="http://www.opengis.net/kml/2.2">
  <Document>
    <name>红河哈尼族彝族自治州</name>
    <Placemark>
      <name>红河哈尼族彝族自治州</name>
      <Polygon><outerBoundaryIs><LinearRing><coordinates>103.052307000000,24.080698000000,0 103.081611000000,24.093839000000,0 103.100772000000,24.145577000000,0 103.137012000000,24.170949000000,0 103.134671000000,24.201127000000,0 103.151143000000,24.215316000000,0 103.149236000000,24.235048000000,0 103.125741000000,24.249641000000,0 103.138572000000,24.301397000000,0 103.121753000000,24.306287000000,0 103.112389000000,24.324864000000,0 103.098864000000,24.322583000000,0 103.089761000000,24.340343000000,0 103.099038000000,24.404113000000,0 103.067566000000,24.411685000000,0 103.062104000000,24.432445000000,0 103.088634000000,24.441236000000,0 103.107274000000,24.473222000000,0 103.109095000000,24.506989000000,0 103.139179000000,24.526106000000,0 103.152704000000,24.527327000000,0 103.167876000000,24.510813000000,0 103.176286000000,24.523991000000,0 103.237408000000,24.507559000000,0 103.247379000000,24.514148000000,0 103.237755000000,24.532126000000,0 103.263071000000,24.552703000000,0 103.251020000000,24.584172000000,0 103.260123000000,24.607342000000,0 103.278677000000,24.603766000000,0 103.284225000000,24.622949000000,0 103.269573000000,24.633353000000,0 103.288734000000,24.656839000000,0 103.305727000000,24.640992000000,0 103.323933000000,24.639367000000,0 103.385922000000,24.604660000000,0 103.419648000000,24.577099000000,0 103.448952000000,24.571081000000,0 103.460656000000,24.558233000000,0 103.491348000000,24.555875000000,0 103.472621000000,24.541805000000,0 103.483805000000,24.530987000000,0 103.453200000000,24.511301000000,0 103.474962000000,24.499097000000,0 103.535304000000,24.527408000000,0 103.543367000000,24.554899000000,0 103.562787000000,24.555631000000,0 103.617754000000,24.596286000000,0 103.631625000000,24.616609000000,0 103.619748000000,24.624981000000,0 103.640295000000,24.657570000000,0 103.633013000000,24.663502000000,0 103.666565000000,24.724184000000,0 103.675582000000,24.738234000000,0 103.693095000000,24.736528000000,0 103.708007000000,24.753987000000,0 103.733236000000,24.751470000000,0 103.753263000000,24.761456000000,0 103.740692000000,24.730113000000,0 103.730982000000,24.736528000000,0 103.719538000000,24.714601000000,0 103.760372000000,24.692019000000,0 103.789243000000,24.732712000000,0 103.794965000000,24.722479000000,0 103.813085000000,24.728732000000,0 103.838661000000,24.695512000000,0 103.869439000000,24.685033000000,0 103.892501000000,24.667971000000,0 103.929521000000,24.667077000000,0 103.928220000000,24.648225000000,0 103.954317000000,24.638554000000,0 103.969229000000,24.658952000000,0 103.994545000000,24.620999000000,0 103.971830000000,24.590677000000,0 103.986655000000,24.581489000000,0 104.000353000000,24.554573000000,0 104.013358000000,24.552866000000,0 104.027923000000,24.525944000000,0 104.038674000000,24.525700000000,0 104.037720000000,24.493565000000,0 104.009023000000,24.482824000000,0 104.020728000000,24.453934000000,0 104.010324000000,24.449050000000,0 103.988996000000,24.435050000000,0 103.968275000000,24.440666000000,0 103.945907000000,24.429921000000,0 103.906459000000,24.379602000000,0 103.863717000000,24.359567000000,0 103.840308000000,24.312805000000,0 103.818634000000,24.301316000000,0 103.818720000000,24.271243000000,0 103.810397000000,24.257386000000,0 103.786122000000,24.247440000000,0 103.785515000000,24.219149000000,0 103.773551000000,24.203899000000,0 103.728554000000,24.198272000000,0 103.697083000000,24.204960000000,0 103.692574000000,24.186202000000,0 103.670987000000,24.186854000000,0 103.639168000000,24.172091000000,0 103.624950000000,24.137418000000,0 103.590530000000,24.115794000000,0 103.574925000000,24.086248000000,0 103.581514000000,24.048532000000,0 103.622175000000,24.009497000000,0 103.640902000000,23.984093000000,0 103.634573000000,23.970287000000,0 103.654340000000,23.962198000000,0 103.678876000000,23.939319000000,0 103.695262000000,23.942669000000,0 103.701244000000,23.929185000000,0 103.688326000000,23.920113000000,0 103.707833000000,23.889378000000,0 103.660756000000,23.865995000000,0 103.665004000000,23.849968000000,0 103.652433000000,23.825106000000,0 103.644544000000,23.763748000000,0 103.630759000000,23.747872000000,0 103.650699000000,23.714395000000,0 103.648878000000,23.673949000000,0 103.662577000000,23.653066000000,0 103.649312000000,23.628903000000,0 103.614199000000,23.584006000000,0 103.587149000000,23.577041000000,0 103.595646000000,23.539995000000,0 103.622349000000,23.523026000000,0 103.632666000000,23.507449000000,0 103.653560000000,23.505891000000,0 103.679830000000,23.526388000000,0 103.694568000000,23.518271000000,0 103.706620000000,23.541963000000,0 103.724826000000,23.550323000000,0 103.737918000000,23.538602000000,0 103.719971000000,23.521551000000,0 103.734970000000,23.510647000000,0 103.731849000000,23.494248000000,0 103.767829000000,23.500726000000,0 103.800340000000,23.491296000000,0 103.788549000000,23.473583000000,0 103.806756000000,23.470712000000,0 103.798867000000,23.445860000000,0 103.819501000000,23.428468000000,0 103.803548000000,23.405495000000,0 103.815773000000,23.370946000000,0 103.808317000000,23.358060000000,0 103.815686000000,23.338358000000,0 103.830251000000,23.351329000000,0 103.856261000000,23.332283000000,0 103.882877000000,23.327110000000,0 103.913568000000,23.304695000000,0 103.936717000000,23.253115000000,0 103.912615000000,23.232084000000,0 103.908713000000,23.199462000000,0 103.938104000000,23.152446000000,0 103.937584000000,23.099739000000,0 103.946427000000,23.089458000000,0 103.934549000000,23.041581000000,0 103.958045000000,23.005950000000,0 103.947901000000,22.953350000000,0 103.937064000000,22.952033000000,0 103.907673000000,22.916049000000,0 103.917643000000,22.893234000000,0 103.917036000000,22.838119000000,0 103.907066000000,22.818341000000,0 103.885998000000,22.818835000000,0 103.897009000000,22.798972000000,0 103.890940000000,22.782816000000,0 103.905245000000,22.738211000000,0 103.889033000000,22.722872000000,0 103.896836000000,22.699201000000,0 103.923452000000,22.688148000000,0 103.934809000000,22.707284000000,0 103.963420000000,22.699861000000,0 103.989863000000,22.709099000000,0 104.001914000000,22.726666000000,0 104.001480000000,22.749013000000,0 104.013532000000,22.746457000000,0 104.039454000000,22.796994000000,0 104.022722000000,22.821885000000,0 104.043442000000,22.839602000000,0 104.048037000000,22.827077000000,0 104.067458000000,22.823451000000,0 104.080203000000,22.836388000000,0 104.100056000000,22.875030000000,0 104.118697000000,22.894635000000,0 104.137077000000,22.898918000000,0 104.157017000000,22.861354000000,0 104.179299000000,22.872888000000,0 104.175917000000,22.847348000000,0 104.190223000000,22.844134000000,0 104.218140000000,22.871076000000,0 104.240161000000,22.864897000000,0 104.257934000000,22.872970000000,0 104.276227000000,22.863167000000,0 104.282556000000,22.842074000000,0 104.274233000000,22.827901000000,0 104.261489000000,22.841992000000,0 104.224035000000,22.826335000000,0 104.168461000000,22.819660000000,0 104.137250000000,22.803011000000,0 104.117396000000,22.808945000000,0 104.093381000000,22.773995000000,0 104.067111000000,22.753961000000,0 104.045350000000,22.728151000000,0 104.031478000000,22.684765000000,0 104.036247000000,22.666533000000,0 104.030958000000,22.626760000000,0 104.009023000000,22.572692000000,0 104.015352000000,22.542141000000,0 104.008243000000,22.517200000000,0 103.964200000000,22.502827000000,0 103.930301000000,22.534956000000,0 103.889726000000,22.566583000000,0 103.878629000000,22.563528000000,0 103.863543000000,22.584085000000,0 103.826957000000,22.613967000000,0 103.769649000000,22.687240000000,0 103.754650000000,22.686663000000,0 103.741386000000,22.706872000000,0 103.708267000000,22.738376000000,0 103.685639000000,22.750250000000,0 103.664397000000,22.782239000000,0 103.643416000000,22.794604000000,0 103.620528000000,22.783888000000,0 103.612465000000,22.756682000000,0 103.584635000000,22.728480000000,0 103.567902000000,22.700933000000,0 103.580040000000,22.668265000000,0 103.573364000000,22.641944000000,0 103.554724000000,22.633939000000,0 103.533656000000,22.593496000000,0 103.508947000000,22.601008000000,0 103.458229000000,22.658365000000,0 103.460483000000,22.676763000000,0 103.435514000000,22.698789000000,0 103.432826000000,22.732769000000,0 103.441063000000,22.752971000000,0 103.415053000000,22.773418000000,0 103.390691000000,22.778859000000,0 103.375172000000,22.794933000000,0 103.323326000000,22.807874000000,0 103.321419000000,22.778035000000,0 103.287953000000,22.731202000000,0 103.290381000000,22.705470000000,0 103.282751000000,22.678496000000,0 103.248159000000,22.665625000000,0 103.216514000000,22.643595000000,0 103.195880000000,22.648381000000,0 103.166662000000,22.609015000000,0 103.164582000000,22.580205000000,0 103.183829000000,22.557665000000,0 103.157559000000,22.538590000000,0 103.139439000000,22.537847000000,0 103.118978000000,22.518273000000,0 103.083519000000,22.508444000000,0 103.072075000000,22.488206000000,0 103.081785000000,22.454248000000,0 103.071988000000,22.445324000000,0 103.030199000000,22.441440000000,0 103.009739000000,22.458875000000,0 102.993353000000,22.460941000000,0 102.985116000000,22.478375000000,0 102.928849000000,22.483662000000,0 102.924254000000,22.503654000000,0 102.892002000000,22.534956000000,0 102.874576000000,22.571124000000,0 102.880125000000,22.586892000000,0 102.858970000000,22.607281000000,0 102.823424000000,22.623128000000,0 102.801056000000,22.620487000000,0 102.787097000000,22.641532000000,0 102.758313000000,22.650526000000,0 102.750684000000,22.666863000000,0 102.737072000000,22.665130000000,0 102.692163000000,22.699614000000,0 102.657397000000,22.688148000000,0 102.607372000000,22.730707000000,0 102.570438000000,22.700273000000,0 102.565756000000,22.717842000000,0 102.511917000000,22.773171000000,0 102.498132000000,22.777787000000,0 102.459724000000,22.762865000000,0 102.456256000000,22.731202000000,0 102.436489000000,22.699531000000,0 102.407792000000,22.682043000000,0 102.384557000000,22.679733000000,0 102.403631000000,22.645245000000,0 102.418890000000,22.638066000000,0 102.404844000000,22.629978000000,0 102.376928000000,22.593744000000,0 102.347537000000,22.585241000000,0 102.356727000000,22.563610000000,0 102.322568000000,22.554032000000,0 102.292830000000,22.572527000000,0 102.276878000000,22.611986000000,0 102.248527000000,22.606373000000,0 102.212721000000,22.623623000000,0 102.198849000000,22.613802000000,0 102.181943000000,22.624449000000,0 102.154546000000,22.625026000000,0 102.078685000000,22.656219000000,0 102.058658000000,22.698211000000,0 102.058831000000,22.725182000000,0 102.031695000000,22.746870000000,0 102.012535000000,22.776716000000,0 101.991640000000,22.794109000000,0 101.968839000000,22.794851000000,0 101.922282000000,22.820731000000,0 101.894451000000,22.795675000000,0 101.874251000000,22.800951000000,0 101.823359000000,22.840508000000,0 101.800297000000,22.876513000000,0 101.838184000000,22.911025000000,0 101.848415000000,22.906742000000,0 101.861679000000,22.939518000000,0 101.851189000000,22.973767000000,0 101.870436000000,22.982492000000,0 101.879279000000,23.015908000000,0 101.903295000000,23.020105000000,0 101.910751000000,23.009736000000,0 101.962770000000,23.020681000000,0 101.967018000000,22.993687000000,0 102.015222000000,22.988666000000,0 102.056664000000,23.039524000000,0 102.058918000000,23.054498000000,0 102.044526000000,23.074982000000,0 102.069149000000,23.096449000000,0 102.043919000000,23.108127000000,0 102.037244000000,23.127698000000,0 101.997622000000,23.143320000000,0 102.002824000000,23.155734000000,0 101.971179000000,23.171846000000,0 101.950459000000,23.175052000000,0 101.939361000000,23.145540000000,0 101.918207000000,23.159351000000,0 101.883961000000,23.148746000000,0 101.834630000000,23.164366000000,0 101.827694000000,23.176367000000,0 101.842693000000,23.212692000000,0 101.823532000000,23.243339000000,0 101.851796000000,23.262973000000,0 101.876938000000,23.264041000000,0 101.892197000000,23.291063000000,0 101.874684000000,23.302806000000,0 101.873904000000,23.326946000000,0 101.874858000000,23.338112000000,0 101.906502000000,23.360522000000,0 101.968665000000,23.353299000000,0 101.987999000000,23.336141000000,0 102.013835000000,23.345993000000,0 102.027533000000,23.330723000000,0 102.055624000000,23.320788000000,0 102.068715000000,23.329902000000,0 102.095505000000,23.314630000000,0 102.130011000000,23.323580000000,0 102.151685000000,23.345418000000,0 102.157754000000,23.382928000000,0 102.187578000000,23.428304000000,0 102.216622000000,23.410090000000,0 102.223125000000,23.424038000000,0 102.275144000000,23.423300000000,0 102.289276000000,23.415177000000,0 102.319273000000,23.413782000000,0 102.334966000000,23.460132000000,0 102.360715000000,23.481292000000,0 102.355513000000,23.520485000000,0 102.317973000000,23.551143000000,0 102.321181000000,23.575320000000,0 102.296992000000,23.597608000000,0 102.292397000000,23.626200000000,0 102.249048000000,23.662812000000,0 102.225379000000,23.691963000000,0 102.202404000000,23.700068000000,0 102.159922000000,23.696875000000,0 102.148044000000,23.721353000000,0 102.159488000000,23.747217000000,0 102.186018000000,23.763748000000,0 102.136253000000,23.830668000000,0 102.160008000000,23.872618000000,0 102.201017000000,23.887498000000,0 102.223385000000,23.904338000000,0 102.251042000000,23.908589000000,0 102.264306000000,23.900006000000,0 102.283207000000,23.925916000000,0 102.265173000000,23.927551000000,0 102.264133000000,23.963015000000,0 102.252342000000,23.969225000000,0 102.224945000000,24.008027000000,0 102.230841000000,24.023381000000,0 102.271069000000,24.032527000000,0 102.311644000000,24.034814000000,0 102.331671000000,24.044776000000,0 102.327770000000,24.060452000000,0 102.304881000000,24.058492000000,0 102.295865000000,24.081024000000,0 102.318753000000,24.096125000000,0 102.377014000000,24.087065000000,0 102.418543000000,24.067146000000,0 102.411087000000,24.058574000000,0 102.428947000000,24.049185000000,0 102.469435000000,24.054084000000,0 102.491456000000,24.064942000000,0 102.516252000000,24.029016000000,0 102.548590000000,24.041101000000,0 102.565583000000,24.028852000000,0 102.593240000000,24.034242000000,0 102.612487000000,24.046817000000,0 102.625925000000,24.038733000000,0 102.611100000000,24.025912000000,0 102.635635000000,24.022972000000,0 102.646559000000,24.006638000000,0 102.634682000000,23.993487000000,0 102.650201000000,23.976087000000,0 102.636502000000,23.951658000000,0 102.643005000000,23.926733000000,0 102.658437000000,23.910060000000,0 102.674129000000,23.924200000000,0 102.689302000000,23.922402000000,0 102.689908000000,23.946020000000,0 102.711063000000,23.967754000000,0 102.732217000000,23.972166000000,0 102.747129000000,24.018154000000,0 102.784323000000,24.017827000000,0 102.829493000000,24.046735000000,0 102.841457000000,24.043143000000,0 102.834868000000,24.024361000000,0 102.848220000000,24.014316000000,0 102.856889000000,23.987524000000,0 102.884806000000,23.993814000000,0 102.877610000000,24.010395000000,0 102.899458000000,24.013009000000,0 102.915151000000,24.039876000000,0 102.939600000000,24.057268000000,0 102.966910000000,24.067636000000,0 103.015894000000,24.033262000000,0 103.032540000000,24.032364000000,0 103.037829000000,24.040530000000,0 103.033407000000,24.050165000000,0 103.052307000000,24.080698000000,0</coordinates></LinearRing></outerBoundaryIs></Polygon>
    </Placemark>
  </Document>
</kml>
