<?xml version="1.0" encoding="UTF-8"?>
<kml xmlns="http://www.opengis.net/kml/2.2">
<Document>
<name>西双版纳傣族自治州</name>
<Placemark><name>西双版纳傣族自治州</name><MultiGeometry><Polygon><outerBoundaryIs><LinearRing><coordinates>101.647968000000006,22.33165,0 101.606179999999995,22.339755,0 101.551906000000002,22.329499999999999,0 101.563176999999996,22.371259999999999,0 101.532225999999994,22.380851,0 101.509857999999994,22.404412000000001,0 101.506129999999999,22.436233000000001,0 101.493037999999999,22.451934000000001,0 101.488789999999995,22.479282999999999,0 101.468762999999996,22.529588,0 101.453851,22.547177999999999,0 101.445874000000003,22.584333000000001,0 101.402005000000003,22.576242000000001,0 101.369320000000002,22.559729999999998,0 101.349553,22.558986000000001,0 101.308197000000007,22.533470000000001,0 101.254790999999997,22.543627999999998,0 101.206067000000004,22.535039000000001,0 101.176068999999998,22.552298,0 101.124831,22.545444,0 101.096999999999994,22.550398999999999,0 101.028161999999995,22.590194,0 101.006314000000003,22.573022999999999,0 100.993568999999994,22.583919999999999,0 100.996604000000005,22.557912999999999,0 100.959844000000004,22.555188000000001,0 100.923257000000007,22.528763000000001,0 100.901756000000006,22.525955,0 100.882161999999994,22.538508,0 100.879300999999998,22.558655999999999,0 100.859013000000004,22.585571000000002,0 100.845489000000001,22.583176999999999,0 100.809942000000007,22.594487000000001,0 100.811850000000007,22.579709999999999,0 100.758097000000006,22.571124000000001,0 100.723243999999994,22.523312000000001,0 100.696628000000004,22.517859999999999,0 100.659000000000006,22.519511999999999,0 100.658046999999996,22.497706000000001,0 100.622240000000005,22.489858000000002,0 100.611056000000005,22.467717,0 100.617299000000003,22.454744000000002,0 100.592763000000005,22.441852999999998,0 100.578890999999999,22.458793,0 100.529387,22.462098000000001,0 100.470258000000001,22.452760999999999,0 100.448237000000006,22.437721,0 100.44659,22.426068000000001,0 100.414250999999993,22.437390000000001,0 100.401072999999997,22.409454,0 100.382605999999996,22.402014999999999,0 100.390409000000005,22.372335,0 100.389716000000007,22.329252,0 100.378011000000001,22.300384000000001,0 100.371421999999995,22.261664,0 100.346106000000006,22.243127000000001,0 100.276227000000006,22.272006999999999,0 100.264176000000006,22.287644,0 100.203920999999994,22.292525000000001,0 100.195425,22.276226999999999,0 100.201493999999997,22.255623,0 100.183547000000004,22.254134000000001,0 100.174097000000003,22.239899999999999,0 100.143319000000005,22.232036999999998,0 100.108379999999997,22.24652,0 100.093120999999996,22.241720999999998,0 100.066851,22.16018,0 100.046130000000005,22.130365999999999,0 100.014919000000006,22.111232999999999,0 99.997319000000005,22.112805999999999,0 99.989169000000004,22.077266000000002,0 99.972436999999999,22.052987000000002,0 99.958911999999998,22.037241000000002,0 99.965761000000001,22.014199000000001,0 99.992723999999995,21.986426999999999,0 99.998098999999996,21.968185999999999,0 99.981193000000005,21.934932,0 99.981539999999995,21.91826,0 99.959952000000001,21.907145,0 99.964113999999995,21.885574999999999,0 99.946167000000003,21.861595000000001,0 99.944173000000006,21.821344,0 99.959085000000002,21.79561,0 99.983620999999999,21.716387000000001,0 99.991684000000006,21.703595,0 100.033558999999997,21.692129999999999,0 100.030698000000001,21.674433000000001,0 100.046042999999997,21.669613999999999,0 100.097542000000004,21.704509000000002,0 100.118956999999995,21.703512,0 100.147566999999995,21.687394999999999,0 100.169155000000003,21.664047,0 100.169934999999995,21.646014000000001,0 100.153548999999998,21.647344,0 100.135169000000005,21.616591,0 100.111413999999996,21.599467000000001,0 100.108553000000001,21.583753999999999,0 100.122771,21.567125000000001,0 100.120170000000002,21.543092000000001,0 100.126932999999994,21.508241999999999,0 100.168722000000002,21.483035000000001,0 100.180251999999996,21.514313999999999,0 100.206434999999999,21.509322999999998,0 100.229757000000006,21.471969000000001,0 100.247356999999994,21.463730999999999,0 100.280908999999994,21.482619,0 100.292787000000004,21.477043999999999,0 100.316541999999998,21.489191000000002,0 100.350960999999998,21.529368999999999,0 100.389802000000003,21.523630000000001,0 100.423181,21.540514000000002,0 100.437139999999999,21.532945999999999,0 100.464363000000006,21.478625000000001,0 100.482830000000007,21.459237999999999,0 100.526612,21.471136999999999,0 100.557997,21.450583000000002,0 100.578890999999999,21.451915,0 100.644347999999994,21.482451999999999,0 100.669837999999999,21.487361,0 100.691858999999994,21.510904,0 100.730613000000005,21.518723000000001,0 100.753587999999993,21.555316999999999,0 100.783672999999993,21.567374000000001,0 100.804653999999999,21.609940999999999,0 100.834390999999997,21.633714000000001,0 100.844881999999998,21.634295999999999,0 100.871410999999995,21.672605000000001,0 100.887364000000005,21.685068000000001,0 100.914153999999996,21.682161000000001,0 100.940943000000004,21.697115,0 100.967993000000007,21.695537000000002,0 101.014983999999998,21.707083999999998,0 101.019578999999993,21.720124999999999,0 101.090325000000007,21.773774,0 101.123356999999999,21.771864000000001,0 101.111479000000003,21.748612999999999,0 101.120408999999995,21.70833,0 101.117200999999994,21.692546,0 101.136188000000004,21.671441999999999,0 101.151619999999994,21.670030000000001,0 101.160809999999998,21.643853,0 101.166011999999995,21.588909000000001,0 101.149452999999994,21.587246,0 101.145205000000004,21.561304,0 101.179624000000004,21.555067999999999,0 101.208928,21.557313000000001,0 101.210314999999994,21.508991000000002,0 101.225487000000001,21.501919999999998,0 101.192888999999994,21.474215000000001,0 101.195055999999994,21.425115999999999,0 101.185952999999998,21.415711000000002,0 101.142864000000003,21.409134999999999,0 101.183699000000004,21.334697999999999,0 101.249675999999994,21.296882,0 101.246641999999994,21.275721000000001,0 101.228781999999995,21.255890000000001,0 101.222193000000004,21.234390000000001,0 101.290250999999998,21.178291000000002,0 101.340969000000001,21.196964999999999,0 101.387613000000002,21.225971999999999,0 101.445960999999997,21.227473,0 101.476478999999998,21.24164,0 101.532658999999995,21.252389999999998,0 101.601585,21.233139999999999,0 101.600631000000007,21.212636,0 101.588666000000003,21.19163,0 101.605659000000003,21.172288000000002,0 101.637651000000005,21.191880000000001,0 101.672504000000004,21.194965,0 101.696606000000003,21.168786000000001,0 101.702848000000003,21.146106,0 101.740735000000001,21.141769,0 101.764663999999996,21.147856999999998,0 101.781049999999993,21.172038000000001,0 101.795095000000003,21.208302,0 101.835409999999996,21.208051999999999,0 101.833675999999997,21.252473999999999,0 101.803764999999999,21.26464,0 101.791627000000005,21.285802,0 101.766570999999999,21.286301999999999,0 101.745677000000001,21.297298999999999,0 101.730332000000004,21.336946999999999,0 101.739954999999995,21.40081,0 101.750099000000006,21.409300999999999,0 101.741082000000006,21.482868,0 101.772467000000006,21.513233,0 101.754779999999997,21.542261,0 101.758854999999997,21.562801,0 101.745503999999997,21.570367999999998,0 101.755127000000002,21.584917999999998,0 101.789113,21.572613,0 101.804805000000002,21.577684999999999,0 101.828474,21.617090000000001,0 101.807665999999998,21.644186000000001,0 101.779922999999997,21.640861000000001,0 101.771165999999994,21.660391000000001,0 101.767612,21.716221000000001,0 101.747324000000006,21.73001,0 101.759636,21.766632999999999,0 101.760588999999996,21.791625,0 101.777062000000001,21.826905,0 101.740215000000006,21.845413000000001,0 101.735012999999995,21.875783999999999,0 101.714292,21.881924000000001,0 101.700333999999998,21.897023999999998,0 101.703975,21.929043,0 101.687763000000004,21.942644999999999,0 101.662447,21.935760999999999,0 101.654383999999993,21.946542999999998,0 101.606440000000006,21.967855,0 101.626206999999994,22.006157999999999,0 101.616583000000006,22.034175000000001,0 101.587278999999995,22.078177,0 101.573927999999995,22.115126,0 101.602971999999994,22.132023,0 101.596468999999999,22.161090999999999,0 101.547657999999998,22.231127000000001,0 101.564304000000007,22.269607000000001,0 101.604445999999996,22.270682999999998,0 101.625512999999998,22.282596999999999,0 101.635484000000005,22.314776999999999,0 101.647968000000006,22.33165,0</coordinates></LinearRing></outerBoundaryIs></Polygon></MultiGeometry></Placemark>
</Document>
</kml>