<?xml version="1.0" encoding="UTF-8"?>
<kml xmlns="http://www.opengis.net/kml/2.2">
  <Document>
    <name><![CDATA[咸阳市]]></name>
    <Placemark>
      <name><![CDATA[咸阳市]]></name>
      <description><![CDATA[省级目录：陕西省]]></description>
      <ExtendedData>
        <Data name="adcode"><value>610400</value></Data>
      </ExtendedData>
      <MultiGeometry>
      <Polygon>
        <outerBoundaryIs><LinearRing><coordinates>107.820028,34.973739,0 107.822791,34.953358,0 107.84973,34.891466,0 107.841269,34.890669,0 107.857501,34.863172,0 107.857961,34.844438,0 107.90804,34.842684,0 107.951787,34.863332,0 107.94983,34.821552,0 107.963127,34.79842,0 107.992023,34.782782,0 107.99916,34.750301,0 108.015335,34.726032,0 108.015623,34.695445,0 108.032143,34.626644,0 107.995822,34.612573,0 107.980453,34.575866,0 108.002441,34.552105,0 108.004053,34.527938,0 107.997606,34.487189,0 108.017637,34.479101,0 108.011881,34.457956,0 108.019825,34.430797,0 108.041698,34.390001,0 108.027711,34.38503,0 108.029438,34.370838,0 108.053095,34.325761,0 108.035884,34.315972,0 108.009118,34.317015,0 107.995764,34.332901,0 107.987878,34.313485,0 107.953744,34.32183,0 107.950808,34.287803,0 107.96825,34.286519,0 107.973603,34.268858,0 107.995131,34.265647,0 107.990181,34.22212,0 108.027941,34.228144,0 108.086769,34.231036,0 108.143928,34.218585,0 108.156534,34.225092,0 108.20195,34.221718,0 108.237638,34.199625,0 108.264865,34.199464,0 108.293185,34.209989,0 108.328585,34.195928,0 108.351495,34.196812,0 108.37452,34.207659,0 108.418266,34.20549,0 108.425922,34.200348,0 108.457351,34.209186,0 108.468115,34.205731,0 108.529706,34.23216,0 108.56407,34.22959,0 108.593369,34.239308,0 108.619444,34.25826,0 108.650125,34.265808,0 108.669753,34.243966,0 108.692087,34.238987,0 108.700952,34.273675,0 108.744756,34.276886,0 108.750282,34.296151,0 108.796792,34.296713,0 108.794316,34.334185,0 108.803239,34.359531,0 108.828048,34.365947,0 108.859879,34.388638,0 108.89292,34.390802,0 108.913469,34.406033,0 108.929817,34.40443,0 108.961015,34.424787,0 108.955834,34.444979,0 108.976441,34.44594,0 108.971146,34.502962,0 108.974081,34.541383,0 108.955201,34.565866,0 108.998315,34.576426,0 109.011842,34.586184,0 109.06123,34.593542,0 109.092889,34.588983,0 109.108891,34.577705,0 109.138823,34.588823,0 109.139053,34.639514,0 109.156034,34.644709,0 109.168237,34.666525,0 109.173072,34.691931,0 109.173187,34.705589,0 109.128174,34.699838,0 109.090356,34.700876,0 109.068655,34.713176,0 109.046436,34.687058,0 109.029053,34.70503,0 109.030492,34.727948,0 109.04517,34.752297,0 109.034406,34.771451,0 109.015986,34.781825,0 108.997682,34.808551,0 108.973736,34.821711,0 108.957158,34.829766,0 108.918189,34.83455,0 108.898561,34.823545,0 108.902302,34.810146,0 108.855504,34.82219,0 108.82327,34.804881,0 108.81383,34.830643,0 108.780559,34.852729,0 108.766399,34.87202,0 108.726509,34.866839,0 108.689036,34.880707,0 108.66699,34.916563,0 108.665148,34.933608,0 108.643217,34.975093,0 108.631532,34.978993,0 108.62048,35.011782,0 108.599067,35.021966,0 108.583526,35.043524,0 108.60891,35.06762,0 108.626812,35.099897,0 108.591297,35.101645,0 108.616278,35.11746,0 108.644138,35.119288,0 108.662673,35.128585,0 108.655708,35.156866,0 108.633432,35.164093,0 108.65473,35.178467,0 108.656629,35.194267,0 108.676545,35.196729,0 108.670674,35.210462,0 108.696865,35.222764,0 108.720292,35.254979,0 108.739921,35.268464,0 108.750627,35.293366,0 108.79777,35.306448,0 108.807843,35.300819,0 108.824824,35.316279,0 108.873349,35.326108,0 108.868629,35.344653,0 108.846467,35.349803,0 108.835876,35.380304,0 108.803584,35.379195,0 108.808246,35.392898,0 108.791611,35.421957,0 108.791956,35.437631,0 108.775494,35.459316,0 108.767378,35.486769,0 108.741993,35.491595,0 108.727084,35.505831,0 108.702563,35.511288,0 108.690303,35.505436,0 108.659162,35.537775,0 108.622898,35.540779,0 108.605975,35.502826,0 108.616566,35.477276,0 108.619444,35.442934,0 108.631129,35.418632,0 108.62215,35.3807,0 108.610752,35.356459,0 108.615357,35.331656,0 108.602982,35.312315,0 108.568272,35.290908,0 108.543463,35.303911,0 108.525043,35.289005,0 108.489125,35.275285,0 108.449062,35.273699,0 108.402379,35.278061,0 108.400134,35.282819,0 108.352819,35.285753,0 108.345336,35.300661,0 108.298078,35.268385,0 108.256921,35.267433,0 108.239365,35.256248,0 108.221463,35.296855,0 108.193776,35.306607,0 108.174666,35.305101,0 108.123954,35.281788,0 108.094885,35.280043,0 108.048663,35.253789,0 107.979301,35.245458,0 107.949772,35.2453,0 107.960594,35.261484,0 107.937799,35.267353,0 107.936073,35.253947,0 107.904702,35.261166,0 107.866193,35.256407,0 107.841844,35.276395,0 107.829814,35.273143,0 107.79142,35.295903,0 107.75176,35.305101,0 107.745716,35.311601,0 107.716648,35.302326,0 107.736794,35.296141,0 107.737312,35.267433,0 107.720159,35.269257,0 107.692357,35.251171,0 107.662597,35.255375,0 107.651948,35.239746,0 107.670311,35.21443,0 107.687291,35.216653,0 107.715784,35.168144,0 107.728563,35.127314,0 107.722519,35.114917,0 107.762006,35.084316,0 107.759474,35.071198,0 107.802069,35.032388,0 107.827511,35.022205,0 107.848349,35.023876,0 107.843629,35.002313,0 107.863372,34.999209,0 107.858595,34.986873,0 107.820028,34.973739,0</coordinates></LinearRing></outerBoundaryIs>
      </Polygon>
    </MultiGeometry>
    </Placemark>
  </Document>
</kml>
