<?xml version="1.0" encoding="UTF-8"?>
<kml xmlns="http://www.opengis.net/kml/2.2">
  <Document>
    <name><![CDATA[商洛市]]></name>
    <Placemark>
      <name><![CDATA[商洛市]]></name>
      <description><![CDATA[省级目录：陕西省]]></description>
      <ExtendedData>
        <Data name="adcode"><value>611000</value></Data>
      </ExtendedData>
      <MultiGeometry>
      <Polygon>
        <outerBoundaryIs><LinearRing><coordinates>109.185793,33.812334,0 109.177562,33.809105,0 109.174166,33.808702,0 109.154019,33.791103,0 109.147284,33.799337,0 109.162366,33.812657,0 109.164207,33.871319,0 109.120576,33.876481,0 109.107682,33.907609,0 109.070555,33.906641,0 109.051502,33.923169,0 109.007985,33.883256,0 108.944265,33.86664,0 108.922161,33.869383,0 108.913239,33.848649,0 108.874788,33.824522,0 108.854238,33.826539,0 108.84002,33.815966,0 108.835588,33.792233,0 108.846985,33.777699,0 108.903223,33.781091,0 108.92337,33.774711,0 108.942307,33.747816,0 108.945473,33.726569,0 108.922909,33.684543,0 108.902245,33.678803,0 108.879335,33.698527,0 108.826493,33.649371,0 108.798806,33.654628,0 108.792244,33.642497,0 108.815039,33.633034,0 108.828508,33.617825,0 108.805599,33.605366,0 108.797367,33.58384,0 108.750685,33.536401,0 108.724897,33.530651,0 108.693296,33.535267,0 108.653809,33.54798,0 108.625143,33.533161,0 108.633086,33.501168,0 108.588188,33.459681,0 108.597456,33.407226,0 108.574201,33.373889,0 108.569884,33.318866,0 108.583468,33.298487,0 108.640166,33.321139,0 108.66227,33.323574,0 108.691051,33.291828,0 108.687252,33.274773,0 108.710507,33.270062,0 108.740842,33.283788,0 108.80698,33.24496,0 108.816938,33.225783,0 108.863851,33.192782,0 108.900863,33.147732,0 108.919283,33.151067,0 108.931083,33.125035,0 108.973218,33.13732,0 108.97057,33.160338,0 108.988817,33.176928,0 109.005107,33.168796,0 109.059618,33.214242,0 109.124202,33.15985,0 109.174569,33.161558,0 109.218546,33.193351,0 109.232015,33.192376,0 109.258206,33.167739,0 109.295448,33.173919,0 109.313235,33.167576,0 109.339195,33.135855,0 109.373789,33.147244,0 109.438892,33.152124,0 109.464794,33.172943,0 109.481948,33.200261,0 109.498295,33.207333,0 109.51424,33.237728,0 109.549755,33.242279,0 109.587688,33.229765,0 109.606856,33.236022,0 109.607374,33.264295,0 109.616296,33.274124,0 109.647783,33.268113,0 109.649797,33.251703,0 109.692969,33.254303,0 109.70143,33.241222,0 109.732456,33.231309,0 109.762964,33.235778,0 109.813157,33.236347,0 109.845219,33.246991,0 109.916595,33.229684,0 109.973639,33.203919,0 109.999139,33.212617,0 110.040411,33.191238,0 110.077595,33.20205,0 110.13061,33.201725,0 110.165031,33.209284,0 110.218276,33.163185,0 110.250338,33.160257,0 110.297308,33.170585,0 110.333975,33.159769,0 110.361662,33.181725,0 110.422332,33.17026,0 110.451803,33.179367,0 110.471029,33.171398,0 110.470511,33.185059,0 110.50902,33.221476,0 110.527785,33.230415,0 110.540966,33.255603,0 110.577691,33.250566,0 110.593923,33.20709,0 110.594153,33.168552,0 110.616372,33.145617,0 110.651082,33.157492,0 110.669559,33.130161,0 110.702484,33.097124,0 110.719926,33.099565,0 110.717853,33.116899,0 110.727811,33.133903,0 110.765917,33.152449,0 110.795101,33.149928,0 110.824227,33.160257,0 110.817377,33.177253,0 110.830559,33.202537,0 110.865326,33.21408,0 110.921621,33.204001,0 110.94597,33.228627,0 110.942977,33.236347,0 110.966174,33.256172,0 110.997027,33.254709,0 110.982867,33.270062,0 111.007964,33.303683,0 111.000366,33.32398,0 111.026038,33.330392,0 111.026153,33.375349,0 111.011015,33.398873,0 110.996739,33.43593,0 111.020858,33.450846,0 111.026787,33.467705,0 111.020973,33.471189,0 111.021664,33.476538,0 111.026499,33.478563,0 111.019476,33.520852,0 111.003532,33.53308,0 111.009748,33.562552,0 111.003704,33.57866,0 110.966577,33.609169,0 110.94079,33.620091,0 110.878853,33.634651,0 110.857728,33.657781,0 110.841841,33.663199,0 110.823191,33.692869,0 110.832228,33.712832,0 110.816859,33.737395,0 110.815938,33.753067,0 110.782207,33.796027,0 110.741338,33.798772,0 110.72597,33.807733,0 110.712615,33.83356,0 110.684928,33.838805,0 110.66789,33.852119,0 110.644808,33.844938,0 110.612746,33.85107,0 110.612976,33.867447,0 110.587304,33.886966,0 110.591506,33.900191,0 110.62587,33.90777,0 110.626043,33.92462,0 110.675603,33.946624,0 110.670941,33.966447,0 110.653442,33.969186,0 110.649585,33.992307,0 110.627769,34.019528,0 110.624143,34.033859,0 110.612113,34.024278,0 110.586613,34.024037,0 110.58834,34.06163,0 110.595189,34.064769,0 110.591793,34.101701,0 110.614012,34.113686,0 110.641987,34.160887,0 110.621783,34.177445,0 110.587706,34.17865,0 110.589088,34.190223,0 110.557141,34.193357,0 110.551443,34.212801,0 110.507869,34.217621,0 110.489737,34.232321,0 110.441385,34.242441,0 110.442479,34.254004,0 110.426476,34.276084,0 110.432635,34.290853,0 110.449328,34.291496,0 110.474655,34.323514,0 110.498141,34.320064,0 110.502688,34.345174,0 110.489449,34.35528,0 110.473734,34.393207,0 110.475922,34.409159,0 110.458193,34.402426,0 110.430966,34.40948,0 110.388716,34.408117,0 110.377549,34.398338,0 110.284357,34.391364,0 110.251834,34.406754,0 110.194215,34.414769,0 110.162326,34.432159,0 110.132164,34.42687,0 110.103383,34.428874,0 110.075178,34.413888,0 110.059982,34.413247,0 110.058485,34.396975,0 110.03736,34.377814,0 110.007197,34.368593,0 110.024236,34.338998,0 110.040526,34.324156,0 110.030855,34.30217,0 110.007255,34.303213,0 110.024063,34.240352,0 109.997642,34.221638,0 109.964372,34.209748,0 109.94929,34.219549,0 109.95614,34.243645,0 109.920395,34.230313,0 109.883555,34.24742,0 109.873655,34.270785,0 109.853335,34.266048,0 109.825591,34.288205,0 109.792147,34.263078,0 109.80199,34.224048,0 109.775972,34.251997,0 109.757322,34.252961,0 109.743565,34.240352,0 109.754502,34.212239,0 109.745465,34.187491,0 109.778102,34.183392,0 109.801415,34.160887,0 109.822194,34.155742,0 109.789787,34.145049,0 109.78098,34.160083,0 109.755078,34.127197,0 109.742184,34.12189,0 109.739824,34.09792,0 109.694753,34.109101,0 109.669886,34.099931,0 109.658835,34.105481,0 109.634313,34.075633,0 109.584235,34.072092,0 109.567139,34.064688,0 109.552806,34.044727,0 109.56121,34.034181,0 109.545496,34.025244,0 109.533235,33.982077,0 109.562994,33.960726,0 109.603633,33.940982,0 109.592984,33.896804,0 109.576118,33.897691,0 109.540142,33.875513,0 109.537322,33.862042,0 109.508541,33.848004,0 109.470263,33.851796,0 109.442518,33.843566,0 109.399059,33.845422,0 109.355945,33.867608,0 109.316918,33.85462,0 109.299823,33.856556,0 109.289462,33.87027,0 109.251874,33.880675,0 109.207379,33.867043,0 109.185793,33.812334,0</coordinates></LinearRing></outerBoundaryIs>
      </Polygon>
      <Polygon>
        <outerBoundaryIs><LinearRing><coordinates>109.185793,33.812334,0 109.207379,33.867043,0 109.18493,33.874303,0 109.164207,33.871319,0 109.162366,33.812657,0 109.174166,33.808702,0 109.177562,33.809105,0 109.185793,33.812334,0</coordinates></LinearRing></outerBoundaryIs>
      </Polygon>
      <Polygon>
        <outerBoundaryIs><LinearRing><coordinates>111.026499,33.478563,0 111.021664,33.476538,0 111.020973,33.471189,0 111.026787,33.467705,0 111.026499,33.478563,0</coordinates></LinearRing></outerBoundaryIs>
      </Polygon>
    </MultiGeometry>
    </Placemark>
  </Document>
</kml>
