<?xml version="1.0" encoding="UTF-8"?>
<kml xmlns="http://www.opengis.net/kml/2.2">
  <Document>
    <name><![CDATA[安康市]]></name>
    <Placemark>
      <name><![CDATA[安康市]]></name>
      <description><![CDATA[省级目录：陕西省]]></description>
      <ExtendedData>
        <Data name="adcode"><value>610900</value></Data>
      </ExtendedData>
      <MultiGeometry>
      <Polygon>
        <outerBoundaryIs><LinearRing><coordinates>109.438892,33.152124,0 109.373789,33.147244,0 109.339195,33.135855,0 109.313235,33.167576,0 109.295448,33.173919,0 109.258206,33.167739,0 109.232015,33.192376,0 109.218546,33.193351,0 109.174569,33.161558,0 109.124202,33.15985,0 109.059618,33.214242,0 109.005107,33.168796,0 108.988817,33.176928,0 108.97057,33.160338,0 108.973218,33.13732,0 108.931083,33.125035,0 108.919283,33.151067,0 108.900863,33.147732,0 108.863851,33.192782,0 108.816938,33.225783,0 108.80698,33.24496,0 108.740842,33.283788,0 108.710507,33.270062,0 108.687252,33.274773,0 108.691051,33.291828,0 108.66227,33.323574,0 108.640166,33.321139,0 108.583468,33.298487,0 108.569884,33.318866,0 108.574201,33.373889,0 108.597456,33.407226,0 108.588188,33.459681,0 108.633086,33.501168,0 108.625143,33.533161,0 108.653809,33.54798,0 108.693296,33.535267,0 108.724897,33.530651,0 108.750685,33.536401,0 108.797367,33.58384,0 108.805599,33.605366,0 108.828508,33.617825,0 108.815039,33.633034,0 108.792244,33.642497,0 108.798806,33.654628,0 108.826493,33.649371,0 108.879335,33.698527,0 108.902245,33.678803,0 108.922909,33.684543,0 108.945473,33.726569,0 108.942307,33.747816,0 108.92337,33.774711,0 108.903223,33.781091,0 108.846985,33.777699,0 108.835588,33.792233,0 108.84002,33.815966,0 108.805771,33.817177,0 108.778487,33.798046,0 108.756038,33.812657,0 108.755923,33.839048,0 108.741014,33.841468,0 108.697843,33.828315,0 108.650067,33.841549,0 108.617717,33.825974,0 108.602579,33.791426,0 108.585425,33.780122,0 108.584274,33.764536,0 108.560444,33.765101,0 108.544557,33.788438,0 108.484405,33.804262,0 108.466445,33.800629,0 108.443709,33.781979,0 108.404855,33.763324,0 108.369454,33.793202,0 108.345969,33.793848,0 108.307,33.76292,0 108.288292,33.767282,0 108.259281,33.754763,0 108.233148,33.726649,0 108.191761,33.725276,0 108.180191,33.711862,0 108.149281,33.712347,0 108.132243,33.721882,0 108.113823,33.712589,0 108.098396,33.723498,0 108.073818,33.723417,0 108.054247,33.709842,0 108.052117,33.680016,0 108.065068,33.651635,0 108.058391,33.618796,0 108.070364,33.602129,0 108.060406,33.578499,0 108.066392,33.540692,0 108.060463,33.520042,0 108.077329,33.504004,0 108.101677,33.500358,0 108.151641,33.463977,0 108.158606,33.432363,0 108.143582,33.405604,0 108.117507,33.416795,0 108.092928,33.4009,0 108.10398,33.391492,0 108.095518,33.373483,0 108.056434,33.349222,0 108.042734,33.324061,0 108.052923,33.297025,0 108.039338,33.283139,0 108.033237,33.260965,0 108.021839,33.257878,0 108.048606,33.237972,0 108.046591,33.226677,0 108.077502,33.212373,0 108.070594,33.203757,0 108.107318,33.21091,0 108.097993,33.190587,0 108.104498,33.134147,0 108.090108,33.093461,0 108.095115,33.072053,0 108.132243,33.023112,0 108.137941,33.008857,0 108.126832,32.988243,0 108.12545,32.943903,0 108.078423,32.902314,0 108.078192,32.877514,0 108.102598,32.850341,0 108.112787,32.819567,0 108.130228,32.807809,0 108.121191,32.79997,0 108.128962,32.777021,0 108.149914,32.782003,0 108.150547,32.76779,0 108.189286,32.766728,0 108.230961,32.729796,0 108.240574,32.716147,0 108.228601,32.693994,0 108.255137,32.685817,0 108.253065,32.673634,0 108.265958,32.615308,0 108.258878,32.605652,0 108.197345,32.620709,0 108.187962,32.608188,0 108.211678,32.600577,0 108.249496,32.571273,0 108.251625,32.545071,0 108.277931,32.519926,0 108.27914,32.497068,0 108.247078,32.473303,0 108.18612,32.438709,0 108.176392,32.42846,0 108.156073,32.439611,0 108.121133,32.439857,0 108.11555,32.433216,0 108.135927,32.382692,0 108.117046,32.38704,0 108.109448,32.372026,0 108.126717,32.349541,0 108.13679,32.318103,0 108.167125,32.291744,0 108.180825,32.259053,0 108.156649,32.239005,0 108.179328,32.221994,0 108.213289,32.248208,0 108.212196,32.256999,0 108.247193,32.274825,0 108.265152,32.256999,0 108.287832,32.249359,0 108.312065,32.232185,0 108.329276,32.232596,0 108.347984,32.25396,0 108.387644,32.262257,0 108.414985,32.252481,0 108.431045,32.262586,0 108.450789,32.2593,0 108.471741,32.270636,0 108.483656,32.251413,0 108.507142,32.245661,0 108.514509,32.218214,0 108.510595,32.200212,0 108.551061,32.176122,0 108.583986,32.172257,0 108.679769,32.102992,0 108.734049,32.106448,0 108.747749,32.099864,0 108.751721,32.074184,0 108.788675,32.048332,0 108.837891,32.038862,0 108.867765,32.004102,0 108.902417,31.984905,0 108.937127,31.988942,0 108.955086,31.979137,0 108.986745,31.979961,0 109.035097,31.958038,0 109.087823,31.927371,0 109.124605,31.892157,0 109.167028,31.875329,0 109.198284,31.845789,0 109.196212,31.817561,0 109.213595,31.817479,0 109.273575,31.80105,0 109.28123,31.777928,0 109.254694,31.766944,0 109.28313,31.741749,0 109.281576,31.716877,0 109.323193,31.708861,0 109.390252,31.705224,0 109.415464,31.710018,0 109.417882,31.71886,0 109.457023,31.721587,0 109.458981,31.715803,0 109.501116,31.717125,0 109.549755,31.730016,0 109.585731,31.726711,0 109.605993,31.743731,0 109.592984,31.75191,0 109.591833,31.788912,0 109.604554,31.803774,0 109.638227,31.81104,0 109.607547,31.881681,0 109.584983,31.900488,0 109.594481,31.923331,0 109.620614,31.928608,0 109.631263,31.962242,0 109.601388,31.997676,0 109.587573,32.025272,0 109.590969,32.047755,0 109.617851,32.085132,0 109.62165,32.106777,0 109.592581,32.139194,0 109.587113,32.161484,0 109.604324,32.199226,0 109.592754,32.219364,0 109.550446,32.224871,0 109.528688,32.270308,0 109.495417,32.300367,0 109.510671,32.324588,0 109.513204,32.342319,0 109.500425,32.378918,0 109.506239,32.395326,0 109.529609,32.405743,0 109.526903,32.43338,0 109.541639,32.444285,0 109.552748,32.477155,0 109.576003,32.491742,0 109.587516,32.516075,0 109.618138,32.524759,0 109.636788,32.541058,0 109.620038,32.567425,0 109.61929,32.593047,0 109.631838,32.600086,0 109.7267,32.60827,0 109.758186,32.589855,0 109.817071,32.577413,0 109.849479,32.579787,0 109.881253,32.591983,0 109.910552,32.59272,0 109.944801,32.57684,0 109.971164,32.577576,0 109.995743,32.550721,0 110.028207,32.548428,0 110.051578,32.558664,0 110.088187,32.585435,0 110.085366,32.613099,0 110.10252,32.619072,0 110.13343,32.612198,0 110.153807,32.593129,0 110.165147,32.593866,0 110.206418,32.632981,0 110.187883,32.646316,0 110.154498,32.690069,0 110.162326,32.715902,0 110.159621,32.767218,0 110.139589,32.764931,0 110.127501,32.777756,0 110.14218,32.802828,0 110.1195,32.812953,0 110.113802,32.825445,0 110.0841,32.842995,0 110.05129,32.851891,0 110.030452,32.872129,0 110.004319,32.873271,0 109.98872,32.886244,0 109.931274,32.885346,0 109.915962,32.901009,0 109.883785,32.901743,0 109.857077,32.910307,0 109.847752,32.893259,0 109.80838,32.878983,0 109.789902,32.882491,0 109.764345,32.909328,0 109.784607,32.985961,0 109.794507,33.066924,0 109.768029,33.074496,0 109.715245,33.099484,0 109.688076,33.116573,0 109.633277,33.118038,0 109.601964,33.108192,0 109.592236,33.119584,0 109.576176,33.110226,0 109.560347,33.125686,0 109.514009,33.140248,0 109.468536,33.140248,0 109.438892,33.152124,0</coordinates></LinearRing></outerBoundaryIs>
      </Polygon>
    </MultiGeometry>
    </Placemark>
  </Document>
</kml>
