<?xml version="1.0" encoding="UTF-8"?>
<kml xmlns="http://www.opengis.net/kml/2.2">
  <Document>
    <name><![CDATA[宝鸡市]]></name>
    <Placemark>
      <name><![CDATA[宝鸡市]]></name>
      <description><![CDATA[省级目录：陕西省]]></description>
      <ExtendedData>
        <Data name="adcode"><value>610300</value></Data>
      </ExtendedData>
      <MultiGeometry>
      <Polygon>
        <outerBoundaryIs><LinearRing><coordinates>108.027941,34.228144,0 107.990181,34.22212,0 107.995131,34.265647,0 107.973603,34.268858,0 107.96825,34.286519,0 107.950808,34.287803,0 107.953744,34.32183,0 107.987878,34.313485,0 107.995764,34.332901,0 108.009118,34.317015,0 108.035884,34.315972,0 108.053095,34.325761,0 108.029438,34.370838,0 108.027711,34.38503,0 108.041698,34.390001,0 108.019825,34.430797,0 108.011881,34.457956,0 108.017637,34.479101,0 107.997606,34.487189,0 108.004053,34.527938,0 108.002441,34.552105,0 107.980453,34.575866,0 107.995822,34.612573,0 108.032143,34.626644,0 108.015623,34.695445,0 108.015335,34.726032,0 107.99916,34.750301,0 107.992023,34.782782,0 107.963127,34.79842,0 107.94983,34.821552,0 107.951787,34.863332,0 107.90804,34.842684,0 107.857961,34.844438,0 107.857501,34.863172,0 107.841269,34.890669,0 107.84973,34.891466,0 107.822791,34.953358,0 107.820028,34.973739,0 107.799997,34.966813,0 107.804775,34.956782,0 107.778584,34.964664,0 107.741572,34.953517,0 107.67434,34.951208,0 107.654366,34.933529,0 107.637731,34.93329,0 107.63986,34.918793,0 107.625815,34.918952,0 107.633414,34.953915,0 107.619714,34.964664,0 107.605611,34.958693,0 107.572168,34.971351,0 107.562037,34.966495,0 107.551158,34.940298,0 107.537861,34.932493,0 107.536653,34.915368,0 107.524047,34.909871,0 107.474774,34.91943,0 107.455548,34.916802,0 107.426019,34.92875,0 107.392921,34.932414,0 107.371969,34.917997,0 107.35021,34.934086,0 107.322351,34.938148,0 107.28672,34.931856,0 107.282978,34.911783,0 107.262371,34.907481,0 107.252528,34.881185,0 107.230943,34.891864,0 107.222999,34.878157,0 107.201011,34.881664,0 107.189556,34.893298,0 107.179886,34.928272,0 107.162387,34.944121,0 107.135621,34.945873,0 107.103041,34.960046,0 107.089629,34.976685,0 107.096076,35.010111,0 107.082606,35.024035,0 107.048242,35.028331,0 107.051005,35.04074,0 107.031031,35.029126,0 107.012439,35.029365,0 106.990796,35.068495,0 106.950157,35.066905,0 106.944401,35.080103,0 106.912569,35.079546,0 106.90169,35.094492,0 106.856965,35.091232,0 106.83843,35.079785,0 106.777818,35.094253,0 106.7145,35.105619,0 106.706441,35.081852,0 106.666206,35.076605,0 106.661601,35.069687,0 106.615379,35.071119,0 106.575834,35.089325,0 106.543542,35.085032,0 106.545959,35.070562,0 106.520978,35.027615,0 106.503536,35.03374,0 106.48857,35.02125,0 106.502155,34.995548,0 106.48316,34.980108,0 106.493118,34.941095,0 106.510214,34.925086,0 106.517927,34.892422,0 106.528,34.876483,0 106.555918,34.861339,0 106.554306,34.813735,0 106.578367,34.789006,0 106.575028,34.770095,0 106.54855,34.761635,0 106.539628,34.745671,0 106.505839,34.746869,0 106.486901,34.715172,0 106.459617,34.705589,0 106.44137,34.681705,0 106.445687,34.669482,0 106.470784,34.65374,0 106.467215,34.640952,0 106.44868,34.636396,0 106.421741,34.654939,0 106.419496,34.64343,0 106.368151,34.610334,0 106.323138,34.589863,0 106.314044,34.578745,0 106.340982,34.568026,0 106.343803,34.536581,0 106.33442,34.517852,0 106.366137,34.512329,0 106.379031,34.520654,0 106.401365,34.511128,0 106.407811,34.523135,0 106.453861,34.531299,0 106.487765,34.523375,0 106.511825,34.502482,0 106.536059,34.493034,0 106.543657,34.47854,0 106.552406,34.489191,0 106.567948,34.474857,0 106.599434,34.465966,0 106.591606,34.456514,0 106.613709,34.44626,0 106.637252,34.392005,0 106.662176,34.381663,0 106.680078,34.383747,0 106.697289,34.370598,0 106.717378,34.369234,0 106.710989,34.344372,0 106.690324,34.334024,0 106.705117,34.299522,0 106.684107,34.259946,0 106.663903,34.243163,0 106.633626,34.259866,0 106.602485,34.250873,0 106.589246,34.253764,0 106.5771,34.2809,0 106.526446,34.291977,0 106.496514,34.255129,0 106.496053,34.238345,0 106.512919,34.239389,0 106.532087,34.254085,0 106.551255,34.242601,0 106.558565,34.227421,0 106.572265,34.16997,0 106.584871,34.149471,0 106.56081,34.113203,0 106.501867,34.104918,0 106.505494,34.056479,0 106.47159,34.024037,0 106.479533,33.994401,0 106.476022,33.973779,0 106.443557,33.934615,0 106.41092,33.909221,0 106.428246,33.866479,0 106.475331,33.875755,0 106.493406,33.846148,0 106.491391,33.834529,0 106.468712,33.820083,0 106.461804,33.789649,0 106.479821,33.780768,0 106.48811,33.758236,0 106.482642,33.707336,0 106.53485,33.695132,0 106.575546,33.631658,0 106.581475,33.590638,0 106.596729,33.579389,0 106.617911,33.591933,0 106.629827,33.619605,0 106.647325,33.634813,0 106.64226,33.658994,0 106.687043,33.665544,0 106.705693,33.676944,0 106.674955,33.701437,0 106.71427,33.701356,0 106.789215,33.67751,0 106.797273,33.682441,0 106.803835,33.72366,0 106.80585,33.809832,0 106.817823,33.834448,0 106.839409,33.827023,0 106.854375,33.848649,0 106.855583,33.874384,0 106.888681,33.860993,0 106.890063,33.848327,0 106.909691,33.847762,0 106.930701,33.827266,0 106.978247,33.800952,0 107.028153,33.794574,0 107.043234,33.805069,0 107.038514,33.85462,0 107.044904,33.873819,0 107.063093,33.870431,0 107.066432,33.838725,0 107.080477,33.8221,0 107.105746,33.822504,0 107.112078,33.812818,0 107.136945,33.81411,0 107.128368,33.777618,0 107.145233,33.794251,0 107.163135,33.788035,0 107.181612,33.769462,0 107.187369,33.751774,0 107.212581,33.74927,0 107.231173,33.766797,0 107.27279,33.790699,0 107.276762,33.801194,0 107.299499,33.792798,0 107.322581,33.818872,0 107.342037,33.81411,0 107.328279,33.797642,0 107.32212,33.774469,0 107.305543,33.766878,0 107.304334,33.733517,0 107.314177,33.728831,0 107.3056,33.710165,0 107.336165,33.68907,0 107.376516,33.682845,0 107.400347,33.651312,0 107.423601,33.649371,0 107.467694,33.660612,0 107.492503,33.679854,0 107.517082,33.678318,0 107.562555,33.70273,0 107.586846,33.697719,0 107.628694,33.714448,0 107.650682,33.700628,0 107.673764,33.699497,0 107.695868,33.72366,0 107.687924,33.744746,0 107.665821,33.760013,0 107.68591,33.796996,0 107.679463,33.808298,0 107.697422,33.817903,0 107.708589,33.846794,0 107.704387,33.857282,0 107.717626,33.910431,0 107.71377,33.92736,0 107.76736,33.954521,0 107.784455,33.980626,0 107.8103,33.995045,0 107.846564,33.975148,0 107.87759,33.993918,0 107.908213,33.999314,0 107.915638,33.986104,0 107.949887,33.985379,0 107.941944,34.006079,0 107.943038,34.042312,0 107.972567,34.062113,0 107.976481,34.075069,0 108.00106,34.103953,0 108.003074,34.155742,0 108.011421,34.161047,0 108.030013,34.208623,0 108.027941,34.228144,0</coordinates></LinearRing></outerBoundaryIs>
      </Polygon>
    </MultiGeometry>
    </Placemark>
  </Document>
</kml>
