<?xml version="1.0" encoding="UTF-8"?>
<kml xmlns="http://www.opengis.net/kml/2.2">
  <Document>
    <name><![CDATA[榆林市]]></name>
    <Placemark>
      <name><![CDATA[榆林市]]></name>
      <description><![CDATA[省级目录：陕西省]]></description>
      <ExtendedData>
        <Data name="adcode"><value>610800</value></Data>
      </ExtendedData>
      <MultiGeometry>
      <Polygon>
        <outerBoundaryIs><LinearRing><coordinates>110.418706,36.973589,0 110.40846,36.989032,0 110.377146,37.010291,0 110.38319,37.021849,0 110.412834,37.019212,0 110.441212,37.00618,0 110.450307,37.016497,0 110.424059,37.023944,0 110.425958,37.04085,0 110.460495,37.044728,0 110.495781,37.086743,0 110.535556,37.115102,0 110.540276,37.144612,0 110.584541,37.18069,0 110.650161,37.254341,0 110.661903,37.282019,0 110.690051,37.287043,0 110.678711,37.317877,0 110.693965,37.325912,0 110.695059,37.349625,0 110.651773,37.357038,0 110.634044,37.36615,0 110.631799,37.398803,0 110.648146,37.438154,0 110.744965,37.450726,0 110.758377,37.471161,0 110.759528,37.503461,0 110.771271,37.520183,0 110.771098,37.538365,0 110.794928,37.56617,0 110.772249,37.592655,0 110.76373,37.639596,0 110.793317,37.65075,0 110.796137,37.663056,0 110.775357,37.680896,0 110.739094,37.68943,0 110.706571,37.705342,0 110.70352,37.718638,0 110.716645,37.728704,0 110.750721,37.736157,0 110.755671,37.755055,0 110.735755,37.770415,0 110.680381,37.790072,0 110.660752,37.808034,0 110.650564,37.840034,0 110.607277,37.89625,0 110.587937,37.926602,0 110.547644,37.940317,0 110.522489,37.95495,0 110.516618,37.970728,0 110.52836,37.990638,0 110.508099,38.012838,0 110.501422,38.03901,0 110.508789,38.061961,0 110.501882,38.098132,0 110.521165,38.124427,0 110.510574,38.147274,0 110.507869,38.18493,0 110.523928,38.210506,0 110.558235,38.210506,0 110.567272,38.217529,0 110.567963,38.245764,0 110.577461,38.297247,0 110.601291,38.308225,0 110.638821,38.304718,0 110.668581,38.313637,0 110.701621,38.35334,0 110.750318,38.36949,0 110.758952,38.400407,0 110.77766,38.4409,0 110.796828,38.453454,0 110.825033,38.449421,0 110.84069,38.439986,0 110.874248,38.453682,0 110.870161,38.508894,0 110.907692,38.521056,0 110.909418,38.563152,0 110.919895,38.582064,0 110.89664,38.588216,0 110.88081,38.626933,0 110.896409,38.657816,0 110.916211,38.673973,0 110.915405,38.704305,0 110.937681,38.718784,0 110.965023,38.755688,0 110.956274,38.776746,0 110.979126,38.787727,0 110.996509,38.825125,0 111.010094,38.841623,0 110.996049,38.868026,0 111.012339,38.878312,0 111.015735,38.896234,0 111.009921,38.932593,0 110.994552,38.960171,0 110.979989,38.972257,0 110.998409,38.998536,0 111.038241,39.020126,0 111.088953,39.02707,0 111.138341,39.064267,0 111.147321,39.100539,0 111.162517,39.108455,0 111.174144,39.135136,0 111.163093,39.152465,0 111.218985,39.24567,0 111.213516,39.25718,0 111.227159,39.284406,0 111.247478,39.3023,0 111.213804,39.301247,0 111.187959,39.314327,0 111.17944,39.326803,0 111.194233,39.340479,0 111.18842,39.350922,0 111.161711,39.33552,0 111.155034,39.368273,0 111.125562,39.36647,0 111.108121,39.356556,0 111.086593,39.380139,0 111.09776,39.404539,0 111.086651,39.412721,0 111.064374,39.400936,0 111.053841,39.429907,0 111.05833,39.447689,0 111.086881,39.45669,0 111.088032,39.468391,0 111.108869,39.474165,0 111.100005,39.483239,0 111.107143,39.499208,0 111.148875,39.532633,0 111.154976,39.568664,0 111.136787,39.58701,0 111.100984,39.559452,0 111.04371,39.554584,0 111.040947,39.567691,0 111.017231,39.552037,0 110.996624,39.547767,0 110.990177,39.537054,0 110.959152,39.519445,0 110.890826,39.508952,0 110.862909,39.482639,0 110.806613,39.411295,0 110.782668,39.388098,0 110.768565,39.382917,0 110.738288,39.348518,0 110.732877,39.308464,0 110.70283,39.273878,0 110.688382,39.267485,0 110.669617,39.275908,0 110.626273,39.266808,0 110.596571,39.283052,0 110.566927,39.318461,0 110.559156,39.352124,0 110.521741,39.383217,0 110.499177,39.360687,0 110.482599,39.360612,0 110.469475,39.375182,0 110.434995,39.380889,0 110.416576,39.348668,0 110.429124,39.342057,0 110.385205,39.310494,0 110.370008,39.329433,0 110.34094,39.341531,0 110.296617,39.376008,0 110.281018,39.394179,0 110.257648,39.407091,0 110.276759,39.420301,0 110.243488,39.423678,0 110.217125,39.443262,0 110.206188,39.437485,0 110.152483,39.45399,0 110.133373,39.448289,0 110.126408,39.416849,0 110.136769,39.391777,0 110.158872,39.389599,0 110.185293,39.3531,0 110.202792,39.316356,0 110.210851,39.281473,0 110.193352,39.280721,0 110.159851,39.263122,0 110.110808,39.249732,0 110.078401,39.230771,0 110.010997,39.208568,0 109.962702,39.211881,0 109.941289,39.239952,0 109.902723,39.271922,0 109.868992,39.249732,0 109.882174,39.233104,0 109.897255,39.234082,0 109.960457,39.186735,0 109.893916,39.141239,0 109.922121,39.107023,0 109.890923,39.104007,0 109.882116,39.116747,0 109.860128,39.124435,0 109.815345,39.096167,0 109.793356,39.074072,0 109.762388,39.057478,0 109.725376,39.01839,0 109.704826,39.016956,0 109.691242,38.992647,0 109.672016,38.997026,0 109.665339,38.981697,0 109.68537,38.968254,0 109.683759,38.93554,0 109.67098,38.926472,0 109.649279,38.884514,0 109.624413,38.854485,0 109.549755,38.805672,0 109.511189,38.833753,0 109.489258,38.813317,0 109.450864,38.788863,0 109.442576,38.771141,0 109.412528,38.747581,0 109.403952,38.720603,0 109.338734,38.7015,0 109.325956,38.670029,0 109.328891,38.660471,0 109.366537,38.631107,0 109.331366,38.597935,0 109.310299,38.60249,0 109.27674,38.622986,0 109.196845,38.552668,0 109.178655,38.520828,0 109.147112,38.506157,0 109.128634,38.480533,0 109.092486,38.45353,0 109.054265,38.433975,0 109.059791,38.408705,0 109.051272,38.385255,0 109.007813,38.35913,0 108.989738,38.310893,0 108.976441,38.296942,0 108.961878,38.265065,0 108.976557,38.249503,0 108.955144,38.218521,0 108.938508,38.207453,0 108.947258,38.170725,0 108.964469,38.154761,0 109.019785,38.119688,0 109.06359,38.100196,0 109.068828,38.091174,0 109.050754,38.055,0 109.069519,38.023017,0 109.038032,38.021487,0 109.028938,37.997452,0 109.015468,37.982828,0 109.017483,37.969962,0 108.97955,37.959316,0 108.974197,37.931889,0 108.935803,37.921621,0 108.917095,37.959776,0 108.893841,37.978157,0 108.882961,38.013833,0 108.855504,38.038322,0 108.830638,38.049798,0 108.797655,38.047886,0 108.826666,37.995155,0 108.824882,37.98321,0 108.798231,37.933652,0 108.792072,37.872864,0 108.793223,37.815863,0 108.801397,37.792298,0 108.784704,37.764655,0 108.78338,37.737309,0 108.792014,37.700269,0 108.777681,37.68351,0 108.741648,37.685509,0 108.713442,37.680665,0 108.699512,37.66967,0 108.628366,37.652212,0 108.61127,37.654212,0 108.55958,37.681742,0 108.532641,37.690583,0 108.477037,37.674207,0 108.422411,37.648827,0 108.351265,37.641366,0 108.33296,37.633057,0 108.301128,37.64075,0 108.292782,37.656981,0 108.246502,37.665748,0 108.205576,37.65575,0 108.193661,37.638289,0 108.154001,37.623901,0 108.133912,37.621978,0 108.108239,37.637827,0 108.077041,37.642981,0 108.060233,37.652058,0 108.025408,37.649827,0 108.013205,37.665517,0 108.02443,37.698655,0 108.014069,37.725861,0 107.993692,37.735081,0 107.979992,37.764732,0 107.981949,37.787231,0 107.937109,37.795062,0 107.894628,37.813637,0 107.8849,37.808341,0 107.842708,37.828985,0 107.815884,37.829062,0 107.741169,37.845328,0 107.683435,37.887739,0 107.675952,37.875778,0 107.650222,37.864581,0 107.659259,37.8441,0 107.646135,37.805194,0 107.620692,37.775944,0 107.599222,37.791146,0 107.571305,37.776712,0 107.523413,37.772949,0 107.49918,37.765654,0 107.490833,37.745376,0 107.485077,37.706495,0 107.465449,37.691198,0 107.430566,37.684202,0 107.407081,37.692966,0 107.386877,37.691121,0 107.389583,37.671208,0 107.422047,37.665056,0 107.419918,37.650212,0 107.39672,37.652443,0 107.36132,37.613282,0 107.325056,37.606279,0 107.312565,37.610127,0 107.330467,37.584033,0 107.368918,37.587574,0 107.372199,37.580029,0 107.359132,37.540214,0 107.345663,37.518873,0 107.284302,37.481955,0 107.283612,37.440776,0 107.271063,37.390313,0 107.261047,37.37086,0 107.257939,37.336958,0 107.273135,37.29114,0 107.293282,37.277458,0 107.309342,37.238874,0 107.291382,37.241272,0 107.270315,37.229129,0 107.317688,37.199961,0 107.333978,37.173801,0 107.337835,37.153982,0 107.3311,37.13013,0 107.307039,37.100459,0 107.278258,37.128194,0 107.277568,37.102396,0 107.268703,37.099452,0 107.285223,37.056435,0 107.279525,37.041703,0 107.287411,36.992369,0 107.304276,36.951699,0 107.294836,36.929414,0 107.311702,36.913026,0 107.332827,36.925608,0 107.370645,36.904792,0 107.447202,36.899432,0 107.47794,36.908443,0 107.533717,36.867184,0 107.528479,36.853737,0 107.540106,36.828624,0 107.590818,36.836244,0 107.603597,36.825824,0 107.639515,36.818514,0 107.672095,36.8329,0 107.694947,36.849772,0 107.723095,36.8591,0 107.727124,36.892828,0 107.723267,36.920094,0 107.706287,36.963033,0 107.693335,36.97421,0 107.723958,36.985929,0 107.748307,36.986317,0 107.752739,37.001137,0 107.725282,37.016265,0 107.702142,37.018126,0 107.69512,36.996637,0 107.68591,37.022935,0 107.674858,37.029916,0 107.65995,37.058529,0 107.670138,37.064653,0 107.696962,37.050078,0 107.720217,37.07349,0 107.700473,37.091471,0 107.692472,37.123856,0 107.675779,37.121687,0 107.704099,37.142676,0 107.734377,37.136946,0 107.744738,37.153905,0 107.724131,37.16366,0 107.749343,37.176511,0 107.747616,37.207699,0 107.771159,37.230521,0 107.78388,37.230521,0 107.797694,37.246144,0 107.82141,37.243283,0 107.820086,37.220697,0 107.850594,37.221393,0 107.858652,37.212341,0 107.866941,37.16397,0 107.887145,37.132299,0 107.888584,37.083953,0 107.930835,37.094028,0 107.94252,37.081861,0 107.959097,37.081783,0 107.982525,37.110299,0 108.032316,37.127187,0 108.102195,37.130052,0 108.11555,37.149646,0 108.123954,37.20414,0 108.136617,37.191139,0 108.173745,37.195705,0 108.174723,37.164666,0 108.213347,37.171866,0 108.230673,37.194235,0 108.24915,37.201741,0 108.260087,37.216983,0 108.251971,37.234775,0 108.275571,37.235239,0 108.282248,37.26161,0 108.261296,37.268491,0 108.245524,37.283642,0 108.249438,37.298018,0 108.21657,37.325139,0 108.236659,37.340279,0 108.263253,37.341747,0 108.319548,37.358814,0 108.343436,37.373871,0 108.362201,37.405363,0 108.361395,37.388461,0 108.407445,37.381127,0 108.406581,37.406675,0 108.418842,37.407215,0 108.431736,37.388306,0 108.428743,37.356961,0 108.438701,37.3144,0 108.486419,37.28542,0 108.474274,37.26161,0 108.452688,37.2538,0 108.48665,37.233074,0 108.515258,37.231294,0 108.512725,37.204217,0 108.540527,37.178833,0 108.547838,37.163583,0 108.536325,37.117117,0 108.552097,37.088293,0 108.536728,37.060544,0 108.542254,37.039842,0 108.510135,37.023246,0 108.487743,37.026891,0 108.501213,37.001292,0 108.517503,37.003309,0 108.536268,36.988955,0 108.558486,36.986549,0 108.598607,37.004783,0 108.611328,37.029838,0 108.621459,37.02627,0 108.651218,37.03961,0 108.672401,37.020298,0 108.688173,36.996637,0 108.73664,36.982592,0 108.758456,36.98911,0 108.768241,36.974831,0 108.80485,37.002999,0 108.803987,37.023789,0 108.815845,37.029916,0 108.809052,37.043409,0 108.782631,37.05062,0 108.770601,37.069072,0 108.741245,37.081241,0 108.757707,37.099607,0 108.750915,37.114405,0 108.773249,37.113088,0 108.778314,37.121919,0 108.79754,37.111694,0 108.819528,37.139734,0 108.834437,37.136868,0 108.853202,37.154601,0 108.883019,37.150962,0 108.882904,37.177285,0 108.862239,37.180149,0 108.85349,37.205378,0 108.859994,37.236554,0 108.868801,37.242123,0 108.862354,37.263543,0 108.876227,37.252717,0 108.889639,37.222321,0 108.894646,37.23493,0 108.920722,37.238333,0 108.950884,37.233383,0 108.963778,37.263233,0 108.984673,37.267099,0 109.002459,37.285807,0 109.01449,37.283024,0 109.013684,37.303891,0 109.049027,37.295468,0 109.056567,37.28542,0 109.078498,37.312005,0 109.111193,37.307214,0 109.11787,37.322435,0 109.142737,37.318572,0 109.173935,37.30451,0 109.178713,37.327148,0 109.205249,37.32089,0 109.231497,37.329311,0 109.24347,37.31865,0 109.24865,37.337035,0 109.282612,37.346072,0 109.300744,37.34445,0 109.307651,37.354644,0 109.342994,37.347385,0 109.329812,37.373253,0 109.349786,37.379815,0 109.362968,37.408913,0 109.385877,37.438154,0 109.417421,37.446947,0 109.434574,37.459672,0 109.453397,37.460212,0 109.468651,37.487351,0 109.492539,37.498451,0 109.509002,37.481647,0 109.536516,37.477869,0 109.564088,37.460135,0 109.576291,37.438,0 109.634659,37.419407,0 109.669599,37.422339,0 109.717778,37.435377,0 109.738673,37.424808,0 109.734758,37.400501,0 109.772807,37.393246,0 109.77344,37.363756,0 109.784434,37.343369,0 109.80366,37.347308,0 109.812351,37.305051,0 109.783801,37.310691,0 109.762043,37.270733,0 109.797788,37.265476,0 109.811948,37.257821,0 109.841017,37.279546,0 109.879353,37.270887,0 109.905601,37.277922,0 109.898176,37.294927,0 109.919128,37.314091,0 109.926784,37.29284,0 109.987857,37.26965,0 110.011227,37.274212,0 110.028323,37.265244,0 110.030222,37.245294,0 110.013126,37.204913,0 109.988375,37.199652,0 109.968919,37.213424,0 109.954529,37.206306,0 109.982101,37.179375,0 109.978071,37.151659,0 109.990677,37.130207,0 110.013644,37.146316,0 110.025099,37.132221,0 110.011112,37.095345,0 110.031546,37.053179,0 110.032467,37.029605,0 110.066141,37.01099,0 110.087554,36.985308,0 110.115816,36.973201,0 110.170557,36.988567,0 110.191107,37.013394,0 110.242855,37.00362,0 110.269621,36.988955,0 110.278601,36.968544,0 110.294718,36.965594,0 110.324247,36.98492,0 110.352222,36.975141,0 110.362238,36.943857,0 110.375649,36.962024,0 110.388313,36.958608,0 110.418706,36.973589,0</coordinates></LinearRing></outerBoundaryIs>
      </Polygon>
    </MultiGeometry>
    </Placemark>
  </Document>
</kml>
