<?xml version="1.0" encoding="UTF-8"?>
<kml xmlns="http://www.opengis.net/kml/2.2">
  <Document>
    <name><![CDATA[渭南市]]></name>
    <Placemark>
      <name><![CDATA[渭南市]]></name>
      <description><![CDATA[省级目录：陕西省]]></description>
      <ExtendedData>
        <Data name="adcode"><value>610500</value></Data>
      </ExtendedData>
      <MultiGeometry>
      <Polygon>
        <outerBoundaryIs><LinearRing><coordinates>110.430966,34.40948,0 110.409496,34.421581,0 110.392688,34.466046,0 110.367073,34.496157,0 110.360626,34.517292,0 110.372714,34.544343,0 110.404488,34.557626,0 110.367188,34.566746,0 110.379161,34.600499,0 110.350783,34.606656,0 110.295524,34.611054,0 110.269045,34.629442,0 110.236638,34.67044,0 110.229616,34.692649,0 110.2432,34.725792,0 110.246884,34.788846,0 110.233702,34.837421,0 110.238825,34.852012,0 110.23094,34.880707,0 110.254367,34.919191,0 110.262195,34.94436,0 110.274686,34.947306,0 110.30151,34.988624,0 110.320851,35.005178,0 110.320563,35.038513,0 110.333111,35.045115,0 110.346466,35.084316,0 110.373692,35.134226,0 110.364713,35.140264,0 110.364367,35.197999,0 110.378355,35.210858,0 110.374844,35.251964,0 110.40397,35.286467,0 110.450019,35.327772,0 110.477591,35.413882,0 110.48588,35.422828,0 110.513049,35.483131,0 110.531699,35.511446,0 110.567502,35.539514,0 110.580914,35.563147,0 110.589088,35.602099,0 110.60935,35.632189,0 110.603996,35.658873,0 110.592369,35.663293,0 110.592311,35.682313,0 110.577633,35.701486,0 110.574007,35.769777,0 110.563818,35.787668,0 110.56733,35.819342,0 110.550752,35.838088,0 110.54937,35.854074,0 110.510113,35.845963,0 110.486628,35.828401,0 110.411107,35.809967,0 110.385838,35.784673,0 110.370296,35.757401,0 110.328967,35.752591,0 110.29915,35.731222,0 110.282227,35.711741,0 110.232897,35.715133,0 110.222017,35.721049,0 110.162787,35.710006,0 110.1332,35.675132,0 110.172687,35.657689,0 110.193927,35.656347,0 110.211656,35.639295,0 110.229558,35.634715,0 110.234739,35.616553,0 110.25713,35.597912,0 110.251316,35.586457,0 110.283033,35.56702,0 110.273765,35.538803,0 110.222478,35.546629,0 110.230421,35.510497,0 110.213153,35.502905,0 110.2059,35.485583,0 110.184487,35.469286,0 110.138611,35.456071,0 110.116507,35.425045,0 110.102404,35.423303,0 110.087381,35.406677,0 110.05198,35.416732,0 110.014105,35.408656,0 109.996606,35.434702,0 109.983712,35.410081,0 109.953608,35.414832,0 109.90186,35.411823,0 109.882404,35.421166,0 109.875727,35.435415,0 109.85299,35.422195,0 109.840384,35.432248,0 109.821504,35.429636,0 109.81379,35.443409,0 109.752775,35.434544,0 109.721059,35.41119,0 109.698034,35.409052,0 109.616181,35.442776,0 109.546935,35.443805,0 109.521147,35.425441,0 109.513204,35.38577,0 109.495647,35.357251,0 109.476019,35.340215,0 109.444475,35.343385,0 109.411838,35.322699,0 109.39785,35.329357,0 109.382711,35.314059,0 109.382481,35.298282,0 109.368897,35.286071,0 109.318703,35.274254,0 109.283533,35.251012,0 109.303564,35.246648,0 109.30909,35.216414,0 109.319278,35.200142,0 109.344203,35.18998,0 109.362162,35.164411,0 109.381733,35.157184,0 109.433538,35.167429,0 109.44482,35.148684,0 109.441021,35.104586,0 109.444187,35.088848,0 109.426746,35.06921,0 109.415349,35.071993,0 109.408384,35.09163,0 109.359514,35.101009,0 109.339425,35.092504,0 109.296657,35.086145,0 109.290728,35.09942,0 109.27415,35.099579,0 109.28313,35.084952,0 109.261659,35.050761,0 109.223726,35.04758,0 109.20663,35.018625,0 109.212559,35.003745,0 109.176929,35.001597,0 109.164438,34.983689,0 109.144176,34.991728,0 109.127886,34.975093,0 109.105207,34.97167,0 109.084542,34.955906,0 109.097263,34.932892,0 109.095479,34.919271,0 109.062323,34.908357,0 109.061748,34.888836,0 109.034003,34.901107,0 109.013914,34.891386,0 108.983291,34.889951,0 108.967347,34.88007,0 108.977823,34.835348,0 108.973736,34.821711,0 108.997682,34.808551,0 109.015986,34.781825,0 109.034406,34.771451,0 109.04517,34.752297,0 109.030492,34.727948,0 109.029053,34.70503,0 109.046436,34.687058,0 109.068655,34.713176,0 109.090356,34.700876,0 109.128174,34.699838,0 109.173187,34.705589,0 109.173072,34.691931,0 109.203407,34.697682,0 109.243873,34.687297,0 109.254176,34.6988,0 109.280424,34.697442,0 109.286641,34.687697,0 109.340749,34.69872,0 109.358651,34.716929,0 109.365098,34.739285,0 109.410859,34.743117,0 109.429854,34.713814,0 109.421163,34.706866,0 109.430775,34.688016,0 109.42335,34.679548,0 109.437222,34.595621,0 109.449771,34.553625,0 109.429106,34.549385,0 109.418054,34.536741,0 109.391346,34.529138,0 109.399692,34.49976,0 109.391346,34.468529,0 109.413277,34.46068,0 109.424501,34.441934,0 109.423753,34.423505,0 109.442633,34.414128,0 109.445799,34.397376,0 109.461859,34.394169,0 109.458981,34.350869,0 109.450577,34.326724,0 109.456045,34.298237,0 109.477688,34.294465,0 109.500252,34.268698,0 109.523622,34.255851,0 109.575831,34.262516,0 109.627751,34.240031,0 109.659122,34.245894,0 109.668562,34.238586,0 109.691069,34.243003,0 109.731074,34.236337,0 109.739996,34.217219,0 109.754502,34.212239,0 109.743565,34.240352,0 109.757322,34.252961,0 109.775972,34.251997,0 109.80199,34.224048,0 109.792147,34.263078,0 109.825591,34.288205,0 109.853335,34.266048,0 109.873655,34.270785,0 109.883555,34.24742,0 109.920395,34.230313,0 109.95614,34.243645,0 109.94929,34.219549,0 109.964372,34.209748,0 109.997642,34.221638,0 110.024063,34.240352,0 110.007255,34.303213,0 110.030855,34.30217,0 110.040526,34.324156,0 110.024236,34.338998,0 110.007197,34.368593,0 110.03736,34.377814,0 110.058485,34.396975,0 110.059982,34.413247,0 110.075178,34.413888,0 110.103383,34.428874,0 110.132164,34.42687,0 110.162326,34.432159,0 110.194215,34.414769,0 110.251834,34.406754,0 110.284357,34.391364,0 110.377549,34.398338,0 110.388716,34.408117,0 110.430966,34.40948,0</coordinates></LinearRing></outerBoundaryIs>
      </Polygon>
    </MultiGeometry>
    </Placemark>
  </Document>
</kml>
