<?xml version="1.0" encoding="UTF-8"?>
<kml xmlns="http://www.opengis.net/kml/2.2">
  <Document>
    <name><![CDATA[铜川市]]></name>
    <Placemark>
      <name><![CDATA[铜川市]]></name>
      <description><![CDATA[省级目录：陕西省]]></description>
      <ExtendedData>
        <Data name="adcode"><value>610200</value></Data>
      </ExtendedData>
      <MultiGeometry>
      <Polygon>
        <outerBoundaryIs><LinearRing><coordinates>108.868629,35.344653,0 108.873349,35.326108,0 108.824824,35.316279,0 108.807843,35.300819,0 108.79777,35.306448,0 108.750627,35.293366,0 108.739921,35.268464,0 108.720292,35.254979,0 108.696865,35.222764,0 108.670674,35.210462,0 108.676545,35.196729,0 108.656629,35.194267,0 108.65473,35.178467,0 108.633432,35.164093,0 108.655708,35.156866,0 108.662673,35.128585,0 108.644138,35.119288,0 108.616278,35.11746,0 108.591297,35.101645,0 108.626812,35.099897,0 108.60891,35.06762,0 108.583526,35.043524,0 108.599067,35.021966,0 108.62048,35.011782,0 108.631532,34.978993,0 108.643217,34.975093,0 108.665148,34.933608,0 108.66699,34.916563,0 108.689036,34.880707,0 108.726509,34.866839,0 108.766399,34.87202,0 108.780559,34.852729,0 108.81383,34.830643,0 108.82327,34.804881,0 108.855504,34.82219,0 108.902302,34.810146,0 108.898561,34.823545,0 108.918189,34.83455,0 108.957158,34.829766,0 108.973736,34.821711,0 108.977823,34.835348,0 108.967347,34.88007,0 108.983291,34.889951,0 109.013914,34.891386,0 109.034003,34.901107,0 109.061748,34.888836,0 109.062323,34.908357,0 109.095479,34.919271,0 109.097263,34.932892,0 109.084542,34.955906,0 109.105207,34.97167,0 109.127886,34.975093,0 109.144176,34.991728,0 109.164438,34.983689,0 109.176929,35.001597,0 109.212559,35.003745,0 109.20663,35.018625,0 109.223726,35.04758,0 109.261659,35.050761,0 109.28313,35.084952,0 109.27415,35.099579,0 109.290728,35.09942,0 109.296657,35.086145,0 109.339425,35.092504,0 109.359514,35.101009,0 109.408384,35.09163,0 109.415349,35.071993,0 109.426746,35.06921,0 109.444187,35.088848,0 109.441021,35.104586,0 109.44482,35.148684,0 109.433538,35.167429,0 109.381733,35.157184,0 109.362162,35.164411,0 109.344203,35.18998,0 109.319278,35.200142,0 109.30909,35.216414,0 109.303564,35.246648,0 109.283533,35.251012,0 109.318703,35.274254,0 109.368897,35.286071,0 109.382481,35.298282,0 109.382711,35.314059,0 109.39785,35.329357,0 109.411838,35.322699,0 109.444475,35.343385,0 109.476019,35.340215,0 109.495647,35.357251,0 109.493575,35.395986,0 109.467097,35.421878,0 109.4774,35.438977,0 109.473601,35.453143,0 109.45852,35.454568,0 109.478379,35.473795,0 109.468248,35.483763,0 109.466694,35.509074,0 109.448389,35.511604,0 109.431293,35.500849,0 109.406024,35.511762,0 109.405909,35.520777,0 109.342188,35.522595,0 109.266494,35.519512,0 109.243758,35.523702,0 109.20358,35.580137,0 109.179922,35.580769,0 109.116086,35.565597,0 109.091622,35.543625,0 109.051559,35.548763,0 109.032852,35.52979,0 109.035845,35.518642,0 109.014547,35.509311,0 109.014893,35.497448,0 108.992559,35.473004,0 108.979204,35.448316,0 108.987148,35.436444,0 108.943689,35.393373,0 108.923139,35.363114,0 108.89787,35.350437,0 108.868629,35.344653,0</coordinates></LinearRing></outerBoundaryIs>
      </Polygon>
    </MultiGeometry>
    </Placemark>
  </Document>
</kml>
