<?xml version="1.0" encoding="UTF-8"?>
<kml xmlns="http://www.opengis.net/kml/2.2">
  <Document>
    <name>营口市</name>
    <Placemark>
      <name>营口市</name>
      <Polygon><outerBoundaryIs><LinearRing><coordinates>121.953274000000,40.128876000000,0 121.970778000000,40.116423000000,0 121.987240000000,40.090880000000,0 121.986545000000,40.081912000000,0 121.980294000000,40.078081000000,0 121.982794000000,40.061836000000,0 121.993422000000,40.052379000000,0 122.008356000000,40.051457000000,0 122.020928000000,40.058393000000,0 122.044267000000,40.062515000000,0 122.049824000000,40.068577000000,0 122.058576000000,40.064601000000,0 122.069203000000,40.067753000000,0 122.073440000000,40.056453000000,0 122.081915000000,40.055435000000,0 122.090111000000,40.038942000000,0 122.096015000000,40.042386000000,0 122.124980000000,40.042435000000,0 122.139914000000,40.030888000000,0 122.157557000000,40.035643000000,0 122.175061000000,40.027103000000,0 122.185342000000,40.009924000000,0 122.196664000000,40.006138000000,0 122.198609000000,39.998469000000,0 122.218683000000,40.000217000000,0 122.231047000000,40.008905000000,0 122.242577000000,40.022202000000,0 122.248898000000,40.012982000000,0 122.260290000000,40.006090000000,0 122.259873000000,39.988906000000,0 122.269597000000,39.984050000000,0 122.269806000000,39.979098000000,0 122.280919000000,39.967395000000,0 122.285851000000,39.967589000000,0 122.304466000000,39.979486000000,0 122.326972000000,39.984633000000,0 122.344059000000,39.982545000000,0 122.357743000000,39.969629000000,0 122.373371000000,39.966326000000,0 122.400322000000,39.972154000000,0 122.401434000000,39.967200000000,0 122.417757000000,39.972154000000,0 122.418312000000,39.968657000000,0 122.456168000000,39.951707000000,0 122.477423000000,39.939561000000,0 122.497081000000,39.935918000000,0 122.501318000000,39.927317000000,0 122.512084000000,39.920611000000,0 122.510695000000,39.928678000000,0 122.530005000000,39.941796000000,0 122.551538000000,39.939173000000,0 122.561193000000,39.944565000000,0 122.549524000000,39.954524000000,0 122.555914000000,39.968075000000,0 122.554108000000,39.974631000000,0 122.539243000000,39.972785000000,0 122.544106000000,39.989343000000,0 122.541049000000,39.993275000000,0 122.520142000000,39.998760000000,0 122.519308000000,40.005605000000,0 122.527435000000,40.015554000000,0 122.544731000000,40.013225000000,0 122.550982000000,40.024677000000,0 122.536465000000,40.031276000000,0 122.529866000000,40.047431000000,0 122.539452000000,40.062127000000,0 122.551260000000,40.057326000000,0 122.557720000000,40.058975000000,0 122.569806000000,40.049905000000,0 122.577516000000,40.055726000000,0 122.607315000000,40.052864000000,0 122.617317000000,40.064019000000,0 122.628709000000,40.061933000000,0 122.650519000000,40.065910000000,0 122.658646000000,40.062176000000,0 122.694488000000,40.071050000000,0 122.708936000000,40.067462000000,0 122.713520000000,40.075996000000,0 122.727482000000,40.085693000000,0 122.733247000000,40.094758000000,0 122.746861000000,40.097667000000,0 122.767421000000,40.109881000000,0 122.778535000000,40.112013000000,0 122.797498000000,40.106634000000,0 122.801110000000,40.102853000000,0 122.813821000000,40.103435000000,0 122.815558000000,40.111335000000,0 122.824379000000,40.120687000000,0 122.835215000000,40.119282000000,0 122.851122000000,40.124612000000,0 122.858276000000,40.134496000000,0 122.847926000000,40.150432000000,0 122.853900000000,40.154646000000,0 122.869668000000,40.178906000000,0 122.878558000000,40.185442000000,0 122.881476000000,40.195607000000,0 122.893979000000,40.205190000000,0 122.896757000000,40.218739000000,0 122.891131000000,40.234705000000,0 122.884879000000,40.236204000000,0 122.881823000000,40.249457000000,0 122.874669000000,40.258597000000,0 122.873002000000,40.268510000000,0 122.882170000000,40.289829000000,0 122.881337000000,40.306937000000,0 122.891339000000,40.319548000000,0 122.915859000000,40.331529000000,0 122.932113000000,40.344715000000,0 122.929820000000,40.358333000000,0 122.934822000000,40.374024000000,0 122.931974000000,40.396806000000,0 122.936558000000,40.409304000000,0 122.946213000000,40.416396000000,0 122.971288000000,40.417795000000,0 122.990182000000,40.427684000000,0 122.992960000000,40.435161000000,0 122.986500000000,40.463563000000,0 122.999212000000,40.477012000000,0 122.984347000000,40.486989000000,0 122.969413000000,40.508961000000,0 122.949825000000,40.515658000000,0 122.936002000000,40.528856000000,0 122.914678000000,40.537573000000,0 122.897382000000,40.538632000000,0 122.879461000000,40.528760000000,0 122.862860000000,40.527700000000,0 122.854872000000,40.532853000000,0 122.829311000000,40.538006000000,0 122.816600000000,40.557700000000,0 122.811529000000,40.558181000000,0 122.807431000000,40.570312000000,0 122.797637000000,40.578879000000,0 122.771103000000,40.577532000000,0 122.743458000000,40.585136000000,0 122.730677000000,40.582922000000,0 122.720883000000,40.586387000000,0 122.703657000000,40.598945000000,0 122.691987000000,40.599956000000,0 122.678929000000,40.592594000000,0 122.662883000000,40.594615000000,0 122.659549000000,40.583596000000,0 122.651283000000,40.584702000000,0 122.650589000000,40.593893000000,0 122.625861000000,40.608423000000,0 122.643573000000,40.611069000000,0 122.650867000000,40.616937000000,0 122.654617000000,40.628673000000,0 122.645101000000,40.636704000000,0 122.653228000000,40.638675000000,0 122.653784000000,40.648099000000,0 122.659758000000,40.658435000000,0 122.669482000000,40.662569000000,0 122.670941000000,40.670980000000,0 122.647463000000,40.666606000000,0 122.638642000000,40.659012000000,0 122.636558000000,40.663819000000,0 122.623082000000,40.671749000000,0 122.622804000000,40.688136000000,0 122.636558000000,40.696832000000,0 122.651144000000,40.710571000000,0 122.649825000000,40.739768000000,0 122.639614000000,40.748698000000,0 122.600785000000,40.751722000000,0 122.581892000000,40.748506000000,0 122.567583000000,40.758058000000,0 122.556817000000,40.761082000000,0 122.515974000000,40.766554000000,0 122.541952000000,40.798557000000,0 122.537993000000,40.800715000000,0 122.542022000000,40.818701000000,0 122.521531000000,40.826805000000,0 122.523406000000,40.834188000000,0 122.515002000000,40.839414000000,0 122.516530000000,40.848090000000,0 122.502568000000,40.847324000000,0 122.484231000000,40.851590000000,0 122.487634000000,40.860600000000,0 122.502568000000,40.872963000000,0 122.502429000000,40.879527000000,0 122.493052000000,40.882881000000,0 122.492566000000,40.900030000000,0 122.503124000000,40.915355000000,0 122.506111000000,40.929288000000,0 122.488607000000,40.935751000000,0 122.465059000000,40.935894000000,0 122.449848000000,40.940298000000,0 122.438595000000,40.940059000000,0 122.433316000000,40.930676000000,0 122.411505000000,40.927852000000,0 122.394557000000,40.922298000000,0 122.384138000000,40.924835000000,0 122.377609000000,40.919425000000,0 122.377609000000,40.909225000000,0 122.363647000000,40.909082000000,0 122.352672000000,40.916025000000,0 122.335238000000,40.905777000000,0 122.332251000000,40.894091000000,0 122.320373000000,40.895815000000,0 122.322943000000,40.904388000000,0 122.318914000000,40.909034000000,0 122.309468000000,40.905442000000,0 122.304258000000,40.889827000000,0 122.277307000000,40.864578000000,0 122.264318000000,40.870903000000,0 122.253482000000,40.870376000000,0 122.226740000000,40.862421000000,0 122.223128000000,40.853698000000,0 122.209028000000,40.855999000000,0 122.188884000000,40.875551000000,0 122.182424000000,40.877515000000,0 122.176589000000,40.868507000000,0 122.178812000000,40.850008000000,0 122.187078000000,40.841140000000,0 122.183397000000,40.832990000000,0 122.151584000000,40.840756000000,0 122.129426000000,40.818125000000,0 122.100877000000,40.804313000000,0 122.096501000000,40.796926000000,0 122.108657000000,40.787523000000,0 122.128245000000,40.779798000000,0 122.160266000000,40.759450000000,0 122.180618000000,40.750522000000,0 122.194163000000,40.742217000000,0 122.206319000000,40.739961000000,0 122.209861000000,40.725123000000,0 122.201665000000,40.713405000000,0 122.208333000000,40.709947000000,0 122.246675000000,40.711099000000,0 122.265777000000,40.710235000000,0 122.273140000000,40.702741000000,0 122.272723000000,40.695583000000,0 122.245286000000,40.683283000000,0 122.234520000000,40.682850000000,0 122.232297000000,40.688136000000,0 122.205416000000,40.693085000000,0 122.194510000000,40.701876000000,0 122.188051000000,40.695967000000,0 122.172491000000,40.709898000000,0 122.162836000000,40.711484000000,0 122.154918000000,40.706440000000,0 122.151931000000,40.697024000000,0 122.154154000000,40.685541000000,0 122.148388000000,40.671797000000,0 122.154084000000,40.662665000000,0 122.151514000000,40.653099000000,0 122.134496000000,40.627134000000,0 122.134080000000,40.614340000000,0 122.150542000000,40.588504000000,0 122.245633000000,40.519704000000,0 122.246467000000,40.515513000000,0 122.233200000000,40.510503000000,0 122.231047000000,40.505107000000,0 122.244661000000,40.485061000000,0 122.257650000000,40.487037000000,0 122.278697000000,40.482844000000,0 122.276682000000,40.475180000000,0 122.264804000000,40.480386000000,0 122.222086000000,40.481109000000,0 122.221253000000,40.461248000000,0 122.240424000000,40.460959000000,0 122.249870000000,40.452763000000,0 122.250982000000,40.445770000000,0 122.229102000000,40.424018000000,0 122.199025000000,40.431736000000,0 122.190968000000,40.429228000000,0 122.187981000000,40.413984000000,0 122.199928000000,40.389519000000,0 122.198678000000,40.382375000000,0 122.191801000000,40.382134000000,0 122.171658000000,40.388264000000,0 122.168115000000,40.376728000000,0 122.178673000000,40.365624000000,0 122.163531000000,40.358913000000,0 122.152209000000,40.357657000000,0 122.135538000000,40.374941000000,0 122.123730000000,40.376245000000,0 122.111088000000,40.368521000000,0 122.105948000000,40.357174000000,0 122.111088000000,40.348917000000,0 122.137900000000,40.338871000000,0 122.121438000000,40.327085000000,0 122.110741000000,40.315780000000,0 122.100600000000,40.315780000000,0 122.088791000000,40.331094000000,0 122.079900000000,40.333075000000,0 122.039960000000,40.322206000000,0 122.035932000000,40.299882000000,0 122.039822000000,40.260241000000,0 122.026902000000,40.245008000000,0 121.940284000000,40.242202000000,0 121.935908000000,40.237849000000,0 121.950356000000,40.204125000000,0 121.959108000000,40.192799000000,0 121.981197000000,40.173290000000,0 122.004258000000,40.171934000000,0 122.010856000000,40.155034000000,0 122.009815000000,40.148834000000,0 121.995158000000,40.128440000000,0 121.980433000000,40.124127000000,0 121.960775000000,40.134883000000,0 121.953274000000,40.128876000000,0</coordinates></LinearRing></outerBoundaryIs></Polygon>
    </Placemark>
  </Document>
</kml>
