<?xml version="1.0" encoding="UTF-8"?>
<kml xmlns="http://www.opengis.net/kml/2.2">
  <Document>
    <name>铁岭市</name>
    <Placemark>
      <name>铁岭市</name>
      <Polygon><outerBoundaryIs><LinearRing><coordinates>123.790021000000,41.989242000000,0 123.801690000000,41.994093000000,0 123.813915000000,42.007655000000,0 123.842811000000,42.022909000000,0 123.875457000000,42.028746000000,0 123.880667000000,42.033123000000,0 123.905742000000,42.031146000000,0 123.926580000000,42.018766000000,0 123.940194000000,42.023803000000,0 123.950336000000,42.018625000000,0 123.943529000000,42.008738000000,0 123.954781000000,42.005631000000,0 123.985969000000,42.005819000000,0 124.004307000000,42.011610000000,0 124.024381000000,42.011657000000,0 124.034175000000,42.018907000000,0 124.039940000000,42.045124000000,0 124.067446000000,42.064367000000,0 124.079880000000,42.065543000000,0 124.095231000000,42.073446000000,0 124.140797000000,42.068083000000,0 124.164622000000,42.056793000000,0 124.174416000000,42.055711000000,0 124.191572000000,42.058957000000,0 124.207618000000,42.055334000000,0 124.234291000000,42.058157000000,0 124.253740000000,42.067284000000,0 124.264645000000,42.064602000000,0 124.268604000000,42.046018000000,0 124.275828000000,42.043147000000,0 124.275689000000,42.036935000000,0 124.285275000000,42.027428000000,0 124.281177000000,42.020885000000,0 124.283816000000,42.013117000000,0 124.279926000000,42.007420000000,0 124.294721000000,42.006054000000,0 124.313267000000,42.015235000000,0 124.337370000000,42.016601000000,0 124.341955000000,42.009397000000,0 124.351540000000,42.012222000000,0 124.369044000000,42.022391000000,0 124.366752000000,42.032888000000,0 124.383978000000,42.033923000000,0 124.408637000000,42.044041000000,0 124.414124000000,42.050112000000,0 124.423501000000,42.052182000000,0 124.447604000000,42.067801000000,0 124.497408000000,42.079654000000,0 124.520121000000,42.087884000000,0 124.550128000000,42.118960000000,0 124.541446000000,42.131039000000,0 124.543043000000,42.137477000000,0 124.560061000000,42.155048000000,0 124.561172000000,42.164020000000,0 124.543946000000,42.176982000000,0 124.536514000000,42.192899000000,0 124.527970000000,42.202476000000,0 124.516023000000,42.236733000000,0 124.536722000000,42.257888000000,0 124.553323000000,42.270034000000,0 124.561033000000,42.282318000000,0 124.564784000000,42.303739000000,0 124.577843000000,42.321076000000,0 124.569508000000,42.341641000000,0 124.574648000000,42.351476000000,0 124.593610000000,42.351008000000,0 124.605141000000,42.345294000000,0 124.628202000000,42.348432000000,0 124.634523000000,42.345903000000,0 124.625840000000,42.334475000000,0 124.625701000000,42.327261000000,0 124.647859000000,42.316344000000,0 124.661126000000,42.315641000000,0 124.679394000000,42.319577000000,0 124.695995000000,42.317141000000,0 124.712944000000,42.325106000000,0 124.725586000000,42.324497000000,0 124.732462000000,42.335693000000,0 124.751494000000,42.338316000000,0 124.763511000000,42.343093000000,0 124.774625000000,42.336957000000,0 124.787058000000,42.339580000000,0 124.797061000000,42.359718000000,0 124.787822000000,42.365523000000,0 124.785600000000,42.382376000000,0 124.777612000000,42.380551000000,0 124.772055000000,42.391362000000,0 124.775597000000,42.400347000000,0 124.786016000000,42.409237000000,0 124.800395000000,42.415881000000,0 124.820399000000,42.411296000000,0 124.821719000000,42.418266000000,0 124.853185000000,42.412278000000,0 124.864021000000,42.407787000000,0 124.886248000000,42.410220000000,0 124.895278000000,42.398242000000,0 124.925077000000,42.396884000000,0 124.931259000000,42.402780000000,0 124.944734000000,42.400768000000,0 124.952236000000,42.389116000000,0 124.960988000000,42.384436000000,0 124.956959000000,42.371329000000,0 124.974255000000,42.368145000000,0 124.985299000000,42.379146000000,0 124.990717000000,42.372920000000,0 125.005859000000,42.378444000000,0 124.997732000000,42.392579000000,0 125.004748000000,42.401845000000,0 125.024336000000,42.401891000000,0 125.036491000000,42.405541000000,0 125.041562000000,42.414618000000,0 125.036630000000,42.420231000000,0 125.036214000000,42.438098000000,0 125.057746000000,42.445533000000,0 125.063164000000,42.450536000000,0 125.079904000000,42.457315000000,0 125.078446000000,42.464842000000,0 125.099006000000,42.478023000000,0 125.107966000000,42.478864000000,0 125.105049000000,42.490640000000,0 125.085253000000,42.500872000000,0 125.068999000000,42.499610000000,0 125.066776000000,42.502787000000,0 125.078446000000,42.506571000000,0 125.081085000000,42.513298000000,0 125.089907000000,42.512410000000,0 125.088934000000,42.518622000000,0 125.067262000000,42.534406000000,0 125.077334000000,42.542110000000,0 125.076292000000,42.558075000000,0 125.091504000000,42.572356000000,0 125.084489000000,42.593025000000,0 125.095533000000,42.599789000000,0 125.089837000000,42.606505000000,0 125.099631000000,42.613221000000,0 125.097408000000,42.622081000000,0 125.086225000000,42.625764000000,0 125.072194000000,42.625158000000,0 125.061914000000,42.620915000000,0 125.055107000000,42.624039000000,0 125.038436000000,42.615413000000,0 125.028781000000,42.617698000000,0 125.028642000000,42.623014000000,0 125.010721000000,42.632478000000,0 125.019335000000,42.652754000000,0 125.012805000000,42.660211000000,0 125.014403000000,42.666128000000,0 124.996135000000,42.670461000000,0 124.990370000000,42.677263000000,0 124.968489000000,42.673490000000,0 124.967586000000,42.680198000000,0 124.985855000000,42.686673000000,0 124.989258000000,42.695103000000,0 124.978909000000,42.709539000000,0 124.977172000000,42.716476000000,0 124.968281000000,42.722715000000,0 124.980020000000,42.729139000000,0 124.985855000000,42.726997000000,0 124.996413000000,42.745428000000,0 124.980367000000,42.752547000000,0 124.983007000000,42.760783000000,0 124.988216000000,42.759806000000,0 124.992662000000,42.773017000000,0 124.987591000000,42.780552000000,0 124.980159000000,42.781436000000,0 124.975574000000,42.802035000000,0 124.955987000000,42.807335000000,0 124.948832000000,42.806266000000,0 124.931050000000,42.819049000000,0 124.915908000000,42.817794000000,0 124.914935000000,42.803895000000,0 124.906669000000,42.793573000000,0 124.897779000000,42.787993000000,0 124.887221000000,42.790876000000,0 124.874857000000,42.789760000000,0 124.868813000000,42.797711000000,0 124.867077000000,42.807660000000,0 124.858811000000,42.820304000000,0 124.858742000000,42.840519000000,0 124.855408000000,42.851112000000,0 124.857005000000,42.863421000000,0 124.849295000000,42.882090000000,0 124.856380000000,42.886129000000,0 124.850684000000,42.892304000000,0 124.852212000000,42.899221000000,0 124.860061000000,42.904698000000,0 124.859922000000,42.914212000000,0 124.866660000000,42.918528000000,0 124.864507000000,42.926741000000,0 124.869716000000,42.936438000000,0 124.864924000000,42.939407000000,0 124.869439000000,42.954667000000,0 124.867563000000,42.961670000000,0 124.874995000000,42.968811000000,0 124.868536000000,42.973215000000,0 124.872148000000,42.984388000000,0 124.861867000000,42.990506000000,0 124.857561000000,43.001537000000,0 124.861590000000,43.002186000000,0 124.855963000000,43.013909000000,0 124.844433000000,43.026140000000,0 124.844433000000,43.035172000000,0 124.863118000000,43.034014000000,0 124.857422000000,43.040081000000,0 124.858255000000,43.051010000000,0 124.868605000000,43.054252000000,0 124.877288000000,43.068002000000,0 124.887498000000,43.073788000000,0 124.883817000000,43.093596000000,0 124.879441000000,43.099704000000,0 124.881872000000,43.110900000000,0 124.893819000000,43.117931000000,0 124.895000000000,43.131158000000,0 124.881247000000,43.133331000000,0 124.873328000000,43.125932000000,0 124.857561000000,43.119457000000,0 124.841863000000,43.126996000000,0 124.822622000000,43.124452000000,0 124.819566000000,43.119873000000,0 124.807896000000,43.117514000000,0 124.802131000000,43.122371000000,0 124.785461000000,43.116543000000,0 124.785391000000,43.106551000000,0 124.778167000000,43.098223000000,0 124.758579000000,43.086285000000,0 124.754481000000,43.073742000000,0 124.738644000000,43.068141000000,0 124.718501000000,43.069992000000,0 124.695092000000,43.057261000000,0 124.686201000000,43.050408000000,0 124.674393000000,43.026557000000,0 124.678283000000,43.013353000000,0 124.677727000000,43.002695000000,0 124.670920000000,42.990043000000,0 124.660362000000,42.983183000000,0 124.659390000000,42.972937000000,0 124.652791000000,42.976229000000,0 124.635704000000,42.973401000000,0 124.633828000000,42.958145000000,0 124.639177000000,42.955270000000,0 124.622923000000,42.949055000000,0 124.622645000000,42.941634000000,0 124.608197000000,42.937783000000,0 124.602432000000,42.930871000000,0 124.603752000000,42.923725000000,0 124.593333000000,42.911846000000,0 124.563187000000,42.889008000000,0 124.544293000000,42.886454000000,0 124.538528000000,42.867090000000,0 124.532902000000,42.871549000000,0 124.514703000000,42.873638000000,0 124.501575000000,42.865140000000,0 124.480181000000,42.858544000000,0 124.466289000000,42.846605000000,0 124.472749000000,42.828019000000,0 124.465664000000,42.822581000000,0 124.452258000000,42.825928000000,0 124.454689000000,42.852505000000,0 124.446076000000,42.865465000000,0 124.437532000000,42.867926000000,0 124.440867000000,42.875775000000,0 124.434546000000,42.880882000000,0 124.426836000000,42.874521000000,0 124.415444000000,42.879211000000,0 124.371753000000,42.880975000000,0 124.366474000000,42.891886000000,0 124.366822000000,42.902841000000,0 124.381061000000,42.912820000000,0 124.388007000000,42.910082000000,0 124.397801000000,42.915141000000,0 124.400927000000,42.921962000000,0 124.413916000000,42.922426000000,0 124.414819000000,42.926417000000,0 124.431906000000,42.930871000000,0 124.442186000000,42.941402000000,0 124.441631000000,42.959861000000,0 124.429892000000,42.966399000000,0 124.422112000000,42.976090000000,0 124.402316000000,42.970990000000,0 124.384465000000,42.970712000000,0 124.360779000000,42.975904000000,0 124.347720000000,42.988328000000,0 124.333411000000,42.997320000000,0 124.340565000000,43.004827000000,0 124.369808000000,43.025491000000,0 124.425933000000,43.076288000000,0 124.421348000000,43.082629000000,0 124.396829000000,43.092532000000,0 124.381617000000,43.107754000000,0 124.362307000000,43.122695000000,0 124.340565000000,43.128615000000,0 124.329243000000,43.142903000000,0 124.308891000000,43.155062000000,0 124.302987000000,43.148867000000,0 124.292499000000,43.154322000000,0 124.300487000000,43.158529000000,0 124.283955000000,43.166016000000,0 124.273814000000,43.178771000000,0 124.282149000000,43.188982000000,0 124.277565000000,43.196143000000,0 124.287706000000,43.206906000000,0 124.280690000000,43.216235000000,0 124.282844000000,43.220622000000,0 124.276314000000,43.233411000000,0 124.268326000000,43.230641000000,0 124.253184000000,43.237335000000,0 124.243460000000,43.233411000000,0 124.229776000000,43.234796000000,0 124.227067000000,43.242090000000,0 124.219218000000,43.241444000000,0 124.216023000000,43.256121000000,0 124.199491000000,43.245829000000,0 124.190044000000,43.246521000000,0 124.178375000000,43.242228000000,0 124.172471000000,43.249567000000,0 124.168373000000,43.244075000000,0 124.154828000000,43.253583000000,0 124.148715000000,43.250952000000,0 124.132878000000,43.255290000000,0 124.129336000000,43.247814000000,0 124.114402000000,43.247306000000,0 124.117250000000,43.263043000000,0 124.111762000000,43.269134000000,0 124.117180000000,43.277300000000,0 124.111415000000,43.281175000000,0 124.098634000000,43.281129000000,0 124.103080000000,43.288556000000,0 124.098287000000,43.292891000000,0 124.066057000000,43.292661000000,0 124.043135000000,43.287587000000,0 124.032994000000,43.280898000000,0 123.992776000000,43.308571000000,0 123.987150000000,43.315671000000,0 123.961866000000,43.338811000000,0 123.964228000000,43.340839000000,0 123.946863000000,43.350747000000,0 123.922968000000,43.360422000000,0 123.911577000000,43.358211000000,0 123.895879000000,43.361528000000,0 123.901366000000,43.379170000000,0 123.892267000000,43.390131000000,0 123.865941000000,43.395656000000,0 123.863649000000,43.400905000000,0 123.853021000000,43.405647000000,0 123.849687000000,43.415636000000,0 123.854897000000,43.423644000000,0 123.855661000000,43.436759000000,0 123.872331000000,43.451344000000,0 123.857606000000,43.459163000000,0 123.861148000000,43.461785000000,0 123.849271000000,43.470109000000,0 123.845798000000,43.467488000000,0 123.833503000000,43.473558000000,0 123.825932000000,43.471489000000,0 123.804468000000,43.482433000000,0 123.797870000000,43.489559000000,0 123.786964000000,43.479812000000,0 123.773975000000,43.480318000000,0 123.771405000000,43.484042000000,0 123.746260000000,43.471213000000,0 123.753207000000,43.464545000000,0 123.751956000000,43.454702000000,0 123.743690000000,43.443845000000,0 123.748900000000,43.439842000000,0 123.734313000000,43.427234000000,0 123.710210000000,43.417201000000,0 123.710002000000,43.404726000000,0 123.703056000000,43.402654000000,0 123.705695000000,43.396991000000,0 123.699444000000,43.390131000000,0 123.708891000000,43.383776000000,0 123.698541000000,43.382486000000,0 123.705001000000,43.377328000000,0 123.704654000000,43.364108000000,0 123.696110000000,43.356184000000,0 123.720421000000,43.357658000000,0 123.711391000000,43.354479000000,0 123.713058000000,43.346553000000,0 123.705695000000,43.344802000000,0 123.704445000000,43.337152000000,0 123.714170000000,43.331852000000,0 123.703334000000,43.327796000000,0 123.709168000000,43.319728000000,0 123.719727000000,43.319129000000,0 123.716601000000,43.311614000000,0 123.700625000000,43.311291000000,0 123.703889000000,43.297872000000,0 123.696040000000,43.294921000000,0 123.696388000000,43.281360000000,0 123.705487000000,43.278084000000,0 123.698541000000,43.272225000000,0 123.686455000000,43.277392000000,0 123.678259000000,43.271118000000,0 123.666936000000,43.268211000000,0 123.665408000000,43.257829000000,0 123.675758000000,43.241121000000,0 123.667978000000,43.235904000000,0 123.676869000000,43.224177000000,0 123.657907000000,43.221591000000,0 123.646376000000,43.213233000000,0 123.655823000000,43.194203000000,0 123.665408000000,43.193371000000,0 123.667978000000,43.180943000000,0 123.659504000000,43.174751000000,0 123.649849000000,43.175398000000,0 123.648738000000,43.166479000000,0 123.653392000000,43.158713000000,0 123.643389000000,43.143874000000,0 123.635193000000,43.137771000000,0 123.638249000000,43.124822000000,0 123.629706000000,43.119318000000,0 123.633456000000,43.112195000000,0 123.627691000000,43.100583000000,0 123.631234000000,43.088969000000,0 123.625746000000,43.079111000000,0 123.616161000000,43.077445000000,0 123.605325000000,43.064160000000,0 123.596295000000,43.062447000000,0 123.598309000000,43.056937000000,0 123.611507000000,43.049297000000,0 123.594628000000,43.039711000000,0 123.590044000000,43.032069000000,0 123.580805000000,43.036052000000,0 123.585668000000,43.024287000000,0 123.581083000000,43.019330000000,0 123.588585000000,43.015855000000,0 123.583028000000,43.010202000000,0 123.573442000000,43.010434000000,0 123.572678000000,43.003900000000,0 123.561912000000,43.005383000000,0 123.566496000000,42.988142000000,0 123.554132000000,42.984388000000,0 123.546839000000,42.977341000000,0 123.554896000000,42.961206000000,0 123.566496000000,42.951652000000,0 123.582125000000,42.950075000000,0 123.584348000000,42.943906000000,0 123.603519000000,42.930268000000,0 123.601088000000,42.923354000000,0 123.588793000000,42.921823000000,0 123.584973000000,42.910546000000,0 123.598587000000,42.905162000000,0 123.599560000000,42.893511000000,0 123.584348000000,42.884829000000,0 123.583931000000,42.875357000000,0 123.600949000000,42.870481000000,0 123.603519000000,42.866347000000,0 123.585668000000,42.852598000000,0 123.593378000000,42.847442000000,0 123.593655000000,42.838846000000,0 123.605325000000,42.829274000000,0 123.591988000000,42.823418000000,0 123.594697000000,42.807939000000,0 123.600602000000,42.796595000000,0 123.593864000000,42.789248000000,0 123.603519000000,42.779110000000,0 123.598865000000,42.771622000000,0 123.586084000000,42.775110000000,0 123.577610000000,42.768040000000,0 123.586848000000,42.760178000000,0 123.585598000000,42.752501000000,0 123.575387000000,42.751152000000,0 123.572470000000,42.741426000000,0 123.559342000000,42.729464000000,0 123.559481000000,42.724763000000,0 123.571220000000,42.712007000000,0 123.582611000000,42.706280000000,0 123.569344000000,42.692868000000,0 123.583306000000,42.688443000000,0 123.587821000000,42.677310000000,0 123.578999000000,42.676937000000,0 123.592614000000,42.663705000000,0 123.603380000000,42.670555000000,0 123.611298000000,42.680291000000,0 123.625746000000,42.675400000000,0 123.625607000000,42.664078000000,0 123.618870000000,42.655084000000,0 123.624079000000,42.647441000000,0 123.637068000000,42.639890000000,0 123.662908000000,42.629028000000,0 123.664714000000,42.623666000000,0 123.651586000000,42.618397000000,0 123.662491000000,42.614900000000,0 123.673813000000,42.602028000000,0 123.694790000000,42.603287000000,0 123.701528000000,42.593725000000,0 123.691109000000,42.592839000000,0 123.694721000000,42.578516000000,0 123.710349000000,42.579589000000,0 123.712433000000,42.566243000000,0 123.723894000000,42.567456000000,0 123.730771000000,42.562556000000,0 123.725770000000,42.555415000000,0 123.737092000000,42.553128000000,0 123.742093000000,42.559196000000,0 123.758555000000,42.553968000000,0 123.752859000000,42.543044000000,0 123.736814000000,42.542671000000,0 123.703889000000,42.529970000000,0 123.683885000000,42.510028000000,0 123.679439000000,42.516334000000,0 123.657629000000,42.521144000000,0 123.668256000000,42.530624000000,0 123.662908000000,42.539869000000,0 123.663811000000,42.551820000000,0 123.653947000000,42.550187000000,0 123.643737000000,42.553081000000,0 123.624149000000,42.543744000000,0 123.621787000000,42.534173000000,0 123.613313000000,42.535480000000,0 123.616786000000,42.525207000000,0 123.608937000000,42.509327000000,0 123.584000000000,42.512644000000,0 123.583028000000,42.502787000000,0 123.571567000000,42.506478000000,0 123.566427000000,42.498956000000,0 123.558647000000,42.499984000000,0 123.554341000000,42.493256000000,0 123.542185000000,42.490593000000,0 123.534197000000,42.482042000000,0 123.522250000000,42.487322000000,0 123.509400000000,42.470077000000,0 123.496341000000,42.463299000000,0 123.479045000000,42.464935000000,0 123.473419000000,42.456100000000,0 123.454456000000,42.441184000000,0 123.455151000000,42.432720000000,0 123.479115000000,42.414384000000,0 123.472238000000,42.397961000000,0 123.476545000000,42.397399000000,0 123.465848000000,42.381674000000,0 123.482449000000,42.371469000000,0 123.487936000000,42.363042000000,0 123.499675000000,42.363417000000,0 123.505788000000,42.353724000000,0 123.516971000000,42.349462000000,0 123.522875000000,42.339815000000,0 123.528640000000,42.339674000000,0 123.528085000000,42.321639000000,0 123.515790000000,42.298255000000,0 123.497939000000,42.275988000000,0 123.482380000000,42.271440000000,0 123.473628000000,42.261921000000,0 123.468765000000,42.249446000000,0 123.476753000000,42.233073000000,0 123.465223000000,42.230258000000,0 123.449594000000,42.204729000000,0 123.458138000000,42.200176000000,0 123.469599000000,42.181537000000,0 123.487242000000,42.180504000000,0 123.504815000000,42.192289000000,0 123.521416000000,42.191021000000,0 123.535170000000,42.181584000000,0 123.542046000000,42.182241000000,0 123.540518000000,42.155706000000,0 123.541768000000,42.147015000000,0 123.556147000000,42.144619000000,0 123.574901000000,42.132308000000,0 123.589974000000,42.129441000000,0 123.608728000000,42.119337000000,0 123.620954000000,42.115764000000,0 123.631164000000,42.107679000000,0 123.632206000000,42.100956000000,0 123.647418000000,42.100862000000,0 123.662213000000,42.093950000000,0 123.678189000000,42.098417000000,0 123.704862000000,42.091270000000,0 123.705626000000,42.085956000000,0 123.727228000000,42.076362000000,0 123.735147000000,42.065402000000,0 123.746122000000,42.065355000000,0 123.755290000000,42.057310000000,0 123.752026000000,42.052935000000,0 123.779879000000,42.041877000000,0 123.783144000000,42.037688000000,0 123.789118000000,42.043947000000,0 123.789465000000,42.052982000000,0 123.794744000000,42.060086000000,0 123.804330000000,42.058157000000,0 123.805858000000,42.051335000000,0 123.813151000000,42.050112000000,0 123.808219000000,42.035570000000,0 123.813568000000,42.030581000000,0 123.810095000000,42.022062000000,0 123.797175000000,42.013635000000,0 123.788354000000,42.019567000000,0 123.773211000000,42.023568000000,0 123.763695000000,42.017825000000,0 123.762792000000,41.999085000000,0 123.769391000000,42.002664000000,0 123.771058000000,41.995977000000,0 123.790021000000,41.989242000000,0</coordinates></LinearRing></outerBoundaryIs></Polygon>
    </Placemark>
  </Document>
</kml>
