<?xml version="1.0" encoding="UTF-8"?>
<kml xmlns="http://www.opengis.net/kml/2.2">
  <Document>
    <name>阜新市</name>
    <Placemark>
      <name>阜新市</name>
      <Polygon><outerBoundaryIs><LinearRing><coordinates>122.839730000000,42.718292000000,0 122.831742000000,42.722296000000,0 122.805139000000,42.741612000000,0 122.798748000000,42.738773000000,0 122.794650000000,42.747662000000,0 122.784509000000,42.757479000000,0 122.765754000000,42.759247000000,0 122.756377000000,42.768226000000,0 122.749917000000,42.767249000000,0 122.736373000000,42.773110000000,0 122.733038000000,42.785854000000,0 122.717340000000,42.785947000000,0 122.700323000000,42.782180000000,0 122.678651000000,42.781064000000,0 122.653437000000,42.782319000000,0 122.625166000000,42.773250000000,0 122.617873000000,42.778552000000,0 122.580920000000,42.789713000000,0 122.569737000000,42.809148000000,0 122.576057000000,42.818724000000,0 122.562791000000,42.826206000000,0 122.522364000000,42.831086000000,0 122.505277000000,42.836616000000,0 122.486662000000,42.836895000000,0 122.431857000000,42.843260000000,0 122.399350000000,42.839171000000,0 122.359340000000,42.836105000000,0 122.352325000000,42.831551000000,0 122.350519000000,42.820165000000,0 122.355451000000,42.813378000000,0 122.362188000000,42.793526000000,0 122.361702000000,42.788179000000,0 122.373302000000,42.775436000000,0 122.437831000000,42.770087000000,0 122.457210000000,42.774226000000,0 122.460614000000,42.755339000000,0 122.444569000000,42.749104000000,0 122.434844000000,42.729651000000,0 122.421021000000,42.721085000000,0 122.401086000000,42.713357000000,0 122.396710000000,42.707863000000,0 122.395946000000,42.684204000000,0 122.360591000000,42.683412000000,0 122.341211000000,42.671300000000,0 122.334890000000,42.672791000000,0 122.334126000000,42.680385000000,0 122.324471000000,42.684810000000,0 122.311621000000,42.682201000000,0 122.307801000000,42.690446000000,0 122.259178000000,42.696920000000,0 122.257442000000,42.704231000000,0 122.241049000000,42.713078000000,0 122.238062000000,42.718851000000,0 122.225212000000,42.728440000000,0 122.204165000000,42.732490000000,0 122.209653000000,42.711495000000,0 122.206527000000,42.706839000000,0 122.203679000000,42.683180000000,0 122.196038000000,42.680850000000,0 122.197219000000,42.689049000000,0 122.190759000000,42.691564000000,0 122.173603000000,42.686813000000,0 122.163600000000,42.690073000000,0 122.162281000000,42.685089000000,0 122.139775000000,42.690166000000,0 122.133454000000,42.696268000000,0 122.121646000000,42.696081000000,0 122.109282000000,42.701949000000,0 122.096293000000,42.703300000000,0 122.091014000000,42.714475000000,0 122.072815000000,42.710657000000,0 122.073163000000,42.719735000000,0 122.061076000000,42.723413000000,0 122.050171000000,42.719223000000,0 122.049060000000,42.711495000000,0 122.026832000000,42.706652000000,0 122.021970000000,42.699388000000,0 121.994603000000,42.705162000000,0 121.988976000000,42.695383000000,0 121.981614000000,42.690492000000,0 121.979530000000,42.696640000000,0 121.968694000000,42.700925000000,0 121.962165000000,42.699248000000,0 121.959456000000,42.686766000000,0 121.938479000000,42.687884000000,0 121.935561000000,42.681689000000,0 121.941465000000,42.669530000000,0 121.939729000000,42.663100000000,0 121.929449000000,42.667060000000,0 121.915904000000,42.656716000000,0 121.920419000000,42.637186000000,0 121.903401000000,42.637326000000,0 121.902151000000,42.630613000000,0 121.917640000000,42.630473000000,0 121.918543000000,42.627117000000,0 121.902220000000,42.620822000000,0 121.921322000000,42.606039000000,0 121.911667000000,42.601468000000,0 121.917085000000,42.587987000000,0 121.906318000000,42.587940000000,0 121.903957000000,42.593678000000,0 121.895274000000,42.593632000000,0 121.905901000000,42.584021000000,0 121.905485000000,42.570956000000,0 121.886800000000,42.555088000000,0 121.870268000000,42.548413000000,0 121.869435000000,42.527962000000,0 121.855612000000,42.539169000000,0 121.852070000000,42.525581000000,0 121.844498000000,42.522405000000,0 121.840956000000,42.531231000000,0 121.832759000000,42.533893000000,0 121.823382000000,42.525067000000,0 121.817687000000,42.504189000000,0 121.803655000000,42.499984000000,0 121.806920000000,42.508907000000,0 121.803100000000,42.514886000000,0 121.792889000000,42.507505000000,0 121.783581000000,42.495312000000,0 121.765174000000,42.490873000000,0 121.760520000000,42.486434000000,0 121.747462000000,42.485266000000,0 121.725651000000,42.457643000000,0 121.713218000000,42.445673000000,0 121.690574000000,42.437396000000,0 121.673417000000,42.440062000000,0 121.665568000000,42.437396000000,0 121.646188000000,42.454370000000,0 121.646536000000,42.459185000000,0 121.637992000000,42.480359000000,0 121.627990000000,42.476060000000,0 121.605276000000,42.493957000000,0 121.602011000000,42.502040000000,0 121.610624000000,42.509888000000,0 121.608193000000,42.515773000000,0 121.590620000000,42.509094000000,0 121.590828000000,42.502273000000,0 121.577492000000,42.497321000000,0 121.578464000000,42.492088000000,0 121.570129000000,42.486902000000,0 121.552416000000,42.490593000000,0 121.528869000000,42.483210000000,0 121.515116000000,42.491714000000,0 121.506364000000,42.482462000000,0 121.497056000000,42.492275000000,0 121.479413000000,42.496387000000,0 121.467744000000,42.486808000000,0 121.470175000000,42.484425000000,0 121.450726000000,42.476574000000,0 121.434194000000,42.475312000000,0 121.423150000000,42.485406000000,0 121.415440000000,42.486060000000,0 121.417038000000,42.478396000000,0 121.411689000000,42.475873000000,0 121.388350000000,42.475265000000,0 121.384808000000,42.471152000000,0 121.385155000000,42.452032000000,0 121.359663000000,42.460728000000,0 121.341812000000,42.449741000000,0 121.327156000000,42.443522000000,0 121.311319000000,42.440343000000,0 121.304442000000,42.435573000000,0 121.313611000000,42.429446000000,0 121.306387000000,42.422617000000,0 121.306804000000,42.413401000000,0 121.299024000000,42.398897000000,0 121.283882000000,42.387291000000,0 121.263877000000,42.379334000000,0 121.252208000000,42.382844000000,0 121.256236000000,42.377461000000,0 121.232481000000,42.371610000000,0 121.218728000000,42.371891000000,0 121.214421000000,42.362012000000,0 121.185664000000,42.349884000000,0 121.187957000000,42.342016000000,0 121.184345000000,42.332788000000,0 121.169897000000,42.322716000000,0 121.150378000000,42.314564000000,0 121.153365000000,42.310206000000,0 121.148433000000,42.301067000000,0 121.133638000000,42.300271000000,0 121.121483000000,42.280911000000,0 121.106132000000,42.279317000000,0 121.103284000000,42.283302000000,0 121.086058000000,42.277583000000,0 121.068206000000,42.252494000000,0 121.048758000000,42.259905000000,0 121.031670000000,42.253573000000,0 121.038894000000,42.248414000000,0 121.027503000000,42.243394000000,0 121.033615000000,42.236780000000,0 121.047368000000,42.229742000000,0 121.055842000000,42.219137000000,0 121.057579000000,42.207874000000,0 121.050841000000,42.192430000000,0 121.055009000000,42.187688000000,0 121.055356000000,42.175291000000,0 121.071541000000,42.154062000000,0 121.072513000000,42.143115000000,0 121.078000000000,42.136443000000,0 121.084530000000,42.111205000000,0 121.074597000000,42.101896000000,0 121.066748000000,42.071564000000,0 121.046118000000,42.058863000000,0 121.044451000000,42.051476000000,0 121.052717000000,42.031240000000,0 121.054870000000,42.018484000000,0 121.050563000000,42.005113000000,0 121.039311000000,41.987735000000,0 121.041534000000,41.980152000000,0 121.053967000000,41.977938000000,0 121.074527000000,41.978786000000,0 121.079529000000,41.973651000000,0 121.104882000000,41.964935000000,0 121.149962000000,41.976996000000,0 121.163159000000,41.977514000000,0 121.192055000000,41.966113000000,0 121.199834000000,41.955464000000,0 121.212962000000,41.914925000000,0 121.238524000000,41.903607000000,0 121.263530000000,41.898230000000,0 121.292564000000,41.889881000000,0 121.298885000000,41.884079000000,0 121.301941000000,41.865630000000,0 121.290689000000,41.856286000000,0 121.277283000000,41.826876000000,0 121.268392000000,41.820690000000,0 121.272699000000,41.803593000000,0 121.263669000000,41.794523000000,0 121.307985000000,41.775765000000,0 121.312222000000,41.770897000000,0 121.336394000000,41.771984000000,0 121.342923000000,41.768582000000,0 121.342506000000,41.746743000000,0 121.332712000000,41.741826000000,0 121.338547000000,41.733457000000,0 121.360149000000,41.725654000000,0 121.374319000000,41.726647000000,0 121.393838000000,41.736483000000,0 121.416899000000,41.737996000000,0 121.435723000000,41.733362000000,0 121.452463000000,41.719553000000,0 121.458158000000,41.707538000000,0 121.457603000000,41.695994000000,0 121.475385000000,41.695001000000,0 121.477607000000,41.711937000000,0 121.493305000000,41.721681000000,0 121.502335000000,41.717755000000,0 121.515116000000,41.720404000000,0 121.515324000000,41.730383000000,0 121.506920000000,41.744143000000,0 121.512338000000,41.748587000000,0 121.512407000000,41.762579000000,0 121.519909000000,41.763052000000,0 121.526160000000,41.770472000000,0 121.538524000000,41.773922000000,0 121.538802000000,41.783231000000,0 121.554083000000,41.785215000000,0 121.604859000000,41.787294000000,0 121.629031000000,41.784034000000,0 121.637089000000,41.774064000000,0 121.654940000000,41.776332000000,0 121.675153000000,41.774205000000,0 121.697033000000,41.798869000000,0 121.707314000000,41.803971000000,0 121.722456000000,41.795751000000,0 121.754338000000,41.796129000000,0 121.778580000000,41.806285000000,0 121.798029000000,41.801798000000,0 121.822479000000,41.782758000000,0 121.835121000000,41.786869000000,0 121.845957000000,41.799011000000,0 121.862558000000,41.813134000000,0 121.840886000000,41.813559000000,0 121.831648000000,41.820643000000,0 121.833107000000,41.828859000000,0 121.843734000000,41.835988000000,0 121.848944000000,41.845288000000,0 121.895066000000,41.845571000000,0 121.916251000000,41.858363000000,0 121.908472000000,41.864167000000,0 121.927156000000,41.862138000000,0 121.924517000000,41.868886000000,0 121.933061000000,41.874643000000,0 121.941674000000,41.872991000000,0 121.960081000000,41.878512000000,0 121.962442000000,41.888938000000,0 121.955705000000,41.891391000000,0 121.972514000000,41.892617000000,0 121.997242000000,41.911247000000,0 121.991130000000,41.919687000000,0 121.996478000000,41.928645000000,0 122.003910000000,41.930672000000,0 122.014816000000,41.925298000000,0 122.034334000000,41.930625000000,0 122.042114000000,41.935339000000,0 122.041975000000,41.944624000000,0 122.062257000000,41.961024000000,0 122.063021000000,41.969269000000,0 122.068926000000,41.965406000000,0 122.081915000000,41.967385000000,0 122.097752000000,41.980858000000,0 122.094904000000,41.986463000000,0 122.118520000000,42.001769000000,0 122.130884000000,41.998991000000,0 122.140748000000,42.019331000000,0 122.154362000000,42.017966000000,0 122.145888000000,42.025027000000,0 122.153251000000,42.032511000000,0 122.174992000000,42.027192000000,0 122.184369000000,42.031946000000,0 122.200623000000,42.032841000000,0 122.212640000000,42.050112000000,0 122.227990000000,42.047053000000,0 122.236326000000,42.052182000000,0 122.272167000000,42.068225000000,0 122.293631000000,42.080031000000,0 122.312871000000,42.083558000000,0 122.366703000000,42.108384000000,0 122.409769000000,42.121452000000,0 122.425953000000,42.129018000000,0 122.423522000000,42.140672000000,0 122.436858000000,42.140625000000,0 122.432621000000,42.144196000000,0 122.439428000000,42.150961000000,0 122.455821000000,42.144572000000,0 122.520072000000,42.174681000000,0 122.552024000000,42.188063000000,0 122.614469000000,42.212755000000,0 122.609329000000,42.230164000000,0 122.620096000000,42.230071000000,0 122.626000000000,42.234716000000,0 122.632598000000,42.231009000000,0 122.636280000000,42.237061000000,0 122.645101000000,42.237671000000,0 122.651283000000,42.232651000000,0 122.691779000000,42.249915000000,0 122.703726000000,42.261124000000,0 122.735053000000,42.281005000000,0 122.734289000000,42.284287000000,0 122.769505000000,42.297037000000,0 122.781314000000,42.298630000000,0 122.805555000000,42.312408000000,0 122.810765000000,42.319624000000,0 122.826324000000,42.330446000000,0 122.838827000000,42.331898000000,0 122.858345000000,42.346091000000,0 122.871057000000,42.345669000000,0 122.900994000000,42.349182000000,0 122.903217000000,42.353256000000,0 122.895298000000,42.368848000000,0 122.883421000000,42.368333000000,0 122.875294000000,42.374840000000,0 122.882379000000,42.388367000000,0 122.873627000000,42.389397000000,0 122.865639000000,42.395715000000,0 122.862027000000,42.406804000000,0 122.850983000000,42.405260000000,0 122.846190000000,42.399599000000,0 122.832159000000,42.403342000000,0 122.828269000000,42.410267000000,0 122.833965000000,42.417986000000,0 122.817780000000,42.416769000000,0 122.824865000000,42.429352000000,0 122.832853000000,42.431597000000,0 122.826602000000,42.438846000000,0 122.827297000000,42.445814000000,0 122.822018000000,42.458017000000,0 122.825004000000,42.461149000000,0 122.818544000000,42.481434000000,0 122.826463000000,42.490126000000,0 122.819447000000,42.490126000000,0 122.834382000000,42.497975000000,0 122.871543000000,42.504049000000,0 122.882101000000,42.503908000000,0 122.899744000000,42.499424000000,0 122.908357000000,42.500685000000,0 122.911552000000,42.519510000000,0 122.917804000000,42.521565000000,0 122.916831000000,42.529690000000,0 122.921832000000,42.535527000000,0 122.943365000000,42.547899000000,0 122.949408000000,42.545098000000,0 122.957744000000,42.550327000000,0 122.966912000000,42.561716000000,0 122.974414000000,42.564329000000,0 122.969899000000,42.571376000000,0 122.930237000000,42.587707000000,0 122.922874000000,42.596804000000,0 122.926764000000,42.604407000000,0 122.903078000000,42.613687000000,0 122.892034000000,42.608884000000,0 122.886477000000,42.611216000000,0 122.873488000000,42.608604000000,0 122.862930000000,42.621055000000,0 122.842578000000,42.633364000000,0 122.838688000000,42.645204000000,0 122.842786000000,42.648839000000,0 122.824935000000,42.652661000000,0 122.792705000000,42.650983000000,0 122.791802000000,42.662773000000,0 122.769505000000,42.677962000000,0 122.756238000000,42.679732000000,0 122.747347000000,42.689188000000,0 122.750959000000,42.697944000000,0 122.767838000000,42.709074000000,0 122.778118000000,42.710889000000,0 122.801110000000,42.726299000000,0 122.815766000000,42.718897000000,0 122.836118000000,42.716476000000,0 122.839730000000,42.718292000000,0</coordinates></LinearRing></outerBoundaryIs></Polygon>
    </Placemark>
  </Document>
</kml>
