<?xml version="1.0" encoding="UTF-8"?>
<kml xmlns="http://www.opengis.net/kml/2.2">
  <Document>
    <name>鞍山市</name>
    <Placemark>
      <name>鞍山市</name>
      <Polygon><outerBoundaryIs><LinearRing><coordinates>123.533711000000,40.826996000000,0 123.509608000000,40.816159000000,0 123.487659000000,40.811411000000,0 123.461611000000,40.809541000000,0 123.442231000000,40.803114000000,0 123.428964000000,40.803306000000,0 123.411044000000,40.807095000000,0 123.402639000000,40.802538000000,0 123.394234000000,40.786515000000,0 123.375410000000,40.775384000000,0 123.357003000000,40.775959000000,0 123.340055000000,40.771113000000,0 123.315049000000,40.773464000000,0 123.297614000000,40.765930000000,0 123.287959000000,40.754506000000,0 123.277054000000,40.749082000000,0 123.258369000000,40.744569000000,0 123.244685000000,40.731462000000,0 123.230932000000,40.733959000000,0 123.214262000000,40.732182000000,0 123.177100000000,40.712684000000,0 123.150288000000,40.725219000000,0 123.136188000000,40.714461000000,0 123.130075000000,40.726660000000,0 123.100971000000,40.741305000000,0 123.085412000000,40.755946000000,0 123.073812000000,40.771641000000,0 123.071798000000,40.780422000000,0 123.074854000000,40.792081000000,0 123.091386000000,40.802394000000,0 123.107084000000,40.820091000000,0 123.105834000000,40.824455000000,0 123.084926000000,40.835866000000,0 123.072979000000,40.839414000000,0 123.054294000000,40.835099000000,0 123.050265000000,40.845502000000,0 123.055752000000,40.857772000000,0 123.047973000000,40.871765000000,0 123.055266000000,40.884175000000,0 123.075063000000,40.898354000000,0 123.073673000000,40.906879000000,0 123.060406000000,40.923447000000,0 123.089788000000,40.928378000000,0 123.096387000000,40.934171000000,0 123.097151000000,40.941973000000,0 123.083884000000,40.961595000000,0 123.087913000000,40.975519000000,0 123.103125000000,40.984177000000,0 123.126741000000,40.989343000000,0 123.151052000000,40.983938000000,0 123.161541000000,40.988434000000,0 123.178212000000,40.989917000000,0 123.192451000000,40.987621000000,0 123.190923000000,40.996852000000,0 123.201898000000,41.001730000000,0 123.212247000000,41.017701000000,0 123.199675000000,41.031278000000,0 123.205162000000,41.039547000000,0 123.214331000000,41.039833000000,0 123.235517000000,41.048962000000,0 123.226626000000,41.058996000000,0 123.231835000000,41.066067000000,0 123.214539000000,41.077867000000,0 123.208357000000,41.078631000000,0 123.213636000000,41.091145000000,0 123.211900000000,41.098117000000,0 123.203148000000,41.097687000000,0 123.198494000000,41.103322000000,0 123.183977000000,41.106043000000,0 123.171891000000,41.098642000000,0 123.162583000000,41.099024000000,0 123.154595000000,41.105852000000,0 123.145287000000,41.101841000000,0 123.146746000000,41.108240000000,0 123.142509000000,41.125760000000,0 123.146815000000,41.133826000000,0 123.140147000000,41.137214000000,0 123.149385000000,41.154059000000,0 123.137160000000,41.158018000000,0 123.129381000000,41.174094000000,0 123.119309000000,41.177242000000,0 123.119031000000,41.184253000000,0 123.109862000000,41.184634000000,0 123.099304000000,41.178101000000,0 123.075618000000,41.184634000000,0 123.063254000000,41.183156000000,0 123.057142000000,41.191501000000,0 123.062282000000,41.199083000000,0 123.038248000000,41.208427000000,0 123.022411000000,41.206854000000,0 123.005949000000,41.188497000000,0 122.991363000000,41.186590000000,0 122.987612000000,41.200465000000,0 122.974484000000,41.202706000000,0 122.962467000000,41.191358000000,0 122.946144000000,41.196603000000,0 122.909607000000,41.194219000000,0 122.898980000000,41.181296000000,0 122.895924000000,41.171519000000,0 122.885505000000,41.166844000000,0 122.875572000000,41.170612000000,0 122.866750000000,41.163171000000,0 122.875988000000,41.157732000000,0 122.865291000000,41.144897000000,0 122.858137000000,41.144945000000,0 122.848760000000,41.129769000000,0 122.856748000000,41.114971000000,0 122.841605000000,41.106091000000,0 122.831047000000,41.091575000000,0 122.832437000000,41.082452000000,0 122.824518000000,41.081831000000,0 122.801388000000,41.093533000000,0 122.800068000000,41.100266000000,0 122.791594000000,41.096111000000,0 122.784995000000,41.101316000000,0 122.777215000000,41.099024000000,0 122.760962000000,41.101221000000,0 122.762837000000,41.104372000000,0 122.704282000000,41.114828000000,0 122.689556000000,41.122609000000,0 122.690251000000,41.128289000000,0 122.678581000000,41.140746000000,0 122.639683000000,41.155204000000,0 122.618706000000,41.169706000000,0 122.598077000000,41.178911000000,0 122.601897000000,41.185636000000,0 122.595090000000,41.195840000000,0 122.613149000000,41.202134000000,0 122.622527000000,41.199845000000,0 122.615303000000,41.207903000000,0 122.612455000000,41.220534000000,0 122.596201000000,41.245076000000,0 122.560012000000,41.244123000000,0 122.552371000000,41.249602000000,0 122.554108000000,41.254843000000,0 122.569528000000,41.268466000000,0 122.576405000000,41.279991000000,0 122.595229000000,41.293513000000,0 122.588491000000,41.296846000000,0 122.594673000000,41.303463000000,0 122.606690000000,41.303463000000,0 122.604328000000,41.318075000000,0 122.620304000000,41.317504000000,0 122.629542000000,41.330163000000,0 122.658993000000,41.354806000000,0 122.656423000000,41.358754000000,0 122.642601000000,41.357612000000,0 122.640795000000,41.363605000000,0 122.649130000000,41.395889000000,0 122.634057000000,41.405253000000,0 122.631209000000,41.416801000000,0 122.647116000000,41.424499000000,0 122.643018000000,41.432528000000,0 122.629751000000,41.429725000000,0 122.634752000000,41.435331000000,0 122.634543000000,41.448204000000,0 122.625166000000,41.471426000000,0 122.632598000000,41.474085000000,0 122.636419000000,41.481728000000,0 122.623916000000,41.488896000000,0 122.636905000000,41.501663000000,0 122.631418000000,41.506694000000,0 122.634613000000,41.516943000000,0 122.625027000000,41.520976000000,0 122.604536000000,41.513005000000,0 122.599118000000,41.514618000000,0 122.598910000000,41.530227000000,0 122.595159000000,41.534448000000,0 122.582934000000,41.535207000000,0 122.572446000000,41.540045000000,0 122.566125000000,41.547776000000,0 122.553483000000,41.550669000000,0 122.520767000000,41.542559000000,0 122.506597000000,41.537437000000,0 122.495900000000,41.543460000000,0 122.492983000000,41.551854000000,0 122.500345000000,41.562238000000,0 122.497706000000,41.570440000000,0 122.487356000000,41.566316000000,0 122.470547000000,41.556691000000,0 122.452834000000,41.549341000000,0 122.409213000000,41.548677000000,0 122.368092000000,41.545404000000,0 122.357118000000,41.541326000000,0 122.330097000000,41.525483000000,0 122.298284000000,41.514571000000,0 122.283837000000,41.515899000000,0 122.215557000000,41.485336000000,0 122.193746000000,41.459602000000,0 122.199303000000,41.457940000000,0 122.192288000000,41.448964000000,0 122.200345000000,41.441792000000,0 122.198956000000,41.429203000000,0 122.232436000000,41.387095000000,0 122.245286000000,41.373877000000,0 122.280294000000,41.353997000000,0 122.277516000000,41.348908000000,0 122.279461000000,41.334968000000,0 122.271681000000,41.328355000000,0 122.274737000000,41.319741000000,0 122.266680000000,41.307414000000,0 122.264388000000,41.291133000000,0 122.254455000000,41.277896000000,0 122.249801000000,41.260845000000,0 122.250079000000,41.242551000000,0 122.244591000000,41.236309000000,0 122.231047000000,41.230400000000,0 122.205138000000,41.223299000000,0 122.215001000000,41.216578000000,0 122.226948000000,41.201943000000,0 122.254316000000,41.194076000000,0 122.266194000000,41.194791000000,0 122.274737000000,41.184539000000,0 122.304814000000,41.190881000000,0 122.338572000000,41.189975000000,0 122.352533000000,41.198034000000,0 122.343364000000,41.203707000000,0 122.361910000000,41.206568000000,0 122.369759000000,41.217579000000,0 122.386499000000,41.224300000000,0 122.388861000000,41.231639000000,0 122.408866000000,41.251651000000,0 122.423661000000,41.243266000000,0 122.424633000000,41.253318000000,0 122.457697000000,41.248078000000,0 122.463740000000,41.256796000000,0 122.480688000000,41.254938000000,0 122.488745000000,41.250984000000,0 122.463879000000,41.233307000000,0 122.447208000000,41.215530000000,0 122.435469000000,41.213003000000,0 122.415326000000,41.212622000000,0 122.411783000000,41.204041000000,0 122.400461000000,41.196889000000,0 122.384624000000,41.195602000000,0 122.368926000000,41.183585000000,0 122.366356000000,41.177147000000,0 122.372330000000,41.162407000000,0 122.386638000000,41.160165000000,0 122.384416000000,41.135496000000,0 122.396502000000,41.120461000000,0 122.396502000000,41.101650000000,0 122.412061000000,41.090954000000,0 122.415881000000,41.084602000000,0 122.414978000000,41.057085000000,0 122.409560000000,41.038639000000,0 122.415256000000,41.022482000000,0 122.424008000000,41.012776000000,0 122.410880000000,40.993074000000,0 122.404698000000,40.991496000000,0 122.396502000000,41.000869000000,0 122.390111000000,40.997426000000,0 122.390111000000,40.988052000000,0 122.380665000000,40.989869000000,0 122.368023000000,41.000200000000,0 122.359966000000,41.001874000000,0 122.342600000000,40.988817000000,0 122.346629000000,40.980494000000,0 122.360660000000,40.988100000000,0 122.364411000000,40.985851000000,0 122.358715000000,40.975327000000,0 122.338988000000,40.968151000000,0 122.328361000000,40.971117000000,0 122.328917000000,40.963270000000,0 122.350172000000,40.955422000000,0 122.351213000000,40.951498000000,0 122.338294000000,40.940872000000,0 122.343364000000,40.927277000000,0 122.331278000000,40.923974000000,0 122.318845000000,40.927325000000,0 122.327597000000,40.918276000000,0 122.321345000000,40.909273000000,0 122.335238000000,40.905777000000,0 122.352672000000,40.916025000000,0 122.363647000000,40.909082000000,0 122.377609000000,40.909225000000,0 122.377609000000,40.919425000000,0 122.384138000000,40.924835000000,0 122.394557000000,40.922298000000,0 122.411505000000,40.927852000000,0 122.433316000000,40.930676000000,0 122.438595000000,40.940059000000,0 122.449848000000,40.940298000000,0 122.465059000000,40.935894000000,0 122.488607000000,40.935751000000,0 122.506111000000,40.929288000000,0 122.503124000000,40.915355000000,0 122.492566000000,40.900030000000,0 122.493052000000,40.882881000000,0 122.502429000000,40.879527000000,0 122.502568000000,40.872963000000,0 122.487634000000,40.860600000000,0 122.484231000000,40.851590000000,0 122.502568000000,40.847324000000,0 122.516530000000,40.848090000000,0 122.515002000000,40.839414000000,0 122.523406000000,40.834188000000,0 122.521531000000,40.826805000000,0 122.542022000000,40.818701000000,0 122.537993000000,40.800715000000,0 122.541952000000,40.798557000000,0 122.515974000000,40.766554000000,0 122.556817000000,40.761082000000,0 122.567583000000,40.758058000000,0 122.581892000000,40.748506000000,0 122.600785000000,40.751722000000,0 122.639614000000,40.748698000000,0 122.649825000000,40.739768000000,0 122.651144000000,40.710571000000,0 122.636558000000,40.696832000000,0 122.622804000000,40.688136000000,0 122.623082000000,40.671749000000,0 122.636558000000,40.663819000000,0 122.638642000000,40.659012000000,0 122.647463000000,40.666606000000,0 122.670941000000,40.670980000000,0 122.669482000000,40.662569000000,0 122.659758000000,40.658435000000,0 122.653784000000,40.648099000000,0 122.653228000000,40.638675000000,0 122.645101000000,40.636704000000,0 122.654617000000,40.628673000000,0 122.650867000000,40.616937000000,0 122.643573000000,40.611069000000,0 122.625861000000,40.608423000000,0 122.650589000000,40.593893000000,0 122.651283000000,40.584702000000,0 122.659549000000,40.583596000000,0 122.662883000000,40.594615000000,0 122.678929000000,40.592594000000,0 122.691987000000,40.599956000000,0 122.703657000000,40.598945000000,0 122.720883000000,40.586387000000,0 122.730677000000,40.582922000000,0 122.743458000000,40.585136000000,0 122.771103000000,40.577532000000,0 122.797637000000,40.578879000000,0 122.807431000000,40.570312000000,0 122.811529000000,40.558181000000,0 122.816600000000,40.557700000000,0 122.829311000000,40.538006000000,0 122.854872000000,40.532853000000,0 122.862860000000,40.527700000000,0 122.879461000000,40.528760000000,0 122.897382000000,40.538632000000,0 122.914678000000,40.537573000000,0 122.936002000000,40.528856000000,0 122.949825000000,40.515658000000,0 122.969413000000,40.508961000000,0 122.984347000000,40.486989000000,0 122.999212000000,40.477012000000,0 122.986500000000,40.463563000000,0 122.992960000000,40.435161000000,0 122.990182000000,40.427684000000,0 122.971288000000,40.417795000000,0 122.946213000000,40.416396000000,0 122.936558000000,40.409304000000,0 122.931974000000,40.396806000000,0 122.934822000000,40.374024000000,0 122.929820000000,40.358333000000,0 122.932113000000,40.344715000000,0 122.915859000000,40.331529000000,0 122.891339000000,40.319548000000,0 122.881337000000,40.306937000000,0 122.882170000000,40.289829000000,0 122.873002000000,40.268510000000,0 122.874669000000,40.258597000000,0 122.881823000000,40.249457000000,0 122.884879000000,40.236204000000,0 122.891131000000,40.234705000000,0 122.896757000000,40.218739000000,0 122.893979000000,40.205190000000,0 122.890784000000,40.187378000000,0 122.901967000000,40.184038000000,0 122.927042000000,40.182247000000,0 122.938711000000,40.174791000000,0 122.939128000000,40.158956000000,0 122.944963000000,40.143215000000,0 122.960522000000,40.123546000000,0 122.969552000000,40.118507000000,0 122.988654000000,40.116859000000,0 122.981707000000,40.103289000000,0 122.993863000000,40.081863000000,0 123.010256000000,40.072990000000,0 123.028871000000,40.070420000000,0 123.031650000000,40.062127000000,0 123.053947000000,40.060139000000,0 123.068672000000,40.042289000000,0 123.073326000000,40.040349000000,0 123.080342000000,40.055095000000,0 123.103194000000,40.074736000000,0 123.117920000000,40.063485000000,0 123.127019000000,40.076287000000,0 123.136327000000,40.079196000000,0 123.141814000000,40.072699000000,0 123.167862000000,40.067607000000,0 123.172794000000,40.070469000000,0 123.183838000000,40.064746000000,0 123.191895000000,40.064940000000,0 123.225723000000,40.049663000000,0 123.242324000000,40.036759000000,0 123.266704000000,40.039233000000,0 123.281638000000,40.016961000000,0 123.296572000000,40.017010000000,0 123.299698000000,40.024483000000,0 123.317341000000,40.025114000000,0 123.338943000000,40.019630000000,0 123.359504000000,40.002158000000,0 123.380272000000,40.004779000000,0 123.392150000000,40.013710000000,0 123.404862000000,40.009245000000,0 123.406320000000,40.013564000000,0 123.422991000000,40.030548000000,0 123.448483000000,40.037147000000,0 123.457721000000,40.033023000000,0 123.477170000000,40.031276000000,0 123.472863000000,40.037438000000,0 123.464111000000,40.038263000000,0 123.458138000000,40.058102000000,0 123.468140000000,40.041125000000,0 123.471127000000,40.046898000000,0 123.482935000000,40.050972000000,0 123.476267000000,40.071875000000,0 123.513776000000,40.090493000000,0 123.513498000000,40.093789000000,0 123.528849000000,40.103338000000,0 123.546283000000,40.102514000000,0 123.553577000000,40.099460000000,0 123.563232000000,40.102514000000,0 123.567955000000,40.114581000000,0 123.575179000000,40.115745000000,0 123.590460000000,40.130281000000,0 123.606714000000,40.159392000000,0 123.606297000000,40.168545000000,0 123.599768000000,40.170336000000,0 123.583306000000,40.166123000000,0 123.571914000000,40.172854000000,0 123.560523000000,40.187136000000,0 123.576915000000,40.205383000000,0 123.583653000000,40.221642000000,0 123.589905000000,40.225948000000,0 123.596156000000,40.243024000000,0 123.611576000000,40.241332000000,0 123.624149000000,40.249506000000,0 123.635818000000,40.264787000000,0 123.647696000000,40.260387000000,0 123.673396000000,40.276826000000,0 123.680342000000,40.290312000000,0 123.711322000000,40.300172000000,0 123.705487000000,40.314137000000,0 123.708057000000,40.326215000000,0 123.715976000000,40.333075000000,0 123.717990000000,40.341721000000,0 123.738550000000,40.363548000000,0 123.751470000000,40.383292000000,0 123.761681000000,40.402886000000,0 123.747511000000,40.417650000000,0 123.769252000000,40.443504000000,0 123.766196000000,40.456957000000,0 123.756818000000,40.471035000000,0 123.769530000000,40.492386000000,0 123.767307000000,40.499952000000,0 123.738203000000,40.507805000000,0 123.740843000000,40.511129000000,0 123.737925000000,40.524955000000,0 123.741120000000,40.532083000000,0 123.735216000000,40.538632000000,0 123.741190000000,40.549226000000,0 123.738134000000,40.575703000000,0 123.721324000000,40.586627000000,0 123.717434000000,40.592498000000,0 123.731396000000,40.603035000000,0 123.748761000000,40.610732000000,0 123.731118000000,40.648964000000,0 123.725422000000,40.654205000000,0 123.710488000000,40.657041000000,0 123.694999000000,40.666030000000,0 123.663811000000,40.675738000000,0 123.636304000000,40.690875000000,0 123.623176000000,40.693613000000,0 123.592544000000,40.686118000000,0 123.582889000000,40.686454000000,0 123.577263000000,40.692316000000,0 123.581014000000,40.704615000000,0 123.570386000000,40.712156000000,0 123.558925000000,40.713021000000,0 123.560175000000,40.719937000000,0 123.551423000000,40.722962000000,0 123.556008000000,40.728485000000,0 123.557328000000,40.747642000000,0 123.567747000000,40.763482000000,0 123.581083000000,40.768761000000,0 123.585529000000,40.777543000000,0 123.581222000000,40.786899000000,0 123.556980000000,40.806088000000,0 123.544894000000,40.821242000000,0 123.533711000000,40.826996000000,0</coordinates></LinearRing></outerBoundaryIs></Polygon>
    </Placemark>
  </Document>
</kml>
