<?xml version="1.0" encoding="UTF-8"?>
<kml xmlns="http://www.opengis.net/kml/2.2">
<Document>
<name>三门峡市</name>
<Placemark><name>三门峡市</name><MultiGeometry><Polygon><outerBoundaryIs><LinearRing><coordinates>112.011042000000003,34.750644000000001,0 111.997831000000005,34.750692999999998,0 112.000535999999997,34.745016999999997,0 111.995692000000005,34.736823000000001,0 112.014125000000007,34.731048000000001,0 112.014880000000005,34.724235,0 111.997641999999999,34.717125000000003,0 111.993238000000005,34.693866,0 111.982921000000005,34.695051999999997,0 111.984997000000007,34.686013000000003,0 111.972854999999996,34.667389999999997,0 111.980089000000007,34.654000000000003,0 111.971407999999997,34.650689999999997,0 111.967444,34.643079999999998,0 111.953665999999998,34.639521000000002,0 111.943223000000003,34.629637000000002,0 111.941649999999996,34.620491999999999,0 111.928878999999995,34.600271999999997,0 111.905664000000002,34.619799999999998,0 111.888867000000005,34.61891,0 111.863952999999995,34.647081999999997,0 111.830736000000002,34.649206999999997,0 111.823751999999999,34.646242000000001,0 111.821361999999993,34.634430999999999,0 111.811295999999999,34.633887000000001,0 111.797077999999999,34.626027999999998,0 111.778392999999994,34.608331,0 111.764111999999997,34.609171000000003,0 111.758763999999999,34.597453999999999,0 111.740078999999994,34.600271999999997,0 111.702834999999993,34.584943000000003,0 111.696292,34.575744,0 111.687044,34.571885999999999,0 111.672008000000005,34.572232,0 111.681444999999997,34.547646999999998,0 111.692643000000004,34.535673000000003,0 111.683583999999996,34.533298000000002,0 111.670057999999997,34.540571,0 111.619099000000006,34.555759999999999,0 111.608089000000007,34.562289999999997,0 111.594436999999999,34.565308000000002,0 111.584434000000002,34.556057000000003,0 111.574304999999995,34.564467,0 111.562037000000004,34.558728000000002,0 111.544736,34.544924999999999,0 111.538634000000002,34.543342000000003,0 111.525045000000006,34.548290000000001,0 111.502899999999997,34.545074,0 111.489436999999995,34.533842,0 111.484655000000004,34.525528000000001,0 111.457539999999995,34.512560999999998,0 111.451689000000002,34.505927999999997,0 111.418346,34.490828999999998,0 111.394816000000006,34.482016000000002,0 111.385064999999997,34.473103000000002,0 111.370594999999994,34.473300999999999,0 111.358642000000003,34.480333000000002,0 111.344424000000004,34.472954999999999,0 111.324731999999997,34.471716999999998,0 111.306675999999996,34.474193,0 111.300008000000005,34.488948000000001,0 111.289313000000007,34.485581000000003,0 111.271383,34.470677000000002,0 111.272012000000004,34.447547,0 111.244708000000003,34.453788000000003,0 111.227532999999994,34.459732000000002,0 111.220235000000002,34.457948999999999,0 111.213251999999997,34.437441,0 111.213440000000006,34.429811999999998,0 111.197711999999996,34.418762000000001,0 111.191231999999999,34.417920000000002,0 111.188967000000005,34.399285999999996,0 111.171414999999996,34.394973999999998,0 111.156818999999999,34.394677000000001,0 111.147948999999997,34.388530000000003,0 111.141216999999997,34.373112999999996,0 111.138448999999994,34.356749999999998,0 111.141216999999997,34.353031000000001,0 111.159839000000005,34.350799000000002,0 111.166634000000002,34.344797999999997,0 111.169150000000002,34.334878000000003,0 111.185444000000004,34.316969999999998,0 111.191547,34.301836999999999,0 111.181921000000003,34.278759999999998,0 111.182488000000006,34.256421000000003,0 111.187771999999995,34.250264999999999,0 111.180914999999999,34.230203000000003,0 111.166571000000005,34.228962000000003,0 111.158957999999998,34.223101,0 111.175819000000004,34.209541000000002,0 111.207401000000004,34.197418999999996,0 111.214698999999996,34.181221000000001,0 111.234515999999999,34.178536999999999,0 111.248671000000002,34.162882000000003,0 111.253201000000004,34.153089999999999,0 111.267921999999999,34.146528000000004,0 111.276855999999995,34.148318000000003,0 111.281889000000007,34.138523999999997,0 111.296925000000002,34.145136999999998,0 111.305291999999994,34.140165000000003,0 111.306361999999993,34.125149,0 111.313407999999995,34.116546,0 111.334734999999995,34.115600999999998,0 111.344738000000007,34.109037000000001,0 111.358767999999998,34.108787999999997,0 111.367198000000002,34.092472999999998,0 111.354301000000007,34.084463999999997,0 111.342095999999998,34.056052999999999,0 111.342285000000004,34.037936000000002,0 111.355119000000002,34.015185000000002,0 111.353609000000006,33.996262999999999,0 111.355999999999995,33.984509000000003,0 111.344109000000003,33.973351000000001,0 111.324794999999995,33.963039000000002,0 111.305920999999998,33.941364,0 111.303342000000001,33.928207,0 111.290130000000005,33.926662,0 111.276792999999998,33.935533,0 111.259366,33.929851999999997,0 111.239988999999994,33.933140999999999,0 111.230048999999994,33.924768,0 111.226652000000001,33.913103999999997,0 111.234768000000003,33.901738000000002,0 111.234515999999999,33.894857000000002,0 111.212811000000002,33.884087000000001,0 111.206017000000003,33.891615999999999,0 111.203688999999997,33.883437999999998,0 111.219480000000004,33.872765999999999,0 111.216397000000001,33.865135000000002,0 111.232061999999999,33.856805000000001,0 111.240303999999995,33.842488000000003,0 111.261567999999997,33.822878000000003,0 111.260812999999999,33.796774999999997,0 111.240367000000006,33.796925000000002,0 111.234831,33.801268,0 111.222436999999999,33.797573999999997,0 111.208533000000003,33.781948,0 111.196077000000002,33.757731,0 111.194440999999998,33.745494000000001,0 111.197209000000001,33.732207000000002,0 111.195195999999996,33.713272000000003,0 111.186199000000002,33.704127999999997,0 111.181291999999999,33.686886000000001,0 111.170471000000006,33.682138000000002,0 111.151598000000007,33.684787,0 111.141406000000003,33.678739,0 111.133163999999994,33.678939,0 111.140272999999993,33.661292000000003,0 111.146439000000001,33.658591999999999,0 111.152101000000002,33.645440999999998,0 111.143922000000003,33.633189000000002,0 111.134674000000004,33.627437,0 111.133982000000003,33.612380999999999,0 111.123223999999993,33.598623000000003,0 111.114542,33.578758000000001,0 111.102902999999998,33.573903000000001,0 111.089125999999993,33.563743000000002,0 111.070063000000005,33.566346000000003,0 111.058425,33.555534000000002,0 111.025143999999997,33.550578000000002,0 111.009981999999994,33.560540000000003,0 111.003691000000003,33.578657999999997,0 110.979658000000001,33.595871000000002,0 110.966572999999997,33.609178999999997,0 110.951410999999993,33.609029,0 110.940841000000006,33.620035000000001,0 110.904730000000001,33.628638000000002,0 110.899760000000001,33.632989000000002,0 110.878810000000001,33.634639,0 110.857733999999994,33.657792000000001,0 110.841818000000004,33.663240999999999,0 110.833198999999993,33.677788999999997,0 110.825396999999995,33.684137,0 110.823194999999998,33.692833999999998,0 110.832192000000006,33.712823,0 110.816840999999997,33.737352999999999,0 110.815898000000004,33.753036000000002,0 110.80753,33.757280999999999,0 110.799099999999996,33.775508000000002,0 110.784189999999995,33.782398000000001,0 110.782177000000004,33.796075999999999,0 110.765568000000002,33.795028000000002,0 110.753676999999996,33.799470999999997,0 110.741347000000005,33.798822000000001,0 110.725995999999995,33.807707000000001,0 110.722724999999997,33.818885999999999,0 110.712596000000005,33.833607000000001,0 110.684914000000006,33.838796000000002,0 110.667928000000003,33.852165999999997,0 110.649495000000002,33.845979999999997,0 110.627663999999996,33.845730000000003,0 110.612125000000006,33.852514999999997,0 110.612943000000001,33.867429000000001,0 110.600611999999998,33.871270000000003,0 110.587273999999994,33.887726999999998,0 110.592181999999994,33.900590999999999,0 110.611810000000006,33.908068999999998,0 110.625839999999997,33.907820000000001,0 110.626028000000005,33.924619,0 110.650501000000006,33.936729999999997,0 110.669563999999994,33.939270999999998,0 110.675602999999995,33.946596,0 110.670947999999996,33.966427000000003,0 110.651759999999996,33.969664999999999,0 110.649557999999999,33.992277999999999,0 110.638925,34.004976999999997,0 110.634459000000007,34.016330000000004,0 110.628103999999993,34.019019,0 110.631501999999998,34.025540999999997,0 110.619485999999995,34.035646,0 110.612061999999995,34.024245999999998,0 110.586645000000004,34.023997000000001,0 110.589727999999994,34.038583000000003,0 110.588470000000001,34.061675999999999,0 110.595138000000006,34.064760999999997,0 110.591803999999996,34.101675999999998,0 110.614012000000002,34.113712,0 110.618163999999993,34.124054999999998,0 110.628545000000003,34.133054999999999,0 110.624204000000006,34.137331000000003,0 110.639114000000006,34.150903,0 110.641945000000007,34.160893999999999,0 110.634144000000006,34.169790999999996,0 110.621750000000006,34.177444000000001,0 110.587715000000003,34.178686999999996,0 110.589099000000004,34.190263999999999,0 110.557139000000006,34.193395000000002,0 110.551413999999994,34.212819000000003,0 110.524109999999993,34.219673999999998,0 110.507879000000003,34.217587999999999,0 110.489760000000004,34.232339000000003,0 110.439682000000005,34.243412999999997,0 110.442513000000005,34.253988999999997,0 110.432573000000005,34.272902999999999,0 110.426471000000006,34.27608,0 110.431314999999998,34.290374,0 110.449308000000002,34.291466,0 110.465853999999993,34.305906,0 110.473844,34.322972999999998,0 110.498127999999994,34.320095999999999,0 110.503287,34.334282999999999,0 110.502719999999997,34.345194999999997,0 110.489446000000001,34.355311999999998,0 110.473718000000005,34.393239000000001,0 110.475920000000002,34.409148999999999,0 110.467427000000001,34.409742999999999,0 110.458178000000004,34.402408999999999,0 110.430999999999997,34.409446000000003,0 110.409484000000006,34.421587000000002,0 110.409610000000001,34.429068999999998,0 110.402940999999998,34.433478000000001,0 110.401998000000006,34.447101000000004,0 110.395266000000007,34.453937000000003,0 110.393441999999993,34.464832999999999,0 110.379727000000003,34.478501000000001,0 110.378217000000006,34.486423000000002,0 110.368842999999998,34.493206000000001,0 110.360476000000006,34.517609999999998,0 110.362048000000001,34.526418999999997,0 110.372743999999997,34.544331999999997,0 110.404514000000006,34.557591000000002,0 110.399355,34.562834000000002,0 110.376141000000004,34.563082000000001,0 110.367206999999993,34.566792,0 110.379160999999996,34.600518999999998,0 110.407723000000004,34.589244999999998,0 110.424835000000002,34.588453999999999,0 110.437731999999997,34.597848999999997,0 110.465602000000004,34.605463,0 110.475857000000005,34.610456999999997,0 110.488501999999997,34.610753000000003,0 110.533169999999998,34.583458999999998,0 110.547387999999998,34.583557999999996,0 110.594509000000002,34.603140000000003,0 110.610991999999996,34.607292999999999,0 110.653520999999998,34.608034000000004,0 110.706367,34.60398,0 110.712659000000002,34.607837000000004,0 110.732727999999994,34.633195000000001,0 110.741157999999999,34.639225000000003,0 110.749148000000005,34.652270999999999,0 110.761290000000002,34.653506,0 110.791865000000001,34.649751000000002,0 110.808222000000001,34.637099999999997,0 110.816023000000001,34.622618000000003,0 110.824327999999994,34.615845,0 110.834519999999998,34.617525999999998,0 110.853205000000003,34.635271000000003,0 110.861571999999995,34.639718999999999,0 110.883717000000004,34.644117000000001,0 110.893468999999996,34.651629,0 110.903722999999999,34.668823000000003,0 110.917438000000004,34.713569999999997,0 110.915739000000002,34.723247000000001,0 110.919765999999996,34.730257999999999,0 110.935494000000006,34.730505000000001,0 110.952354,34.720581000000003,0 110.963993000000002,34.706409999999998,0 110.976324000000005,34.70646,0 111.018474999999995,34.732281999999998,0 111.035336000000001,34.740870999999999,0 111.066413999999995,34.751581000000002,0 111.118253999999993,34.756565999999999,0 111.124419000000003,34.761698000000003,0 111.129767000000001,34.779955000000001,0 111.148515000000003,34.807479999999998,0 111.160719999999998,34.814582000000001,0 111.168143999999998,34.813200999999999,0 111.177768999999998,34.803978999999998,0 111.209413999999995,34.80097,0 111.223443000000003,34.789427000000003,0 111.239863999999997,34.793571,0 111.249111999999997,34.814039999999999,0 111.255213999999995,34.819563000000002,0 111.268047999999993,34.817936000000003,0 111.282140999999996,34.809452999999998,0 111.294156999999998,34.807678000000003,0 111.306110000000004,34.815223000000003,0 111.322655999999995,34.819710999999998,0 111.340333999999999,34.831299000000001,0 111.350399999999993,34.829376000000003,0 111.355369999999994,34.823064000000002,0 111.395319999999998,34.814878,0 111.415389000000005,34.827452999999998,0 111.430991000000006,34.829276999999998,0 111.439357999999999,34.838152000000001,0 111.450620000000001,34.836624,0 111.464648999999994,34.826909999999998,0 111.480125999999998,34.826022999999999,0 111.502647999999994,34.829968000000001,0 111.508688000000006,34.839187000000003,0 111.515355999999997,34.840173,0 111.527812999999995,34.850132000000002,0 111.543982,34.853285999999997,0 111.554488000000006,34.852201999999998,0 111.561031,34.845250999999998,0 111.570781999999994,34.843328999999997,0 111.58305,34.852794000000003,0 111.589404000000002,34.861863,0 111.591858000000002,34.881625,0 111.605823999999998,34.892367,0 111.617652000000007,34.894829999999999,0 111.621551999999994,34.916308000000001,0 111.645082000000002,34.937829999999998,0 111.661689999999993,34.938814999999998,0 111.681697,34.950927,0 111.675719999999998,34.971406000000002,0 111.665527999999995,34.980955000000002,0 111.669617000000002,34.988188999999998,0 111.687106999999997,34.988484999999997,0 111.697109999999995,34.998966000000003,0 111.711769000000004,35.003641000000002,0 111.739323999999996,35.004230999999997,0 111.749138000000002,35.016382999999998,0 111.768578000000005,35.015349999999998,0 111.782419000000004,35.030057999999997,0 111.793554999999998,35.026663999999997,0 111.809533999999999,35.036845999999997,0 111.812050999999997,35.048549999999999,0 111.810100000000006,35.062220000000003,0 111.818404999999998,35.068463999999999,0 111.861500000000007,35.074756999999998,0 111.864519999999999,35.076771999999998,0 111.885594999999995,35.069988000000002,0 111.900064999999998,35.079819999999998,0 111.917618000000004,35.071119000000003,0 111.928376,35.082031999999998,0 111.952156000000002,35.082130999999997,0 111.963166000000001,35.079329000000001,0 111.973358000000005,35.070233999999999,0 111.958698999999996,35.062908,0 111.958573000000001,35.0486,0 111.939510999999996,35.0366,0 111.940202999999997,35.030599000000002,0 111.967067,35.014169000000003,0 111.991917000000001,35.005018,0 111.978138999999999,34.997194999999998,0 111.981032999999996,34.990059000000002,0 111.967191999999997,34.989911999999997,0 111.957629999999995,34.986221,0 111.961152999999996,34.975689000000003,0 111.983234999999993,34.970471000000003,0 111.981914000000003,34.960625999999998,0 111.950834999999998,34.947775999999998,0 111.933975000000004,34.947678000000003,0 111.921706999999998,34.934038000000001,0 111.906167999999994,34.929606,0 111.890062,34.920347,0 111.883960000000002,34.911974000000001,0 111.883267000000004,34.894238999999999,0 111.898743999999994,34.885911999999998,0 111.922336000000001,34.883941,0 111.949828999999994,34.863391,0 111.948948000000001,34.852300999999997,0 111.957943999999998,34.851166999999997,0 111.981410999999994,34.857624000000001,0 111.990722000000005,34.853779000000003,0 111.982857999999993,34.846139000000001,0 111.986002999999997,34.837856000000002,0 112.014439999999993,34.817985,0 112.020730999999998,34.811326999999999,0 112.012804000000003,34.803781000000001,0 112.016327000000004,34.797072999999997,0 112.030105000000006,34.792583999999998,0 112.031992000000002,34.782964999999997,0 112.031173999999993,34.777735,0 112.017459000000002,34.769939000000001,0 112.019346999999996,34.762587000000003,0 112.011042000000003,34.750644000000001,0</coordinates></LinearRing></outerBoundaryIs><innerBoundaryIs><LinearRing><coordinates>112.030231000000001,34.782668000000001,0 112.018466000000004,34.785677999999997,0 112.021170999999995,34.777537000000002,0 112.028784000000002,34.778967999999999,0 112.030231000000001,34.782668000000001,0</coordinates></LinearRing></innerBoundaryIs></Polygon></MultiGeometry></Placemark>
</Document>
</kml>