<?xml version="1.0" encoding="UTF-8"?>
<kml xmlns="http://www.opengis.net/kml/2.2">
  <Document>
    <name>信阳市</name>
    <Placemark>
      <name>信阳市</name>
      <Polygon><outerBoundaryIs><LinearRing><coordinates>113.753838000000,32.328230000000,0 113.753838000000,32.342085000000,0 113.758494000000,32.352235000000,0 113.770699000000,32.358628000000,0 113.768874000000,32.369486000000,0 113.760381000000,32.369182000000,0 113.751448000000,32.360810000000,0 113.743835000000,32.369435000000,0 113.753209000000,32.384350000000,0 113.751699000000,32.390031000000,0 113.740753000000,32.393125000000,0 113.735279000000,32.410876000000,0 113.718608000000,32.417215000000,0 113.710555000000,32.421221000000,0 113.725339000000,32.436025000000,0 113.730875000000,32.449307000000,0 113.730498000000,32.460610000000,0 113.737670000000,32.453362000000,0 113.741319000000,32.465374000000,0 113.753398000000,32.465425000000,0 113.761828000000,32.470645000000,0 113.764219000000,32.489951000000,0 113.759375000000,32.508797000000,0 113.768245000000,32.534425000000,0 113.774285000000,32.537362000000,0 113.763212000000,32.547895000000,0 113.769126000000,32.559287000000,0 113.782023000000,32.566172000000,0 113.789698000000,32.586368000000,0 113.805301000000,32.597705000000,0 113.814423000000,32.600842000000,0 113.820211000000,32.601804000000,0 113.820337000000,32.619109000000,0 113.826691000000,32.622397000000,0 113.843614000000,32.622245000000,0 113.850409000000,32.617338000000,0 113.865130000000,32.623814000000,0 113.872680000000,32.622751000000,0 113.886646000000,32.607016000000,0 113.893315000000,32.604891000000,0 113.911811000000,32.607775000000,0 113.919738000000,32.605295000000,0 113.922380000000,32.593960000000,0 113.932824000000,32.578219000000,0 113.940373000000,32.576195000000,0 113.938046000000,32.555996000000,0 113.953837000000,32.526575000000,0 113.954340000000,32.514268000000,0 113.962204000000,32.505403000000,0 113.982147000000,32.503579000000,0 114.007375000000,32.507784000000,0 114.014861000000,32.515990000000,0 114.053867000000,32.523233000000,0 114.056258000000,32.539033000000,0 114.067204000000,32.534881000000,0 114.066638000000,32.527031000000,0 114.072992000000,32.517205000000,0 114.071357000000,32.505909000000,0 114.076390000000,32.493548000000,0 114.087336000000,32.481236000000,0 114.078529000000,32.479614000000,0 114.080731000000,32.454832000000,0 114.085512000000,32.450777000000,0 114.097654000000,32.451639000000,0 114.112564000000,32.447786000000,0 114.136723000000,32.461978000000,0 114.157421000000,32.458279000000,0 114.164970000000,32.461877000000,0 114.163397000000,32.469986000000,0 114.167675000000,32.487012000000,0 114.192274000000,32.492585000000,0 114.197433000000,32.486353000000,0 114.198314000000,32.468770000000,0 114.209135000000,32.468719000000,0 114.210078000000,32.458380000000,0 114.201522000000,32.453514000000,0 114.204479000000,32.445252000000,0 114.221214000000,32.445961000000,0 114.226876000000,32.454122000000,0 114.243485000000,32.458583000000,0 114.249084000000,32.450625000000,0 114.247511000000,32.436583000000,0 114.254117000000,32.424516000000,0 114.269027000000,32.409253000000,0 114.277961000000,32.418888000000,0 114.288467000000,32.418939000000,0 114.280980000000,32.407428000000,0 114.286894000000,32.369892000000,0 114.293877000000,32.364920000000,0 114.315142000000,32.373240000000,0 114.342760000000,32.365021000000,0 114.348422000000,32.347566000000,0 114.349303000000,32.323002000000,0 114.368177000000,32.313407000000,0 114.369813000000,32.298735000000,0 114.376607000000,32.292032000000,0 114.397054000000,32.293353000000,0 114.421589000000,32.279134000000,0 114.429328000000,32.289341000000,0 114.438324000000,32.288478000000,0 114.452479000000,32.281368000000,0 114.468333000000,32.294165000000,0 114.483621000000,32.285177000000,0 114.490856000000,32.286650000000,0 114.492177000000,32.299953000000,0 114.498342000000,32.301527000000,0 114.521934000000,32.298684000000,0 114.535083000000,32.286091000000,0 114.550685000000,32.289036000000,0 114.563645000000,32.306401000000,0 114.582519000000,32.308432000000,0 114.575976000000,32.316402000000,0 114.592900000000,32.321326000000,0 114.607998000000,32.337010000000,0 114.610767000000,32.350002000000,0 114.623349000000,32.352539000000,0 114.620141000000,32.363398000000,0 114.623727000000,32.370602000000,0 114.644551000000,32.375879000000,0 114.647759000000,32.387597000000,0 114.634673000000,32.399820000000,0 114.603595000000,32.418330000000,0 114.576542000000,32.425733000000,0 114.570125000000,32.435721000000,0 114.582142000000,32.445657000000,0 114.585665000000,32.455136000000,0 114.571509000000,32.466793000000,0 114.574781000000,32.486353000000,0 114.569559000000,32.495119000000,0 114.571258000000,32.508088000000,0 114.582393000000,32.513710000000,0 114.606866000000,32.512697000000,0 114.615737000000,32.509911000000,0 114.650338000000,32.527842000000,0 114.666067000000,32.527183000000,0 114.676699000000,32.514977000000,0 114.701927000000,32.517357000000,0 114.702115000000,32.535134000000,0 114.713062000000,32.543743000000,0 114.724512000000,32.541464000000,0 114.729545000000,32.519333000000,0 114.736088000000,32.516901000000,0 114.752319000000,32.523942000000,0 114.774024000000,32.508696000000,0 114.789689000000,32.508240000000,0 114.793527000000,32.521764000000,0 114.786858000000,32.523840000000,0 114.781133000000,32.535539000000,0 114.785789000000,32.545616000000,0 114.808877000000,32.558882000000,0 114.810136000000,32.569007000000,0 114.802649000000,32.583433000000,0 114.791325000000,32.584141000000,0 114.788997000000,32.607168000000,0 114.794030000000,32.613695000000,0 114.806172000000,32.609495000000,0 114.813785000000,32.611165000000,0 114.822404000000,32.622853000000,0 114.856565000000,32.619260000000,0 114.862856000000,32.624117000000,0 114.884875000000,32.616225000000,0 114.891670000000,32.617490000000,0 114.901799000000,32.634741000000,0 114.901296000000,32.648954000000,0 114.911047000000,32.653405000000,0 114.919351000000,32.648903000000,0 114.933570000000,32.649308000000,0 114.957791000000,32.659979000000,0 114.985472000000,32.659322000000,0 115.030077000000,32.648600000000,0 115.050020000000,32.640153000000,0 115.065182000000,32.629075000000,0 115.090599000000,32.637017000000,0 115.098022000000,32.633780000000,0 115.099532000000,32.619868000000,0 115.111548000000,32.607421000000,0 115.124760000000,32.607573000000,0 115.140362000000,32.599223000000,0 115.137028000000,32.587026000000,0 115.145647000000,32.580143000000,0 115.152127000000,32.590012000000,0 115.175341000000,32.605346000000,0 115.192013000000,32.603018000000,0 115.201136000000,32.591834000000,0 115.212145000000,32.588494000000,0 115.229509000000,32.590569000000,0 115.227118000000,32.578624000000,0 115.243538000000,32.593505000000,0 115.254800000000,32.595225000000,0 115.261280000000,32.591683000000,0 115.254737000000,32.585002000000,0 115.267193000000,32.578068000000,0 115.289213000000,32.589861000000,0 115.294812000000,32.581054000000,0 115.299404000000,32.588140000000,0 115.305570000000,32.583180000000,0 115.297769000000,32.576347000000,0 115.310855000000,32.570576000000,0 115.300348000000,32.568399000000,0 115.296511000000,32.562729000000,0 115.304186000000,32.553768000000,0 115.324003000000,32.554831000000,0 115.320480000000,32.562628000000,0 115.329602000000,32.561211000000,0 115.387670000000,32.570880000000,0 115.391948000000,32.566324000000,0 115.403273000000,32.576701000000,0 115.411577000000,32.574777000000,0 115.412772000000,32.559793000000,0 115.410004000000,32.548097000000,0 115.418057000000,32.552958000000,0 115.431646000000,32.552300000000,0 115.434666000000,32.545211000000,0 115.443725000000,32.543287000000,0 115.438944000000,32.532551000000,0 115.465745000000,32.520143000000,0 115.477761000000,32.519890000000,0 115.477635000000,32.511836000000,0 115.485059000000,32.512292000000,0 115.484996000000,32.503934000000,0 115.497515000000,32.492535000000,0 115.502863000000,32.483060000000,0 115.515571000000,32.450625000000,0 115.524127000000,32.447837000000,0 115.523183000000,32.442007000000,0 115.537465000000,32.438966000000,0 115.547279000000,32.424719000000,0 115.567600000000,32.421626000000,0 115.569109000000,32.414629000000,0 115.553633000000,32.407478000000,0 115.563888000000,32.403015000000,0 115.586096000000,32.419243000000,0 115.604529000000,32.425936000000,0 115.627115000000,32.405450000000,0 115.645611000000,32.417519000000,0 115.657816000000,32.428826000000,0 115.656306000000,32.408746000000,0 115.666938000000,32.409405000000,0 115.674425000000,32.430854000000,0 115.680590000000,32.439980000000,0 115.681660000000,32.450473000000,0 115.675872000000,32.466438000000,0 115.698772000000,32.468212000000,0 115.700785000000,32.472874000000,0 115.692229000000,32.480628000000,0 115.692103000000,32.487519000000,0 115.701225000000,32.495321000000,0 115.719344000000,32.485644000000,0 115.741992000000,32.476371000000,0 115.760237000000,32.481996000000,0 115.771498000000,32.505301000000,0 115.785654000000,32.489393000000,0 115.787415000000,32.480121000000,0 115.781313000000,32.468466000000,0 115.788736000000,32.468922000000,0 115.804150000000,32.485441000000,0 115.823841000000,32.502262000000,0 115.841457000000,32.501198000000,0 115.839947000000,32.524803000000,0 115.845986000000,32.531640000000,0 115.861400000000,32.537413000000,0 115.887571000000,32.567640000000,0 115.891535000000,32.576245000000,0 115.911856000000,32.577561000000,0 115.929282000000,32.567235000000,0 115.910220000000,32.566982000000,0 115.899399000000,32.556198000000,0 115.875870000000,32.542477000000,0 115.873039000000,32.525816000000,0 115.856996000000,32.517965000000,0 115.847370000000,32.509557000000,0 115.845735000000,32.501806000000,0 115.853033000000,32.504440000000,0 115.873165000000,32.504694000000,0 115.874486000000,32.497804000000,0 115.883545000000,32.489241000000,0 115.881280000000,32.472469000000,0 115.873479000000,32.470594000000,0 115.864231000000,32.458937000000,0 115.882727000000,32.456099000000,0 115.883356000000,32.438814000000,0 115.879330000000,32.432324000000,0 115.889396000000,32.424263000000,0 115.889270000000,32.413462000000,0 115.899084000000,32.390792000000,0 115.897889000000,32.373596000000,0 115.899210000000,32.344978000000,0 115.904558000000,32.341020000000,0 115.906948000000,32.311580000000,0 115.900280000000,32.301426000000,0 115.908270000000,32.299243000000,0 115.911038000000,32.284161000000,0 115.921481000000,32.268519000000,0 115.914687000000,32.254855000000,0 115.912736000000,32.227623000000,0 115.922865000000,32.203636000000,0 115.923369000000,32.191691000000,0 115.933686000000,32.180456000000,0 115.941550000000,32.166423000000,0 115.937901000000,32.151777000000,0 115.939160000000,32.138961000000,0 115.926577000000,32.105283000000,0 115.932491000000,32.084266000000,0 115.942557000000,32.077650000000,0 115.939600000000,32.065841000000,0 115.925382000000,32.057543000000,0 115.922236000000,32.049652000000,0 115.927709000000,32.036311000000,0 115.919531000000,32.027858000000,0 115.927835000000,32.023580000000,0 115.931107000000,31.994496000000,0 115.924564000000,31.995617000000,0 115.923180000000,31.985479000000,0 115.911352000000,31.958013000000,0 115.909025000000,31.943232000000,0 115.916134000000,31.935994000000,0 115.920160000000,31.920445000000,0 115.910597000000,31.894949000000,0 115.898329000000,31.880260000000,0 115.895687000000,31.867507000000,0 115.892982000000,31.833270000000,0 115.904054000000,31.829392000000,0 115.913114000000,31.820103000000,0 115.915001000000,31.811885000000,0 115.910220000000,31.792333000000,0 115.900783000000,31.792026000000,0 115.885244000000,31.776096000000,0 115.858317000000,31.773695000000,0 115.850264000000,31.786767000000,0 115.837493000000,31.773593000000,0 115.831013000000,31.777576000000,0 115.815348000000,31.762358000000,0 115.808428000000,31.772572000000,0 115.793769000000,31.773593000000,0 115.787226000000,31.780436000000,0 115.767912000000,31.787840000000,0 115.762691000000,31.782325000000,0 115.741992000000,31.782121000000,0 115.734254000000,31.776044000000,0 115.736456000000,31.763277000000,0 115.719407000000,31.765780000000,0 115.710851000000,31.770887000000,0 115.697136000000,31.768640000000,0 115.689775000000,31.776555000000,0 115.676564000000,31.778393000000,0 115.659640000000,31.760213000000,0 115.637243000000,31.755616000000,0 115.619125000000,31.738351000000,0 115.601446000000,31.731659000000,0 115.586977000000,31.721696000000,0 115.582636000000,31.713929000000,0 115.564894000000,31.709023000000,0 115.553507000000,31.695276000000,0 115.531865000000,31.698547000000,0 115.515068000000,31.682855000000,0 115.495376000000,31.672938000000,0 115.486128000000,31.661180000000,0 115.484241000000,31.649061000000,0 115.477132000000,31.645431000000,0 115.490658000000,31.623593000000,0 115.486569000000,31.610089000000,0 115.475370000000,31.606712000000,0 115.440013000000,31.588703000000,0 115.438881000000,31.579953000000,0 115.428249000000,31.563371000000,0 115.431583000000,31.559021000000,0 115.428563000000,31.547196000000,0 115.415918000000,31.525950000000,0 115.398366000000,31.516067000000,0 115.389621000000,31.507566000000,0 115.377164000000,31.502957000000,0 115.371565000000,31.495838000000,0 115.377667000000,31.470532000000,0 115.389809000000,31.450293000000,0 115.385657000000,31.443324000000,0 115.383392000000,31.418671000000,0 115.373641000000,31.405752000000,0 115.355271000000,31.399958000000,0 115.335957000000,31.403394000000,0 115.327212000000,31.391139000000,0 115.313560000000,31.383448000000,0 115.301103000000,31.384063000000,0 115.294057000000,31.395036000000,0 115.281349000000,31.399856000000,0 115.260399000000,31.387396000000,0 115.250459000000,31.391755000000,0 115.260273000000,31.412160000000,0 115.252598000000,31.421695000000,0 115.232969000000,31.427077000000,0 115.220512000000,31.426718000000,0 115.210509000000,31.445476000000,0 115.217052000000,31.462898000000,0 115.216926000000,31.481598000000,0 115.212334000000,31.490101000000,0 115.219506000000,31.506901000000,0 115.218248000000,31.515299000000,0 115.230578000000,31.538238000000,0 115.235611000000,31.556206000000,0 115.212586000000,31.555540000000,0 115.207238000000,31.564241000000,0 115.192957000000,31.564037000000,0 115.192831000000,31.569564000000,0 115.180374000000,31.577752000000,0 115.176851000000,31.598834000000,0 115.164395000000,31.604564000000,0 115.134826000000,31.602415000000,0 115.125389000000,31.599089000000,0 115.127276000000,31.579083000000,0 115.106767000000,31.567466000000,0 115.103055000000,31.555745000000,0 115.110479000000,31.550780000000,0 115.105949000000,31.540029000000,0 115.113373000000,31.528971000000,0 115.102112000000,31.520573000000,0 115.092801000000,31.519088000000,0 115.096198000000,31.508437000000,0 115.066314000000,31.510537000000,0 115.048951000000,31.517552000000,0 115.038444000000,31.517040000000,0 115.030329000000,31.527691000000,0 115.023094000000,31.527588000000,0 115.010008000000,31.504903000000,0 115.001704000000,31.499987000000,0 115.010826000000,31.488206000000,0 115.002018000000,31.485286000000,0 114.998306000000,31.471608000000,0 114.985346000000,31.477705000000,0 114.976098000000,31.495889000000,0 114.964019000000,31.495377000000,0 114.939924000000,31.477141000000,0 114.936464000000,31.469764000000,0 114.925265000000,31.480471000000,0 114.896388000000,31.474375000000,0 114.886700000000,31.469457000000,0 114.876760000000,31.470584000000,0 114.875313000000,31.478268000000,0 114.850651000000,31.476168000000,0 114.841529000000,31.461976000000,0 114.829827000000,31.458902000000,0 114.824165000000,31.469969000000,0 114.813030000000,31.478832000000,0 114.789438000000,31.480522000000,0 114.783020000000,31.484620000000,0 114.783083000000,31.494814000000,0 114.774653000000,31.500909000000,0 114.774024000000,31.512431000000,0 114.778868000000,31.520727000000,0 114.771004000000,31.520522000000,0 114.757038000000,31.527230000000,0 114.747223000000,31.524004000000,0 114.739485000000,31.527179000000,0 114.723317000000,31.520625000000,0 114.717214000000,31.527947000000,0 114.696579000000,31.525847000000,0 114.699850000000,31.546121000000,0 114.678523000000,31.544023000000,0 114.670093000000,31.547043000000,0 114.656944000000,31.562859000000,0 114.653044000000,31.572686000000,0 114.644425000000,31.574682000000,0 114.641719000000,31.582153000000,0 114.616743000000,31.585326000000,0 114.612025000000,31.578469000000,0 114.595605000000,31.576319000000,0 114.587363000000,31.560607000000,0 114.574970000000,31.559533000000,0 114.572453000000,31.554056000000,0 114.561066000000,31.560966000000,0 114.548924000000,31.609782000000,0 114.548295000000,31.625127000000,0 114.552950000000,31.635203000000,0 114.549679000000,31.642465000000,0 114.559179000000,31.656067000000,0 114.570817000000,31.660106000000,0 114.574215000000,31.689142000000,0 114.586168000000,31.692567000000,0 114.591390000000,31.700335000000,0 114.579122000000,31.708154000000,0 114.579751000000,31.724659000000,0 114.584092000000,31.731863000000,0 114.581575000000,31.742540000000,0 114.587615000000,31.754033000000,0 114.582519000000,31.764758000000,0 114.572768000000,31.762562000000,0 114.554963000000,31.768538000000,0 114.549490000000,31.765422000000,0 114.550308000000,31.753165000000,0 114.545275000000,31.746167000000,0 114.530679000000,31.742897000000,0 114.521305000000,31.766903000000,0 114.509667000000,31.766852000000,0 114.504319000000,31.756433000000,0 114.508660000000,31.740701000000,0 114.488843000000,31.735694000000,0 114.471982000000,31.740956000000,0 114.461350000000,31.733242000000,0 114.450844000000,31.737636000000,0 114.446566000000,31.728031000000,0 114.430900000000,31.734928000000,0 114.419136000000,31.733140000000,0 114.416305000000,31.742080000000,0 114.399822000000,31.746933000000,0 114.390007000000,31.741007000000,0 114.373839000000,31.744277000000,0 114.350373000000,31.755412000000,0 114.321496000000,31.755106000000,0 114.313946000000,31.751990000000,0 114.292808000000,31.752296000000,0 114.287523000000,31.762052000000,0 114.264372000000,31.788503000000,0 114.262044000000,31.796315000000,0 114.248518000000,31.810507000000,0 114.235432000000,31.833372000000,0 114.236439000000,31.841895000000,0 114.221277000000,31.832403000000,0 114.208883000000,31.842762000000,0 114.194979000000,31.850161000000,0 114.180258000000,31.854039000000,0 114.166983000000,31.851028000000,0 114.162768000000,31.841078000000,0 114.150060000000,31.839241000000,0 114.134080000000,31.842813000000,0 114.127160000000,31.835363000000,0 114.127915000000,31.826330000000,0 114.119233000000,31.805759000000,0 114.099164000000,31.803411000000,0 114.089853000000,31.794834000000,0 114.086644000000,31.782223000000,0 114.072300000000,31.784878000000,0 114.063744000000,31.781917000000,0 114.059089000000,31.772266000000,0 114.048079000000,31.773389000000,0 114.038328000000,31.768844000000,0 114.015805000000,31.770274000000,0 113.988753000000,31.750202000000,0 113.978939000000,31.753778000000,0 113.972459000000,31.763124000000,0 113.972333000000,31.771653000000,0 113.965350000000,31.785644000000,0 113.952578000000,31.793864000000,0 113.953019000000,31.813518000000,0 113.946979000000,31.826483000000,0 113.956416000000,31.840262000000,0 113.954906000000,31.856334000000,0 113.933516000000,31.869395000000,0 113.931440000000,31.880974000000,0 113.914957000000,31.876995000000,0 113.906589000000,31.868528000000,0 113.896398000000,31.849344000000,0 113.872931000000,31.840670000000,0 113.867206000000,31.845058000000,0 113.858902000000,31.841078000000,0 113.838644000000,31.854702000000,0 113.838204000000,31.868681000000,0 113.831221000000,31.878985000000,0 113.835310000000,31.892858000000,0 113.835876000000,31.910961000000,0 113.832479000000,31.918660000000,0 113.816310000000,31.923249000000,0 113.805112000000,31.931508000000,0 113.807314000000,31.948890000000,0 113.816247000000,31.966880000000,0 113.798506000000,31.974116000000,0 113.788189000000,31.974014000000,0 113.776109000000,31.980434000000,0 113.768623000000,31.979466000000,0 113.759438000000,31.986447000000,0 113.758934000000,32.000915000000,0 113.769881000000,32.017010000000,0 113.779255000000,32.018895000000,0 113.791271000000,32.036006000000,0 113.781331000000,32.048786000000,0 113.763779000000,32.054743000000,0 113.747421000000,32.069760000000,0 113.744905000000,32.076784000000,0 113.728485000000,32.083197000000,0 113.728359000000,32.099380000000,0 113.722445000000,32.124260000000,0 113.736978000000,32.121564000000,0 113.739872000000,32.113067000000,0 113.750315000000,32.116324000000,0 113.766169000000,32.138350000000,0 113.763716000000,32.161694000000,0 113.783344000000,32.189657000000,0 113.777934000000,32.207956000000,0 113.764659000000,32.204195000000,0 113.752643000000,32.216189000000,0 113.748365000000,32.234788000000,0 113.740438000000,32.242815000000,0 113.739369000000,32.257598000000,0 113.749812000000,32.260291000000,0 113.749057000000,32.272684000000,0 113.743898000000,32.283603000000,0 113.748491000000,32.291931000000,0 113.769063000000,32.301324000000,0 113.773907000000,32.306147000000,0 113.765100000000,32.319448000000,0 113.753838000000,32.328230000000,0</coordinates></LinearRing></outerBoundaryIs><innerBoundaryIs><LinearRing><coordinates>113.758494000000,32.291931000000,0 113.754027000000,32.288275000000,0 113.758305000000,32.276747000000,0 113.769944000000,32.275985000000,0 113.768182000000,32.284060000000,0 113.758494000000,32.291931000000,0</coordinates></LinearRing></innerBoundaryIs></Polygon>
    </Placemark>
  </Document>
</kml>
