<?xml version="1.0" encoding="UTF-8"?>
<kml xmlns="http://www.opengis.net/kml/2.2">
  <Document>
    <name>安阳市</name>
    <Placemark>
      <name>安阳市</name>
      <Polygon><outerBoundaryIs><LinearRing><coordinates>114.419073000000,35.474181000000,0 114.428573000000,35.468947000000,0 114.429139000000,35.449523000000,0 114.412027000000,35.435820000000,0 114.405043000000,35.426325000000,0 114.407686000000,35.418004000000,0 114.415172000000,35.413255000000,0 114.423666000000,35.380155000000,0 114.413474000000,35.370163000000,0 114.411083000000,35.358064000000,0 114.429076000000,35.342876000000,0 114.423414000000,35.324842000000,0 114.404226000000,35.326313000000,0 114.403659000000,35.316805000000,0 114.412782000000,35.313521000000,0 114.416493000000,35.302785000000,0 114.408189000000,35.292490000000,0 114.395732000000,35.293078000000,0 114.407497000000,35.269738000000,0 114.395481000000,35.264490000000,0 114.391266000000,35.258114000000,0 114.396299000000,35.241828000000,0 114.407497000000,35.236627000000,0 114.392146000000,35.226912000000,0 114.394348000000,35.219797000000,0 114.399696000000,35.225097000000,0 114.415298000000,35.228188000000,0 114.431404000000,35.222055000000,0 114.431781000000,35.208755000000,0 114.442602000000,35.205958000000,0 114.449900000000,35.214448000000,0 114.465376000000,35.216706000000,0 114.487836000000,35.206645000000,0 114.494756000000,35.220141000000,0 114.504130000000,35.228286000000,0 114.527093000000,35.235646000000,0 114.541437000000,35.242809000000,0 114.549364000000,35.261891000000,0 114.562198000000,35.276064000000,0 114.596800000000,35.286116000000,0 114.607495000000,35.292686000000,0 114.627313000000,35.298275000000,0 114.642915000000,35.297148000000,0 114.663173000000,35.291559000000,0 114.679907000000,35.291166000000,0 114.688715000000,35.295138000000,0 114.698341000000,35.306756000000,0 114.701675000000,35.329008000000,0 114.697397000000,35.337486000000,0 114.718598000000,35.343611000000,0 114.737220000000,35.344689000000,0 114.754521000000,35.341308000000,0 114.761630000000,35.345228000000,0 114.783964000000,35.343023000000,0 114.808877000000,35.346942000000,0 114.809632000000,35.354242000000,0 114.856942000000,35.387794000000,0 114.879339000000,35.387452000000,0 114.898087000000,35.390781000000,0 114.951248000000,35.380791000000,0 114.967605000000,35.399204000000,0 114.985787000000,35.414332000000,0 114.981509000000,35.434107000000,0 114.963830000000,35.440665000000,0 114.961880000000,35.446146000000,0 114.967668000000,35.456716000000,0 114.970751000000,35.480785000000,0 114.947347000000,35.478144000000,0 114.939420000000,35.481225000000,0 114.940616000000,35.491448000000,0 114.953324000000,35.501815000000,0 114.964334000000,35.504749000000,0 114.969492000000,35.518000000000,0 114.968423000000,35.537554000000,0 114.962006000000,35.571421000000,0 114.952884000000,35.581094000000,0 114.908530000000,35.585979000000,0 114.884813000000,35.599852000000,0 114.883051000000,35.616065000000,0 114.874432000000,35.623878000000,0 114.875502000000,35.628907000000,0 114.890034000000,35.646823000000,0 114.905888000000,35.649606000000,0 114.911047000000,35.660685000000,0 114.919226000000,35.664785000000,0 114.918408000000,35.687962000000,0 114.910544000000,35.700939000000,0 114.915514000000,35.706743000000,0 114.907776000000,35.722594000000,0 114.889594000000,35.738978000000,0 114.887832000000,35.753506000000,0 114.893746000000,35.764132000000,0 114.908405000000,35.765741000000,0 114.921365000000,35.780118000000,0 114.943573000000,35.799754000000,0 114.948669000000,35.819629000000,0 114.945460000000,35.825230000000,0 114.934010000000,35.828055000000,0 114.933003000000,35.845050000000,0 114.935646000000,35.853814000000,0 114.953009000000,35.857660000000,0 114.959112000000,35.862723000000,0 114.969996000000,35.881366000000,0 114.970814000000,35.890223000000,0 114.977860000000,35.904723000000,0 114.972324000000,35.923259000000,0 114.980250000000,35.949814000000,0 114.988366000000,35.964741000000,0 114.983333000000,35.982922000000,0 114.986164000000,35.991865000000,0 114.980376000000,36.003334000000,0 114.974274000000,35.999009000000,0 114.974211000000,36.012226000000,0 114.983396000000,36.019417000000,0 114.983962000000,36.025830000000,0 114.968926000000,36.032971000000,0 114.942440000000,36.038120000000,0 114.920798000000,36.048319000000,0 114.914696000000,36.052010000000,0 114.926460000000,36.089444000000,0 114.922057000000,36.103132000000,0 114.913249000000,36.107645000000,0 114.907083000000,36.119971000000,0 114.912431000000,36.140444000000,0 114.893432000000,36.140056000000,0 114.892110000000,36.143792000000,0 114.868518000000,36.146653000000,0 114.858641000000,36.144325000000,0 114.857509000000,36.127734000000,0 114.841655000000,36.131712000000,0 114.831589000000,36.130354000000,0 114.825172000000,36.123707000000,0 114.802775000000,36.130936000000,0 114.790885000000,36.130014000000,0 114.778617000000,36.133168000000,0 114.777987000000,36.128025000000,0 114.764210000000,36.125551000000,0 114.762889000000,36.134914000000,0 114.751564000000,36.138698000000,0 114.751564000000,36.146605000000,0 114.734389000000,36.155772000000,0 114.720674000000,36.140056000000,0 114.711678000000,36.145441000000,0 114.692364000000,36.146217000000,0 114.691106000000,36.138407000000,0 114.655183000000,36.140250000000,0 114.637190000000,36.135642000000,0 114.630395000000,36.124241000000,0 114.619449000000,36.123513000000,0 114.610830000000,36.128316000000,0 114.604664000000,36.121426000000,0 114.582582000000,36.121329000000,0 114.586860000000,36.140930000000,0 114.575473000000,36.143258000000,0 114.568049000000,36.152328000000,0 114.558046000000,36.150776000000,0 114.543639000000,36.161786000000,0 114.531686000000,36.161931000000,0 114.532881000000,36.171533000000,0 114.504948000000,36.172406000000,0 114.505577000000,36.177497000000,0 114.489598000000,36.178467000000,0 114.483873000000,36.183848000000,0 114.480287000000,36.177788000000,0 114.466194000000,36.197713000000,0 114.452291000000,36.202367000000,0 114.431152000000,36.202609000000,0 114.417500000000,36.205905000000,0 114.408441000000,36.224563000000,0 114.392335000000,36.221123000000,0 114.367548000000,36.225533000000,0 114.356098000000,36.230330000000,0 114.353833000000,36.242636000000,0 114.346787000000,36.245494000000,0 114.345151000000,36.255812000000,0 114.329234000000,36.255909000000,0 114.328353000000,36.248159000000,0 114.312814000000,36.251646000000,0 114.309983000000,36.246754000000,0 114.298973000000,36.245930000000,0 114.273871000000,36.254747000000,0 114.256445000000,36.263998000000,0 114.241031000000,36.251356000000,0 114.235558000000,36.252761000000,0 114.223730000000,36.270875000000,0 114.210645000000,36.272764000000,0 114.203095000000,36.245736000000,0 114.185165000000,36.248449000000,0 114.181139000000,36.243314000000,0 114.168871000000,36.243411000000,0 114.176672000000,36.263126000000,0 114.164844000000,36.269567000000,0 114.162831000000,36.265160000000,0 114.131438000000,36.281674000000,0 114.121435000000,36.272715000000,0 114.097528000000,36.275233000000,0 114.092621000000,36.277800000000,0 114.085386000000,36.270100000000,0 114.060536000000,36.276493000000,0 114.058271000000,36.285354000000,0 114.042606000000,36.297313000000,0 114.047953000000,36.310334000000,0 114.061542000000,36.317982000000,0 114.055692000000,36.329984000000,0 114.045185000000,36.325919000000,0 114.029017000000,36.326548000000,0 114.025997000000,36.330516000000,0 114.032540000000,36.339904000000,0 114.030841000000,36.350742000000,0 114.024676000000,36.354854000000,0 114.015176000000,36.352967000000,0 114.008507000000,36.342517000000,0 113.985859000000,36.357563000000,0 113.977932000000,36.358579000000,0 113.979819000000,36.344113000000,0 113.994478000000,36.344210000000,0 113.994352000000,36.337049000000,0 114.001964000000,36.331339000000,0 113.991647000000,36.326839000000,0 113.993849000000,36.314594000000,0 113.982210000000,36.317692000000,0 113.977869000000,36.329258000000,0 113.968495000000,36.339710000000,0 113.964217000000,36.352580000000,0 113.953207000000,36.358192000000,0 113.946727000000,36.354805000000,0 113.948804000000,36.346097000000,0 113.960317000000,36.344742000000,0 113.956101000000,36.335597000000,0 113.934460000000,36.336130000000,0 113.931629000000,36.319482000000,0 113.911182000000,36.314788000000,0 113.901116000000,36.337001000000,0 113.881487000000,36.353886000000,0 113.853617000000,36.350113000000,0 113.849339000000,36.346823000000,0 113.853995000000,36.329742000000,0 113.834177000000,36.334339000000,0 113.818261000000,36.331146000000,0 113.801274000000,36.338355000000,0 113.796808000000,36.347548000000,0 113.777431000000,36.349822000000,0 113.778626000000,36.359788000000,0 113.763401000000,36.356015000000,0 113.755160000000,36.365931000000,0 113.742200000000,36.364432000000,0 113.743269000000,36.357563000000,0 113.733140000000,36.357079000000,0 113.731442000000,36.363367000000,0 113.728736000000,36.341452000000,0 113.736412000000,36.324709000000,0 113.723326000000,36.304865000000,0 113.709045000000,36.299733000000,0 113.716217000000,36.262593000000,0 113.709108000000,36.261528000000,0 113.700552000000,36.252276000000,0 113.703886000000,36.237840000000,0 113.695204000000,36.228779000000,0 113.677274000000,36.222528000000,0 113.672178000000,36.211963000000,0 113.682055000000,36.216277000000,0 113.698476000000,36.214290000000,0 113.705396000000,36.200670000000,0 113.691492000000,36.201930000000,0 113.686334000000,36.195483000000,0 113.697909000000,36.181861000000,0 113.672304000000,36.175606000000,0 113.664503000000,36.177449000000,0 113.651669000000,36.172212000000,0 113.659973000000,36.164162000000,0 113.679287000000,36.159943000000,0 113.681363000000,36.150728000000,0 113.695582000000,36.153201000000,0 113.706843000000,36.147381000000,0 113.702628000000,36.143209000000,0 113.705648000000,36.134138000000,0 113.713763000000,36.132974000000,0 113.693191000000,36.124192000000,0 113.673499000000,36.125357000000,0 113.668529000000,36.129675000000,0 113.655507000000,36.125114000000,0 113.673814000000,36.111625000000,0 113.669284000000,36.104005000000,0 113.679539000000,36.094007000000,0 113.684069000000,36.078328000000,0 113.682370000000,36.066821000000,0 113.685767000000,36.055992000000,0 113.668655000000,36.049096000000,0 113.661420000000,36.042880000000,0 113.660414000000,36.034671000000,0 113.670165000000,36.029522000000,0 113.695141000000,36.026753000000,0 113.695204000000,36.018202000000,0 113.680734000000,36.014801000000,0 113.695896000000,35.999884000000,0 113.686459000000,35.986421000000,0 113.678784000000,35.985790000000,0 113.648901000000,35.994149000000,0 113.637828000000,35.988463000000,0 113.636884000000,35.975874000000,0 113.647831000000,35.967123000000,0 113.653997000000,35.931430000000,0 113.654437000000,35.917227000000,0 113.648712000000,35.908518000000,0 113.637388000000,35.869928000000,0 113.644056000000,35.854885000000,0 113.658212000000,35.853911000000,0 113.661043000000,35.837259000000,0 113.700552000000,35.837308000000,0 113.709108000000,35.833655000000,0 113.705962000000,35.826594000000,0 113.711813000000,35.818070000000,0 113.726786000000,35.823185000000,0 113.731819000000,35.818752000000,0 113.742892000000,35.819093000000,0 113.756229000000,35.793713000000,0 113.751888000000,35.788304000000,0 113.757865000000,35.782798000000,0 113.759752000000,35.767398000000,0 113.778563000000,35.763206000000,0 113.776613000000,35.759404000000,0 113.800205000000,35.740782000000,0 113.808006000000,35.742488000000,0 113.801652000000,35.733517000000,0 113.799953000000,35.713572000000,0 113.794228000000,35.695329000000,0 113.777556000000,35.684644000000,0 113.785546000000,35.674447000000,0 113.806244000000,35.672983000000,0 113.811529000000,35.676838000000,0 113.843677000000,35.677814000000,0 113.859216000000,35.682351000000,0 113.868402000000,35.680741000000,0 113.886332000000,35.684401000000,0 113.901619000000,35.677423000000,0 113.923072000000,35.681815000000,0 113.927476000000,35.686011000000,0 113.931691000000,35.703963000000,0 113.949055000000,35.700890000000,0 113.956227000000,35.691426000000,0 113.969565000000,35.689572000000,0 113.985230000000,35.700743000000,0 113.995988000000,35.704792000000,0 113.998316000000,35.719814000000,0 114.002468000000,35.724788000000,0 114.017567000000,35.725910000000,0 114.032854000000,35.737028000000,0 114.042983000000,35.748095000000,0 114.055377000000,35.749216000000,0 114.067267000000,35.759112000000,0 114.066575000000,35.775391000000,0 114.071357000000,35.779679000000,0 114.078151000000,35.803018000000,0 114.069155000000,35.805259000000,0 114.051414000000,35.797513000000,0 114.037132000000,35.803310000000,0 114.025179000000,35.797074000000,0 114.022537000000,35.804285000000,0 114.035685000000,35.818411000000,0 114.035937000000,35.824548000000,0 114.025619000000,35.829419000000,0 114.014987000000,35.845001000000,0 114.013981000000,35.852548000000,0 114.019957000000,35.858634000000,0 114.038642000000,35.859461000000,0 114.056698000000,35.870268000000,0 114.070287000000,35.873189000000,0 114.075131000000,35.880928000000,0 114.074880000000,35.904383000000,0 114.081611000000,35.915086000000,0 114.052735000000,35.931090000000,0 114.040467000000,35.935662000000,0 114.038768000000,35.944319000000,0 114.028828000000,35.950494000000,0 114.030464000000,35.971790000000,0 114.044619000000,35.972276000000,0 114.065506000000,35.964109000000,0 114.073055000000,35.974512000000,0 114.084002000000,35.974415000000,0 114.094571000000,35.981075000000,0 114.108035000000,35.981852000000,0 114.103505000000,35.995267000000,0 114.111306000000,36.017085000000,0 114.121687000000,36.027044000000,0 114.135716000000,36.031562000000,0 114.158931000000,36.047299000000,0 114.175225000000,36.052107000000,0 114.179251000000,36.039431000000,0 114.174847000000,36.031319000000,0 114.178245000000,36.013198000000,0 114.169877000000,36.000856000000,0 114.174847000000,35.988803000000,0 114.181768000000,35.982873000000,0 114.191771000000,35.981415000000,0 114.197559000000,35.990115000000,0 114.205045000000,35.988657000000,0 114.218005000000,35.997648000000,0 114.223604000000,35.981707000000,0 114.251412000000,35.971936000000,0 114.279974000000,35.972811000000,0 114.279974000000,35.947382000000,0 114.296897000000,35.957885000000,0 114.309291000000,35.952731000000,0 114.293626000000,35.938288000000,0 114.303000000000,35.930604000000,0 114.295576000000,35.924621000000,0 114.290166000000,35.928853000000,0 114.277206000000,35.924475000000,0 114.270789000000,35.899858000000,0 114.280855000000,35.892315000000,0 114.274626000000,35.882242000000,0 114.250908000000,35.876791000000,0 114.244303000000,35.871875000000,0 114.243044000000,35.863259000000,0 114.234425000000,35.855956000000,0 114.229204000000,35.841057000000,0 114.237005000000,35.809156000000,0 114.241786000000,35.806526000000,0 114.243170000000,35.793079000000,0 114.250845000000,35.793566000000,0 114.263365000000,35.774416000000,0 114.255690000000,35.774416000000,0 114.255249000000,35.767349000000,0 114.270411000000,35.760720000000,0 114.284315000000,35.783285000000,0 114.294632000000,35.794346000000,0 114.328353000000,35.802141000000,0 114.350373000000,35.816025000000,0 114.364717000000,35.818947000000,0 114.396802000000,35.816804000000,0 114.408441000000,35.820749000000,0 114.438450000000,35.817437000000,0 114.445811000000,35.819191000000,0 114.451347000000,35.828737000000,0 114.470850000000,35.827471000000,0 114.478273000000,35.834824000000,0 114.509478000000,35.836723000000,0 114.552950000000,35.828201000000,0 114.566476000000,35.843735000000,0 114.570440000000,35.835993000000,0 114.587552000000,35.840083000000,0 114.597618000000,35.825181000000,0 114.611647000000,35.822210000000,0 114.613849000000,35.808085000000,0 114.636561000000,35.794054000000,0 114.658706000000,35.791471000000,0 114.675252000000,35.782067000000,0 114.695572000000,35.787330000000,0 114.709224000000,35.787427000000,0 114.719857000000,35.778363000000,0 114.751439000000,35.763352000000,0 114.753389000000,35.753018000000,0 114.751439000000,35.737661000000,0 114.735648000000,35.708645000000,0 114.727029000000,35.697865000000,0 114.707903000000,35.694304000000,0 114.705638000000,35.689523000000,0 114.687897000000,35.684157000000,0 114.677454000000,35.671031000000,0 114.672924000000,35.653950000000,0 114.660719000000,35.651119000000,0 114.645243000000,35.654828000000,0 114.618694000000,35.647458000000,0 114.615611000000,35.636572000000,0 114.591704000000,35.629054000000,0 114.576857000000,35.616798000000,0 114.558361000000,35.613477000000,0 114.549301000000,35.614796000000,0 114.543450000000,35.602635000000,0 114.502558000000,35.609277000000,0 114.495008000000,35.600047000000,0 114.500167000000,35.593404000000,0 114.497587000000,35.584123000000,0 114.482677000000,35.584416000000,0 114.486137000000,35.573033000000,0 114.476071000000,35.565215000000,0 114.455499000000,35.557641000000,0 114.426182000000,35.544250000000,0 114.416871000000,35.533839000000,0 114.402275000000,35.526018000000,0 114.395040000000,35.508857000000,0 114.409259000000,35.489149000000,0 114.420394000000,35.483769000000,0 114.419073000000,35.474181000000,0</coordinates></LinearRing></outerBoundaryIs></Polygon>
    </Placemark>
  </Document>
</kml>
