<?xml version="1.0" encoding="UTF-8"?>
<kml xmlns="http://www.opengis.net/kml/2.2">
<Document>
<name>开封市</name>
<Placemark><name>开封市</name><MultiGeometry><Polygon><outerBoundaryIs><LinearRing><coordinates>113.885451000000003,34.327784999999999,0 113.894572999999994,34.323766999999997,0 113.899229000000005,34.315879000000002,0 113.896083000000004,34.303375000000003,0 113.904702,34.294542999999997,0 113.916278000000005,34.301687999999999,0 113.934270999999995,34.304864000000002,0 113.937353999999999,34.298611999999999,0 113.964405999999997,34.292954000000002,0 113.96472,34.283127999999998,0 113.972459000000001,34.283425999999999,0 113.977303000000006,34.275582999999997,0 113.992904999999993,34.273350000000001,0 113.990577000000002,34.261138000000003,0 114.000265999999996,34.263471000000003,0 114.003159999999994,34.252549000000002,0 114.011274999999998,34.242021999999999,0 114.041032999999999,34.237850999999999,0 114.050847000000005,34.247137000000002,0 114.058836999999997,34.244753000000003,0 114.068589000000003,34.250264999999999,0 114.076453000000001,34.239638999999997,0 114.081925999999996,34.249519999999997,0 114.098661000000007,34.241923,0 114.108159999999998,34.228813000000002,0 114.102058,34.224342999999998,0 114.108474999999999,34.218929000000003,0 114.109544,34.206958,0 114.122882000000004,34.204175999999997,0 114.129299000000003,34.198214,0 114.155344999999997,34.202038999999999,0 114.160503000000006,34.213563999999998,0 114.198313999999996,34.217737,0 114.202905999999999,34.234622999999999,0 114.210267000000002,34.241228,0 114.246442000000002,34.240433000000003,0 114.259905000000003,34.251854000000002,0 114.267516999999998,34.256968000000001,0 114.274625999999998,34.274889000000002,0 114.287901000000005,34.276527000000002,0 114.301175000000001,34.267740000000003,0 114.328856999999999,34.267294,0 114.344206999999997,34.251804,0 114.356412000000006,34.247185999999999,0 114.385728999999998,34.243859999999998,0 114.405798000000004,34.248030999999997,0 114.417688999999996,34.265307999999997,0 114.434927000000002,34.267144999999999,0 114.440652,34.270719,0 114.455687999999995,34.294096000000003,0 114.442538999999996,34.300696000000002,0 114.430649000000003,34.302284,0 114.424546000000007,34.309032000000002,0 114.434486000000007,34.313893999999998,0 114.436059,34.330264999999997,0 114.427691999999993,34.333837000000003,0 114.439897000000002,34.336365999999998,0 114.438575999999998,34.328032999999998,0 114.452856999999995,34.319997000000001,0 114.461789999999993,34.319946999999999,0 114.462041999999997,34.330165999999998,0 114.479343,34.329619999999998,0 114.485949000000005,34.325057000000001,0 114.493876,34.311909999999997,0 114.509855000000002,34.309727000000002,0 114.519355000000004,34.313448000000001,0 114.524703000000002,34.306252999999998,0 114.528603000000004,34.282234000000003,0 114.551629000000005,34.284964000000002,0 114.551188999999994,34.272058999999999,0 114.556662000000003,34.267989,0 114.589879999999994,34.273747,0 114.602085000000002,34.271017000000001,0 114.611458999999996,34.261088000000001,0 114.634044000000003,34.261882999999997,0 114.647318999999996,34.250315000000001,0 114.667513999999997,34.250264999999999,0 114.679340999999994,34.244306999999999,0 114.702241000000001,34.244504999999997,0 114.713880000000003,34.241326999999998,0 114.723945999999998,34.228017999999999,0 114.730425999999994,34.225237,0 114.752696999999998,34.233629999999998,0 114.758735999999999,34.238396999999999,0 114.764650000000003,34.254435999999998,0 114.781195999999994,34.255626999999997,0 114.788241999999997,34.261138000000003,0 114.812777999999994,34.259003,0 114.831400000000002,34.268138,0 114.832847000000001,34.281936999999999,0 114.845491999999993,34.280695999999999,0 114.867762999999997,34.271065999999998,0 114.896513999999996,34.265804000000003,0 114.901988000000003,34.284567000000003,0 114.882673999999994,34.301192,0 114.870783000000003,34.305607999999999,0 114.862352999999999,34.329174000000002,0 114.855558000000002,34.33473,0 114.861723999999995,34.367013999999998,0 114.879024999999999,34.370683,0 114.888461000000007,34.383771000000003,0 114.875061000000002,34.390611999999997,0 114.874431999999999,34.396411000000001,0 114.851658,34.399534000000003,0 114.848574999999997,34.409942000000001,0 114.854614999999995,34.410933,0 114.852412999999999,34.428870000000003,0 114.864806000000002,34.433726,0 114.856502000000006,34.436599000000001,0 114.858892999999995,34.451906000000001,0 114.865623999999997,34.462902,0 114.872355999999996,34.454084999999999,0 114.880786000000001,34.450519,0 114.886322000000007,34.461317000000001,0 114.896450999999999,34.461019999999998,0 114.904000999999994,34.467606000000004,0 114.912305000000003,34.483601,0 114.918595999999994,34.484938,0 114.922370999999998,34.498206000000003,0 114.909599999999998,34.495137,0 114.917653000000001,34.511571000000004,0 114.913752000000002,34.518154000000003,0 114.920672999999994,34.531416999999998,0 114.911109999999994,34.534782,0 114.917840999999996,34.541956999999996,0 114.915009999999995,34.548685999999996,0 114.906516999999994,34.547646999999998,0 114.907398000000001,34.573864999999998,0 114.904882000000001,34.586179000000001,0 114.897018000000003,34.602595999999998,0 114.901169999999993,34.613768999999998,0 114.898339000000007,34.631762000000002,0 114.901673000000002,34.645302999999998,0 114.893494000000004,34.652469000000004,0 114.896450999999999,34.661363000000001,0 114.905824999999993,34.666896000000001,0 114.926648999999998,34.668624999999999,0 114.935771000000003,34.672181999999999,0 114.936651999999995,34.681913999999999,0 114.931681999999995,34.686804000000002,0 114.907650000000004,34.697915999999999,0 114.891418000000002,34.698213000000003,0 114.867699999999999,34.688037999999999,0 114.858012000000002,34.692286000000003,0 114.855558000000002,34.710903999999999,0 114.840648000000002,34.715100999999997,0 114.858767,34.734256000000002,0 114.859333000000007,34.740327999999998,0 114.835678000000001,34.746893,0 114.828379999999996,34.755332000000003,0 114.829008999999999,34.764313999999999,0 114.835615000000004,34.767471999999998,0 114.866820000000004,34.769199,0 114.867385999999996,34.775514999999999,0 114.877578,34.775219,0 114.894374999999997,34.762833000000001,0 114.922873999999993,34.748423000000003,0 114.936841000000001,34.747041000000003,0 114.966913000000005,34.761105999999998,0 114.980502000000001,34.760908999999998,0 114.988365999999999,34.764560000000003,0 115.001012000000003,34.760662000000004,0 115.030328999999995,34.772455000000001,0 115.038884999999993,34.773985000000003,0 115.104124999999996,34.772357,0 115.119601000000003,34.788637999999999,0 115.140047999999993,34.793323999999998,0 115.154454999999999,34.781779999999998,0 115.163891000000007,34.783062999999999,0 115.175529999999995,34.790463000000003,0 115.178989999999999,34.800279000000003,0 115.198367000000005,34.795296999999998,0 115.202896999999993,34.805655999999999,0 115.248320000000007,34.798108999999997,0 115.253918999999996,34.805014,0 115.242658000000006,34.813496999999998,0 115.256561000000005,34.811869999999999,0 115.267256000000003,34.831249,0 115.256057999999996,34.845300999999999,0 115.243475000000004,34.850180999999999,0 115.239322999999999,34.874676999999998,0 115.240769999999998,34.883842000000001,0 115.249200000000002,34.894534,0 115.252156999999997,34.906604000000002,0 115.239322999999999,34.911825999999998,0 115.204972999999995,34.914239000000002,0 115.202708000000001,34.925617000000003,0 115.211768000000006,34.943345000000001,0 115.222148000000004,34.945560999999998,0 115.219127999999998,34.960625999999998,0 115.208245000000005,34.958311999999999,0 115.201639,34.950977000000002,0 115.175027,34.962496999999999,0 115.156908000000001,34.958016999999998,0 115.157223000000002,34.966976000000003,0 115.146528000000004,34.980117999999997,0 115.131176999999994,34.983612999999998,0 115.133002000000005,34.999654999999997,0 115.128094000000004,35.004379,0 115.106138000000001,35.000787000000003,0 115.074995999999999,35.000393000000003,0 115.051655999999994,34.985975000000003,0 115.037564000000003,34.981644000000003,0 115.024918,34.971848999999999,0 115.016047999999998,34.977361999999999,0 115.008121000000003,34.988484999999997,0 114.950869999999995,34.989812999999998,0 114.934764999999999,34.980708999999997,0 114.923817999999997,34.968747999999998,0 114.914004000000006,34.977902999999998,0 114.907964000000007,34.989370000000001,0 114.889657,34.993996000000003,0 114.880346000000003,35.003492999999999,0 114.884434999999996,35.021892999999999,0 114.869964999999993,35.024450999999999,0 114.859333000000007,35.002656000000002,0 114.827122000000003,35.010134999999998,0 114.824668000000003,35.012300000000003,0 114.815860999999998,35.014021999999997,0 114.800383999999994,35.006690999999996,0 114.765907999999996,34.977707000000002,0 114.756596999999999,34.975589999999997,0 114.741434999999996,34.960675000000002,0 114.741749999999996,34.948712,0 114.768173000000004,34.927881999999997,0 114.778993999999997,34.916750999999998,0 114.774778999999995,34.901381999999998,0 114.761189999999999,34.891480000000001,0 114.733885999999998,34.888474000000002,0 114.724322999999998,34.885221999999999,0 114.709160999999995,34.892119999999998,0 114.695571999999999,34.894387000000002,0 114.679592999999997,34.909018000000003,0 114.660279000000003,34.898721999999999,0 114.633981000000006,34.905225000000002,0 114.586607999999998,34.912466000000002,0 114.557164999999998,34.905521,0 114.540682000000004,34.899264000000002,0 114.513378000000003,34.895273000000003,0 114.442728000000002,34.914485999999997,0 114.417815000000004,34.930788,0 114.400639999999996,34.939503999999999,0 114.383024000000006,34.936894000000002,0 114.367232999999999,34.918968,0 114.350498999999999,34.908082,0 114.340118000000004,34.907145999999997,0 114.284441000000001,34.908230000000003,0 114.243988000000002,34.905126000000003,0 114.226624000000001,34.913156000000001,0 114.220709999999997,34.919066000000001,0 114.220522000000003,34.906801000000002,0 114.211084999999997,34.860877000000002,0 114.199824000000007,34.832729,0 114.185354000000004,34.825628000000002,0 114.162516999999994,34.828882999999998,0 114.133702999999997,34.825628000000002,0 114.122504000000006,34.818330000000003,0 114.134142999999995,34.802154000000002,0 114.161761999999996,34.781238000000002,0 114.172331,34.768310999999997,0 114.158364000000006,34.759379000000003,0 114.138484000000005,34.734749999999998,0 114.141188999999997,34.719099999999997,0 114.158113,34.704335999999998,0 114.157546999999994,34.686506999999999,0 114.160441000000006,34.665610999999998,0 114.150374999999997,34.656669000000001,0 114.157546999999994,34.625979000000001,0 114.151570000000007,34.618268,0 114.154589999999999,34.605759999999997,0 114.145152999999993,34.604277000000003,0 114.145529999999994,34.614559999999997,0 114.127725999999996,34.617179999999998,0 114.125461000000001,34.607886000000001,0 114.136848000000001,34.605710999999999,0 114.133450999999994,34.591025000000002,0 114.127852000000004,34.584943000000003,0 114.129801999999998,34.575347999999998,0 114.118477999999996,34.570155,0 114.107217000000006,34.557887000000001,0 114.100296,34.535178000000002,0 114.093941999999998,34.501820000000002,0 114.094382999999993,34.492265000000003,0 114.083372999999995,34.480927000000001,0 114.070350000000005,34.481471999999997,0 114.062486000000007,34.490532000000002,0 114.035118999999995,34.503998000000003,0 114.022599999999997,34.488551999999999,0 114.009576999999993,34.480134999999997,0 114.008256000000003,34.470081999999998,0 114.018510000000006,34.467210000000001,0 114.021719000000004,34.458989000000003,0 114.019893999999994,34.445368000000002,0 114.006557000000001,34.439225,0 113.990325999999996,34.435707000000001,0 113.968495000000004,34.439323999999999,0 113.948615000000004,34.435063,0 113.948929000000007,34.452699000000003,0 113.938108,34.454729,0 113.929992999999996,34.443485000000003,0 113.915586000000005,34.444921999999998,0 113.912126000000001,34.452351999999998,0 113.903507000000005,34.454185000000003,0 113.891615999999999,34.437342000000001,0 113.878152999999998,34.411478000000002,0 113.878530999999995,34.394576999999998,0 113.885199,34.370485000000002,0 113.879977999999994,34.356056000000002,0 113.888092999999998,34.348368999999998,0 113.885451000000003,34.327784999999999,0</coordinates></LinearRing></outerBoundaryIs></Polygon></MultiGeometry></Placemark>
</Document>
</kml>