<?xml version="1.0" encoding="UTF-8"?>
<kml xmlns="http://www.opengis.net/kml/2.2">
<Document>
<name>新乡市</name>
<Placemark><name>新乡市</name><MultiGeometry><Polygon><outerBoundaryIs><LinearRing><coordinates>114.951248000000007,35.380791000000002,0 114.898087000000004,35.390780999999997,0 114.879339000000002,35.387452000000003,0 114.856942000000004,35.387794,0 114.809631999999993,35.354241999999999,0 114.808876999999995,35.346941999999999,0 114.783963999999997,35.343023000000002,0 114.761629999999997,35.345227999999999,0 114.754520999999997,35.341307999999998,0 114.737219999999994,35.344689000000002,0 114.718598,35.343611000000003,0 114.697396999999995,35.337485999999998,0 114.701674999999994,35.329008000000002,0 114.698340999999999,35.306756,0 114.688715000000002,35.295138000000001,0 114.679907,35.291165999999997,0 114.663173,35.291558999999999,0 114.642915000000002,35.297148,0 114.627313000000001,35.298274999999997,0 114.607495,35.292686000000003,0 114.596800000000002,35.286116,0 114.562197999999995,35.276063999999998,0 114.549363999999997,35.261890999999999,0 114.541437000000002,35.242809000000001,0 114.527092999999994,35.235646000000003,0 114.504130000000004,35.228285999999997,0 114.494755999999995,35.220140999999998,0 114.487836000000001,35.206645000000002,0 114.465376000000006,35.216706000000002,0 114.4499,35.214447999999997,0 114.442601999999994,35.205958000000003,0 114.431781000000001,35.208754999999996,0 114.431404000000001,35.222054999999997,0 114.415298000000007,35.228188000000003,0 114.399696000000006,35.225096999999998,0 114.394347999999994,35.219797,0 114.392145999999997,35.226911999999999,0 114.407497000000006,35.236626999999999,0 114.396298999999999,35.241827999999998,0 114.391266000000002,35.258113999999999,0 114.395481000000004,35.264490000000002,0 114.407497000000006,35.269737999999997,0 114.395731999999995,35.293078000000001,0 114.408188999999993,35.292490000000001,0 114.416493000000003,35.302785,0 114.412782000000007,35.313521000000001,0 114.403659000000005,35.316805000000002,0 114.404225999999994,35.326312999999999,0 114.423413999999994,35.324841999999997,0 114.429075999999995,35.342875999999997,0 114.411083000000005,35.358063999999999,0 114.413473999999994,35.370162999999998,0 114.423665999999997,35.380155000000002,0 114.415171999999998,35.413254999999999,0 114.407685999999998,35.418004000000003,0 114.405043000000006,35.426324999999999,0 114.412026999999995,35.43582,0 114.429139000000006,35.449522999999999,0 114.428573,35.468947,0 114.419072999999997,35.474181000000002,0 114.409699000000003,35.469191000000002,0 114.395039999999995,35.478192,0 114.384659999999997,35.475355,0 114.382018000000002,35.466549999999998,0 114.370001000000002,35.461754999999997,0 114.360439,35.468800000000002,0 114.343704000000002,35.462147000000002,0 114.339426000000003,35.450648000000001,0 114.324011999999996,35.444530999999998,0 114.312374000000005,35.446978000000001,0 114.298029999999997,35.458722000000002,0 114.275443999999993,35.465375999999999,0 114.272549999999995,35.476187000000003,0 114.275822000000005,35.490175999999998,0 114.283686000000003,35.492181000000002,0 114.289913999999996,35.501815000000001,0 114.276325,35.501277000000002,0 114.259842000000006,35.504944999999999,0 114.224862999999999,35.516533000000003,0 114.215615,35.517560000000003,0 114.202213999999998,35.524844999999999,0 114.191959999999995,35.521861999999999,0 114.171449999999993,35.523964999999997,0 114.139176000000006,35.538336000000001,0 114.120114000000001,35.551141999999999,0 114.104889,35.554268999999998,0 114.080101999999997,35.567315999999998,0 114.072804000000005,35.579628999999997,0 114.056195000000002,35.594527999999997,0 114.060283999999996,35.611376999999997,0 114.058522999999994,35.626710000000003,0 114.064311000000004,35.637793000000002,0 114.059026000000003,35.657366000000003,0 114.050218000000001,35.675666999999997,0 114.039838000000003,35.681522000000001,0 114.026814999999999,35.683765999999999,0 114.019768999999997,35.695621000000003,0 113.995987999999997,35.704791999999998,0 113.985230000000001,35.700743000000003,0 113.969565000000003,35.689571999999998,0 113.956226999999998,35.691426,0 113.949055000000001,35.700890000000001,0 113.931691000000001,35.703963000000002,0 113.927475999999999,35.686011000000001,0 113.923072000000005,35.681815,0 113.901618999999997,35.677422999999997,0 113.886331999999996,35.684401000000001,0 113.868402000000003,35.680740999999998,0 113.859216000000004,35.682350999999997,0 113.843677,35.677813999999998,0 113.811528999999993,35.676837999999996,0 113.806244000000007,35.672983000000002,0 113.785545999999997,35.674447000000001,0 113.777556000000004,35.684643999999999,0 113.794228000000004,35.695329000000001,0 113.799953000000002,35.713571999999999,0 113.801652000000004,35.733516999999999,0 113.808006000000006,35.742488000000002,0 113.800205000000005,35.740782000000003,0 113.776612999999998,35.759404000000004,0 113.778563000000005,35.763205999999997,0 113.759752000000006,35.767398,0 113.757864999999995,35.782798,0 113.751887999999994,35.788303999999997,0 113.756229000000005,35.793712999999997,0 113.742891999999998,35.819093000000002,0 113.731819000000002,35.818752000000003,0 113.726786000000004,35.823185000000002,0 113.711813000000006,35.818069999999999,0 113.705962,35.826594,0 113.709108000000001,35.833655,0 113.700552000000002,35.837308,0 113.661043000000006,35.837259000000003,0 113.650284999999997,35.826594,0 113.641225000000006,35.822502999999998,0 113.623799000000005,35.831513000000001,0 113.606057000000007,35.823720000000002,0 113.585296,35.825766000000002,0 113.582905999999994,35.818314000000001,0 113.588944999999995,35.813442999999999,0 113.586177000000006,35.806136000000002,0 113.604988000000006,35.800094999999999,0 113.583472,35.794249000000001,0 113.583157,35.786794,0 113.592972000000003,35.789669000000004,0 113.599136999999999,35.775098,0 113.595928999999998,35.759062999999998,0 113.586805999999996,35.744047999999999,0 113.591147000000007,35.727958000000001,0 113.601967999999999,35.706401999999997,0 113.593159999999997,35.691426,0 113.614928000000006,35.682986,0 113.623484000000005,35.671664999999997,0 113.619079999999997,35.667225000000002,0 113.624994000000001,35.652388000000002,0 113.624868000000006,35.632032000000002,0 113.591965000000002,35.631543000000001,0 113.578564999999998,35.633544999999998,0 113.572965999999994,35.646774999999998,0 113.565415999999999,35.644919999999999,0 113.560068999999999,35.660440999999999,0 113.547989000000001,35.657561999999999,0 113.547422999999995,35.648629,0 113.553336999999999,35.638719999999999,0 113.556670999999994,35.619776000000002,0 113.547172000000003,35.616847,0 113.542452999999995,35.596774000000003,0 113.533016000000003,35.594039000000002,0 113.529555999999999,35.587786999999999,0 113.506719000000004,35.565997000000003,0 113.506592999999995,35.5486,0 113.498540000000006,35.532373,0 113.508668999999998,35.523426999999998,0 113.506592999999995,35.516483999999998,0 113.491996999999998,35.516483999999998,0 113.485392000000004,35.520738000000001,0 113.462554999999995,35.515554999999999,0 113.440534999999997,35.507879000000003,0 113.416629,35.516190999999999,0 113.401403999999999,35.506950000000003,0 113.391778000000002,35.506852000000002,0 113.383159000000006,35.495066999999999,0 113.390771999999998,35.485773999999999,0 113.392093000000003,35.472225000000002,0 113.404045999999994,35.461509999999997,0 113.427638000000002,35.448886999999999,0 113.447706999999994,35.432442999999999,0 113.458843000000002,35.413303999999997,0 113.462366000000003,35.396853,0 113.482246000000004,35.369967000000003,0 113.476207000000002,35.363942000000002,0 113.465952000000001,35.363844,0 113.469977999999998,35.353214000000001,0 113.466581000000005,35.349685999999998,0 113.480044000000007,35.339739999999999,0 113.478156999999996,35.327195000000003,0 113.485014000000007,35.316265000000001,0 113.486461000000006,35.294108000000001,0 113.511877999999996,35.293961000000003,0 113.518798000000004,35.288812999999998,0 113.523264999999995,35.263655999999997,0 113.538803999999999,35.243200999999999,0 113.540440000000004,35.228383999999998,0 113.528171999999998,35.220140999999998,0 113.521439999999998,35.211503999999998,0 113.521062999999998,35.192900999999999,0 113.532827999999995,35.164572,0 113.534966999999995,35.151803000000001,0 113.542642000000001,35.144632000000001,0 113.565101999999996,35.137461000000002,0 113.564598000000004,35.127685,0 113.593851999999998,35.131172999999997,0 113.600269999999995,35.120708999999998,0 113.607063999999994,35.099283999999997,0 113.620463999999998,35.068513000000003,0 113.645503000000005,35.038074999999999,0 113.645503000000005,35.019235999999999,0 113.629964000000001,35.016776999999998,0 113.634431000000006,35.008167,0 113.644371000000007,35.004379,0 113.634494000000004,34.997686999999999,0 113.617695999999995,34.992175000000003,0 113.60763,34.982382000000001,0 113.595298999999997,34.961857000000002,0 113.592090999999996,34.933743,0 113.631348000000003,34.929310999999998,0 113.650347999999994,34.928769000000003,0 113.665069000000003,34.918525000000002,0 113.670731000000004,34.910299000000002,0 113.684824000000006,34.906357999999997,0 113.716846000000004,34.913401999999998,0 113.725527999999997,34.917392,0 113.749056999999993,34.919016999999997,0 113.766105999999994,34.914879999999997,0 113.777116000000007,34.905028000000001,0 113.786490000000001,34.890445,0 113.800455999999997,34.879950000000001,0 113.826061999999993,34.877682999999998,0 113.870163000000005,34.885666000000001,0 113.905331000000004,34.901333000000001,0 113.953585000000004,34.898082000000002,0 113.973653999999996,34.910446999999998,0 113.985292999999999,34.928275999999997,0 114.018384999999995,34.958607999999998,0 114.028451000000004,34.959345999999996,0 114.051225000000002,34.944527000000001,0 114.080541999999994,34.944527000000001,0 114.101868999999994,34.954768000000001,0 114.120491000000001,34.956637999999998,0 114.160566000000003,34.933495999999998,0 114.172833999999995,34.931871000000001,0 114.200704000000002,34.939503999999999,0 114.208505000000002,34.926602000000003,0 114.220709999999997,34.919066000000001,0 114.226624000000001,34.913156000000001,0 114.243988000000002,34.905126000000003,0 114.284441000000001,34.908230000000003,0 114.340118000000004,34.907145999999997,0 114.350498999999999,34.908082,0 114.367232999999999,34.918968,0 114.383024000000006,34.936894000000002,0 114.400639999999996,34.939503999999999,0 114.417815000000004,34.930788,0 114.442728000000002,34.914485999999997,0 114.513378000000003,34.895273000000003,0 114.540682000000004,34.899264000000002,0 114.557164999999998,34.905521,0 114.586607999999998,34.912466000000002,0 114.633981000000006,34.905225000000002,0 114.660279000000003,34.898721999999999,0 114.679592999999997,34.909018000000003,0 114.695571999999999,34.894387000000002,0 114.709160999999995,34.892119999999998,0 114.724322999999998,34.885221999999999,0 114.733885999999998,34.888474000000002,0 114.761189999999999,34.891480000000001,0 114.774778999999995,34.901381999999998,0 114.778993999999997,34.916750999999998,0 114.768173000000004,34.927881999999997,0 114.741749999999996,34.948712,0 114.741434999999996,34.960675000000002,0 114.756596999999999,34.975589999999997,0 114.765907999999996,34.977707000000002,0 114.800383999999994,35.006690999999996,0 114.815860999999998,35.014021999999997,0 114.824668000000003,35.012300000000003,0 114.838634999999996,35.018154000000003,0 114.852664000000004,35.029124000000003,0 114.850903000000002,35.041910999999999,0 114.833978999999999,35.042157000000003,0 114.819258000000005,35.051796000000003,0 114.83184,35.074167000000003,0 114.861158000000003,35.082965999999999,0 114.876255999999998,35.091126000000003,0 114.882925,35.098742999999999,0 114.883554000000004,35.109653000000002,0 114.872545000000002,35.126015000000002,0 114.860653999999997,35.137411999999998,0 114.841718,35.151164999999999,0 114.841025999999999,35.159219,0 114.850273999999999,35.172624999999996,0 114.861660999999998,35.182395,0 114.876570999999998,35.189022999999999,0 114.909347999999994,35.194521000000002,0 114.928285000000002,35.194766000000001,0 114.932500000000005,35.198644000000002,0 114.929732000000001,35.248204999999999,0 114.954644999999999,35.255465000000001,0 114.957728000000003,35.261155000000002,0 114.975594999999998,35.261547,0 114.975784000000004,35.270277,0 114.963578999999996,35.273758999999998,0 114.980249999999998,35.294696000000002,0 115.003151000000003,35.316363000000003,0 115.014538000000002,35.318128000000002,0 115.017242999999993,35.337437000000001,0 114.976979,35.352381000000001,0 114.968170999999998,35.354388999999998,0 114.960873000000007,35.369722000000003,0 114.951248000000007,35.380791000000002,0</coordinates></LinearRing></outerBoundaryIs></Polygon></MultiGeometry></Placemark>
</Document>
</kml>