<?xml version="1.0" encoding="UTF-8"?>
<kml xmlns="http://www.opengis.net/kml/2.2">
  <Document>
    <name>河南省 全省轮廓</name>
    <Placemark>
      <name>河南省 全省轮廓</name>
      <MultiGeometry><Polygon><outerBoundaryIs><LinearRing><coordinates>112.730885000000,32.363144000000,0 112.734093000000,32.356751000000,0 112.723021000000,32.360962000000,0 112.730885000000,32.363144000000,0</coordinates></LinearRing></outerBoundaryIs></Polygon><Polygon><outerBoundaryIs><LinearRing><coordinates>113.702187000000,32.420206000000,0 113.690800000000,32.415846000000,0 113.683817000000,32.420206000000,0 113.671990000000,32.417620000000,0 113.665006000000,32.422235000000,0 113.662741000000,32.410115000000,0 113.651228000000,32.413412000000,0 113.643302000000,32.402559000000,0 113.636570000000,32.385923000000,0 113.624617000000,32.379480000000,0 113.624994000000,32.363601000000,0 113.611845000000,32.358730000000,0 113.604233000000,32.365174000000,0 113.593727000000,32.365275000000,0 113.593286000000,32.358578000000,0 113.605617000000,32.350560000000,0 113.589637000000,32.349495000000,0 113.579194000000,32.355229000000,0 113.583032000000,32.343050000000,0 113.565227000000,32.340208000000,0 113.551261000000,32.329245000000,0 113.556608000000,32.324169000000,0 113.561516000000,32.307366000000,0 113.550820000000,32.302543000000,0 113.547675000000,32.316047000000,0 113.550066000000,32.328737000000,0 113.542013000000,32.326809000000,0 113.528738000000,32.330362000000,0 113.511689000000,32.316809000000,0 113.500239000000,32.312697000000,0 113.480296000000,32.298989000000,0 113.471048000000,32.299141000000,0 113.428834000000,32.270551000000,0 113.420466000000,32.269535000000,0 113.410023000000,32.278017000000,0 113.397944000000,32.279286000000,0 113.394106000000,32.288072000000,0 113.376679000000,32.298379000000,0 113.365166000000,32.294774000000,0 113.347677000000,32.298633000000,0 113.332074000000,32.316098000000,0 113.318360000000,32.319042000000,0 113.317730000000,32.327012000000,0 113.333333000000,32.335945000000,0 113.325217000000,32.346602000000,0 113.298731000000,32.353960000000,0 113.295397000000,32.367406000000,0 113.273189000000,32.384756000000,0 113.259537000000,32.390589000000,0 113.236322000000,32.406971000000,0 113.226508000000,32.425480000000,0 113.211786000000,32.431969000000,0 113.185678000000,32.421880000000,0 113.172718000000,32.421170000000,0 113.159129000000,32.410673000000,0 113.159695000000,32.400784000000,0 113.155606000000,32.380749000000,0 113.150258000000,32.376284000000,0 113.118739000000,32.375828000000,0 113.107981000000,32.398502000000,0 113.078915000000,32.394393000000,0 113.058846000000,32.404638000000,0 113.050290000000,32.417925000000,0 113.025314000000,32.424618000000,0 113.012543000000,32.417164000000,0 113.000590000000,32.416758000000,0 112.988636000000,32.399567000000,0 112.991908000000,32.378314000000,0 112.988070000000,32.372327000000,0 112.969888000000,32.371160000000,0 112.960389000000,32.385314000000,0 112.948184000000,32.388256000000,0 112.911883000000,32.390741000000,0 112.902384000000,32.388662000000,0 112.888857000000,32.376792000000,0 112.877219000000,32.379531000000,0 112.878603000000,32.392567000000,0 112.870487000000,32.397842000000,0 112.860736000000,32.395814000000,0 112.835634000000,32.381611000000,0 112.804052000000,32.372277000000,0 112.776370000000,32.358375000000,0 112.767877000000,32.344166000000,0 112.754099000000,32.342847000000,0 112.734911000000,32.351677000000,0 112.733590000000,32.366239000000,0 112.719183000000,32.361774000000,0 112.713647000000,32.352590000000,0 112.685651000000,32.357715000000,0 112.672062000000,32.368116000000,0 112.645513000000,32.368472000000,0 112.630477000000,32.379937000000,0 112.611980000000,32.387039000000,0 112.596630000000,32.385568000000,0 112.589080000000,32.381307000000,0 112.577190000000,32.382524000000,0 112.577819000000,32.387952000000,0 112.561714000000,32.398907000000,0 112.545231000000,32.403878000000,0 112.544727000000,32.395509000000,0 112.531201000000,32.377147000000,0 112.521638000000,32.383082000000,0 112.506539000000,32.380749000000,0 112.495656000000,32.374915000000,0 112.477222000000,32.380799000000,0 112.472756000000,32.371769000000,0 112.460236000000,32.368269000000,0 112.445515000000,32.355584000000,0 112.450422000000,32.342847000000,0 112.417519000000,32.357005000000,0 112.414184000000,32.363195000000,0 112.390970000000,32.371160000000,0 112.387950000000,32.363702000000,0 112.368195000000,32.367913000000,0 112.360017000000,32.365630000000,0 112.351146000000,32.350459000000,0 112.338627000000,32.348530000000,0 112.329819000000,32.338178000000,0 112.328120000000,32.321682000000,0 112.299495000000,32.334929000000,0 112.288297000000,32.345587000000,0 112.261999000000,32.358882000000,0 112.255394000000,32.359745000000,0 112.251619000000,32.368116000000,0 112.230921000000,32.377451000000,0 112.229033000000,32.385365000000,0 112.205882000000,32.392973000000,0 112.172790000000,32.385162000000,0 112.178829000000,32.392111000000,0 112.172161000000,32.398350000000,0 112.172475000000,32.405906000000,0 112.164674000000,32.411282000000,0 112.150204000000,32.411637000000,0 112.146555000000,32.403117000000,0 112.161717000000,32.399313000000,0 112.150645000000,32.384198000000,0 112.164485000000,32.385314000000,0 112.156873000000,32.377096000000,0 112.137370000000,32.390589000000,0 112.130261000000,32.403117000000,0 112.124410000000,32.398755000000,0 112.108431000000,32.404740000000,0 112.093646000000,32.418888000000,0 112.084398000000,32.419699000000,0 112.081315000000,32.425682000000,0 112.086034000000,32.435316000000,0 112.075150000000,32.436887000000,0 112.065965000000,32.444643000000,0 112.069865000000,32.460002000000,0 112.064014000000,32.474243000000,0 112.047972000000,32.473736000000,0 112.038095000000,32.470087000000,0 112.032495000000,32.462435000000,0 112.014377000000,32.450321000000,0 112.007079000000,32.451030000000,0 112.001102000000,32.459444000000,0 111.990407000000,32.457468000000,0 111.992861000000,32.467351000000,0 111.977384000000,32.471151000000,0 111.966815000000,32.494916000000,0 111.956434000000,32.512292000000,0 111.948696000000,32.517003000000,0 111.932339000000,32.515230000000,0 111.915353000000,32.507733000000,0 111.889936000000,32.503174000000,0 111.870245000000,32.506315000000,0 111.862758000000,32.513609000000,0 111.858291000000,32.528702000000,0 111.828219000000,32.531285000000,0 111.827024000000,32.538071000000,0 111.809157000000,32.536704000000,0 111.785061000000,32.557312000000,0 111.766817000000,32.565210000000,0 111.747377000000,32.577612000000,0 111.740331000000,32.589253000000,0 111.729258000000,32.594011000000,0 111.713593000000,32.606560000000,0 111.692140000000,32.605953000000,0 111.673015000000,32.614960000000,0 111.646403000000,32.606206000000,0 111.640804000000,32.617338000000,0 111.640804000000,32.634741000000,0 111.634009000000,32.635145000000,0 111.618344000000,32.627608000000,0 111.603685000000,32.610254000000,0 111.577640000000,32.593505000000,0 111.559080000000,32.601095000000,0 111.530267000000,32.628316000000,0 111.524793000000,32.647285000000,0 111.526555000000,32.654163000000,0 111.513029000000,32.673986000000,0 111.479874000000,32.694664000000,0 111.467858000000,32.707351000000,0 111.472639000000,32.717763000000,0 111.464649000000,32.722362000000,0 111.441120000000,32.722816000000,0 111.425455000000,32.732670000000,0 111.431494000000,32.735045000000,0 111.441749000000,32.726758000000,0 111.444391000000,32.736713000000,0 111.456974000000,32.726960000000,0 111.468990000000,32.738633000000,0 111.469808000000,32.753638000000,0 111.475659000000,32.758437000000,0 111.468172000000,32.770862000000,0 111.461063000000,32.771671000000,0 111.462950000000,32.764296000000,0 111.448229000000,32.761467000000,0 111.447285000000,32.754951000000,0 111.437597000000,32.750253000000,0 111.422938000000,32.751011000000,0 111.413564000000,32.757174000000,0 111.410230000000,32.769347000000,0 111.404128000000,32.775610000000,0 111.405637000000,32.782529000000,0 111.396138000000,32.794547000000,0 111.385065000000,32.821305000000,0 111.380032000000,32.828827000000,0 111.358642000000,32.837003000000,0 111.331275000000,32.841142000000,0 111.316365000000,32.850780000000,0 111.293528000000,32.859409000000,0 111.289879000000,32.865060000000,0 111.290697000000,32.892554000000,0 111.280127000000,32.904355000000,0 111.269621000000,32.898455000000,0 111.254900000000,32.884029000000,0 111.246344000000,32.888518000000,0 111.249930000000,32.914240000000,0 111.242820000000,32.930627000000,0 111.245526000000,32.944188000000,0 111.253138000000,32.955781000000,0 111.267797000000,32.963744000000,0 111.273647000000,32.971858000000,0 111.269495000000,32.987831000000,0 111.258800000000,33.006472000000,0 111.240556000000,33.019971000000,0 111.240430000000,33.037194000000,0 111.221682000000,33.042633000000,0 111.189345000000,33.038655000000,0 111.179845000000,33.043942000000,0 111.152982000000,33.039712000000,0 111.148263000000,33.042381000000,0 111.150780000000,33.053206000000,0 111.167829000000,33.063980000000,0 111.192868000000,33.071631000000,0 111.190918000000,33.086731000000,0 111.177014000000,33.101174000000,0 111.179531000000,33.115463000000,0 111.162544000000,33.124268000000,0 111.146313000000,33.123815000000,0 111.139267000000,33.134379000000,0 111.132032000000,33.137749000000,0 111.128257000000,33.154547000000,0 111.106678000000,33.164453000000,0 111.098500000000,33.176923000000,0 111.088811000000,33.182051000000,0 111.073272000000,33.180643000000,0 111.061885000000,33.174006000000,0 111.045527000000,33.158168000000,0 111.037223000000,33.160984000000,0 111.057858000000,33.183609000000,0 111.051441000000,33.200650000000,0 111.032442000000,33.209345000000,0 111.030366000000,33.214571000000,0 111.016714000000,33.223968000000,0 111.012310000000,33.233113000000,0 110.997274000000,33.238941000000,0 110.985006000000,33.255419000000,0 110.997022000000,33.254766000000,0 110.982867000000,33.270085000000,0 110.991297000000,33.276112000000,0 110.997903000000,33.290975000000,0 110.998469000000,33.301418000000,0 111.007969000000,33.303678000000,0 110.999476000000,33.313416000000,0 111.000356000000,33.323957000000,0 111.026025000000,33.330382000000,0 111.029988000000,33.339415000000,0 111.023005000000,33.354870000000,0 111.027220000000,33.365506000000,0 111.026151000000,33.375338000000,0 111.017406000000,33.385019000000,0 111.011052000000,33.398861000000,0 111.011429000000,33.407336000000,0 110.996708000000,33.435963000000,0 111.020866000000,33.450850000000,0 111.027346000000,33.469542000000,0 111.027346000000,33.493139000000,0 111.019482000000,33.520837000000,0 111.003565000000,33.533105000000,0 111.003691000000,33.548075000000,0 111.009982000000,33.560540000000,0 111.003691000000,33.578658000000,0 110.979658000000,33.595871000000,0 110.966573000000,33.609179000000,0 110.951411000000,33.609029000000,0 110.940841000000,33.620035000000,0 110.904730000000,33.628638000000,0 110.899760000000,33.632989000000,0 110.878810000000,33.634639000000,0 110.857734000000,33.657792000000,0 110.841818000000,33.663241000000,0 110.833199000000,33.677789000000,0 110.825397000000,33.684137000000,0 110.823195000000,33.692834000000,0 110.832192000000,33.712823000000,0 110.816841000000,33.737353000000,0 110.815898000000,33.753036000000,0 110.807530000000,33.757281000000,0 110.799100000000,33.775508000000,0 110.784190000000,33.782398000000,0 110.782177000000,33.796076000000,0 110.765568000000,33.795028000000,0 110.753677000000,33.799471000000,0 110.741347000000,33.798822000000,0 110.725996000000,33.807707000000,0 110.722725000000,33.818886000000,0 110.712596000000,33.833607000000,0 110.684914000000,33.838796000000,0 110.667928000000,33.852166000000,0 110.649495000000,33.845980000000,0 110.627664000000,33.845730000000,0 110.612125000000,33.852515000000,0 110.612943000000,33.867429000000,0 110.600612000000,33.871270000000,0 110.587274000000,33.887727000000,0 110.592182000000,33.900591000000,0 110.611810000000,33.908069000000,0 110.625840000000,33.907820000000,0 110.626028000000,33.924619000000,0 110.650501000000,33.936730000000,0 110.669564000000,33.939271000000,0 110.675603000000,33.946596000000,0 110.670948000000,33.966427000000,0 110.651760000000,33.969665000000,0 110.649558000000,33.992278000000,0 110.638925000000,34.004977000000,0 110.634459000000,34.016330000000,0 110.628104000000,34.019019000000,0 110.631502000000,34.025541000000,0 110.619486000000,34.035646000000,0 110.612062000000,34.024246000000,0 110.586645000000,34.023997000000,0 110.589728000000,34.038583000000,0 110.588470000000,34.061676000000,0 110.595138000000,34.064761000000,0 110.591804000000,34.101676000000,0 110.614012000000,34.113712000000,0 110.618164000000,34.124055000000,0 110.628545000000,34.133055000000,0 110.624204000000,34.137331000000,0 110.639114000000,34.150903000000,0 110.641945000000,34.160894000000,0 110.634144000000,34.169791000000,0 110.621750000000,34.177444000000,0 110.587715000000,34.178687000000,0 110.589099000000,34.190264000000,0 110.557139000000,34.193395000000,0 110.551414000000,34.212819000000,0 110.524110000000,34.219674000000,0 110.507879000000,34.217588000000,0 110.489760000000,34.232339000000,0 110.439682000000,34.243413000000,0 110.442513000000,34.253989000000,0 110.432573000000,34.272903000000,0 110.426471000000,34.276080000000,0 110.431315000000,34.290374000000,0 110.449308000000,34.291466000000,0 110.465854000000,34.305906000000,0 110.473844000000,34.322973000000,0 110.498128000000,34.320096000000,0 110.503287000000,34.334283000000,0 110.502720000000,34.345195000000,0 110.489446000000,34.355312000000,0 110.473718000000,34.393239000000,0 110.475920000000,34.409149000000,0 110.467427000000,34.409743000000,0 110.458178000000,34.402409000000,0 110.431000000000,34.409446000000,0 110.409484000000,34.421587000000,0 110.409610000000,34.429069000000,0 110.402941000000,34.433478000000,0 110.401998000000,34.447101000000,0 110.395266000000,34.453937000000,0 110.393442000000,34.464833000000,0 110.379727000000,34.478501000000,0 110.378217000000,34.486423000000,0 110.368843000000,34.493206000000,0 110.360476000000,34.517610000000,0 110.362048000000,34.526419000000,0 110.372744000000,34.544332000000,0 110.404514000000,34.557591000000,0 110.399355000000,34.562834000000,0 110.376141000000,34.563082000000,0 110.367207000000,34.566792000000,0 110.379161000000,34.600519000000,0 110.407723000000,34.589245000000,0 110.424835000000,34.588454000000,0 110.437732000000,34.597849000000,0 110.465602000000,34.605463000000,0 110.475857000000,34.610457000000,0 110.488502000000,34.610753000000,0 110.533170000000,34.583459000000,0 110.547388000000,34.583558000000,0 110.594509000000,34.603140000000,0 110.610992000000,34.607293000000,0 110.653521000000,34.608034000000,0 110.706367000000,34.603980000000,0 110.712659000000,34.607837000000,0 110.732728000000,34.633195000000,0 110.741158000000,34.639225000000,0 110.749148000000,34.652271000000,0 110.761290000000,34.653506000000,0 110.791865000000,34.649751000000,0 110.808222000000,34.637100000000,0 110.816023000000,34.622618000000,0 110.824328000000,34.615845000000,0 110.834520000000,34.617526000000,0 110.853205000000,34.635271000000,0 110.861572000000,34.639719000000,0 110.883717000000,34.644117000000,0 110.893469000000,34.651629000000,0 110.903723000000,34.668823000000,0 110.917438000000,34.713570000000,0 110.915739000000,34.723247000000,0 110.919766000000,34.730258000000,0 110.935494000000,34.730505000000,0 110.952354000000,34.720581000000,0 110.963993000000,34.706410000000,0 110.976324000000,34.706460000000,0 111.018475000000,34.732282000000,0 111.035336000000,34.740871000000,0 111.066414000000,34.751581000000,0 111.118254000000,34.756566000000,0 111.124419000000,34.761698000000,0 111.129767000000,34.779955000000,0 111.148515000000,34.807480000000,0 111.160720000000,34.814582000000,0 111.168144000000,34.813201000000,0 111.177769000000,34.803979000000,0 111.209414000000,34.800970000000,0 111.223443000000,34.789427000000,0 111.239864000000,34.793571000000,0 111.249112000000,34.814040000000,0 111.255214000000,34.819563000000,0 111.268048000000,34.817936000000,0 111.282141000000,34.809453000000,0 111.294157000000,34.807678000000,0 111.306110000000,34.815223000000,0 111.322656000000,34.819711000000,0 111.340334000000,34.831299000000,0 111.350400000000,34.829376000000,0 111.355370000000,34.823064000000,0 111.395320000000,34.814878000000,0 111.415389000000,34.827453000000,0 111.430991000000,34.829277000000,0 111.439358000000,34.838152000000,0 111.450620000000,34.836624000000,0 111.464649000000,34.826910000000,0 111.480126000000,34.826023000000,0 111.502648000000,34.829968000000,0 111.508688000000,34.839187000000,0 111.515356000000,34.840173000000,0 111.527813000000,34.850132000000,0 111.543982000000,34.853286000000,0 111.554488000000,34.852202000000,0 111.561031000000,34.845251000000,0 111.570782000000,34.843329000000,0 111.583050000000,34.852794000000,0 111.589404000000,34.861863000000,0 111.591858000000,34.881625000000,0 111.605824000000,34.892367000000,0 111.617652000000,34.894830000000,0 111.621552000000,34.916308000000,0 111.645082000000,34.937830000000,0 111.661690000000,34.938815000000,0 111.681697000000,34.950927000000,0 111.675720000000,34.971406000000,0 111.665528000000,34.980955000000,0 111.669617000000,34.988189000000,0 111.687107000000,34.988485000000,0 111.697110000000,34.998966000000,0 111.711769000000,35.003641000000,0 111.739324000000,35.004231000000,0 111.749138000000,35.016383000000,0 111.768578000000,35.015350000000,0 111.782419000000,35.030058000000,0 111.793555000000,35.026664000000,0 111.809534000000,35.036846000000,0 111.812051000000,35.048550000000,0 111.810100000000,35.062220000000,0 111.818405000000,35.068464000000,0 111.861500000000,35.074757000000,0 111.864520000000,35.076772000000,0 111.885595000000,35.069988000000,0 111.900065000000,35.079820000000,0 111.917618000000,35.071119000000,0 111.928376000000,35.082032000000,0 111.952156000000,35.082131000000,0 111.963166000000,35.079329000000,0 111.973358000000,35.070234000000,0 112.006009000000,35.065367000000,0 112.021171000000,35.067973000000,0 112.023814000000,35.060843000000,0 112.035264000000,35.053714000000,0 112.038912000000,35.045501000000,0 112.053571000000,35.044223000000,0 112.062127000000,35.055779000000,0 112.062756000000,35.078591000000,0 112.056591000000,35.089061000000,0 112.056276000000,35.098449000000,0 112.067223000000,35.136233000000,0 112.060177000000,35.140752000000,0 112.066279000000,35.153522000000,0 112.051935000000,35.177044000000,0 112.041492000000,35.189808000000,0 112.042058000000,35.200264000000,0 112.058919000000,35.206301000000,0 112.081190000000,35.221613000000,0 112.079617000000,35.242367000000,0 112.067978000000,35.265275000000,0 112.055018000000,35.271454000000,0 112.058793000000,35.279889000000,0 112.075842000000,35.277143000000,0 112.093961000000,35.279202000000,0 112.115665000000,35.273072000000,0 112.110947000000,35.270130000000,0 112.120006000000,35.265275000000,0 112.134287000000,35.271258000000,0 112.173545000000,35.263803000000,0 112.191097000000,35.256348000000,0 112.217269000000,35.253258000000,0 112.220792000000,35.247028000000,0 112.216640000000,35.240209000000,0 112.242748000000,35.234812000000,0 112.261307000000,35.241190000000,0 112.282823000000,35.242024000000,0 112.294462000000,35.252816000000,0 112.304465000000,35.251884000000,0 112.288548000000,35.217540000000,0 112.306667000000,35.220975000000,0 112.320697000000,35.219110000000,0 112.367315000000,35.220190000000,0 112.376751000000,35.224115000000,0 112.390718000000,35.238786000000,0 112.401413000000,35.241877000000,0 112.423999000000,35.238050000000,0 112.457720000000,35.226373000000,0 112.472378000000,35.230298000000,0 112.482444000000,35.224655000000,0 112.489805000000,35.229955000000,0 112.513523000000,35.218570000000,0 112.536234000000,35.223429000000,0 112.559071000000,35.212780000000,0 112.567879000000,35.211749000000,0 112.574988000000,35.221122000000,0 112.602544000000,35.222840000000,0 112.619027000000,35.220043000000,0 112.637208000000,35.225686000000,0 112.634188000000,35.239326000000,0 112.617643000000,35.244575000000,0 112.618335000000,35.254043000000,0 112.633056000000,35.265569000000,0 112.639159000000,35.247862000000,0 112.645009000000,35.260566000000,0 112.651426000000,35.259242000000,0 112.655012000000,35.244232000000,0 112.672880000000,35.234272000000,0 112.682694000000,35.233733000000,0 112.684267000000,35.227256000000,0 112.695339000000,35.218718000000,0 112.707418000000,35.216951000000,0 112.703077000000,35.201540000000,0 112.712640000000,35.187010000000,0 112.720315000000,35.206448000000,0 112.735351000000,35.210424000000,0 112.744662000000,35.205123000000,0 112.758000000000,35.204436000000,0 112.767248000000,35.204093000000,0 112.784926000000,35.222938000000,0 112.784423000000,35.234567000000,0 112.798264000000,35.238688000000,0 112.822233000000,35.258114000000,0 112.855136000000,35.253307000000,0 112.857087000000,35.247371000000,0 112.868096000000,35.243888000000,0 112.884705000000,35.244232000000,0 112.893639000000,35.248647000000,0 112.907102000000,35.245801000000,0 112.929687000000,35.256888000000,0 112.936671000000,35.271895000000,0 112.936042000000,35.284400000000,0 112.948184000000,35.285969000000,0 112.964667000000,35.293127000000,0 112.982785000000,35.287244000000,0 112.988951000000,35.289990000000,0 112.991530000000,35.302344000000,0 112.986309000000,35.316608000000,0 112.985302000000,35.338123000000,0 112.994047000000,35.345424000000,0 112.990838000000,35.355712000000,0 112.998199000000,35.362472000000,0 113.020218000000,35.356006000000,0 113.039658000000,35.360219000000,0 113.060608000000,35.352283000000,0 113.067151000000,35.353557000000,0 113.084074000000,35.340524000000,0 113.096216000000,35.337388000000,0 113.107603000000,35.340818000000,0 113.126540000000,35.332242000000,0 113.137990000000,35.336261000000,0 113.136669000000,35.347334000000,0 113.148874000000,35.351205000000,0 113.148748000000,35.370163000000,0 113.154159000000,35.369330000000,0 113.154662000000,35.380889000000,0 113.170138000000,35.386717000000,0 113.177247000000,35.397833000000,0 113.167056000000,35.400232000000,0 113.164224000000,35.408555000000,0 113.175737000000,35.414528000000,0 113.185237000000,35.409045000000,0 113.188572000000,35.415654000000,0 113.184482000000,35.424759000000,0 113.190962000000,35.434107000000,0 113.190019000000,35.449082000000,0 113.208515000000,35.447272000000,0 113.230031000000,35.453242000000,0 113.244815000000,35.448446000000,0 113.253497000000,35.440274000000,0 113.262116000000,35.440763000000,0 113.265387000000,35.434597000000,0 113.278410000000,35.435135000000,0 113.304393000000,35.427010000000,0 113.297347000000,35.438512000000,0 113.299486000000,35.450208000000,0 113.306406000000,35.460777000000,0 113.315151000000,35.451871000000,0 113.323959000000,35.453339000000,0 113.322197000000,35.461559000000,0 113.309426000000,35.466158000000,0 113.294705000000,35.467284000000,0 113.295522000000,35.471540000000,0 113.312320000000,35.481274000000,0 113.325909000000,35.469289000000,0 113.348180000000,35.468360000000,0 113.357743000000,35.479415000000,0 113.370766000000,35.480100000000,0 113.383159000000,35.495067000000,0 113.391778000000,35.506852000000,0 113.401404000000,35.506950000000,0 113.416629000000,35.516191000000,0 113.440535000000,35.507879000000,0 113.462555000000,35.515555000000,0 113.485392000000,35.520738000000,0 113.491997000000,35.516484000000,0 113.506593000000,35.516484000000,0 113.508669000000,35.523427000000,0 113.498540000000,35.532373000000,0 113.506593000000,35.548600000000,0 113.506719000000,35.565997000000,0 113.529556000000,35.587787000000,0 113.533016000000,35.594039000000,0 113.542453000000,35.596774000000,0 113.547172000000,35.616847000000,0 113.556671000000,35.619776000000,0 113.553337000000,35.638720000000,0 113.547423000000,35.648629000000,0 113.547989000000,35.657562000000,0 113.560069000000,35.660441000000,0 113.565416000000,35.644920000000,0 113.572966000000,35.646775000000,0 113.578565000000,35.633545000000,0 113.591965000000,35.631543000000,0 113.624868000000,35.632032000000,0 113.624994000000,35.652388000000,0 113.619080000000,35.667225000000,0 113.623484000000,35.671665000000,0 113.614928000000,35.682986000000,0 113.593160000000,35.691426000000,0 113.601968000000,35.706402000000,0 113.591147000000,35.727958000000,0 113.586806000000,35.744048000000,0 113.595929000000,35.759063000000,0 113.599137000000,35.775098000000,0 113.592972000000,35.789669000000,0 113.583157000000,35.786794000000,0 113.583472000000,35.794249000000,0 113.604988000000,35.800095000000,0 113.586177000000,35.806136000000,0 113.588945000000,35.813443000000,0 113.582906000000,35.818314000000,0 113.585296000000,35.825766000000,0 113.606057000000,35.823720000000,0 113.623799000000,35.831513000000,0 113.641225000000,35.822503000000,0 113.650285000000,35.826594000000,0 113.661043000000,35.837259000000,0 113.658212000000,35.853911000000,0 113.644056000000,35.854885000000,0 113.637388000000,35.869928000000,0 113.648712000000,35.908518000000,0 113.654437000000,35.917227000000,0 113.653997000000,35.931430000000,0 113.647831000000,35.967123000000,0 113.636884000000,35.975874000000,0 113.637828000000,35.988463000000,0 113.648901000000,35.994149000000,0 113.678784000000,35.985790000000,0 113.686459000000,35.986421000000,0 113.695896000000,35.999884000000,0 113.680734000000,36.014801000000,0 113.695204000000,36.018202000000,0 113.695141000000,36.026753000000,0 113.670165000000,36.029522000000,0 113.660414000000,36.034671000000,0 113.661420000000,36.042880000000,0 113.668655000000,36.049096000000,0 113.685767000000,36.055992000000,0 113.682370000000,36.066821000000,0 113.684069000000,36.078328000000,0 113.679539000000,36.094007000000,0 113.669284000000,36.104005000000,0 113.673814000000,36.111625000000,0 113.655507000000,36.125114000000,0 113.668529000000,36.129675000000,0 113.673499000000,36.125357000000,0 113.693191000000,36.124192000000,0 113.713763000000,36.132974000000,0 113.705648000000,36.134138000000,0 113.702628000000,36.143209000000,0 113.706843000000,36.147381000000,0 113.695582000000,36.153201000000,0 113.681363000000,36.150728000000,0 113.679287000000,36.159943000000,0 113.659973000000,36.164162000000,0 113.651669000000,36.172212000000,0 113.664503000000,36.177449000000,0 113.672304000000,36.175606000000,0 113.697909000000,36.181861000000,0 113.686334000000,36.195483000000,0 113.691492000000,36.201930000000,0 113.705396000000,36.200670000000,0 113.698476000000,36.214290000000,0 113.682055000000,36.216277000000,0 113.672178000000,36.211963000000,0 113.677274000000,36.222528000000,0 113.695204000000,36.228779000000,0 113.703886000000,36.237840000000,0 113.700552000000,36.252276000000,0 113.709108000000,36.261528000000,0 113.716217000000,36.262593000000,0 113.709045000000,36.299733000000,0 113.723326000000,36.304865000000,0 113.736412000000,36.324709000000,0 113.728736000000,36.341452000000,0 113.731442000000,36.363367000000,0 113.733140000000,36.357079000000,0 113.743269000000,36.357563000000,0 113.742200000000,36.364432000000,0 113.755160000000,36.365931000000,0 113.763401000000,36.356015000000,0 113.778626000000,36.359788000000,0 113.777431000000,36.349822000000,0 113.796808000000,36.347548000000,0 113.801274000000,36.338355000000,0 113.818261000000,36.331146000000,0 113.834177000000,36.334339000000,0 113.853995000000,36.329742000000,0 113.849339000000,36.346823000000,0 113.853617000000,36.350113000000,0 113.881487000000,36.353886000000,0 113.901116000000,36.337001000000,0 113.911182000000,36.314788000000,0 113.931629000000,36.319482000000,0 113.934460000000,36.336130000000,0 113.956101000000,36.335597000000,0 113.960317000000,36.344742000000,0 113.948804000000,36.346097000000,0 113.946727000000,36.354805000000,0 113.953207000000,36.358192000000,0 113.964217000000,36.352580000000,0 113.968495000000,36.339710000000,0 113.977869000000,36.329258000000,0 113.982210000000,36.317692000000,0 113.993849000000,36.314594000000,0 113.991647000000,36.326839000000,0 114.001964000000,36.331339000000,0 113.994352000000,36.337049000000,0 113.994478000000,36.344210000000,0 113.979819000000,36.344113000000,0 113.977932000000,36.358579000000,0 113.985859000000,36.357563000000,0 114.008507000000,36.342517000000,0 114.015176000000,36.352967000000,0 114.024676000000,36.354854000000,0 114.030841000000,36.350742000000,0 114.032540000000,36.339904000000,0 114.025997000000,36.330516000000,0 114.029017000000,36.326548000000,0 114.045185000000,36.325919000000,0 114.055692000000,36.329984000000,0 114.061542000000,36.317982000000,0 114.047953000000,36.310334000000,0 114.042606000000,36.297313000000,0 114.058271000000,36.285354000000,0 114.060536000000,36.276493000000,0 114.085386000000,36.270100000000,0 114.092621000000,36.277800000000,0 114.097528000000,36.275233000000,0 114.121435000000,36.272715000000,0 114.131438000000,36.281674000000,0 114.162831000000,36.265160000000,0 114.164844000000,36.269567000000,0 114.176672000000,36.263126000000,0 114.168871000000,36.243411000000,0 114.181139000000,36.243314000000,0 114.185165000000,36.248449000000,0 114.203095000000,36.245736000000,0 114.210645000000,36.272764000000,0 114.223730000000,36.270875000000,0 114.235558000000,36.252761000000,0 114.241031000000,36.251356000000,0 114.256445000000,36.263998000000,0 114.273871000000,36.254747000000,0 114.298973000000,36.245930000000,0 114.309983000000,36.246754000000,0 114.312814000000,36.251646000000,0 114.328353000000,36.248159000000,0 114.329234000000,36.255909000000,0 114.345151000000,36.255812000000,0 114.346787000000,36.245494000000,0 114.353833000000,36.242636000000,0 114.356098000000,36.230330000000,0 114.367548000000,36.225533000000,0 114.392335000000,36.221123000000,0 114.408441000000,36.224563000000,0 114.417500000000,36.205905000000,0 114.431152000000,36.202609000000,0 114.452291000000,36.202367000000,0 114.466194000000,36.197713000000,0 114.480287000000,36.177788000000,0 114.483873000000,36.183848000000,0 114.489598000000,36.178467000000,0 114.505577000000,36.177497000000,0 114.504948000000,36.172406000000,0 114.532881000000,36.171533000000,0 114.531686000000,36.161931000000,0 114.543639000000,36.161786000000,0 114.558046000000,36.150776000000,0 114.568049000000,36.152328000000,0 114.575473000000,36.143258000000,0 114.586860000000,36.140930000000,0 114.582582000000,36.121329000000,0 114.604664000000,36.121426000000,0 114.610830000000,36.128316000000,0 114.619449000000,36.123513000000,0 114.630395000000,36.124241000000,0 114.637190000000,36.135642000000,0 114.655183000000,36.140250000000,0 114.691106000000,36.138407000000,0 114.692364000000,36.146217000000,0 114.711678000000,36.145441000000,0 114.720674000000,36.140056000000,0 114.734389000000,36.155772000000,0 114.751564000000,36.146605000000,0 114.751564000000,36.138698000000,0 114.762889000000,36.134914000000,0 114.764210000000,36.125551000000,0 114.777987000000,36.128025000000,0 114.778617000000,36.133168000000,0 114.790885000000,36.130014000000,0 114.802775000000,36.130936000000,0 114.825172000000,36.123707000000,0 114.831589000000,36.130354000000,0 114.841655000000,36.131712000000,0 114.857509000000,36.127734000000,0 114.858641000000,36.144325000000,0 114.868518000000,36.146653000000,0 114.892110000000,36.143792000000,0 114.893432000000,36.140056000000,0 114.912431000000,36.140444000000,0 114.907083000000,36.119971000000,0 114.913249000000,36.107645000000,0 114.922057000000,36.103132000000,0 114.926460000000,36.089444000000,0 114.914696000000,36.052010000000,0 114.920798000000,36.048319000000,0 114.932123000000,36.050068000000,0 114.933381000000,36.054876000000,0 114.954582000000,36.067792000000,0 114.968675000000,36.070414000000,0 114.989310000000,36.065898000000,0 114.998432000000,36.069734000000,0 115.038381000000,36.106675000000,0 115.045931000000,36.112207000000,0 115.044987000000,36.130839000000,0 115.049391000000,36.147284000000,0 115.048447000000,36.162028000000,0 115.062728000000,36.178224000000,0 115.069523000000,36.179436000000,0 115.099469000000,36.171678000000,0 115.104565000000,36.172212000000,0 115.110416000000,36.199410000000,0 115.124949000000,36.209976000000,0 115.142879000000,36.209686000000,0 115.156657000000,36.201882000000,0 115.156845000000,36.194708000000,0 115.170686000000,36.190975000000,0 115.189245000000,36.195580000000,0 115.201765000000,36.212739000000,0 115.202960000000,36.204063000000,0 115.213340000000,36.203482000000,0 115.242091000000,36.191218000000,0 115.260399000000,36.171581000000,0 115.264111000000,36.158827000000,0 115.279335000000,36.137825000000,0 115.301166000000,36.130111000000,0 115.297517000000,36.104491000000,0 115.307961000000,36.090706000000,0 115.323248000000,36.086775000000,0 115.333251000000,36.090609000000,0 115.341367000000,36.087600000000,0 115.359800000000,36.095318000000,0 115.369237000000,36.102695000000,0 115.377919000000,36.128510000000,0 115.392641000000,36.129189000000,0 115.400127000000,36.140250000000,0 115.404594000000,36.155626000000,0 115.407802000000,36.139571000000,0 115.423656000000,36.140347000000,0 115.431332000000,36.149176000000,0 115.449639000000,36.150146000000,0 115.451275000000,36.169739000000,0 115.463920000000,36.171290000000,0 115.469960000000,36.152862000000,0 115.483549000000,36.148982000000,0 115.484241000000,36.125842000000,0 115.466374000000,36.079687000000,0 115.459768000000,36.080415000000,0 115.455112000000,36.071288000000,0 115.459579000000,36.063374000000,0 115.441586000000,36.055750000000,0 115.448884000000,36.047397000000,0 115.447752000000,36.012664000000,0 115.443096000000,36.008874000000,0 115.419693000000,36.004743000000,0 115.395975000000,35.991671000000,0 115.386286000000,35.974464000000,0 115.363135000000,35.972033000000,0 115.356529000000,35.954628000000,0 115.354138000000,35.937510000000,0 115.364141000000,35.929485000000,0 115.367413000000,35.920340000000,0 115.364267000000,35.894019000000,0 115.356906000000,35.870220000000,0 115.343632000000,35.872118000000,0 115.338158000000,35.864719000000,0 115.349608000000,35.860971000000,0 115.344072000000,35.838720000000,0 115.335705000000,35.814320000000,0 115.335013000000,35.796733000000,0 115.363512000000,35.779923000000,0 115.370936000000,35.788840000000,0 115.407614000000,35.808669000000,0 115.417931000000,35.824987000000,0 115.432841000000,35.833850000000,0 115.433848000000,35.839061000000,0 115.460082000000,35.867737000000,0 115.503429000000,35.888714000000,0 115.548223000000,35.898009000000,0 115.583768000000,35.921702000000,0 115.607297000000,35.925837000000,0 115.642402000000,35.920048000000,0 115.651776000000,35.928901000000,0 115.684050000000,35.944367000000,0 115.687007000000,35.955211000000,0 115.698709000000,35.966053000000,0 115.717897000000,35.971401000000,0 115.736016000000,35.966929000000,0 115.764326000000,35.970964000000,0 115.774707000000,35.974512000000,0 115.774518000000,35.981901000000,0 115.786723000000,35.991233000000,0 115.779866000000,35.993760000000,0 115.797481000000,36.006978000000,0 115.817298000000,36.012761000000,0 115.837493000000,36.011012000000,0 115.846238000000,36.004986000000,0 115.859701000000,36.003723000000,0 115.872221000000,36.016696000000,0 115.896002000000,36.026219000000,0 115.913806000000,36.020243000000,0 115.922928000000,36.021555000000,0 115.935888000000,36.031416000000,0 115.964073000000,36.041617000000,0 115.989804000000,36.045454000000,0 116.016416000000,36.061383000000,0 116.028810000000,36.072308000000,0 116.057435000000,36.104927000000,0 116.099334000000,36.112061000000,0 116.096881000000,36.092163000000,0 116.087758000000,36.080949000000,0 116.087129000000,36.071385000000,0 116.076057000000,36.056915000000,0 116.079517000000,36.042637000000,0 116.073666000000,36.026121000000,0 116.062845000000,36.028890000000,0 116.052590000000,35.999155000000,0 116.048690000000,35.970283000000,0 116.038561000000,35.963428000000,0 116.008489000000,35.973103000000,0 115.985148000000,35.974123000000,0 115.957656000000,35.967998000000,0 115.911856000000,35.960268000000,0 115.906319000000,35.945388000000,0 115.909968000000,35.935759000000,0 115.907829000000,35.926858000000,0 115.875115000000,35.920194000000,0 115.872410000000,35.909346000000,0 115.884740000000,35.909102000000,0 115.889081000000,35.897522000000,0 115.883230000000,35.895381000000,0 115.882853000000,35.879857000000,0 115.876058000000,35.875038000000,0 115.875115000000,35.859218000000,0 115.871403000000,35.858342000000,0 115.872598000000,35.872799000000,0 115.865489000000,35.868613000000,0 115.863099000000,35.855518000000,0 115.840891000000,35.857173000000,0 115.841331000000,35.850016000000,0 115.821325000000,35.852694000000,0 115.816795000000,35.844271000000,0 115.773386000000,35.854155000000,0 115.763760000000,35.838379000000,0 115.752876000000,35.838379000000,0 115.753128000000,35.832925000000,0 115.734820000000,35.832925000000,0 115.727900000000,35.815635000000,0 115.720288000000,35.817096000000,0 115.717394000000,35.802726000000,0 115.706384000000,35.805600000000,0 115.704434000000,35.788938000000,0 115.696255000000,35.788889000000,0 115.698268000000,35.768421000000,0 115.693550000000,35.754091000000,0 115.665114000000,35.751069000000,0 115.619502000000,35.739222000000,0 115.588927000000,35.738539000000,0 115.583076000000,35.730591000000,0 115.562504000000,35.738637000000,0 115.552815000000,35.730347000000,0 115.533249000000,35.734151000000,0 115.524127000000,35.726349000000,0 115.511545000000,35.727129000000,0 115.485939000000,35.710157000000,0 115.461467000000,35.680839000000,0 115.452470000000,35.660734000000,0 115.439384000000,35.643455000000,0 115.416233000000,35.624025000000,0 115.411892000000,35.603612000000,0 115.394465000000,35.586907000000,0 115.389747000000,35.577332000000,0 115.383770000000,35.577674000000,0 115.383267000000,35.568880000000,0 115.370747000000,35.571030000000,0 115.369489000000,35.559743000000,0 115.359234000000,35.565460000000,0 115.357976000000,35.554709000000,0 115.345079000000,35.553634000000,0 115.345960000000,35.546987000000,0 115.360492000000,35.543273000000,0 115.353509000000,35.540585000000,0 115.350301000000,35.529440000000,0 115.357976000000,35.506559000000,0 115.355774000000,35.490127000000,0 115.339102000000,35.490665000000,0 115.307143000000,35.480002000000,0 115.286696000000,35.464495000000,0 115.270842000000,35.456813000000,0 115.272604000000,35.448299000000,0 115.257505000000,35.435576000000,0 115.237373000000,35.423094000000,0 115.209817000000,35.423094000000,0 115.197927000000,35.420696000000,0 115.189497000000,35.425150000000,0 115.167666000000,35.426129000000,0 115.136902000000,35.421528000000,0 115.126459000000,35.418053000000,0 115.126584000000,35.408751000000,0 115.117840000000,35.400134000000,0 115.118343000000,35.416388000000,0 115.114820000000,35.404100000000,0 115.105886000000,35.403953000000,0 115.091605000000,35.416045000000,0 115.084811000000,35.410073000000,0 115.088648000000,35.392985000000,0 115.075437000000,35.375159000000,0 115.057758000000,35.378489000000,0 115.043226000000,35.376971000000,0 115.035110000000,35.368302000000,0 115.025359000000,35.346354000000,0 115.017243000000,35.337437000000,0 115.014538000000,35.318128000000,0 115.003151000000,35.316363000000,0 114.980250000000,35.294696000000,0 114.963579000000,35.273759000000,0 114.975784000000,35.270277000000,0 114.975595000000,35.261547000000,0 114.957728000000,35.261155000000,0 114.954645000000,35.255465000000,0 114.929732000000,35.248205000000,0 114.932500000000,35.198644000000,0 114.928285000000,35.194766000000,0 114.909348000000,35.194521000000,0 114.876571000000,35.189023000000,0 114.861661000000,35.182395000000,0 114.850274000000,35.172625000000,0 114.841026000000,35.159219000000,0 114.841718000000,35.151165000000,0 114.860654000000,35.137412000000,0 114.872545000000,35.126015000000,0 114.883554000000,35.109653000000,0 114.882925000000,35.098743000000,0 114.876256000000,35.091126000000,0 114.861158000000,35.082966000000,0 114.831840000000,35.074167000000,0 114.819258000000,35.051796000000,0 114.833979000000,35.042157000000,0 114.850903000000,35.041911000000,0 114.852664000000,35.029124000000,0 114.838635000000,35.018154000000,0 114.824668000000,35.012300000000,0 114.827122000000,35.010135000000,0 114.859333000000,35.002656000000,0 114.869965000000,35.024451000000,0 114.884435000000,35.021893000000,0 114.880346000000,35.003493000000,0 114.889657000000,34.993996000000,0 114.907964000000,34.989370000000,0 114.914004000000,34.977903000000,0 114.923818000000,34.968748000000,0 114.934765000000,34.980709000000,0 114.950870000000,34.989813000000,0 115.008121000000,34.988485000000,0 115.016048000000,34.977362000000,0 115.024918000000,34.971849000000,0 115.037564000000,34.981644000000,0 115.051656000000,34.985975000000,0 115.074996000000,35.000393000000,0 115.106138000000,35.000787000000,0 115.128094000000,35.004379000000,0 115.133002000000,34.999655000000,0 115.131177000000,34.983613000000,0 115.146528000000,34.980118000000,0 115.157223000000,34.966976000000,0 115.156908000000,34.958017000000,0 115.175027000000,34.962497000000,0 115.201639000000,34.950977000000,0 115.208245000000,34.958312000000,0 115.219128000000,34.960626000000,0 115.222148000000,34.945561000000,0 115.211768000000,34.943345000000,0 115.202708000000,34.925617000000,0 115.204973000000,34.914239000000,0 115.239323000000,34.911826000000,0 115.252157000000,34.906604000000,0 115.249200000000,34.894534000000,0 115.240770000000,34.883842000000,0 115.239323000000,34.874677000000,0 115.243475000000,34.850181000000,0 115.256058000000,34.845301000000,0 115.267445000000,34.853533000000,0 115.289590000000,34.851610000000,0 115.302361000000,34.858807000000,0 115.317146000000,34.859201000000,0 115.329602000000,34.851463000000,0 115.346022000000,34.846188000000,0 115.356969000000,34.837314000000,0 115.379240000000,34.828784000000,0 115.394025000000,34.831792000000,0 115.408557000000,34.825924000000,0 115.416170000000,34.813300000000,0 115.413842000000,34.807826000000,0 115.426802000000,34.805409000000,0 115.436113000000,34.785037000000,0 115.436553000000,34.776797000000,0 115.449324000000,34.744277000000,0 115.437308000000,34.734306000000,0 115.433848000000,34.725074000000,0 115.444921000000,34.710311000000,0 115.447060000000,34.698608000000,0 115.444732000000,34.674504000000,0 115.458132000000,34.656175000000,0 115.461404000000,34.637248000000,0 115.479019000000,34.625880000000,0 115.491602000000,34.606996000000,0 115.515634000000,34.582619000000,0 115.535137000000,34.573321000000,0 115.554765000000,34.569067000000,0 115.561183000000,34.572232000000,0 115.585215000000,34.570996000000,0 115.610380000000,34.572084000000,0 115.621893000000,34.574755000000,0 115.639508000000,34.571540000000,0 115.643598000000,34.567731000000,0 115.669455000000,34.556948000000,0 115.684428000000,34.555612000000,0 115.697325000000,34.569017000000,0 115.699086000000,34.598838000000,0 115.711480000000,34.598690000000,0 115.724503000000,34.589196000000,0 115.762061000000,34.587712000000,0 115.795971000000,34.578464000000,0 115.827427000000,34.558283000000,0 115.838814000000,34.560559000000,0 115.838122000000,34.567781000000,0 115.849698000000,34.565604000000,0 115.858317000000,34.569957000000,0 115.946206000000,34.581629000000,0 115.969987000000,34.582619000000,0 115.984016000000,34.589295000000,0 115.984771000000,34.607243000000,0 115.991377000000,34.615351000000,0 116.001568000000,34.619009000000,0 116.010187000000,34.615845000000,0 116.023902000000,34.601953000000,0 116.037554000000,34.593053000000,0 116.055107000000,34.595426000000,0 116.082662000000,34.608331000000,0 116.101284000000,34.605810000000,0 116.117893000000,34.589740000000,0 116.124814000000,34.572331000000,0 116.134565000000,34.559718000000,0 116.146896000000,34.553188000000,0 116.156647000000,34.553732000000,0 116.190117000000,34.570501000000,0 116.197037000000,34.575942000000,0 116.196345000000,34.555661000000,0 116.190997000000,34.535673000000,0 116.203831000000,34.518748000000,0 116.203957000000,34.508651000000,0 116.189487000000,34.497067000000,0 116.178604000000,34.496028000000,0 116.178855000000,34.483551000000,0 116.162058000000,34.459385000000,0 116.174955000000,34.444674000000,0 116.179233000000,34.430505000000,0 116.205278000000,34.415690000000,0 116.215911000000,34.403350000000,0 116.217043000000,34.395569000000,0 116.209934000000,34.390216000000,0 116.213583000000,34.382235000000,0 116.239880000000,34.374550000000,0 116.255608000000,34.376484000000,0 116.270833000000,34.370733000000,0 116.276747000000,34.360419000000,0 116.288826000000,34.358932000000,0 116.301597000000,34.342120000000,0 116.329656000000,34.329720000000,0 116.357652000000,34.319798000000,0 116.365013000000,34.312406000000,0 116.373380000000,34.293947000000,0 116.363251000000,34.276229000000,0 116.372248000000,34.266102000000,0 116.375960000000,34.271315000000,0 116.393952000000,34.276129000000,0 116.406094000000,34.276527000000,0 116.416223000000,34.268237000000,0 116.433210000000,34.270123000000,0 116.430693000000,34.278065000000,0 116.445792000000,34.288141000000,0 116.452775000000,34.286552000000,0 116.448623000000,34.280348000000,0 116.456865000000,34.269130000000,0 116.466302000000,34.271166000000,0 116.490145000000,34.290920000000,0 116.511850000000,34.296478000000,0 116.566458000000,34.284369000000,0 116.582438000000,34.275236000000,0 116.582312000000,34.266499000000,0 116.567653000000,34.251258000000,0 116.553938000000,34.241923000000,0 116.543621000000,34.239539000000,0 116.547144000000,34.228167000000,0 116.542677000000,34.218879000000,0 116.546263000000,34.194686000000,0 116.559600000000,34.186488000000,0 116.565514000000,34.169542000000,0 116.545886000000,34.161043000000,0 116.536008000000,34.151002000000,0 116.534624000000,34.126591000000,0 116.528018000000,34.122862000000,0 116.541482000000,34.109932000000,0 116.539657000000,34.103466000000,0 116.557965000000,34.097796000000,0 116.566898000000,34.083768000000,0 116.570610000000,34.070981000000,0 116.587408000000,34.045750000000,0 116.596593000000,34.038583000000,0 116.604079000000,34.023201000000,0 116.600431000000,34.011749000000,0 116.607414000000,34.007119000000,0 116.607225000000,33.999898000000,0 116.629936000000,33.984060000000,0 116.633522000000,33.977087000000,0 116.648055000000,33.973351000000,0 116.650320000000,33.959103000000,0 116.640002000000,33.948889000000,0 116.645790000000,33.929902000000,0 116.638492000000,33.917192000000,0 116.642708000000,33.892464000000,0 116.627294000000,33.888624000000,0 116.611818000000,33.894658000000,0 116.597096000000,33.904131000000,0 116.581620000000,33.908318000000,0 116.567024000000,33.908219000000,0 116.558342000000,33.901688000000,0 116.555071000000,33.888275000000,0 116.558405000000,33.881493000000,0 116.546641000000,33.882541000000,0 116.539280000000,33.874212000000,0 116.536889000000,33.882291000000,0 116.525187000000,33.880496000000,0 116.521224000000,33.871070000000,0 116.505307000000,33.872317000000,0 116.501910000000,33.864686000000,0 116.484861000000,33.869774000000,0 116.473977000000,33.861294000000,0 116.460199000000,33.859948000000,0 116.453027000000,33.846928000000,0 116.437362000000,33.846529000000,0 116.433650000000,33.812099000000,0 116.436984000000,33.803065000000,0 116.432581000000,33.795328000000,0 116.421760000000,33.796076000000,0 116.408234000000,33.805510000000,0 116.393701000000,33.783097000000,0 116.372499000000,33.780251000000,0 116.361049000000,33.776307000000,0 116.348718000000,33.778753000000,0 116.330663000000,33.773860000000,0 116.328712000000,33.766370000000,0 116.316822000000,33.771313000000,0 116.308140000000,33.757581000000,0 116.284674000000,33.750090000000,0 116.263598000000,33.730059000000,0 116.246046000000,33.728710000000,0 116.230192000000,33.734855000000,0 116.226669000000,33.722466000000,0 116.204964000000,33.726812000000,0 116.197289000000,33.725363000000,0 116.174074000000,33.709025000000,0 116.155389000000,33.709924000000,0 116.131671000000,33.752237000000,0 116.109274000000,33.758180000000,0 116.098894000000,33.774859000000,0 116.099083000000,33.783097000000,0 116.074421000000,33.781549000000,0 116.073351000000,33.794030000000,0 116.055421000000,33.804812000000,0 116.062342000000,33.814494000000,0 116.058064000000,33.821381000000,0 116.045418000000,33.822978000000,0 116.045922000000,33.829016000000,0 116.063474000000,33.826222000000,0 116.065110000000,33.847477000000,0 116.056743000000,33.850919000000,0 116.059196000000,33.860945000000,0 116.034535000000,33.880047000000,0 116.013459000000,33.885732000000,0 116.012515000000,33.897400000000,0 115.999178000000,33.901937000000,0 115.987036000000,33.901189000000,0 115.982695000000,33.917192000000,0 115.995529000000,33.947593000000,0 116.000310000000,33.963238000000,0 115.994963000000,33.975095000000,0 115.984016000000,33.987846000000,0 115.967596000000,34.002089000000,0 115.957593000000,34.007716000000,0 115.926703000000,34.007865000000,0 115.919783000000,34.010803000000,0 115.904369000000,34.009957000000,0 115.899336000000,34.014737000000,0 115.895310000000,34.028727000000,0 115.887257000000,34.032759000000,0 115.876751000000,34.028826000000,0 115.877065000000,34.003135000000,0 115.852718000000,34.003832000000,0 115.845483000000,34.012048000000,0 115.845231000000,34.030867000000,0 115.832209000000,34.038533000000,0 115.815537000000,34.052867000000,0 115.809120000000,34.062472000000,0 115.793455000000,34.063666000000,0 115.780243000000,34.073121000000,0 115.781438000000,34.062223000000,0 115.768856000000,34.062174000000,0 115.735827000000,34.076852000000,0 115.706007000000,34.059835000000,0 115.698205000000,34.066403000000,0 115.681848000000,34.065508000000,0 115.669140000000,34.056700000000,0 115.653601000000,34.060084000000,0 115.648001000000,34.046298000000,0 115.649889000000,34.036194000000,0 115.642214000000,34.032261000000,0 115.621390000000,34.030121000000,0 115.615035000000,34.033356000000,0 115.600943000000,34.023798000000,0 115.606605000000,34.013243000000,0 115.592702000000,34.009857000000,0 115.584083000000,33.988643000000,0 115.591066000000,33.986202000000,0 115.588361000000,33.976987000000,0 115.579050000000,33.973949000000,0 115.577540000000,33.950134000000,0 115.569172000000,33.945500000000,0 115.569990000000,33.932842000000,0 115.562629000000,33.927210000000,0 115.559798000000,33.914550000000,0 115.568543000000,33.910013000000,0 115.554640000000,33.900342000000,0 115.555332000000,33.888574000000,0 115.546587000000,33.888425000000,0 115.546146000000,33.875509000000,0 115.557974000000,33.876108000000,0 115.564202000000,33.871320000000,0 115.579553000000,33.877005000000,0 115.591632000000,33.868327000000,0 115.605724000000,33.867429000000,0 115.620886000000,33.876108000000,0 115.633532000000,33.867330000000,0 115.636111000000,33.841190000000,0 115.626297000000,33.836201000000,0 115.625605000000,33.823627000000,0 115.616608000000,33.820034000000,0 115.623340000000,33.811949000000,0 115.621201000000,33.796775000000,0 115.614218000000,33.775658000000,0 115.590563000000,33.783696000000,0 115.582258000000,33.788738000000,0 115.565209000000,33.780201000000,0 115.563133000000,33.771663000000,0 115.569990000000,33.765321000000,0 115.574834000000,33.752237000000,0 115.583516000000,33.747243000000,0 115.595281000000,33.732957000000,0 115.601572000000,33.716920000000,0 115.596288000000,33.700330000000,0 115.607171000000,33.689035000000,0 115.599622000000,33.688285000000,0 115.602516000000,33.672590000000,0 115.601635000000,33.657692000000,0 115.617300000000,33.633189000000,0 115.625038000000,33.625637000000,0 115.639760000000,33.585113000000,0 115.601132000000,33.578157000000,0 115.566090000000,33.576356000000,0 115.559358000000,33.561941000000,0 115.552752000000,33.565545000000,0 115.528594000000,33.562692000000,0 115.511293000000,33.553331000000,0 115.500598000000,33.564794000000,0 115.484933000000,33.558638000000,0 115.471910000000,33.558037000000,0 115.463731000000,33.567197000000,0 115.421958000000,33.556786000000,0 115.414660000000,33.541617000000,0 115.401763000000,33.524342000000,0 115.405349000000,33.516680000000,0 115.396793000000,33.502006000000,0 115.395094000000,33.506463000000,0 115.366595000000,33.523441000000,0 115.345393000000,33.502707000000,0 115.351244000000,33.490384000000,0 115.343821000000,33.480866000000,0 115.348854000000,33.478962000000,0 115.345771000000,33.449747000000,0 115.335957000000,33.447291000000,0 115.324569000000,33.457615000000,0 115.323877000000,33.449045000000,0 115.316391000000,33.448895000000,0 115.319033000000,33.441477000000,0 115.315636000000,33.431452000000,0 115.317334000000,33.418216000000,0 115.329414000000,33.401670000000,0 115.313245000000,33.377094000000,0 115.316139000000,33.370974000000,0 115.341619000000,33.371175000000,0 115.338536000000,33.362998000000,0 115.346840000000,33.358683000000,0 115.348350000000,33.338963000000,0 115.365022000000,33.336003000000,0 115.358794000000,33.311459000000,0 115.360178000000,33.298105000000,0 115.346966000000,33.301017000000,0 115.335013000000,33.298055000000,0 115.333818000000,33.284749000000,0 115.340927000000,33.271391000000,0 115.340109000000,33.261145000000,0 115.329728000000,33.250546000000,0 115.331741000000,33.235625000000,0 115.316328000000,33.223818000000,0 115.316265000000,33.218391000000,0 115.326394000000,33.211355000000,0 115.296762000000,33.201303000000,0 115.294372000000,33.177878000000,0 115.300159000000,33.162995000000,0 115.301481000000,33.141622000000,0 115.292862000000,33.143382000000,0 115.290345000000,33.132417000000,0 115.269584000000,33.137849000000,0 115.266501000000,33.132719000000,0 115.246307000000,33.136391000000,0 115.236996000000,33.126733000000,0 115.224350000000,33.126229000000,0 115.209817000000,33.113501000000,0 115.197109000000,33.121450000000,0 115.172448000000,33.108067000000,0 115.167918000000,33.088744000000,0 115.153259000000,33.084416000000,0 115.111108000000,33.082956000000,0 115.067636000000,33.086228000000,0 115.057444000000,33.083762000000,0 115.051530000000,33.092468000000,0 115.041275000000,33.086630000000,0 115.023345000000,33.090757000000,0 115.012021000000,33.097651000000,0 114.990505000000,33.102885000000,0 114.992330000000,33.120947000000,0 114.981446000000,33.129097000000,0 114.968863000000,33.133674000000,0 114.966095000000,33.147104000000,0 114.934450000000,33.153290000000,0 114.926649000000,33.138503000000,0 114.910229000000,33.136592000000,0 114.902931000000,33.129550000000,0 114.906266000000,33.116570000000,0 114.897206000000,33.093676000000,0 114.897269000000,33.086580000000,0 114.914004000000,33.082805000000,0 114.919540000000,33.068812000000,0 114.915010000000,33.059801000000,0 114.922497000000,33.048322000000,0 114.923000000000,33.036087000000,0 114.936967000000,33.025511000000,0 114.924321000000,33.016697000000,0 114.915388000000,33.016093000000,0 114.891922000000,33.020525000000,0 114.901547000000,33.000326000000,0 114.882799000000,32.990351000000,0 114.886071000000,32.978611000000,0 114.893809000000,32.972664000000,0 114.916080000000,32.971304000000,0 114.924133000000,32.958956000000,0 114.936023000000,32.952152000000,0 114.943573000000,32.935013000000,0 114.959993000000,32.939500000000,0 114.978803000000,32.941314000000,0 115.009253000000,32.940155000000,0 115.023975000000,32.933702000000,0 115.035425000000,32.932341000000,0 115.036746000000,32.916307000000,0 115.027435000000,32.914340000000,0 115.029762000000,32.906827000000,0 115.067321000000,32.903246000000,0 115.086258000000,32.903246000000,0 115.102426000000,32.894268000000,0 115.116141000000,32.900220000000,0 115.140551000000,32.897496000000,0 115.142501000000,32.884332000000,0 115.154958000000,32.877269000000,0 115.159802000000,32.862285000000,0 115.176222000000,32.856281000000,0 115.191132000000,32.857492000000,0 115.198619000000,32.854363000000,0 115.202645000000,32.843514000000,0 115.188868000000,32.840435000000,0 115.195599000000,32.828877000000,0 115.189937000000,32.812522000000,0 115.196920000000,32.802121000000,0 115.206357000000,32.797678000000,0 115.212334000000,32.787175000000,0 115.206923000000,32.785306000000,0 115.191070000000,32.790053000000,0 115.182073000000,32.787326000000,0 115.183583000000,32.776923000000,0 115.189623000000,32.770913000000,0 115.179368000000,32.726354000000,0 115.184338000000,32.720391000000,0 115.179116000000,32.701943000000,0 115.182702000000,32.694512000000,0 115.178487000000,32.682885000000,0 115.184590000000,32.678284000000,0 115.182954000000,32.666755000000,0 115.196920000000,32.672722000000,0 115.189434000000,32.678789000000,0 115.193649000000,32.682885000000,0 115.205162000000,32.672924000000,0 115.203967000000,32.653910000000,0 115.219443000000,32.659221000000,0 115.208874000000,32.649864000000,0 115.209503000000,32.636714000000,0 115.202708000000,32.645515000000,0 115.194907000000,32.642379000000,0 115.194530000000,32.631250000000,0 115.202079000000,32.632464000000,0 115.199437000000,32.619665000000,0 115.209125000000,32.612936000000,0 115.204029000000,32.606662000000,0 115.192013000000,32.603018000000,0 115.201136000000,32.591834000000,0 115.212145000000,32.588494000000,0 115.229509000000,32.590569000000,0 115.227118000000,32.578624000000,0 115.243538000000,32.593505000000,0 115.254800000000,32.595225000000,0 115.261280000000,32.591683000000,0 115.254737000000,32.585002000000,0 115.267193000000,32.578068000000,0 115.289213000000,32.589861000000,0 115.294812000000,32.581054000000,0 115.299404000000,32.588140000000,0 115.305570000000,32.583180000000,0 115.297769000000,32.576347000000,0 115.310855000000,32.570576000000,0 115.300348000000,32.568399000000,0 115.296511000000,32.562729000000,0 115.304186000000,32.553768000000,0 115.324003000000,32.554831000000,0 115.320480000000,32.562628000000,0 115.329602000000,32.561211000000,0 115.387670000000,32.570880000000,0 115.391948000000,32.566324000000,0 115.403273000000,32.576701000000,0 115.411577000000,32.574777000000,0 115.412772000000,32.559793000000,0 115.410004000000,32.548097000000,0 115.418057000000,32.552958000000,0 115.431646000000,32.552300000000,0 115.434666000000,32.545211000000,0 115.443725000000,32.543287000000,0 115.438944000000,32.532551000000,0 115.465745000000,32.520143000000,0 115.477761000000,32.519890000000,0 115.477635000000,32.511836000000,0 115.485059000000,32.512292000000,0 115.484996000000,32.503934000000,0 115.497515000000,32.492535000000,0 115.502863000000,32.483060000000,0 115.515571000000,32.450625000000,0 115.524127000000,32.447837000000,0 115.523183000000,32.442007000000,0 115.537465000000,32.438966000000,0 115.547279000000,32.424719000000,0 115.567600000000,32.421626000000,0 115.569109000000,32.414629000000,0 115.553633000000,32.407478000000,0 115.563888000000,32.403015000000,0 115.586096000000,32.419243000000,0 115.604529000000,32.425936000000,0 115.627115000000,32.405450000000,0 115.645611000000,32.417519000000,0 115.657816000000,32.428826000000,0 115.656306000000,32.408746000000,0 115.666938000000,32.409405000000,0 115.674425000000,32.430854000000,0 115.680590000000,32.439980000000,0 115.681660000000,32.450473000000,0 115.675872000000,32.466438000000,0 115.698772000000,32.468212000000,0 115.700785000000,32.472874000000,0 115.692229000000,32.480628000000,0 115.692103000000,32.487519000000,0 115.701225000000,32.495321000000,0 115.719344000000,32.485644000000,0 115.741992000000,32.476371000000,0 115.760237000000,32.481996000000,0 115.771498000000,32.505301000000,0 115.785654000000,32.489393000000,0 115.787415000000,32.480121000000,0 115.781313000000,32.468466000000,0 115.788736000000,32.468922000000,0 115.804150000000,32.485441000000,0 115.823841000000,32.502262000000,0 115.841457000000,32.501198000000,0 115.839947000000,32.524803000000,0 115.845986000000,32.531640000000,0 115.861400000000,32.537413000000,0 115.887571000000,32.567640000000,0 115.891535000000,32.576245000000,0 115.911856000000,32.577561000000,0 115.929282000000,32.567235000000,0 115.910220000000,32.566982000000,0 115.899399000000,32.556198000000,0 115.875870000000,32.542477000000,0 115.873039000000,32.525816000000,0 115.856996000000,32.517965000000,0 115.847370000000,32.509557000000,0 115.845735000000,32.501806000000,0 115.853033000000,32.504440000000,0 115.873165000000,32.504694000000,0 115.874486000000,32.497804000000,0 115.883545000000,32.489241000000,0 115.881280000000,32.472469000000,0 115.873479000000,32.470594000000,0 115.864231000000,32.458937000000,0 115.882727000000,32.456099000000,0 115.883356000000,32.438814000000,0 115.879330000000,32.432324000000,0 115.889396000000,32.424263000000,0 115.889270000000,32.413462000000,0 115.899084000000,32.390792000000,0 115.897889000000,32.373596000000,0 115.899210000000,32.344978000000,0 115.904558000000,32.341020000000,0 115.906948000000,32.311580000000,0 115.900280000000,32.301426000000,0 115.908270000000,32.299243000000,0 115.911038000000,32.284161000000,0 115.921481000000,32.268519000000,0 115.914687000000,32.254855000000,0 115.912736000000,32.227623000000,0 115.922865000000,32.203636000000,0 115.923369000000,32.191691000000,0 115.933686000000,32.180456000000,0 115.941550000000,32.166423000000,0 115.937901000000,32.151777000000,0 115.939160000000,32.138961000000,0 115.926577000000,32.105283000000,0 115.932491000000,32.084266000000,0 115.942557000000,32.077650000000,0 115.939600000000,32.065841000000,0 115.925382000000,32.057543000000,0 115.922236000000,32.049652000000,0 115.927709000000,32.036311000000,0 115.919531000000,32.027858000000,0 115.927835000000,32.023580000000,0 115.931107000000,31.994496000000,0 115.924564000000,31.995617000000,0 115.923180000000,31.985479000000,0 115.911352000000,31.958013000000,0 115.909025000000,31.943232000000,0 115.916134000000,31.935994000000,0 115.920160000000,31.920445000000,0 115.910597000000,31.894949000000,0 115.898329000000,31.880260000000,0 115.895687000000,31.867507000000,0 115.892982000000,31.833270000000,0 115.904054000000,31.829392000000,0 115.913114000000,31.820103000000,0 115.915001000000,31.811885000000,0 115.910220000000,31.792333000000,0 115.900783000000,31.792026000000,0 115.885244000000,31.776096000000,0 115.858317000000,31.773695000000,0 115.850264000000,31.786767000000,0 115.837493000000,31.773593000000,0 115.831013000000,31.777576000000,0 115.815348000000,31.762358000000,0 115.808428000000,31.772572000000,0 115.793769000000,31.773593000000,0 115.787226000000,31.780436000000,0 115.767912000000,31.787840000000,0 115.762691000000,31.782325000000,0 115.741992000000,31.782121000000,0 115.734254000000,31.776044000000,0 115.736456000000,31.763277000000,0 115.719407000000,31.765780000000,0 115.710851000000,31.770887000000,0 115.697136000000,31.768640000000,0 115.689775000000,31.776555000000,0 115.676564000000,31.778393000000,0 115.659640000000,31.760213000000,0 115.637243000000,31.755616000000,0 115.619125000000,31.738351000000,0 115.601446000000,31.731659000000,0 115.586977000000,31.721696000000,0 115.582636000000,31.713929000000,0 115.564894000000,31.709023000000,0 115.553507000000,31.695276000000,0 115.531865000000,31.698547000000,0 115.515068000000,31.682855000000,0 115.495376000000,31.672938000000,0 115.486128000000,31.661180000000,0 115.484241000000,31.649061000000,0 115.477132000000,31.645431000000,0 115.490658000000,31.623593000000,0 115.486569000000,31.610089000000,0 115.475370000000,31.606712000000,0 115.440013000000,31.588703000000,0 115.438881000000,31.579953000000,0 115.428249000000,31.563371000000,0 115.431583000000,31.559021000000,0 115.428563000000,31.547196000000,0 115.415918000000,31.525950000000,0 115.398366000000,31.516067000000,0 115.389621000000,31.507566000000,0 115.377164000000,31.502957000000,0 115.371565000000,31.495838000000,0 115.377667000000,31.470532000000,0 115.389809000000,31.450293000000,0 115.385657000000,31.443324000000,0 115.383392000000,31.418671000000,0 115.373641000000,31.405752000000,0 115.355271000000,31.399958000000,0 115.335957000000,31.403394000000,0 115.327212000000,31.391139000000,0 115.313560000000,31.383448000000,0 115.301103000000,31.384063000000,0 115.294057000000,31.395036000000,0 115.281349000000,31.399856000000,0 115.260399000000,31.387396000000,0 115.250459000000,31.391755000000,0 115.260273000000,31.412160000000,0 115.252598000000,31.421695000000,0 115.232969000000,31.427077000000,0 115.220512000000,31.426718000000,0 115.210509000000,31.445476000000,0 115.217052000000,31.462898000000,0 115.216926000000,31.481598000000,0 115.212334000000,31.490101000000,0 115.219506000000,31.506901000000,0 115.218248000000,31.515299000000,0 115.230578000000,31.538238000000,0 115.235611000000,31.556206000000,0 115.212586000000,31.555540000000,0 115.207238000000,31.564241000000,0 115.192957000000,31.564037000000,0 115.192831000000,31.569564000000,0 115.180374000000,31.577752000000,0 115.176851000000,31.598834000000,0 115.164395000000,31.604564000000,0 115.134826000000,31.602415000000,0 115.125389000000,31.599089000000,0 115.127276000000,31.579083000000,0 115.106767000000,31.567466000000,0 115.103055000000,31.555745000000,0 115.110479000000,31.550780000000,0 115.105949000000,31.540029000000,0 115.113373000000,31.528971000000,0 115.102112000000,31.520573000000,0 115.092801000000,31.519088000000,0 115.096198000000,31.508437000000,0 115.066314000000,31.510537000000,0 115.048951000000,31.517552000000,0 115.038444000000,31.517040000000,0 115.030329000000,31.527691000000,0 115.023094000000,31.527588000000,0 115.010008000000,31.504903000000,0 115.001704000000,31.499987000000,0 115.010826000000,31.488206000000,0 115.002018000000,31.485286000000,0 114.998306000000,31.471608000000,0 114.985346000000,31.477705000000,0 114.976098000000,31.495889000000,0 114.964019000000,31.495377000000,0 114.939924000000,31.477141000000,0 114.936464000000,31.469764000000,0 114.925265000000,31.480471000000,0 114.896388000000,31.474375000000,0 114.886700000000,31.469457000000,0 114.876760000000,31.470584000000,0 114.875313000000,31.478268000000,0 114.850651000000,31.476168000000,0 114.841529000000,31.461976000000,0 114.829827000000,31.458902000000,0 114.824165000000,31.469969000000,0 114.813030000000,31.478832000000,0 114.789438000000,31.480522000000,0 114.783020000000,31.484620000000,0 114.783083000000,31.494814000000,0 114.774653000000,31.500909000000,0 114.774024000000,31.512431000000,0 114.778868000000,31.520727000000,0 114.771004000000,31.520522000000,0 114.757038000000,31.527230000000,0 114.747223000000,31.524004000000,0 114.739485000000,31.527179000000,0 114.723317000000,31.520625000000,0 114.717214000000,31.527947000000,0 114.696579000000,31.525847000000,0 114.699850000000,31.546121000000,0 114.678523000000,31.544023000000,0 114.670093000000,31.547043000000,0 114.656944000000,31.562859000000,0 114.653044000000,31.572686000000,0 114.644425000000,31.574682000000,0 114.641719000000,31.582153000000,0 114.616743000000,31.585326000000,0 114.612025000000,31.578469000000,0 114.595605000000,31.576319000000,0 114.587363000000,31.560607000000,0 114.574970000000,31.559533000000,0 114.572453000000,31.554056000000,0 114.561066000000,31.560966000000,0 114.548924000000,31.609782000000,0 114.548295000000,31.625127000000,0 114.552950000000,31.635203000000,0 114.549679000000,31.642465000000,0 114.559179000000,31.656067000000,0 114.570817000000,31.660106000000,0 114.574215000000,31.689142000000,0 114.586168000000,31.692567000000,0 114.591390000000,31.700335000000,0 114.579122000000,31.708154000000,0 114.579751000000,31.724659000000,0 114.584092000000,31.731863000000,0 114.581575000000,31.742540000000,0 114.587615000000,31.754033000000,0 114.582519000000,31.764758000000,0 114.572768000000,31.762562000000,0 114.554963000000,31.768538000000,0 114.549490000000,31.765422000000,0 114.550308000000,31.753165000000,0 114.545275000000,31.746167000000,0 114.530679000000,31.742897000000,0 114.521305000000,31.766903000000,0 114.509667000000,31.766852000000,0 114.504319000000,31.756433000000,0 114.508660000000,31.740701000000,0 114.488843000000,31.735694000000,0 114.471982000000,31.740956000000,0 114.461350000000,31.733242000000,0 114.450844000000,31.737636000000,0 114.446566000000,31.728031000000,0 114.430900000000,31.734928000000,0 114.419136000000,31.733140000000,0 114.416305000000,31.742080000000,0 114.399822000000,31.746933000000,0 114.390007000000,31.741007000000,0 114.373839000000,31.744277000000,0 114.350373000000,31.755412000000,0 114.321496000000,31.755106000000,0 114.313946000000,31.751990000000,0 114.292808000000,31.752296000000,0 114.287523000000,31.762052000000,0 114.264372000000,31.788503000000,0 114.262044000000,31.796315000000,0 114.248518000000,31.810507000000,0 114.235432000000,31.833372000000,0 114.236439000000,31.841895000000,0 114.221277000000,31.832403000000,0 114.208883000000,31.842762000000,0 114.194979000000,31.850161000000,0 114.180258000000,31.854039000000,0 114.166983000000,31.851028000000,0 114.162768000000,31.841078000000,0 114.150060000000,31.839241000000,0 114.134080000000,31.842813000000,0 114.127160000000,31.835363000000,0 114.127915000000,31.826330000000,0 114.119233000000,31.805759000000,0 114.099164000000,31.803411000000,0 114.089853000000,31.794834000000,0 114.086644000000,31.782223000000,0 114.072300000000,31.784878000000,0 114.063744000000,31.781917000000,0 114.059089000000,31.772266000000,0 114.048079000000,31.773389000000,0 114.038328000000,31.768844000000,0 114.015805000000,31.770274000000,0 113.988753000000,31.750202000000,0 113.978939000000,31.753778000000,0 113.972459000000,31.763124000000,0 113.972333000000,31.771653000000,0 113.965350000000,31.785644000000,0 113.952578000000,31.793864000000,0 113.953019000000,31.813518000000,0 113.946979000000,31.826483000000,0 113.956416000000,31.840262000000,0 113.954906000000,31.856334000000,0 113.933516000000,31.869395000000,0 113.931440000000,31.880974000000,0 113.914957000000,31.876995000000,0 113.906589000000,31.868528000000,0 113.896398000000,31.849344000000,0 113.872931000000,31.840670000000,0 113.867206000000,31.845058000000,0 113.858902000000,31.841078000000,0 113.838644000000,31.854702000000,0 113.838204000000,31.868681000000,0 113.831221000000,31.878985000000,0 113.835310000000,31.892858000000,0 113.835876000000,31.910961000000,0 113.832479000000,31.918660000000,0 113.816310000000,31.923249000000,0 113.805112000000,31.931508000000,0 113.807314000000,31.948890000000,0 113.816247000000,31.966880000000,0 113.798506000000,31.974116000000,0 113.788189000000,31.974014000000,0 113.776109000000,31.980434000000,0 113.768623000000,31.979466000000,0 113.759438000000,31.986447000000,0 113.758934000000,32.000915000000,0 113.769881000000,32.017010000000,0 113.779255000000,32.018895000000,0 113.791271000000,32.036006000000,0 113.781331000000,32.048786000000,0 113.763779000000,32.054743000000,0 113.747421000000,32.069760000000,0 113.744905000000,32.076784000000,0 113.728485000000,32.083197000000,0 113.728359000000,32.099380000000,0 113.722445000000,32.124260000000,0 113.736978000000,32.121564000000,0 113.739872000000,32.113067000000,0 113.750315000000,32.116324000000,0 113.766169000000,32.138350000000,0 113.763716000000,32.161694000000,0 113.783344000000,32.189657000000,0 113.777934000000,32.207956000000,0 113.764659000000,32.204195000000,0 113.752643000000,32.216189000000,0 113.748365000000,32.234788000000,0 113.740438000000,32.242815000000,0 113.739369000000,32.257598000000,0 113.749812000000,32.260291000000,0 113.749057000000,32.272684000000,0 113.743898000000,32.283603000000,0 113.748491000000,32.291931000000,0 113.769063000000,32.301324000000,0 113.773907000000,32.306147000000,0 113.765100000000,32.319448000000,0 113.753838000000,32.328230000000,0 113.753838000000,32.342085000000,0 113.758494000000,32.352235000000,0 113.770699000000,32.358628000000,0 113.768874000000,32.369486000000,0 113.760381000000,32.369182000000,0 113.751448000000,32.360810000000,0 113.743835000000,32.369435000000,0 113.753209000000,32.384350000000,0 113.751699000000,32.390031000000,0 113.740753000000,32.393125000000,0 113.735279000000,32.410876000000,0 113.718608000000,32.417215000000,0 113.707850000000,32.410318000000,0 113.702187000000,32.420206000000,0</coordinates></LinearRing></outerBoundaryIs><innerBoundaryIs><LinearRing><coordinates>113.758494000000,32.291931000000,0 113.754027000000,32.288275000000,0 113.758305000000,32.276747000000,0 113.769944000000,32.275985000000,0 113.768182000000,32.284060000000,0 113.758494000000,32.291931000000,0</coordinates></LinearRing></innerBoundaryIs></Polygon><Polygon><outerBoundaryIs><LinearRing><coordinates>111.015833000000,33.174057000000,0 111.032064000000,33.188686000000,0 111.037789000000,33.184816000000,0 111.033889000000,33.178029000000,0 111.015833000000,33.174057000000,0</coordinates></LinearRing></outerBoundaryIs></Polygon><Polygon><outerBoundaryIs><LinearRing><coordinates>115.504939000000,35.899079000000,0 115.497264000000,35.895041000000,0 115.490343000000,35.899858000000,0 115.490721000000,35.908372000000,0 115.505442000000,35.914405000000,0 115.510790000000,35.907983000000,0 115.504939000000,35.899079000000,0</coordinates></LinearRing></outerBoundaryIs></Polygon></MultiGeometry>
    </Placemark>
  </Document>
</kml>
