<?xml version="1.0" encoding="UTF-8"?>
<kml xmlns="http://www.opengis.net/kml/2.2">
  <Document>
    <name>济源市</name>
    <Placemark>
      <name>济源市</name>
      <Polygon><outerBoundaryIs><LinearRing><coordinates>112.758000000000,35.204436000000,0 112.744662000000,35.205123000000,0 112.735351000000,35.210424000000,0 112.720315000000,35.206448000000,0 112.712640000000,35.187010000000,0 112.703077000000,35.201540000000,0 112.707418000000,35.216951000000,0 112.695339000000,35.218718000000,0 112.684267000000,35.227256000000,0 112.682694000000,35.233733000000,0 112.672880000000,35.234272000000,0 112.655012000000,35.244232000000,0 112.651426000000,35.259242000000,0 112.645009000000,35.260566000000,0 112.639159000000,35.247862000000,0 112.633056000000,35.265569000000,0 112.618335000000,35.254043000000,0 112.617643000000,35.244575000000,0 112.634188000000,35.239326000000,0 112.637208000000,35.225686000000,0 112.619027000000,35.220043000000,0 112.602544000000,35.222840000000,0 112.574988000000,35.221122000000,0 112.567879000000,35.211749000000,0 112.559071000000,35.212780000000,0 112.536234000000,35.223429000000,0 112.513523000000,35.218570000000,0 112.489805000000,35.229955000000,0 112.482444000000,35.224655000000,0 112.472378000000,35.230298000000,0 112.457720000000,35.226373000000,0 112.423999000000,35.238050000000,0 112.401413000000,35.241877000000,0 112.390718000000,35.238786000000,0 112.376751000000,35.224115000000,0 112.367315000000,35.220190000000,0 112.320697000000,35.219110000000,0 112.306667000000,35.220975000000,0 112.288548000000,35.217540000000,0 112.304465000000,35.251884000000,0 112.294462000000,35.252816000000,0 112.282823000000,35.242024000000,0 112.261307000000,35.241190000000,0 112.242748000000,35.234812000000,0 112.216640000000,35.240209000000,0 112.220792000000,35.247028000000,0 112.217269000000,35.253258000000,0 112.191097000000,35.256348000000,0 112.173545000000,35.263803000000,0 112.134287000000,35.271258000000,0 112.120006000000,35.265275000000,0 112.110947000000,35.270130000000,0 112.115665000000,35.273072000000,0 112.093961000000,35.279202000000,0 112.075842000000,35.277143000000,0 112.058793000000,35.279889000000,0 112.055018000000,35.271454000000,0 112.067978000000,35.265275000000,0 112.079617000000,35.242367000000,0 112.081190000000,35.221613000000,0 112.058919000000,35.206301000000,0 112.042058000000,35.200264000000,0 112.041492000000,35.189808000000,0 112.051935000000,35.177044000000,0 112.066279000000,35.153522000000,0 112.060177000000,35.140752000000,0 112.067223000000,35.136233000000,0 112.056276000000,35.098449000000,0 112.056591000000,35.089061000000,0 112.062756000000,35.078591000000,0 112.062127000000,35.055779000000,0 112.053571000000,35.044223000000,0 112.038912000000,35.045501000000,0 112.035075000000,35.033845000000,0 112.042436000000,35.027845000000,0 112.093520000000,35.029911000000,0 112.108242000000,35.029222000000,0 112.125857000000,35.021204000000,0 112.151400000000,35.015399000000,0 112.169896000000,35.002410000000,0 112.187700000000,34.972981000000,0 112.212047000000,34.965007000000,0 112.226831000000,34.956589000000,0 112.247844000000,34.940735000000,0 112.258099000000,34.942212000000,0 112.267284000000,34.953537000000,0 112.281880000000,34.960232000000,0 112.301068000000,34.945462000000,0 112.321200000000,34.941375000000,0 112.334537000000,34.941425000000,0 112.360268000000,34.931428000000,0 112.384993000000,34.924533000000,0 112.390970000000,34.918574000000,0 112.433247000000,34.920987000000,0 112.462501000000,34.915668000000,0 112.489616000000,34.902860000000,0 112.496536000000,34.895717000000,0 112.505659000000,34.898821000000,0 112.521072000000,34.892761000000,0 112.534221000000,34.893746000000,0 112.537304000000,34.916013000000,0 112.527426000000,34.929163000000,0 112.515976000000,34.929212000000,0 112.511447000000,34.920840000000,0 112.496914000000,34.921726000000,0 112.505155000000,34.942459000000,0 112.519436000000,34.940341000000,0 112.527867000000,34.932019000000,0 112.551207000000,34.938569000000,0 112.563853000000,34.949696000000,0 112.569200000000,34.958608000000,0 112.579392000000,34.971751000000,0 112.596001000000,34.971013000000,0 112.614182000000,34.980020000000,0 112.624752000000,34.977903000000,0 112.644695000000,34.978888000000,0 112.653062000000,34.988681000000,0 112.666462000000,34.987500000000,0 112.675962000000,34.993504000000,0 112.684581000000,35.012497000000,0 112.698988000000,35.023221000000,0 112.727110000000,35.035026000000,0 112.735289000000,35.043338000000,0 112.736043000000,35.060008000000,0 112.743341000000,35.064580000000,0 112.753219000000,35.085080000000,0 112.754288000000,35.098891000000,0 112.766304000000,35.107196000000,0 112.761963000000,35.158041000000,0 112.766870000000,35.182985000000,0 112.758000000000,35.204436000000,0</coordinates></LinearRing></outerBoundaryIs></Polygon>
    </Placemark>
  </Document>
</kml>
