<?xml version="1.0" encoding="UTF-8"?>
<kml xmlns="http://www.opengis.net/kml/2.2">
  <Document>
    <name>漯河市</name>
    <Placemark>
      <name>漯河市</name>
      <Polygon><outerBoundaryIs><LinearRing><coordinates>113.688347000000,33.407737000000,0 113.693065000000,33.418216000000,0 113.710429000000,33.417013000000,0 113.713197000000,33.430249000000,0 113.721187000000,33.432705000000,0 113.766861000000,33.432154000000,0 113.771139000000,33.435713000000,0 113.799513000000,33.434810000000,0 113.805804000000,33.446189000000,0 113.825999000000,33.460723000000,0 113.847515000000,33.466836000000,0 113.856134000000,33.477960000000,0 113.865508000000,33.479362000000,0 113.914139000000,33.478511000000,0 113.933768000000,33.465884000000,0 113.945280000000,33.465633000000,0 113.954340000000,33.473901000000,0 113.967929000000,33.477408000000,0 113.971200000000,33.482619000000,0 113.981329000000,33.482268000000,0 113.998693000000,33.500904000000,0 114.001084000000,33.510671000000,0 114.013540000000,33.511071000000,0 114.014924000000,33.522039000000,0 114.033735000000,33.523892000000,0 114.038579000000,33.529600000000,0 114.052168000000,33.528999000000,0 114.055692000000,33.523942000000,0 114.075572000000,33.517782000000,0 114.099101000000,33.503108000000,0 114.116276000000,33.510270000000,0 114.118101000000,33.502406000000,0 114.104071000000,33.499351000000,0 114.103505000000,33.491586000000,0 114.115836000000,33.488631000000,0 114.130683000000,33.495093000000,0 114.131501000000,33.472298000000,0 114.151507000000,33.468139000000,0 114.150312000000,33.460372000000,0 114.159937000000,33.456713000000,0 114.171639000000,33.459019000000,0 114.180384000000,33.453656000000,0 114.171324000000,33.440926000000,0 114.190575000000,33.426489000000,0 114.195294000000,33.447692000000,0 114.211399000000,33.453757000000,0 114.230714000000,33.451551000000,0 114.247574000000,33.459670000000,0 114.266636000000,33.461625000000,0 114.284629000000,33.472548000000,0 114.279785000000,33.489282000000,0 114.283371000000,33.500353000000,0 114.281106000000,33.513976000000,0 114.289348000000,33.522089000000,0 114.295324000000,33.553782000000,0 114.282868000000,33.558688000000,0 114.278653000000,33.570150000000,0 114.265378000000,33.593219000000,0 114.265881000000,33.597923000000,0 114.279659000000,33.604427000000,0 114.277332000000,33.621735000000,0 114.264938000000,33.635239000000,0 114.264183000000,33.654742000000,0 114.260849000000,33.661942000000,0 114.259842000000,33.680588000000,0 114.250783000000,33.693233000000,0 114.249084000000,33.704328000000,0 114.214231000000,33.691334000000,0 114.196489000000,33.690934000000,0 114.186549000000,33.682538000000,0 114.186235000000,33.672190000000,0 114.169563000000,33.664791000000,0 114.162265000000,33.669941000000,0 114.152639000000,33.662242000000,0 114.149745000000,33.650442000000,0 114.125398000000,33.652842000000,0 114.116402000000,33.651392000000,0 114.118226000000,33.671590000000,0 114.115836000000,33.684587000000,0 114.097717000000,33.683187000000,0 114.091489000000,33.716420000000,0 114.095263000000,33.728061000000,0 114.106839000000,33.739051000000,0 114.103190000000,33.756832000000,0 114.098032000000,33.765072000000,0 114.133262000000,33.768118000000,0 114.142007000000,33.765921000000,0 114.139931000000,33.783097000000,0 114.133703000000,33.791484000000,0 114.134772000000,33.806409000000,0 114.145404000000,33.810551000000,0 114.155030000000,33.809304000000,0 114.159623000000,33.816191000000,0 114.145971000000,33.841939000000,0 114.132445000000,33.853613000000,0 114.115081000000,33.863788000000,0 114.116465000000,33.872068000000,0 114.128418000000,33.885433000000,0 114.125902000000,33.915547000000,0 114.114515000000,33.928058000000,0 114.103757000000,33.925815000000,0 114.103882000000,33.934736000000,0 114.087336000000,33.934686000000,0 114.076704000000,33.952676000000,0 114.064877000000,33.949237000000,0 114.057453000000,33.952875000000,0 114.059152000000,33.965380000000,0 114.053867000000,33.978781000000,0 114.037762000000,33.986053000000,0 114.021971000000,33.987248000000,0 113.999070000000,33.981819000000,0 113.977492000000,33.981520000000,0 113.951949000000,33.973650000000,0 113.922066000000,33.957409000000,0 113.916341000000,33.945849000000,0 113.901305000000,33.948490000000,0 113.900550000000,33.943009000000,0 113.888030000000,33.943407000000,0 113.885765000000,33.948988000000,0 113.870226000000,33.945401000000,0 113.859783000000,33.948590000000,0 113.857455000000,33.939769000000,0 113.871296000000,33.909615000000,0 113.860097000000,33.907222000000,0 113.861481000000,33.884486000000,0 113.853051000000,33.873315000000,0 113.826565000000,33.875808000000,0 113.811718000000,33.879449000000,0 113.811969000000,33.885782000000,0 113.806936000000,33.880995000000,0 113.797814000000,33.883887000000,0 113.783030000000,33.880945000000,0 113.778060000000,33.884934000000,0 113.765540000000,33.883638000000,0 113.773719000000,33.877654000000,0 113.760318000000,33.868477000000,0 113.738802000000,33.868627000000,0 113.735908000000,33.859199000000,0 113.725528000000,33.856406000000,0 113.722445000000,33.848624000000,0 113.729554000000,33.845032000000,0 113.731127000000,33.835652000000,0 113.759312000000,33.827918000000,0 113.761262000000,33.807756000000,0 113.752958000000,33.791484000000,0 113.752895000000,33.771463000000,0 113.742703000000,33.766720000000,0 113.734399000000,33.752337000000,0 113.737167000000,33.741948000000,0 113.750378000000,33.739800000000,0 113.762206000000,33.731808000000,0 113.759060000000,33.717519000000,0 113.743710000000,33.713422000000,0 113.741822000000,33.702329000000,0 113.724018000000,33.695632000000,0 113.716406000000,33.710624000000,0 113.710303000000,33.707876000000,0 113.706780000000,33.693683000000,0 113.701936000000,33.691234000000,0 113.684257000000,33.693833000000,0 113.670983000000,33.699081000000,0 113.645063000000,33.695932000000,0 113.637388000000,33.702679000000,0 113.637954000000,33.695532000000,0 113.629335000000,33.688885000000,0 113.612475000000,33.695732000000,0 113.598256000000,33.687536000000,0 113.596746000000,33.698081000000,0 113.608700000000,33.709175000000,0 113.585485000000,33.711024000000,0 113.576677000000,33.706327000000,0 113.584101000000,33.698131000000,0 113.580515000000,33.681738000000,0 113.587624000000,33.654642000000,0 113.596746000000,33.651892000000,0 113.619143000000,33.637990000000,0 113.628203000000,33.629038000000,0 113.621534000000,33.619885000000,0 113.604673000000,33.613131000000,0 113.579383000000,33.597222000000,0 113.576803000000,33.592619000000,0 113.552267000000,33.586715000000,0 113.554281000000,33.570600000000,0 113.563151000000,33.570550000000,0 113.557363000000,33.553582000000,0 113.545536000000,33.548626000000,0 113.537672000000,33.516330000000,0 113.533708000000,33.514978000000,0 113.537609000000,33.498499000000,0 113.532073000000,33.497347000000,0 113.525278000000,33.505061000000,0 113.510808000000,33.505011000000,0 113.503070000000,33.500252000000,0 113.483001000000,33.500152000000,0 113.478597000000,33.504310000000,0 113.484322000000,33.483721000000,0 113.471803000000,33.463378000000,0 113.473501000000,33.443683000000,0 113.466518000000,33.437367000000,0 113.468846000000,33.422077000000,0 113.483945000000,33.421124000000,0 113.506341000000,33.414607000000,0 113.517540000000,33.407186000000,0 113.526662000000,33.419269000000,0 113.539811000000,33.419019000000,0 113.547360000000,33.406433000000,0 113.574727000000,33.407537000000,0 113.589008000000,33.404728000000,0 113.596809000000,33.412150000000,0 113.620842000000,33.410946000000,0 113.645252000000,33.421776000000,0 113.651669000000,33.418417000000,0 113.659407000000,33.424283000000,0 113.683125000000,33.419520000000,0 113.688347000000,33.407737000000,0</coordinates></LinearRing></outerBoundaryIs></Polygon>
    </Placemark>
  </Document>
</kml>
