<?xml version="1.0" encoding="UTF-8"?>
<kml xmlns="http://www.opengis.net/kml/2.2">
  <Document>
    <name><![CDATA[遵义市]]></name>
    <Placemark>
      <name><![CDATA[遵义市]]></name>
      <description><![CDATA[省级目录：贵州省]]></description>
      <ExtendedData>
        <Data name="adcode"><value>520300</value></Data>
      </ExtendedData>
      <MultiGeometry>
      <Polygon>
        <outerBoundaryIs><LinearRing><coordinates>108.069398,29.086552,0 108.035999,29.054051,0 108.0345,29.046737,0 108.024246,29.0387,0 107.993904,29.033823,0 107.949291,29.033733,0 107.931122,29.035223,0 107.908815,29.007359,0 107.887648,29.008533,0 107.883031,28.986534,0 107.871998,28.983056,0 107.86756,28.960464,0 107.842016,28.964622,0 107.828104,28.976143,0 107.810415,28.984321,0 107.821208,29.005733,0 107.823547,29.03423,0 107.815092,29.034772,0 107.803459,29.042899,0 107.78523,29.047234,0 107.789847,29.082355,0 107.799981,29.106183,0 107.810655,29.139389,0 107.795184,29.146471,0 107.782352,29.161671,0 107.775216,29.162843,0 107.767901,29.17511,0 107.760285,29.17768,0 107.759386,29.192289,0 107.751591,29.199638,0 107.739418,29.189043,0 107.724727,29.182189,0 107.727245,29.175696,0 107.718491,29.156123,0 107.707577,29.154184,0 107.698643,29.141239,0 107.662604,29.147914,0 107.659486,29.162888,0 107.645874,29.160859,0 107.628785,29.16582,0 107.616912,29.162979,0 107.606718,29.165459,0 107.600602,29.159596,0 107.601022,29.147824,0 107.589269,29.150034,0 107.585071,29.158333,0 107.590168,29.165279,0 107.581174,29.172539,0 107.576256,29.18512,0 107.575477,29.207302,0 107.569301,29.219427,0 107.55437,29.219472,0 107.549573,29.210052,0 107.532243,29.19549,0 107.515333,29.194498,0 107.48829,29.174704,0 107.473059,29.171006,0 107.462325,29.176868,0 107.464004,29.195445,0 107.441458,29.203966,0 107.427067,29.190305,0 107.4044,29.18787,0 107.403261,29.172494,0 107.412316,29.1614,0 107.408238,29.150891,0 107.408418,29.138352,0 107.42149,29.13578,0 107.427606,29.128291,0 107.412675,29.095398,0 107.392288,29.091246,0 107.382034,29.097519,0 107.369741,29.091607,0 107.376097,29.074772,0 107.377896,29.057979,0 107.390729,29.059063,0 107.395166,29.039648,0 107.377297,29.026779,0 107.364165,29.009617,0 107.370461,28.993898,0 107.396965,28.993356,0 107.40446,28.981881,0 107.40554,28.972258,0 107.412975,28.960148,0 107.42155,28.954545,0 107.43876,28.955268,0 107.441038,28.943789,0 107.433603,28.933755,0 107.42089,28.925212,0 107.413815,28.911424,0 107.415614,28.889811,0 107.406139,28.89153,0 107.391928,28.868466,0 107.395406,28.860867,0 107.383473,28.848564,0 107.367283,28.84499,0 107.359907,28.849966,0 107.331964,28.84119,0 107.345156,28.829608,0 107.325368,28.809562,0 107.304621,28.806757,0 107.277157,28.799154,0 107.261447,28.792727,0 107.252392,28.780551,0 107.253532,28.766789,0 107.246636,28.761854,0 107.219232,28.772719,0 107.218753,28.788698,0 107.213416,28.795035,0 107.210598,28.814812,0 107.216354,28.82816,0 107.226368,28.836802,0 107.195127,28.838068,0 107.196866,28.847388,0 107.20652,28.868014,0 107.194048,28.876607,0 107.198425,28.878416,0 107.193568,28.888771,0 107.184094,28.879953,0 107.182654,28.887144,0 107.167124,28.880586,0 107.155851,28.882983,0 107.145777,28.876878,0 107.141939,28.887731,0 107.096666,28.890083,0 107.09025,28.875114,0 107.072681,28.866612,0 107.059789,28.868466,0 107.063386,28.877059,0 107.072321,28.87932,0 107.066565,28.895373,0 107.052533,28.891123,0 107.045577,28.874933,0 107.058709,28.868964,0 107.038981,28.863717,0 107.038861,28.877963,0 107.032385,28.882305,0 107.016075,28.882486,0 107.019133,28.860687,0 107.005162,28.859194,0 107.002643,28.85449,0 106.983395,28.851187,0 106.989271,28.829563,0 106.980816,28.813183,0 106.981356,28.804268,0 106.988672,28.790328,0 106.987892,28.774666,0 106.967804,28.774123,0 106.951734,28.76697,0 106.950235,28.777608,0 106.94226,28.782135,0 106.938422,28.792365,0 106.923071,28.810015,0 106.905382,28.796121,0 106.897887,28.801145,0 106.886373,28.794718,0 106.874261,28.779736,0 106.864607,28.774485,0 106.862328,28.780596,0 106.845358,28.781003,0 106.838462,28.765974,0 106.833366,28.768781,0 106.824071,28.756149,0 106.828329,28.737675,0 106.852914,28.724451,0 106.862568,28.707556,0 106.853933,28.706333,0 106.854713,28.697092,0 106.862148,28.690976,0 106.883195,28.692426,0 106.880617,28.68051,0 106.866945,28.649921,0 106.869764,28.64906,0 106.866346,28.624492,0 106.829288,28.622724,0 106.833246,28.613203,0 106.827069,28.598558,0 106.807701,28.589443,0 106.800505,28.60214,0 106.79343,28.606493,0 106.79259,28.616241,0 106.780358,28.624991,0 106.775021,28.611979,0 106.75907,28.611118,0 106.758591,28.588128,0 106.766626,28.580146,0 106.780957,28.574885,0 106.779878,28.563773,0 106.765127,28.558193,0 106.754333,28.558329,0 106.737364,28.553294,0 106.728189,28.541998,0 106.723992,28.529883,0 106.72603,28.518584,0 106.744859,28.489855,0 106.746658,28.466658,0 106.732866,28.46357,0 106.725251,28.454444,0 106.716196,28.456396,0 106.708521,28.450493,0 106.69329,28.456532,0 106.697668,28.476645,0 106.688253,28.484681,0 106.678359,28.481367,0 106.66109,28.491898,0 106.649756,28.479551,0 106.631108,28.490264,0 106.632727,28.503517,0 106.61018,28.497935,0 106.593391,28.510189,0 106.584936,28.506876,0 106.591532,28.499069,0 106.591832,28.490355,0 106.568026,28.484045,0 106.562809,28.49739,0 106.567906,28.505287,0 106.560291,28.513366,0 106.568685,28.523667,0 106.584636,28.523258,0 106.588893,28.531426,0 106.615277,28.549665,0 106.616836,28.56282,0 106.607062,28.594296,0 106.613059,28.608851,0 106.626011,28.604317,0 106.633566,28.607627,0 106.636804,28.623223,0 106.628589,28.634465,0 106.618875,28.637276,0 106.617676,28.644256,0 106.641182,28.644165,0 106.651376,28.649423,0 106.6437,28.664333,0 106.635245,28.658487,0 106.62685,28.659257,0 106.617676,28.667279,0 106.614258,28.680283,0 106.619175,28.689164,0 106.606103,28.685041,0 106.598068,28.691882,0 106.587274,28.691519,0 106.582357,28.702211,0 106.576841,28.702392,0 106.560291,28.720737,0 106.559751,28.733871,0 106.563888,28.746188,0 106.56185,28.756059,0 106.547998,28.769867,0 106.534026,28.770909,0 106.533787,28.77874,0 106.523053,28.781139,0 106.521134,28.794266,0 106.508782,28.79585,0 106.490613,28.80653,0 106.476221,28.826757,0 106.474482,28.833046,0 106.46183,28.83101,0 106.468426,28.826441,0 106.453495,28.816939,0 106.451396,28.808114,0 106.459611,28.805716,0 106.46279,28.797207,0 106.451696,28.792817,0 106.454515,28.7753,0 106.46207,28.76122,0 106.493851,28.739486,0 106.498108,28.717476,0 106.510341,28.715166,0 106.515857,28.688122,0 106.52827,28.677655,0 106.520175,28.662112,0 106.502785,28.661297,0 106.506683,28.635598,0 106.501046,28.628119,0 106.501526,28.618553,0 106.49499,28.615153,0 106.49433,28.60019,0 106.513339,28.577017,0 106.524072,28.577833,0 106.508782,28.564861,0 106.498828,28.585861,0 106.473823,28.598966,0 106.467347,28.588536,0 106.47892,28.575021,0 106.487255,28.558828,0 106.504704,28.544674,0 106.501166,28.534511,0 106.493371,28.538323,0 106.483837,28.530609,0 106.471604,28.532606,0 106.467287,28.541589,0 106.453075,28.54472,0 106.454035,28.549755,0 106.441622,28.559418,0 106.434067,28.556696,0 106.423213,28.562684,0 106.41296,28.563138,0 106.399108,28.571166,0 106.385676,28.560824,0 106.389814,28.553249,0 106.373563,28.537642,0 106.3786,28.532606,0 106.373743,28.524983,0 106.374523,28.510915,0 106.380579,28.507375,0 106.376142,28.493305,0 106.3789,28.479732,0 106.352876,28.480277,0 106.349098,28.473785,0 106.341363,28.480686,0 106.330689,28.482138,0 106.323674,28.494939,0 106.306824,28.503245,0 106.293992,28.526934,0 106.292612,28.537324,0 106.278041,28.538867,0 106.277262,28.532878,0 106.254835,28.539412,0 106.236186,28.560144,0 106.214779,28.573207,0 106.205605,28.567991,0 106.192593,28.577244,0 106.184798,28.589443,0 106.184857,28.600599,0 106.173344,28.612523,0 106.171246,28.628663,0 106.165729,28.636233,0 106.152057,28.636505,0 106.144622,28.644754,0 106.129331,28.640041,0 106.115659,28.642533,0 106.120756,28.632743,0 106.103427,28.636097,0 106.09821,28.654907,0 106.083039,28.661387,0 106.090295,28.669454,0 106.080461,28.686309,0 106.066429,28.692516,0 106.066969,28.686173,0 106.043163,28.693558,0 106.030811,28.695053,0 106.036087,28.706242,0 106.022955,28.708145,0 106.028892,28.719695,0 106.017918,28.722639,0 106.008924,28.738218,0 105.99951,28.742928,0 105.979242,28.74655,0 105.967789,28.761628,0 105.96563,28.736045,0 105.954597,28.724632,0 105.955916,28.713852,0 105.942304,28.71041,0 105.93337,28.702301,0 105.935588,28.681914,0 105.921916,28.679015,0 105.903568,28.669227,0 105.889476,28.670496,0 105.891935,28.651326,0 105.901049,28.648562,0 105.895652,28.643712,0 105.893733,28.623903,0 105.890256,28.621409,0 105.905906,28.611027,0 105.893434,28.605722,0 105.885039,28.595475,0 105.876164,28.602911,0 105.859494,28.597923,0 105.8505,28.606312,0 105.835988,28.59942,0 105.798391,28.603183,0 105.784959,28.611118,0 105.778483,28.59883,0 105.757676,28.59035,0 105.757256,28.602231,0 105.748801,28.615153,0 105.737708,28.614201,0 105.720678,28.590622,0 105.713003,28.586586,0 105.699931,28.5923,0 105.693155,28.588582,0 105.691835,28.56468,0 105.683381,28.557876,0 105.68464,28.534557,0 105.671208,28.536281,0 105.664492,28.523803,0 105.650101,28.522986,0 105.642245,28.517586,0 105.623897,28.518131,0 105.627974,28.507829,0 105.619399,28.484,0 105.614662,28.484227,0 105.609325,28.472196,0 105.619279,28.464024,0 105.611964,28.45517,0 105.612563,28.438913,0 105.631872,28.432147,0 105.643265,28.431511,0 105.648302,28.407846,0 105.642725,28.397715,0 105.650281,28.389537,0 105.652739,28.372407,0 105.660175,28.365272,0 105.654898,28.362364,0 105.65178,28.34282,0 105.639487,28.324227,0 105.639967,28.311042,0 105.649921,28.31909,0 105.658196,28.310633,0 105.670548,28.30986,0 105.683021,28.295582,0 105.688597,28.284349,0 105.705087,28.279846,0 105.711264,28.281711,0 105.730032,28.272159,0 105.738547,28.277299,0 105.735249,28.291671,0 105.740706,28.304858,0 105.761333,28.30936,0 105.786638,28.308814,0 105.771287,28.319453,0 105.771347,28.328819,0 105.785679,28.336501,0 105.792814,28.329455,0 105.797672,28.312361,0 105.808405,28.307223,0 105.823396,28.306904,0 105.83395,28.283348,0 105.85002,28.254237,0 105.863212,28.249187,0 105.874185,28.254601,0 105.875804,28.244865,0 105.890555,28.236266,0 105.881021,28.211829,0 105.871007,28.201953,0 105.860274,28.170042,0 105.860993,28.158158,0 105.868609,28.146729,0 105.878563,28.139033,0 105.876044,28.128239,0 105.895173,28.119767,0 105.903687,28.129195,0 105.927193,28.135435,0 105.936967,28.132247,0 105.945242,28.143541,0 105.963291,28.137894,0 105.970787,28.131245,0 105.976124,28.10806,0 105.985358,28.108379,0 105.986198,28.116032,0 106.013241,28.119949,0 106.020617,28.109153,0 106.033869,28.106966,0 106.036567,28.110702,0 106.027213,28.131245,0 106.037646,28.138349,0 106.060912,28.142949,0 106.071826,28.151237,0 106.093593,28.162666,0 106.112841,28.163577,0 106.125074,28.167083,0 106.145221,28.162848,0 106.177302,28.148596,0 106.191633,28.136755,0 106.207104,28.134251,0 106.211541,28.119083,0 106.226232,28.115895,0 106.231449,28.097992,0 106.249918,28.09257,0 106.254655,28.079493,0 106.266708,28.066551,0 106.265509,28.04987,0 106.256754,28.048503,0 106.243202,28.029084,0 106.24626,28.011987,0 106.268927,28.003323,0 106.283018,28.007199,0 106.294351,28.003643,0 106.301847,27.989916,0 106.315818,27.979518,0 106.317377,27.967659,0 106.325173,27.962595,0 106.328111,27.952879,0 106.314019,27.938507,0 106.308023,27.936728,0 106.309222,27.913592,0 106.300348,27.908709,0 106.304905,27.899352,0 106.325772,27.897937,0 106.333328,27.887987,0 106.325892,27.879313,0 106.338185,27.875341,0 106.339984,27.865343,0 106.334287,27.855115,0 106.317078,27.838767,0 106.319416,27.832007,0 106.32997,27.82575,0 106.344241,27.826846,0 106.341843,27.820178,0 106.321515,27.809398,0 106.306944,27.808667,0 106.268507,27.782168,0 106.242423,27.767317,0 106.23115,27.767317,0 106.224673,27.760965,0 106.206564,27.76293,0 106.193492,27.754384,0 106.179341,27.761925,0 106.165249,27.763158,0 106.143602,27.77376,0 106.127532,27.77865,0 106.105825,27.779929,0 106.079321,27.77568,0 106.063731,27.777142,0 106.059054,27.770607,0 106.062412,27.763341,0 106.023015,27.746979,0 106.004067,27.746842,0 106.001788,27.72362,0 106.005446,27.715162,0 106.009344,27.684022,0 106.005386,27.663897,0 106.013961,27.66097,0 106.035967,27.667877,0 106.059593,27.670621,0 106.063971,27.663211,0 106.086397,27.661427,0 106.086877,27.656212,0 106.109183,27.64871,0 106.106185,27.630912,0 106.115419,27.612013,0 106.127832,27.613615,0 106.134488,27.594988,0 106.153496,27.574801,0 106.162731,27.560563,0 106.172505,27.558685,0 106.210882,27.567705,0 106.233488,27.552504,0 106.245901,27.559601,0 106.238465,27.574938,0 106.243382,27.58272,0 106.261971,27.595949,0 106.277861,27.603226,0 106.275463,27.61064,0 106.282898,27.616223,0 106.292492,27.602448,0 106.310961,27.597505,0 106.317018,27.585604,0 106.334047,27.578692,0 106.338305,27.563218,0 106.336146,27.543666,0 106.318996,27.534187,0 106.310182,27.517745,0 106.310841,27.510966,0 106.323494,27.486686,0 106.333328,27.474636,0 106.354075,27.477843,0 106.364929,27.47239,0 106.374103,27.486136,0 106.404685,27.498323,0 106.415658,27.505744,0 106.433467,27.510966,0 106.454395,27.50524,0 106.462849,27.491588,0 106.475982,27.493466,0 106.485036,27.485724,0 106.512619,27.476056,0 106.522393,27.476377,0 106.52875,27.483204,0 106.524192,27.502904,0 106.536185,27.509408,0 106.54536,27.506156,0 106.548178,27.517424,0 106.563349,27.517836,0 106.583916,27.529424,0 106.59471,27.532447,0 106.61006,27.528874,0 106.621633,27.518844,0 106.640882,27.509408,0 106.651256,27.486594,0 106.670984,27.464371,0 106.696408,27.464646,0 106.705403,27.453143,0 106.703964,27.431326,0 106.718775,27.416702,0 106.720993,27.405378,0 106.712658,27.377681,0 106.696049,27.356904,0 106.695749,27.347867,0 106.714877,27.309235,0 106.72663,27.297027,0 106.735745,27.276097,0 106.735325,27.255898,0 106.754153,27.245062,0 106.74276,27.238955,0 106.737244,27.222377,0 106.745159,27.21806,0 106.760629,27.230827,0 106.76051,27.247909,0 106.772922,27.25273,0 106.79259,27.276602,0 106.798766,27.2895,0 106.79319,27.304416,0 106.795289,27.312631,0 106.820533,27.32424,0 106.840981,27.321257,0 106.857411,27.308042,0 106.866106,27.288215,0 106.880857,27.272058,0 106.894049,27.263427,0 106.905982,27.267697,0 106.913057,27.278852,0 106.926909,27.291336,0 106.934105,27.306252,0 106.957131,27.312539,0 106.993709,27.349427,0 107.005761,27.355207,0 107.018474,27.356491,0 107.0412,27.350711,0 107.065305,27.338142,0 107.087672,27.322542,0 107.098585,27.321533,0 107.150034,27.348876,0 107.170482,27.356629,0 107.200763,27.355803,0 107.209638,27.371398,0 107.238361,27.400013,0 107.248615,27.403544,0 107.244777,27.415694,0 107.260367,27.428071,0 107.266604,27.438477,0 107.268882,27.455756,0 107.266963,27.476148,0 107.275538,27.478943,0 107.28867,27.46735,0 107.308998,27.462446,0 107.33892,27.459926,0 107.352112,27.466846,0 107.359368,27.465654,0 107.35541,27.444527,0 107.376217,27.442877,0 107.37238,27.435772,0 107.384972,27.430455,0 107.399124,27.417803,0 107.400503,27.405699,0 107.376217,27.388,0 107.375978,27.36649,0 107.386711,27.361904,0 107.401762,27.363463,0 107.408778,27.353326,0 107.408838,27.343188,0 107.419511,27.342546,0 107.434802,27.372682,0 107.451772,27.36594,0 107.458608,27.368279,0 107.491768,27.37149,0 107.498304,27.364059,0 107.501722,27.349106,0 107.50418,27.315476,0 107.477256,27.297395,0 107.475158,27.280504,0 107.464724,27.277107,0 107.458488,27.268064,0 107.463585,27.251169,0 107.461066,27.240057,0 107.476777,27.24093,0 107.492007,27.230276,0 107.489789,27.223204,0 107.500402,27.216085,0 107.511496,27.203454,0 107.524628,27.207864,0 107.525767,27.218382,0 107.514014,27.237348,0 107.519711,27.244144,0 107.531224,27.224536,0 107.542917,27.215856,0 107.55347,27.216637,0 107.566662,27.225408,0 107.562225,27.236246,0 107.550112,27.252914,0 107.556588,27.257872,0 107.592986,27.267008,0 107.602221,27.267605,0 107.618531,27.25801,0 107.642636,27.267146,0 107.656308,27.267008,0 107.65247,27.253786,0 107.646474,27.247863,0 107.650432,27.238909,0 107.666382,27.234593,0 107.684431,27.235328,0 107.709016,27.22821,0 107.729584,27.226143,0 107.747453,27.217693,0 107.772938,27.21806,0 107.780973,27.209242,0 107.762384,27.203546,0 107.760405,27.191649,0 107.793745,27.188203,0 107.823607,27.186733,0 107.832901,27.192705,0 107.83506,27.185263,0 107.846093,27.183196,0 107.825646,27.171067,0 107.819469,27.159028,0 107.85119,27.16445,0 107.85161,27.150756,0 107.862703,27.141565,0 107.881952,27.142208,0 107.886389,27.146253,0 107.88483,27.15889,0 107.882971,27.175294,0 107.886689,27.17805,0 107.905098,27.175937,0 107.921408,27.189536,0 107.922967,27.196013,0 107.95169,27.192338,0 107.971298,27.199183,0 107.964102,27.209977,0 107.965901,27.214937,0 107.977834,27.21558,0 108.004698,27.226786,0 108.020708,27.229771,0 108.03336,27.238634,0 108.039716,27.258102,0 108.032641,27.269625,0 108.011833,27.274583,0 108.003558,27.286196,0 107.9999,27.302764,0 107.989347,27.305839,0 107.975915,27.317908,0 107.956547,27.312952,0 107.952049,27.328323,0 107.959365,27.339197,0 107.958106,27.350757,0 107.948452,27.354198,0 107.931362,27.346445,0 107.919369,27.332544,0 107.931422,27.321257,0 107.930822,27.31364,0 107.915352,27.314237,0 107.906117,27.325983,0 107.908276,27.33204,0 107.894364,27.345574,0 107.870619,27.341812,0 107.856707,27.330159,0 107.819829,27.324377,0 107.805318,27.331948,0 107.806817,27.347408,0 107.779953,27.351491,0 107.774557,27.359702,0 107.780913,27.373691,0 107.762264,27.385156,0 107.765802,27.391164,0 107.801001,27.394098,0 107.798302,27.404003,0 107.798062,27.43811,0 107.791766,27.443931,0 107.774257,27.443748,0 107.757407,27.453327,0 107.755188,27.459559,0 107.762924,27.475964,0 107.780793,27.486319,0 107.789128,27.485266,0 107.808016,27.491267,0 107.829124,27.542064,0 107.844774,27.555114,0 107.865702,27.551451,0 107.88513,27.551588,0 107.893705,27.556625,0 107.902639,27.568392,0 107.906837,27.591646,0 107.902579,27.612105,0 107.903119,27.627892,0 107.922187,27.666093,0 107.937118,27.680546,0 107.940776,27.691522,0 107.927944,27.7265,0 107.927764,27.745288,0 107.931722,27.753241,0 107.946233,27.767728,0 107.943954,27.779061,0 107.932501,27.778696,0 107.931842,27.793545,0 107.912833,27.80958,0 107.903599,27.826664,0 107.888368,27.844018,0 107.888608,27.878035,0 107.898802,27.897709,0 107.906177,27.904282,0 107.923686,27.90807,0 107.911634,27.929062,0 107.909595,27.937458,0 107.911394,27.962322,0 107.915172,27.973041,0 107.933341,28.001408,0 107.928004,28.009251,0 107.914692,28.018644,0 107.889267,28.051466,0 107.88441,28.063042,0 107.878114,28.05534,0 107.870918,28.058667,0 107.862164,28.037381,0 107.855328,28.038292,0 107.8359,28.031044,0 107.832122,28.049095,0 107.813293,28.047363,0 107.813233,28.06728,0 107.807057,28.069923,0 107.791886,28.066004,0 107.786549,28.07448,0 107.778874,28.072977,0 107.78595,28.083412,0 107.78487,28.093937,0 107.799022,28.125551,0 107.803219,28.147503,0 107.805618,28.174276,0 107.803399,28.183563,0 107.816052,28.17546,0 107.824027,28.183336,0 107.836439,28.184292,0 107.85167,28.202636,0 107.859225,28.200269,0 107.862224,28.211966,0 107.864982,28.247185,0 107.861204,28.261288,0 107.866001,28.288897,0 107.862583,28.30886,0 107.861564,28.339502,0 107.866481,28.358501,0 107.874456,28.370407,0 107.921108,28.370135,0 107.913792,28.382903,0 107.936039,28.384721,0 107.955647,28.380132,0 107.972497,28.383812,0 107.990246,28.368999,0 107.996662,28.369635,0 108.00098,28.384585,0 107.983051,28.397079,0 107.972557,28.398169,0 107.960744,28.411071,0 107.968839,28.423335,0 107.969199,28.439731,0 107.977294,28.447814,0 107.991146,28.441774,0 108.010754,28.446452,0 108.007876,28.434054,0 107.982571,28.431238,0 107.98323,28.422881,0 107.995643,28.427923,0 108.006197,28.424244,0 108.007636,28.415886,0 108.019509,28.403121,0 108.025745,28.401213,0 108.012313,28.39617,0 108.005897,28.389764,0 108.016151,28.384039,0 108.026165,28.368272,0 108.037138,28.365454,0 108.051709,28.388538,0 108.068259,28.422018,0 108.063942,28.433645,0 108.048711,28.444045,0 108.056146,28.454444,0 108.060104,28.472378,0 108.048171,28.489901,0 108.04991,28.500476,0 108.070058,28.516542,0 108.069938,28.526843,0 108.058245,28.541408,0 108.043554,28.548122,0 108.038517,28.5547,0 108.04991,28.566766,0 108.038457,28.58382,0 108.037558,28.592754,0 108.061543,28.613022,0 108.08283,28.620548,0 108.084269,28.627212,0 108.093024,28.621727,0 108.114491,28.628799,0 108.128882,28.644165,0 108.122586,28.652369,0 108.145013,28.669997,0 108.163242,28.677066,0 108.174575,28.690206,0 108.18189,28.712358,0 108.18219,28.741569,0 108.184649,28.74895,0 108.195322,28.750671,0 108.201379,28.763122,0 108.213671,28.776341,0 108.207495,28.817572,0 108.195082,28.802548,0 108.189446,28.800692,0 108.180751,28.81083,0 108.158744,28.845804,0 108.158085,28.856344,0 108.141295,28.855982,0 108.128643,28.869778,0 108.134819,28.902653,0 108.138417,28.932082,0 108.13224,28.943969,0 108.117309,28.950703,0 108.106996,28.961865,0 108.107895,28.975872,0 108.088347,28.999454,0 108.078993,29.007178,0 108.078873,29.023166,0 108.073536,29.05816,0 108.078573,29.07107,0 108.069398,29.086552,0</coordinates></LinearRing></outerBoundaryIs>
      </Polygon>
      <Polygon>
        <outerBoundaryIs><LinearRing><coordinates>107.939217,27.15071,0 107.940956,27.146253,0 107.956067,27.14878,0 107.955947,27.154387,0 107.945154,27.160269,0 107.938977,27.166839,0 107.929383,27.162658,0 107.931662,27.154019,0 107.939217,27.15071,0</coordinates></LinearRing></outerBoundaryIs>
      </Polygon>
    </MultiGeometry>
    </Placemark>
  </Document>
</kml>
