<?xml version="1.0" encoding="UTF-8"?>
<kml xmlns="http://www.opengis.net/kml/2.2">
  <Document>
    <name><![CDATA[铜仁市]]></name>
    <Placemark>
      <name><![CDATA[铜仁市]]></name>
      <description><![CDATA[省级目录：贵州省]]></description>
      <ExtendedData>
        <Data name="adcode"><value>520600</value></Data>
      </ExtendedData>
      <MultiGeometry>
      <Polygon>
        <outerBoundaryIs><LinearRing><coordinates>108.887124,27.121203,0 108.904933,27.134947,0 108.913688,27.157695,0 108.92676,27.160912,0 108.926041,27.175202,0 108.929758,27.180072,0 108.919145,27.193486,0 108.925741,27.199596,0 108.908651,27.204327,0 108.914228,27.214662,0 108.947088,27.228393,0 108.951465,27.236062,0 108.963458,27.235511,0 108.968555,27.245521,0 108.984625,27.256219,0 108.987503,27.270635,0 108.999556,27.267559,0 109.01059,27.270497,0 109.023901,27.282248,0 109.040811,27.276235,0 109.045608,27.288215,0 109.053943,27.29487,0 109.054123,27.306068,0 109.044409,27.331076,0 109.052084,27.336673,0 109.05952,27.326855,0 109.069234,27.322817,0 109.080387,27.334884,0 109.086384,27.33103,0 109.103773,27.337086,0 109.101075,27.34984,0 109.106412,27.35562,0 109.114387,27.35273,0 109.118464,27.362225,0 109.113847,27.367178,0 109.124761,27.387908,0 109.115886,27.400105,0 109.127699,27.405057,0 109.14197,27.417711,0 109.138672,27.430318,0 109.129258,27.42555,0 109.125,27.415556,0 109.115766,27.412576,0 109.10917,27.41872,0 109.112948,27.424633,0 109.123321,27.418399,0 109.123321,27.428622,0 109.144009,27.448835,0 109.154083,27.448789,0 109.15942,27.442327,0 109.156241,27.416519,0 109.166975,27.417849,0 109.189521,27.436552,0 109.202114,27.450073,0 109.213687,27.450485,0 109.221902,27.438889,0 109.243249,27.42963,0 109.245528,27.418169,0 109.286423,27.424633,0 109.299915,27.423946,0 109.30693,27.434397,0 109.302973,27.475644,0 109.312387,27.486182,0 109.325879,27.494199,0 109.379127,27.53579,0 109.404971,27.550489,0 109.433634,27.548383,0 109.445986,27.562394,0 109.459118,27.56015,0 109.461937,27.565599,0 109.451263,27.585925,0 109.469132,27.620937,0 109.470032,27.628762,0 109.464455,27.651409,0 109.45612,27.669432,0 109.458219,27.674783,0 109.470452,27.680272,0 109.45684,27.69358,0 109.429976,27.703549,0 109.418223,27.714248,0 109.414146,27.725037,0 109.395317,27.7217,0 109.392379,27.726363,0 109.365935,27.722203,0 109.377987,27.73802,0 109.362997,27.745014,0 109.364316,27.759777,0 109.349864,27.771064,0 109.338112,27.775908,0 109.333015,27.782808,0 109.34105,27.79021,0 109.331216,27.791626,0 109.342669,27.800764,0 109.34021,27.821411,0 109.345547,27.84073,0 109.326838,27.858585,0 109.337512,27.869543,0 109.321861,27.867991,0 109.317784,27.885521,0 109.320602,27.895609,0 109.311907,27.907796,0 109.314846,27.91811,0 109.313826,27.933306,0 109.301774,27.958353,0 109.30711,27.968024,0 109.320182,27.970989,0 109.321622,27.991786,0 109.342249,28.00533,0 109.365095,28.009114,0 109.379187,28.033096,0 109.370552,28.046087,0 109.346986,28.060399,0 109.334574,28.062222,0 109.325219,28.04276,0 109.311548,28.037973,0 109.305911,28.029996,0 109.298715,28.032503,0 109.304952,28.076394,0 109.312087,28.083503,0 109.314366,28.103914,0 109.325399,28.115212,0 109.328098,28.126872,0 109.338172,28.141765,0 109.335833,28.158204,0 109.341829,28.162165,0 109.343208,28.173593,0 109.34045,28.190391,0 109.345787,28.206686,0 109.359579,28.22043,0 109.35676,28.23349,0 109.367314,28.239041,0 109.37349,28.25683,0 109.388001,28.268111,0 109.399694,28.269294,0 109.376908,28.276935,0 109.365875,28.274206,0 109.359519,28.265882,0 109.352203,28.268521,0 109.363116,28.282984,0 109.34099,28.293717,0 109.314966,28.27639,0 109.306391,28.274206,0 109.294938,28.278527,0 109.297576,28.292808,0 109.285523,28.304131,0 109.273051,28.309405,0 109.27527,28.314043,0 109.268554,28.338092,0 109.285283,28.359046,0 109.288342,28.374315,0 109.277368,28.376542,0 109.264656,28.39249,0 109.264356,28.404393,0 109.256861,28.436734,0 109.261778,28.454398,0 109.260818,28.464705,0 109.266335,28.481775,0 109.275929,28.484,0 109.27437,28.494667,0 109.236413,28.478416,0 109.233595,28.474966,0 109.215486,28.482138,0 109.19174,28.47088,0 109.185504,28.453127,0 109.176569,28.446179,0 109.180707,28.439458,0 109.176749,28.431511,0 109.165656,28.430375,0 109.164936,28.414978,0 109.154263,28.417612,0 109.157141,28.403394,0 109.153603,28.397306,0 109.153123,28.381041,0 109.144788,28.363818,0 109.138612,28.358637,0 109.151684,28.350547,0 109.150785,28.344683,0 109.137713,28.334229,0 109.141251,28.320545,0 109.126799,28.296946,0 109.116246,28.28826,0 109.119064,28.282257,0 109.100415,28.263835,0 109.087583,28.26097,0 109.081527,28.24855,0 109.085364,28.232808,0 109.099816,28.214742,0 109.101435,28.201407,0 109.089982,28.196627,0 109.082066,28.184337,0 109.061439,28.200132,0 109.041591,28.205366,0 109.038233,28.217427,0 109.02678,28.220066,0 109.013828,28.199586,0 109.014247,28.177873,0 109.00981,28.167902,0 109.001535,28.161391,0 108.985765,28.161346,0 108.979948,28.170771,0 108.956622,28.182334,0 108.929399,28.190574,0 108.9273,28.196491,0 108.933176,28.20787,0 108.919505,28.217791,0 108.912249,28.215561,0 108.897258,28.21952,0 108.864458,28.20614,0 108.855163,28.199859,0 108.836215,28.207369,0 108.833277,28.217882,0 108.824342,28.231033,0 108.821764,28.245138,0 108.805573,28.24209,0 108.799757,28.226619,0 108.773313,28.213468,0 108.765338,28.192121,0 108.758202,28.198357,0 108.758682,28.220203,0 108.749507,28.227575,0 108.738834,28.227347,0 108.737575,28.251416,0 108.727621,28.259832,0 108.725762,28.280301,0 108.741052,28.2949,0 108.763779,28.305631,0 108.770075,28.314952,0 108.76144,28.324591,0 108.77793,28.347229,0 108.77739,28.36659,0 108.783087,28.380404,0 108.762819,28.385811,0 108.76174,28.395262,0 108.779309,28.427423,0 108.773913,28.437869,0 108.746749,28.450221,0 108.749088,28.461073,0 108.743691,28.467656,0 108.733917,28.468882,0 108.725642,28.475828,0 108.723363,28.491943,0 108.709691,28.501066,0 108.701416,28.482502,0 108.688644,28.482502,0 108.671135,28.475284,0 108.658662,28.478053,0 108.64523,28.46861,0 108.641453,28.455715,0 108.666817,28.44182,0 108.669875,28.431465,0 108.688344,28.422291,0 108.696799,28.404575,0 108.691702,28.394035,0 108.674193,28.389355,0 108.664719,28.382858,0 108.656444,28.356365,0 108.659082,28.35032,0 108.673953,28.354547,0 108.675752,28.343047,0 108.667357,28.33441,0 108.610811,28.325091,0 108.602416,28.34082,0 108.58011,28.343274,0 108.576332,28.364318,0 108.577531,28.390173,0 108.587425,28.404939,0 108.608832,28.407301,0 108.609912,28.435689,0 108.602836,28.438868,0 108.597259,28.456805,0 108.586766,28.463071,0 108.587605,28.479324,0 108.574953,28.497662,0 108.581069,28.506967,0 108.573214,28.528114,0 108.576872,28.533831,0 108.589344,28.538595,0 108.610931,28.539412,0 108.604635,28.59026,0 108.618906,28.606538,0 108.636056,28.621772,0 108.632338,28.638953,0 108.623284,28.641446,0 108.609012,28.633604,0 108.59618,28.640358,0 108.585327,28.639633,0 108.586106,28.648788,0 108.575912,28.659711,0 108.566498,28.662566,0 108.561161,28.649151,0 108.547789,28.647882,0 108.538495,28.652731,0 108.524643,28.647111,0 108.517987,28.639995,0 108.502756,28.637638,0 108.501018,28.626668,0 108.491303,28.630567,0 108.471096,28.627801,0 108.461381,28.634148,0 108.439015,28.634012,0 108.421685,28.643349,0 108.390924,28.65178,0 108.352128,28.676115,0 108.343972,28.673396,0 108.332519,28.679604,0 108.343673,28.696458,0 108.34763,28.709232,0 108.34727,28.736271,0 108.372515,28.760134,0 108.375333,28.767513,0 108.385287,28.772221,0 108.389005,28.785847,0 108.386487,28.801643,0 108.382409,28.805806,0 108.354226,28.814269,0 108.355186,28.831644,0 108.346431,28.856299,0 108.355306,28.870818,0 108.357464,28.893384,0 108.350329,28.907084,0 108.350568,28.93032,0 108.346911,28.941484,0 108.339895,28.947856,0 108.322925,28.953957,0 108.312551,28.99706,0 108.308714,29.003384,0 108.309793,29.018424,0 108.29786,29.047144,0 108.307155,29.077525,0 108.301938,29.083077,0 108.286587,29.089215,0 108.270637,29.090885,0 108.268658,29.077796,0 108.260203,29.063758,0 108.256965,29.041996,0 108.242274,29.028359,0 108.224645,29.031566,0 108.230401,29.046963,0 108.21505,29.056128,0 108.204737,29.05676,0 108.197721,29.070664,0 108.171397,29.065383,0 108.152448,29.053735,0 108.13272,29.054096,0 108.128763,29.065699,0 108.109814,29.076081,0 108.069398,29.086552,0 108.078573,29.07107,0 108.073536,29.05816,0 108.078873,29.023166,0 108.078993,29.007178,0 108.088347,28.999454,0 108.107895,28.975872,0 108.106996,28.961865,0 108.117309,28.950703,0 108.13224,28.943969,0 108.138417,28.932082,0 108.134819,28.902653,0 108.128643,28.869778,0 108.141295,28.855982,0 108.158085,28.856344,0 108.158744,28.845804,0 108.180751,28.81083,0 108.189446,28.800692,0 108.195082,28.802548,0 108.207495,28.817572,0 108.213671,28.776341,0 108.201379,28.763122,0 108.195322,28.750671,0 108.184649,28.74895,0 108.18219,28.741569,0 108.18189,28.712358,0 108.174575,28.690206,0 108.163242,28.677066,0 108.145013,28.669997,0 108.122586,28.652369,0 108.128882,28.644165,0 108.114491,28.628799,0 108.093024,28.621727,0 108.084269,28.627212,0 108.08283,28.620548,0 108.061543,28.613022,0 108.037558,28.592754,0 108.038457,28.58382,0 108.04991,28.566766,0 108.038517,28.5547,0 108.043554,28.548122,0 108.058245,28.541408,0 108.069938,28.526843,0 108.070058,28.516542,0 108.04991,28.500476,0 108.048171,28.489901,0 108.060104,28.472378,0 108.056146,28.454444,0 108.048711,28.444045,0 108.063942,28.433645,0 108.068259,28.422018,0 108.051709,28.388538,0 108.037138,28.365454,0 108.026165,28.368272,0 108.016151,28.384039,0 108.005897,28.389764,0 108.012313,28.39617,0 108.025745,28.401213,0 108.019509,28.403121,0 108.007636,28.415886,0 108.006197,28.424244,0 107.995643,28.427923,0 107.98323,28.422881,0 107.982571,28.431238,0 108.007876,28.434054,0 108.010754,28.446452,0 107.991146,28.441774,0 107.977294,28.447814,0 107.969199,28.439731,0 107.968839,28.423335,0 107.960744,28.411071,0 107.972557,28.398169,0 107.983051,28.397079,0 108.00098,28.384585,0 107.996662,28.369635,0 107.990246,28.368999,0 107.972497,28.383812,0 107.955647,28.380132,0 107.936039,28.384721,0 107.913792,28.382903,0 107.921108,28.370135,0 107.874456,28.370407,0 107.866481,28.358501,0 107.861564,28.339502,0 107.862583,28.30886,0 107.866001,28.288897,0 107.861204,28.261288,0 107.864982,28.247185,0 107.862224,28.211966,0 107.859225,28.200269,0 107.85167,28.202636,0 107.836439,28.184292,0 107.824027,28.183336,0 107.816052,28.17546,0 107.803399,28.183563,0 107.805618,28.174276,0 107.803219,28.147503,0 107.799022,28.125551,0 107.78487,28.093937,0 107.78595,28.083412,0 107.778874,28.072977,0 107.786549,28.07448,0 107.791886,28.066004,0 107.807057,28.069923,0 107.813233,28.06728,0 107.813293,28.047363,0 107.832122,28.049095,0 107.8359,28.031044,0 107.855328,28.038292,0 107.862164,28.037381,0 107.870918,28.058667,0 107.878114,28.05534,0 107.88441,28.063042,0 107.889267,28.051466,0 107.914692,28.018644,0 107.928004,28.009251,0 107.933341,28.001408,0 107.915172,27.973041,0 107.911394,27.962322,0 107.909595,27.937458,0 107.911634,27.929062,0 107.923686,27.90807,0 107.906177,27.904282,0 107.898802,27.897709,0 107.888608,27.878035,0 107.888368,27.844018,0 107.903599,27.826664,0 107.912833,27.80958,0 107.931842,27.793545,0 107.932501,27.778696,0 107.943954,27.779061,0 107.946233,27.767728,0 107.931722,27.753241,0 107.927764,27.745288,0 107.927944,27.7265,0 107.940776,27.691522,0 107.937118,27.680546,0 107.922187,27.666093,0 107.903119,27.627892,0 107.902579,27.612105,0 107.906837,27.591646,0 107.902639,27.568392,0 107.893705,27.556625,0 107.88513,27.551588,0 107.865702,27.551451,0 107.844774,27.555114,0 107.829124,27.542064,0 107.808016,27.491267,0 107.789128,27.485266,0 107.780793,27.486319,0 107.762924,27.475964,0 107.755188,27.459559,0 107.757407,27.453327,0 107.774257,27.443748,0 107.791766,27.443931,0 107.798062,27.43811,0 107.798302,27.404003,0 107.801001,27.394098,0 107.765802,27.391164,0 107.762264,27.385156,0 107.780913,27.373691,0 107.774557,27.359702,0 107.779953,27.351491,0 107.806817,27.347408,0 107.805318,27.331948,0 107.819829,27.324377,0 107.856707,27.330159,0 107.870619,27.341812,0 107.894364,27.345574,0 107.908276,27.33204,0 107.911874,27.332911,0 107.916311,27.332774,0 107.919369,27.332544,0 107.931362,27.346445,0 107.948452,27.354198,0 107.958106,27.350757,0 107.959365,27.339197,0 107.952049,27.328323,0 107.956547,27.312952,0 107.975915,27.317908,0 107.989347,27.305839,0 107.9999,27.302764,0 108.004398,27.316852,0 108.043974,27.322313,0 108.064841,27.32268,0 108.082411,27.33048,0 108.112512,27.323184,0 108.130741,27.325249,0 108.141295,27.314925,0 108.14951,27.300194,0 108.16654,27.28771,0 108.179252,27.292576,0 108.187287,27.308179,0 108.192264,27.330113,0 108.206416,27.357042,0 108.218288,27.364426,0 108.23262,27.367087,0 108.266139,27.349014,0 108.28221,27.345757,0 108.305536,27.352317,0 108.321306,27.349473,0 108.336837,27.358831,0 108.355426,27.377681,0 108.388406,27.397308,0 108.409033,27.407441,0 108.424264,27.424083,0 108.437096,27.425504,0 108.445491,27.420599,0 108.461262,27.418628,0 108.478291,27.40657,0 108.485667,27.409504,0 108.490944,27.422891,0 108.511091,27.418261,0 108.517807,27.437881,0 108.531659,27.466617,0 108.543472,27.479493,0 108.559662,27.479997,0 108.575552,27.471611,0 108.586226,27.478026,0 108.59684,27.506477,0 108.605354,27.516096,0 108.617347,27.521638,0 108.626702,27.519531,0 108.648468,27.507622,0 108.669516,27.504873,0 108.6953,27.518111,0 108.710111,27.515684,0 108.737095,27.489618,0 108.746329,27.483754,0 108.746809,27.471107,0 108.7618,27.469595,0 108.759521,27.48719,0 108.77775,27.488885,0 108.792801,27.485815,0 108.800716,27.489022,0 108.819725,27.485311,0 108.829319,27.478851,0 108.833996,27.482654,0 108.820564,27.501667,0 108.830338,27.507576,0 108.841072,27.507622,0 108.838554,27.496719,0 108.858342,27.49704,0 108.879809,27.493283,0 108.891561,27.487969,0 108.903674,27.487969,0 108.923822,27.511057,0 108.934136,27.511561,0 108.946608,27.498277,0 108.968675,27.493925,0 108.971433,27.487785,0 108.952185,27.470145,0 108.950566,27.460018,0 108.959321,27.452593,0 108.985884,27.455481,0 108.990322,27.443152,0 109.005792,27.444206,0 109.020244,27.436918,0 109.033256,27.421149,0 109.034995,27.412668,0 109.022103,27.388275,0 109.018565,27.372361,0 109.006752,27.369609,0 108.962079,27.375067,0 108.945169,27.369426,0 108.937074,27.362362,0 108.917106,27.366766,0 108.90991,27.364105,0 108.900016,27.346032,0 108.883047,27.344977,0 108.881667,27.359656,0 108.875071,27.366903,0 108.866017,27.368096,0 108.856962,27.363188,0 108.864398,27.353555,0 108.846589,27.352684,0 108.843111,27.343555,0 108.846709,27.335114,0 108.86122,27.321624,0 108.866197,27.306803,0 108.857622,27.276786,0 108.843471,27.267559,0 108.838853,27.237394,0 108.82824,27.236522,0 108.821584,27.225546,0 108.825541,27.21953,0 108.807252,27.214524,0 108.801256,27.203179,0 108.804554,27.196794,0 108.840472,27.187468,0 108.846289,27.174329,0 108.857622,27.165553,0 108.857982,27.152503,0 108.868296,27.140784,0 108.885085,27.132189,0 108.887124,27.121203,0</coordinates></LinearRing></outerBoundaryIs>
      </Polygon>
      <Polygon>
        <outerBoundaryIs><LinearRing><coordinates>107.919369,27.332544,0 107.916311,27.332774,0 107.911874,27.332911,0 107.908276,27.33204,0 107.906117,27.325983,0 107.915352,27.314237,0 107.930822,27.31364,0 107.931422,27.321257,0 107.919369,27.332544,0</coordinates></LinearRing></outerBoundaryIs>
      </Polygon>
    </MultiGeometry>
    </Placemark>
  </Document>
</kml>
