<?xml version="1.0" encoding="UTF-8"?>
<kml xmlns="http://www.opengis.net/kml/2.2">
  <Document>
    <name><![CDATA[黔南布依族苗族自治州]]></name>
    <Placemark>
      <name><![CDATA[黔南布依族苗族自治州]]></name>
      <description><![CDATA[省级目录：贵州省]]></description>
      <ExtendedData>
        <Data name="adcode"><value>522700</value></Data>
      </ExtendedData>
      <MultiGeometry>
      <Polygon>
        <outerBoundaryIs><LinearRing><coordinates>106.485995,26.262134,0 106.424473,26.270888,0 106.397429,26.277186,0 106.381359,26.284086,0 106.36199,26.281863,0 106.360791,26.254122,0 106.349458,26.231006,0 106.337405,26.222343,0 106.319056,26.222343,0 106.305924,26.236797,0 106.297829,26.253195,0 106.2805,26.246525,0 106.277142,26.240735,0 106.257414,26.242449,0 106.243262,26.22452,0 106.251117,26.222204,0 106.273604,26.223084,0 106.299448,26.199499,0 106.291413,26.199036,0 106.284517,26.191853,0 106.283978,26.171924,0 106.275463,26.143878,0 106.258133,26.136413,0 106.256814,26.129829,0 106.276302,26.128624,0 106.287515,26.114527,0 106.286676,26.102145,0 106.269586,26.089807,0 106.262451,26.092312,0 106.256634,26.102191,0 106.245601,26.093054,0 106.239125,26.051395,0 106.226832,26.03237,0 106.234807,26.027312,0 106.235047,26.02216,0 106.254056,26.032185,0 106.249978,26.025177,0 106.259572,26.016173,0 106.26419,26.022717,0 106.276602,26.020072,0 106.290514,26.003084,0 106.303226,26.002759,0 106.300707,25.992036,0 106.31258,25.990458,0 106.31246,25.978898,0 106.307124,25.967801,0 106.293572,25.967662,0 106.287096,25.963204,0 106.285057,25.950992,0 106.289434,25.938545,0 106.276362,25.937802,0 106.277382,25.923404,0 106.29633,25.918573,0 106.297949,25.912999,0 106.285417,25.897296,0 106.282898,25.883497,0 106.275043,25.881453,0 106.273364,25.858961,0 106.261131,25.84274,0 106.243202,25.831538,0 106.24686,25.814988,0 106.244162,25.79718,0 106.249498,25.794576,0 106.256574,25.772393,0 106.259273,25.744438,0 106.255375,25.728202,0 106.231989,25.714522,0 106.232709,25.702144,0 106.24692,25.698189,0 106.270366,25.715779,0 106.285117,25.724154,0 106.308923,25.728295,0 106.311981,25.724619,0 106.304005,25.711544,0 106.301787,25.697211,0 106.306164,25.683342,0 106.326552,25.672404,0 106.344781,25.668308,0 106.364509,25.658159,0 106.389334,25.650943,0 106.401806,25.650711,0 106.41272,25.654994,0 106.427291,25.675011,0 106.436525,25.67785,0 106.460331,25.666027,0 106.47898,25.649779,0 106.488934,25.646846,0 106.486595,25.634508,0 106.470705,25.601863,0 106.437125,25.567672,0 106.433047,25.560404,0 106.436765,25.540647,0 106.435206,25.528997,0 106.417217,25.496883,0 106.405224,25.498001,0 106.397729,25.486953,0 106.39575,25.466625,0 106.403665,25.465413,0 106.39611,25.45534,0 106.410861,25.452776,0 106.419196,25.439438,0 106.419556,25.430949,0 106.408882,25.417936,0 106.39527,25.418309,0 106.391493,25.400675,0 106.401507,25.40506,0 106.424353,25.389944,0 106.431009,25.369506,0 106.418836,25.36204,0 106.422194,25.349672,0 106.419616,25.337583,0 106.423633,25.32624,0 106.443301,25.322925,0 106.456733,25.323766,0 106.464768,25.318023,0 106.483297,25.29085,0 106.488934,25.264464,0 106.495889,25.24606,0 106.497329,25.228868,0 106.506383,25.21873,0 106.496729,25.202282,0 106.467107,25.18714,0 106.457513,25.177185,0 106.446299,25.176204,0 106.452176,25.164986,0 106.459731,25.159984,0 106.463269,25.167416,0 106.47838,25.158815,0 106.479519,25.152317,0 106.497988,25.135674,0 106.513579,25.115801,0 106.517416,25.103455,0 106.525931,25.099199,0 106.531088,25.090125,0 106.52869,25.077496,0 106.518916,25.062854,0 106.522573,25.05986,0 106.530968,25.072537,0 106.551296,25.082829,0 106.578939,25.083671,0 106.590632,25.087787,0 106.597108,25.104905,0 106.614318,25.116362,0 106.629309,25.121412,0 106.640522,25.135066,0 106.639023,25.157273,0 106.645019,25.164846,0 106.667506,25.170595,0 106.691131,25.179242,0 106.705523,25.176157,0 106.722433,25.161854,0 106.732147,25.162321,0 106.764647,25.183121,0 106.772382,25.181392,0 106.787553,25.170875,0 106.798107,25.170455,0 106.836364,25.179476,0 106.852734,25.186954,0 106.888292,25.182186,0 106.900225,25.194478,0 106.900225,25.212702,0 106.904123,25.231531,0 106.912997,25.243024,0 106.933265,25.250451,0 106.955272,25.246247,0 106.976079,25.232933,0 106.995867,25.239613,0 106.998326,25.244145,0 106.987472,25.255776,0 106.99137,25.263109,0 107.013736,25.275346,0 107.009959,25.290289,0 107.013377,25.295519,0 107.00744,25.308079,0 107.014276,25.344818,0 107.010918,25.354946,0 106.986933,25.359753,0 106.979497,25.37408,0 106.979797,25.388125,0 106.97416,25.40702,0 106.967804,25.409492,0 106.968884,25.425959,0 106.963727,25.437339,0 106.981896,25.448159,0 106.996467,25.442702,0 107.003842,25.462102,0 107.0075,25.479447,0 107.019073,25.497395,0 107.039761,25.503316,0 107.055651,25.503968,0 107.070102,25.511752,0 107.0746,25.52126,0 107.064166,25.543303,0 107.064526,25.559518,0 107.093428,25.569815,0 107.122331,25.564737,0 107.160708,25.570281,0 107.165984,25.574334,0 107.185233,25.57834,0 107.187272,25.590917,0 107.199744,25.603819,0 107.211197,25.609175,0 107.228647,25.60489,0 107.236022,25.585328,0 107.230206,25.564783,0 107.237641,25.551644,0 107.263905,25.543164,0 107.296106,25.520468,0 107.307739,25.500239,0 107.313495,25.504947,0 107.328666,25.494552,0 107.32219,25.493433,0 107.321231,25.484575,0 107.330165,25.473199,0 107.332744,25.446713,0 107.325308,25.442516,0 107.325728,25.434727,0 107.315114,25.42969,0 107.308398,25.433141,0 107.308998,25.409166,0 107.314874,25.402634,0 107.344377,25.403661,0 107.353911,25.395496,0 107.364644,25.394983,0 107.367223,25.403894,0 107.375798,25.412058,0 107.386411,25.410612,0 107.402422,25.393723,0 107.42089,25.39307,0 107.423829,25.383879,0 107.413035,25.372773,0 107.408538,25.36022,0 107.409138,25.347152,0 107.428686,25.313448,0 107.432703,25.289122,0 107.449073,25.287534,0 107.47096,25.300795,0 107.481574,25.300188,0 107.490089,25.2767,0 107.470001,25.232092,0 107.474618,25.225972,0 107.472279,25.21373,0 107.479235,25.211207,0 107.5046,25.210693,0 107.50448,25.217608,0 107.513115,25.21658,0 107.518331,25.207609,0 107.52151,25.221486,0 107.541478,25.22457,0 107.543336,25.234848,0 107.55407,25.239567,0 107.558927,25.246901,0 107.583572,25.256056,0 107.590828,25.24905,0 107.599402,25.250965,0 107.593766,25.262829,0 107.605639,25.255215,0 107.608937,25.266051,0 107.614993,25.268107,0 107.614393,25.27698,0 107.631963,25.310133,0 107.643416,25.314849,0 107.659666,25.316296,0 107.6689,25.307472,0 107.658347,25.293371,0 107.661885,25.258952,0 107.66998,25.244425,0 107.690547,25.228168,0 107.696244,25.219851,0 107.694625,25.197889,0 107.700621,25.194151,0 107.710395,25.20345,0 107.742116,25.240221,0 107.75297,25.240875,0 107.762144,25.228962,0 107.756388,25.199899,0 107.759985,25.188636,0 107.782712,25.170455,0 107.789488,25.154748,0 107.778814,25.134926,0 107.762684,25.124499,0 107.76898,25.117531,0 107.778634,25.124779,0 107.794465,25.116128,0 107.806817,25.124826,0 107.819529,25.129174,0 107.841896,25.115941,0 107.86786,25.129408,0 107.872417,25.141611,0 107.897662,25.144837,0 107.898082,25.148905,0 107.915411,25.156805,0 107.928604,25.155824,0 107.95049,25.174194,0 107.969139,25.177886,0 107.989107,25.18686,0 108.001939,25.196534,0 108.010754,25.195272,0 108.053628,25.199572,0 108.080612,25.193777,0 108.114911,25.210226,0 108.121747,25.231017,0 108.13374,25.234381,0 108.134759,25.259699,0 108.143334,25.269788,0 108.137038,25.278148,0 108.135958,25.297854,0 108.14951,25.310367,0 108.152088,25.324419,0 108.137817,25.336509,0 108.136618,25.343138,0 108.152148,25.353732,0 108.155267,25.377953,0 108.142794,25.390644,0 108.153827,25.39475,0 108.165101,25.391577,0 108.18255,25.391577,0 108.193284,25.405527,0 108.185728,25.413364,0 108.190585,25.418915,0 108.170617,25.431835,0 108.165041,25.427404,0 108.157605,25.439018,0 108.162462,25.444754,0 108.192624,25.459071,0 108.202998,25.451703,0 108.221407,25.450071,0 108.226264,25.437246,0 108.225844,25.426985,0 108.252048,25.430483,0 108.252408,25.438458,0 108.236098,25.449371,0 108.240715,25.461915,0 108.260923,25.473759,0 108.28107,25.480006,0 108.299239,25.501125,0 108.305416,25.516227,0 108.303257,25.520748,0 108.291444,25.524616,0 108.283109,25.546239,0 108.28143,25.557841,0 108.286707,25.567905,0 108.271296,25.582672,0 108.260623,25.588449,0 108.246831,25.585887,0 108.242634,25.602795,0 108.246951,25.620678,0 108.237297,25.628501,0 108.225604,25.621283,0 108.217149,25.611271,0 108.197061,25.610945,0 108.181711,25.616487,0 108.186208,25.642796,0 108.181471,25.648709,0 108.1657,25.65653,0 108.169058,25.675616,0 108.158505,25.702656,0 108.14987,25.696513,0 108.136078,25.696839,0 108.130681,25.690882,0 108.115451,25.687205,0 108.110653,25.680131,0 108.09932,25.679246,0 108.102378,25.696886,0 108.098001,25.703308,0 108.09944,25.717268,0 108.103398,25.715918,0 108.097282,25.740949,0 108.107895,25.752811,0 108.104537,25.764347,0 108.087208,25.770626,0 108.08259,25.782904,0 108.093084,25.811408,0 108.124025,25.831026,0 108.108435,25.839486,0 108.110114,25.845761,0 108.134759,25.868163,0 108.138836,25.87741,0 108.151609,25.885542,0 108.146812,25.898086,0 108.141655,25.899898,0 108.137877,25.915136,0 108.152808,25.920478,0 108.167739,25.937059,0 108.167739,25.954939,0 108.18219,25.953592,0 108.190585,25.957771,0 108.19862,25.954382,0 108.209893,25.962833,0 108.212892,25.970308,0 108.223325,25.973187,0 108.218708,25.980801,0 108.218768,26.00262,0 108.225424,26.008561,0 108.218228,26.011161,0 108.230581,26.02694,0 108.240715,26.032138,0 108.238436,26.044621,0 108.226324,26.041558,0 108.223385,26.051488,0 108.230941,26.062066,0 108.228722,26.070139,0 108.21517,26.069304,0 108.208274,26.055757,0 108.187707,26.03715,0 108.175774,26.035015,0 108.16654,26.039841,0 108.162222,26.069629,0 108.171757,26.072412,0 108.170257,26.079556,0 108.158385,26.084612,0 108.151849,26.096208,0 108.137038,26.094074,0 108.138357,26.084102,0 108.130861,26.08118,0 108.123486,26.086885,0 108.112992,26.073386,0 108.076594,26.078767,0 108.064182,26.075381,0 108.043554,26.078953,0 108.029822,26.087349,0 108.014292,26.090271,0 108.002299,26.079556,0 107.989287,26.082571,0 107.975075,26.079649,0 107.972977,26.071577,0 107.963442,26.075381,0 107.957386,26.060072,0 107.953548,26.063134,0 107.953249,26.078675,0 107.940416,26.078211,0 107.945034,26.084148,0 107.929863,26.089714,0 107.923926,26.100289,0 107.915052,26.106782,0 107.914452,26.116799,0 107.906417,26.124033,0 107.886929,26.116707,0 107.878354,26.1219,0 107.860365,26.140262,0 107.848612,26.137202,0 107.845134,26.111188,0 107.840637,26.098852,0 107.830383,26.095373,0 107.815752,26.10015,0 107.799921,26.11346,0 107.792246,26.124775,0 107.787689,26.142719,0 107.7685,26.152362,0 107.761245,26.160011,0 107.763044,26.170904,0 107.756328,26.16715,0 107.755008,26.176373,0 107.746074,26.179062,0 107.745714,26.170116,0 107.737979,26.167798,0 107.741157,26.213679,0 107.745714,26.216459,0 107.760465,26.25301,0 107.772038,26.274639,0 107.779594,26.30131,0 107.779714,26.310061,0 107.761964,26.318255,0 107.732282,26.319505,0 107.722088,26.317329,0 107.706918,26.305292,0 107.682812,26.299736,0 107.663384,26.284132,0 107.647493,26.279918,0 107.642936,26.284549,0 107.641137,26.29969,0 107.635021,26.316264,0 107.624048,26.334456,0 107.616192,26.341214,0 107.590588,26.353385,0 107.587949,26.3619,0 107.559946,26.367546,0 107.544116,26.360882,0 107.533742,26.349544,0 107.524268,26.363659,0 107.524508,26.382213,0 107.518331,26.411867,0 107.506219,26.41936,0 107.466103,26.408444,0 107.447934,26.405252,0 107.430784,26.382537,0 107.413695,26.378142,0 107.38767,26.382769,0 107.369202,26.396463,0 107.33964,26.406085,0 107.316194,26.430414,0 107.306779,26.428934,0 107.301922,26.441975,0 107.314575,26.445767,0 107.312176,26.453952,0 107.332924,26.464123,0 107.35577,26.487285,0 107.356609,26.493941,0 107.344676,26.501567,0 107.325488,26.503092,0 107.318472,26.516449,0 107.319851,26.530451,0 107.334603,26.53715,0 107.331664,26.544127,0 107.33832,26.551889,0 107.354271,26.543758,0 107.361826,26.549948,0 107.379096,26.543018,0 107.382753,26.537797,0 107.402541,26.539692,0 107.398044,26.553413,0 107.417353,26.557617,0 107.426827,26.551334,0 107.425687,26.565794,0 107.433363,26.564316,0 107.432104,26.572353,0 107.443677,26.572584,0 107.449073,26.579143,0 107.466883,26.577434,0 107.460886,26.563577,0 107.462505,26.547361,0 107.479055,26.54713,0 107.482053,26.563577,0 107.489369,26.56487,0 107.491828,26.557571,0 107.503281,26.55212,0 107.513355,26.557294,0 107.513534,26.569027,0 107.522469,26.573554,0 107.53776,26.573046,0 107.548493,26.588842,0 107.556408,26.590181,0 107.566183,26.604728,0 107.577876,26.605144,0 107.588069,26.612163,0 107.588009,26.591244,0 107.60312,26.584039,0 107.611035,26.597801,0 107.610556,26.609254,0 107.622549,26.611932,0 107.640118,26.607176,0 107.647194,26.601126,0 107.658407,26.579697,0 107.668781,26.572954,0 107.713573,26.569489,0 107.73564,26.573831,0 107.745114,26.587318,0 107.739598,26.599094,0 107.725566,26.615672,0 107.720769,26.634278,0 107.713753,26.644434,0 107.699782,26.652835,0 107.695464,26.673282,0 107.693366,26.700922,0 107.687669,26.712548,0 107.698762,26.723666,0 107.695404,26.735429,0 107.709076,26.752632,0 107.718191,26.751294,0 107.724907,26.768449,0 107.733242,26.768495,0 107.749012,26.783711,0 107.746793,26.78763,0 107.761844,26.792793,0 107.76832,26.803212,0 107.763763,26.824414,0 107.750451,26.82188,0 107.733062,26.827318,0 107.730603,26.836627,0 107.741217,26.83612,0 107.740018,26.842019,0 107.722508,26.854875,0 107.690787,26.866486,0 107.688089,26.860312,0 107.691807,26.84589,0 107.683592,26.849668,0 107.681013,26.842203,0 107.66908,26.843401,0 107.648393,26.835844,0 107.634062,26.844784,0 107.642397,26.852295,0 107.645155,26.865472,0 107.635681,26.879846,0 107.624947,26.880813,0 107.621829,26.888644,0 107.609716,26.895138,0 107.600002,26.909738,0 107.615593,26.928757,0 107.630404,26.956704,0 107.63724,26.956335,0 107.662844,26.971986,0 107.666382,26.984137,0 107.640598,27.028633,0 107.638559,27.049241,0 107.647314,27.066581,0 107.658827,27.07771,0 107.676996,27.072927,0 107.673758,27.092562,0 107.682752,27.101206,0 107.704219,27.135452,0 107.699062,27.152686,0 107.684431,27.17024,0 107.678795,27.187422,0 107.687429,27.191833,0 107.671659,27.209242,0 107.663264,27.202857,0 107.651751,27.207405,0 107.662424,27.21705,0 107.666382,27.234593,0 107.650432,27.238909,0 107.646474,27.247863,0 107.65247,27.253786,0 107.656308,27.267008,0 107.642636,27.267146,0 107.618531,27.25801,0 107.602221,27.267605,0 107.592986,27.267008,0 107.556588,27.257872,0 107.550112,27.252914,0 107.562225,27.236246,0 107.566662,27.225408,0 107.55347,27.216637,0 107.542917,27.215856,0 107.531224,27.224536,0 107.519711,27.244144,0 107.514014,27.237348,0 107.525767,27.218382,0 107.524628,27.207864,0 107.511496,27.203454,0 107.500402,27.216085,0 107.489789,27.223204,0 107.492007,27.230276,0 107.476777,27.24093,0 107.461066,27.240057,0 107.463585,27.251169,0 107.458488,27.268064,0 107.464724,27.277107,0 107.475158,27.280504,0 107.477256,27.297395,0 107.50418,27.315476,0 107.501722,27.349106,0 107.498304,27.364059,0 107.491768,27.37149,0 107.458608,27.368279,0 107.451772,27.36594,0 107.434802,27.372682,0 107.419511,27.342546,0 107.408838,27.343188,0 107.408778,27.353326,0 107.401762,27.363463,0 107.386711,27.361904,0 107.375978,27.36649,0 107.376217,27.388,0 107.400503,27.405699,0 107.399124,27.417803,0 107.384972,27.430455,0 107.37238,27.435772,0 107.376217,27.442877,0 107.35541,27.444527,0 107.359368,27.465654,0 107.352112,27.466846,0 107.33892,27.459926,0 107.308998,27.462446,0 107.28867,27.46735,0 107.275538,27.478943,0 107.266963,27.476148,0 107.268882,27.455756,0 107.266604,27.438477,0 107.260367,27.428071,0 107.244777,27.415694,0 107.248615,27.403544,0 107.238361,27.400013,0 107.209638,27.371398,0 107.200763,27.355803,0 107.205321,27.339839,0 107.202982,27.318045,0 107.19069,27.302581,0 107.169942,27.284268,0 107.162567,27.263381,0 107.142958,27.255623,0 107.138401,27.245154,0 107.155791,27.23418,0 107.192189,27.242996,0 107.236742,27.241068,0 107.234823,27.232802,0 107.262406,27.216269,0 107.258688,27.180623,0 107.242618,27.170194,0 107.215574,27.166104,0 107.188531,27.157006,0 107.180496,27.145655,0 107.191769,27.123272,0 107.190869,27.115043,0 107.174259,27.092976,0 107.174319,27.070858,0 107.166644,27.040916,0 107.167004,27.025826,0 107.192249,27.026655,0 107.198365,27.008435,0 107.236082,26.996563,0 107.243877,26.969178,0 107.250533,26.963194,0 107.267083,26.90283,0 107.271761,26.895277,0 107.279196,26.86409,0 107.277277,26.844692,0 107.270022,26.841282,0 107.266064,26.803258,0 107.255271,26.792286,0 107.244477,26.802244,0 107.216654,26.811924,0 107.197226,26.806438,0 107.172461,26.81916,0 107.143918,26.818423,0 107.130546,26.820266,0 107.110218,26.813998,0 107.088871,26.803212,0 107.0746,26.802797,0 107.064046,26.787953,0 107.042459,26.769325,0 107.027888,26.768126,0 107.015895,26.755122,0 107.006181,26.757705,0 106.995268,26.750188,0 106.982076,26.752678,0 106.968344,26.739903,0 106.966365,26.731139,0 106.982136,26.726388,0 106.965646,26.722144,0 106.969004,26.706828,0 106.973081,26.708488,0 106.972601,26.690356,0 106.951494,26.684495,0 106.948736,26.656159,0 106.95761,26.660128,0 106.962048,26.647342,0 106.939381,26.647111,0 106.917435,26.636725,0 106.913177,26.642818,0 106.896687,26.63871,0 106.893869,26.632201,0 106.882956,26.632385,0 106.872942,26.623152,0 106.883435,26.616549,0 106.897107,26.617703,0 106.911618,26.61304,0 106.916115,26.596739,0 106.907061,26.588565,0 106.893509,26.584963,0 106.880377,26.576141,0 106.852734,26.5736,0 106.840981,26.567272,0 106.833605,26.556093,0 106.840081,26.542787,0 106.851475,26.540292,0 106.838822,26.528094,0 106.843379,26.517465,0 106.837683,26.506836,0 106.822812,26.500828,0 106.808421,26.490335,0 106.805302,26.48072,0 106.80956,26.472908,0 106.829888,26.459685,0 106.829048,26.453073,0 106.812678,26.44794,0 106.819214,26.434345,0 106.813338,26.430044,0 106.789592,26.43046,0 106.784735,26.426806,0 106.757032,26.391883,0 106.778679,26.374163,0 106.791211,26.374348,0 106.813997,26.387673,0 106.833605,26.386609,0 106.834805,26.379252,0 106.824311,26.36787,0 106.82617,26.348156,0 106.817715,26.340427,0 106.782936,26.321171,0 106.785095,26.313023,0 106.829888,26.307375,0 106.840981,26.304227,0 106.851175,26.31469,0 106.874381,26.314042,0 106.87582,26.30219,0 106.868384,26.29793,0 106.873002,26.287929,0 106.882956,26.28478,0 106.886074,26.272138,0 106.871323,26.266488,0 106.858191,26.243931,0 106.859869,26.235871,0 106.882476,26.228829,0 106.887333,26.224196,0 106.886194,26.213679,0 106.871622,26.208767,0 106.866406,26.195746,0 106.858191,26.186894,0 106.835764,26.183418,0 106.82665,26.189211,0 106.817655,26.20506,0 106.797927,26.223316,0 106.796008,26.254585,0 106.788992,26.2588,0 106.794989,26.269267,0 106.780717,26.267785,0 106.771063,26.261115,0 106.753134,26.265098,0 106.751215,26.28089,0 106.742041,26.288299,0 106.722792,26.276908,0 106.704204,26.287512,0 106.688133,26.291726,0 106.680698,26.289225,0 106.649157,26.268201,0 106.637524,26.273759,0 106.629429,26.270193,0 106.634826,26.243653,0 106.629489,26.235037,0 106.614678,26.230543,0 106.606703,26.23323,0 106.595489,26.22869,0 106.591472,26.219887,0 106.575282,26.22679,0 106.568805,26.225169,0 106.567486,26.233276,0 106.533127,26.226235,0 106.526891,26.230728,0 106.513219,26.220165,0 106.500747,26.224335,0 106.515738,26.239021,0 106.513219,26.24898,0 106.500627,26.244904,0 106.501286,26.25741,0 106.485995,26.262134,0</coordinates></LinearRing></outerBoundaryIs>
      </Polygon>
      <Polygon>
        <outerBoundaryIs><LinearRing><coordinates>106.223294,26.028147,0 106.215199,26.032741,0 106.211901,26.021464,0 106.224374,26.023924,0 106.223294,26.028147,0</coordinates></LinearRing></outerBoundaryIs>
      </Polygon>
    </MultiGeometry>
    </Placemark>
  </Document>
</kml>
