<?xml version="1.0" encoding="UTF-8"?>
<kml xmlns="http://www.opengis.net/kml/2.2">
  <Document>
    <name><![CDATA[黔西南布依族苗族自治州]]></name>
    <Placemark>
      <name><![CDATA[黔西南布依族苗族自治州]]></name>
      <description><![CDATA[省级目录：贵州省]]></description>
      <ExtendedData>
        <Data name="adcode"><value>522300</value></Data>
      </ExtendedData>
      <MultiGeometry>
      <Polygon>
        <outerBoundaryIs><LinearRing><coordinates>106.522573,25.05986,0 106.518916,25.062854,0 106.52869,25.077496,0 106.531088,25.090125,0 106.525931,25.099199,0 106.517416,25.103455,0 106.513579,25.115801,0 106.497988,25.135674,0 106.479519,25.152317,0 106.47838,25.158815,0 106.463269,25.167416,0 106.459731,25.159984,0 106.452176,25.164986,0 106.446299,25.176204,0 106.457513,25.177185,0 106.467107,25.18714,0 106.496729,25.202282,0 106.506383,25.21873,0 106.497329,25.228868,0 106.495889,25.24606,0 106.488934,25.264464,0 106.483297,25.29085,0 106.464768,25.318023,0 106.456733,25.323766,0 106.443301,25.322925,0 106.423633,25.32624,0 106.419616,25.337583,0 106.422194,25.349672,0 106.418836,25.36204,0 106.399108,25.36694,0 106.382018,25.367873,0 106.34598,25.356019,0 106.332009,25.354199,0 106.323913,25.357653,0 106.304965,25.381919,0 106.29591,25.390411,0 106.26425,25.401935,0 106.252557,25.401748,0 106.226472,25.394003,0 106.219217,25.418122,0 106.208423,25.444475,0 106.199369,25.455294,0 106.191993,25.470402,0 106.178921,25.462335,0 106.16339,25.465413,0 106.165309,25.477955,0 106.159313,25.481545,0 106.155595,25.466112,0 106.140964,25.454688,0 106.127832,25.454781,0 106.123095,25.478048,0 106.135567,25.484995,0 106.111342,25.511939,0 106.091794,25.508536,0 106.069187,25.525455,0 106.068888,25.533191,0 106.084358,25.537106,0 106.091434,25.534077,0 106.100488,25.54102,0 106.093713,25.546938,0 106.103607,25.565109,0 106.096771,25.577781,0 106.080101,25.587377,0 106.083699,25.596879,0 106.076203,25.598556,0 106.06445,25.583557,0 106.054676,25.581834,0 106.056535,25.572843,0 106.04916,25.558587,0 106.036747,25.561336,0 106.022835,25.570188,0 105.992134,25.569256,0 105.987037,25.58407,0 105.990755,25.59674,0 105.98218,25.612295,0 105.979542,25.597299,0 105.971446,25.582346,0 105.963411,25.575592,0 105.962092,25.567299,0 105.969288,25.561103,0 105.981221,25.565109,0 105.993033,25.552343,0 105.98146,25.538597,0 105.935468,25.512172,0 105.91664,25.499074,0 105.912862,25.491289,0 105.91658,25.470775,0 105.931271,25.459258,0 105.926893,25.448765,0 105.939186,25.438039,0 105.927433,25.432209,0 105.909264,25.436266,0 105.908245,25.429503,0 105.893853,25.42232,0 105.877124,25.432862,0 105.834429,25.451283,0 105.815181,25.46089,0 105.786638,25.468397,0 105.78358,25.498235,0 105.756237,25.543583,0 105.74994,25.563292,0 105.732671,25.572564,0 105.719899,25.602142,0 105.706766,25.612854,0 105.689197,25.653038,0 105.680982,25.661418,0 105.665332,25.669145,0 105.638708,25.673242,0 105.622997,25.678734,0 105.577844,25.712521,0 105.567051,25.712708,0 105.548462,25.694931,0 105.531852,25.69521,0 105.515602,25.715034,0 105.495154,25.732715,0 105.48544,25.747183,0 105.454979,25.760486,0 105.441127,25.778021,0 105.429614,25.787973,0 105.41966,25.788856,0 105.391717,25.810292,0 105.378585,25.825541,0 105.373068,25.846691,0 105.376966,25.8828,0 105.367072,25.892697,0 105.348663,25.888376,0 105.33613,25.888515,0 105.315383,25.898504,0 105.301411,25.911466,0 105.285821,25.931207,0 105.266692,25.937431,0 105.255239,25.951874,0 105.263095,25.975137,0 105.260276,25.987904,0 105.25422,25.98549,0 105.249843,25.979687,0 105.236291,25.985722,0 105.227776,25.996725,0 105.220161,26.022903,0 105.209187,26.04527,0 105.18874,26.066891,0 105.193956,26.084241,0 105.18886,26.10349,0 105.175248,26.119396,0 105.180764,26.149534,0 105.177526,26.158713,0 105.18802,26.163627,0 105.18772,26.173824,0 105.158518,26.174566,0 105.13861,26.1506,0 105.124698,26.163997,0 105.104371,26.164646,0 105.090819,26.158528,0 105.065874,26.162514,0 105.063355,26.168772,0 105.052142,26.172665,0 105.032714,26.156256,0 105.019162,26.148839,0 105.004531,26.133029,0 104.999974,26.120741,0 105.011966,26.091523,0 104.988341,26.068422,0 104.976828,26.066288,0 104.970891,26.055478,0 104.959978,26.044806,0 104.955541,26.009211,0 104.949604,26.000206,0 104.94007,25.974673,0 104.94061,25.964087,0 104.930056,25.940589,0 104.936532,25.928699,0 104.951163,25.920152,0 104.944327,25.906867,0 104.948405,25.897807,0 104.947445,25.86886,0 104.932994,25.864817,0 104.911047,25.846923,0 104.901093,25.84855,0 104.888501,25.837348,0 104.884963,25.822333,0 104.87315,25.805875,0 104.872851,25.780299,0 104.870092,25.774905,0 104.877887,25.744392,0 104.904691,25.709962,0 104.909189,25.688927,0 104.901333,25.65909,0 104.896056,25.650338,0 104.870812,25.633018,0 104.861577,25.621516,0 104.863136,25.614391,0 104.876688,25.600512,0 104.881845,25.589101,0 104.880046,25.564783,0 104.888261,25.55677,0 104.902832,25.557049,0 104.914345,25.550153,0 104.911767,25.541113,0 104.913146,25.517019,0 104.892818,25.480286,0 104.872671,25.460936,0 104.860018,25.442982,0 104.850604,25.414437,0 104.850484,25.402728,0 104.855761,25.383692,0 104.869073,25.375853,0 104.880946,25.374546,0 104.888801,25.368246,0 104.886882,25.362226,0 104.870752,25.351306,0 104.849824,25.36778,0 104.834054,25.348925,0 104.822241,25.341971,0 104.783864,25.337163,0 104.754962,25.340384,0 104.710409,25.334969,0 104.69242,25.328574,0 104.687802,25.333102,0 104.690501,25.347805,0 104.683965,25.362646,0 104.664536,25.377766,0 104.659499,25.374313,0 104.654822,25.360033,0 104.645828,25.356813,0 104.647327,25.343791,0 104.645768,25.316389,0 104.652843,25.304998,0 104.640071,25.298928,0 104.641031,25.294819,0 104.662018,25.284826,0 104.671192,25.293464,0 104.70789,25.296219,0 104.709569,25.28179,0 104.729777,25.273664,0 104.735893,25.267873,0 104.75718,25.266378,0 104.754182,25.275906,0 104.766475,25.276513,0 104.779967,25.270021,0 104.788482,25.256757,0 104.796637,25.253534,0 104.805991,25.262829,0 104.817384,25.261054,0 104.827998,25.237091,0 104.810128,25.231718,0 104.80821,25.215786,0 104.815825,25.198357,0 104.808629,25.190318,0 104.823021,25.171296,0 104.818643,25.160171,0 104.804732,25.161667,0 104.787582,25.179242,0 104.777328,25.186393,0 104.767194,25.204431,0 104.750644,25.215039,0 104.74081,25.206581,0 104.731936,25.204945,0 104.72456,25.195693,0 104.734634,25.182233,0 104.732355,25.16779,0 104.718864,25.152691,0 104.718264,25.14091,0 104.696377,25.123376,0 104.693139,25.102894,0 104.686303,25.095691,0 104.686483,25.076233,0 104.671013,25.066783,0 104.647267,25.061684,0 104.619564,25.060655,0 104.635934,25.054713,0 104.652064,25.058924,0 104.673711,25.05855,0 104.683785,25.054854,0 104.700575,25.036325,0 104.706871,25.010118,0 104.712987,24.996216,0 104.700695,24.994765,0 104.685224,24.985497,0 104.687023,24.974963,0 104.663457,24.963118,0 104.663937,24.951084,0 104.651284,24.940314,0 104.651404,24.934601,0 104.638692,24.918255,0 104.635394,24.903922,0 104.618724,24.893944,0 104.60829,24.892351,0 104.596298,24.88448,0 104.587003,24.872907,0 104.570993,24.844088,0 104.562358,24.839026,0 104.539812,24.813855,0 104.541431,24.804901,0 104.537113,24.793274,0 104.544969,24.777754,0 104.540471,24.764905,0 104.54239,24.755807,0 104.528659,24.736811,0 104.529438,24.731416,0 104.55858,24.727804,0 104.574351,24.714059,0 104.594019,24.710306,0 104.599776,24.696042,0 104.628798,24.661174,0 104.632995,24.659203,0 104.666095,24.656903,0 104.697936,24.649392,0 104.703633,24.645825,0 104.698956,24.632728,0 104.70897,24.624183,0 104.729477,24.61822,0 104.743389,24.622258,0 104.751304,24.647139,0 104.764256,24.657043,0 104.803173,24.665726,0 104.810608,24.671687,0 104.822961,24.670373,0 104.841909,24.676192,0 104.860438,24.701532,0 104.866255,24.730666,0 104.875729,24.73986,0 104.899354,24.752946,0 104.982524,24.770439,0 105.017063,24.785303,0 105.033373,24.787788,0 105.034153,24.795431,0 105.026777,24.81559,0 105.037751,24.834058,0 105.041708,24.853976,0 105.036911,24.865644,0 105.03883,24.873001,0 105.070431,24.894974,0 105.075168,24.916709,0 105.100293,24.931182,0 105.108988,24.939424,0 105.125238,24.946214,0 105.132494,24.961386,0 105.145506,24.964663,0 105.157259,24.958857,0 105.178486,24.985403,0 105.195995,24.994672,0 105.212665,24.995374,0 105.215244,24.981283,0 105.231134,24.980909,0 105.234792,24.9656,0 105.251522,24.967426,0 105.263994,24.956235,0 105.257638,24.942094,0 105.265493,24.930198,0 105.280064,24.929449,0 105.308847,24.923969,0 105.333972,24.926358,0 105.339009,24.933383,0 105.365633,24.943498,0 105.391837,24.941625,0 105.428175,24.930713,0 105.443166,24.921862,0 105.448503,24.910714,0 105.456598,24.877874,0 105.470989,24.852664,0 105.484481,24.8469,0 105.492816,24.833355,0 105.493236,24.816668,0 105.497493,24.809355,0 105.523337,24.801573,0 105.544325,24.798525,0 105.572867,24.797306,0 105.590557,24.807573,0 105.607646,24.803729,0 105.614362,24.785585,0 105.626115,24.777191,0 105.650401,24.772174,0 105.678284,24.775597,0 105.705687,24.768469,0 105.725055,24.755432,0 105.737768,24.74244,0 105.758935,24.734935,0 105.766251,24.720345,0 105.795213,24.704816,0 105.805467,24.701532,0 105.827593,24.702939,0 105.856076,24.716874,0 105.864111,24.729493,0 105.880841,24.730431,0 105.892294,24.722785,0 105.904947,24.725224,0 105.942004,24.724802,0 105.946502,24.703972,0 105.953038,24.688112,0 105.961852,24.677553,0 105.985838,24.661409,0 105.990095,24.649252,0 106.014321,24.63423,0 106.023195,24.632352,0 106.039265,24.655588,0 106.046221,24.673142,0 106.047061,24.684076,0 106.065829,24.697262,0 106.084118,24.705192,0 106.09725,24.705942,0 106.113561,24.714059,0 106.119017,24.725131,0 106.133588,24.729822,0 106.138865,24.737092,0 106.143243,24.756698,0 106.149899,24.762842,0 106.170226,24.758339,0 106.188036,24.790789,0 106.185217,24.801151,0 106.19733,24.813433,0 106.200328,24.839776,0 106.206085,24.851071,0 106.204046,24.861427,0 106.19649,24.872064,0 106.19751,24.885792,0 106.192113,24.896989,0 106.182339,24.903734,0 106.167648,24.924719,0 106.16429,24.93446,0 106.149899,24.944435,0 106.145341,24.954034,0 106.153017,24.960964,0 106.175383,24.95675,0 106.183238,24.951693,0 106.191633,24.953426,0 106.19691,24.963118,0 106.215379,24.981845,0 106.228211,24.980207,0 106.242183,24.972107,0 106.253756,24.971218,0 106.261491,24.977351,0 106.278581,24.97927,0 106.304965,24.974074,0 106.316358,24.983109,0 106.332488,24.988493,0 106.353655,24.990225,0 106.369906,24.998838,0 106.388674,25.00539,0 106.406064,25.005624,0 106.41164,25.012177,0 106.435746,25.017746,0 106.44528,25.022333,0 106.449957,25.033236,0 106.463569,25.040302,0 106.512499,25.051111,0 106.522573,25.05986,0</coordinates></LinearRing></outerBoundaryIs>
      </Polygon>
      <Polygon>
        <outerBoundaryIs><LinearRing><coordinates>105.081944,24.915632,0 105.08926,24.915211,0 105.100173,24.924765,0 105.098734,24.929121,0 105.081944,24.915632,0</coordinates></LinearRing></outerBoundaryIs>
      </Polygon>
    </MultiGeometry>
    </Placemark>
  </Document>
</kml>
