<?xml version="1.0" encoding="UTF-8"?>
<kml xmlns="http://www.opengis.net/kml/2.2">
  <Document>
    <name>伊春市</name>
    <Placemark>
      <name>伊春市</name>
      <Polygon><outerBoundaryIs><LinearRing><coordinates>128.238962000000,46.577230000000,0 128.249120000000,46.582512000000,0 128.291418000000,46.570785000000,0 128.320220000000,46.574695000000,0 128.368920000000,46.570997000000,0 128.380051000000,46.565079000000,0 128.401339000000,46.581139000000,0 128.391460000000,46.597933000000,0 128.428472000000,46.620740000000,0 128.467292000000,46.625490000000,0 128.507643000000,46.607120000000,0 128.545767000000,46.599412000000,0 128.565804000000,46.578920000000,0 128.598502000000,46.586738000000,0 128.622155000000,46.573427000000,0 128.679481000000,46.575751000000,0 128.679899000000,46.565396000000,0 128.702300000000,46.557787000000,0 128.708979000000,46.537809000000,0 128.699378000000,46.511900000000,0 128.704248000000,46.483757000000,0 128.764914000000,46.486614000000,0 128.786759000000,46.501110000000,0 128.839215000000,46.487461000000,0 128.848815000000,46.509996000000,0 128.879844000000,46.524275000000,0 128.913655000000,46.526178000000,0 128.916159000000,46.518352000000,0 128.956788000000,46.512958000000,0 129.020654000000,46.487778000000,0 129.043334000000,46.520996000000,0 129.066988000000,46.534955000000,0 129.082154000000,46.557893000000,0 129.096486000000,46.555779000000,0 129.108034000000,46.535166000000,0 129.128766000000,46.530514000000,0 129.156594000000,46.545209000000,0 129.197363000000,46.536012000000,0 129.207102000000,46.558633000000,0 129.199450000000,46.576808000000,0 129.220738000000,46.585153000000,0 129.242305000000,46.620317000000,0 129.258584000000,46.620528000000,0 129.281543000000,46.641954000000,0 129.355705000000,46.652821000000,0 129.406630000000,46.643009000000,0 129.425553000000,46.620634000000,0 129.419987000000,46.613878000000,0 129.439328000000,46.604375000000,0 129.479400000000,46.623695000000,0 129.501385000000,46.619367000000,0 129.502359000000,46.619367000000,0 129.510011000000,46.622745000000,0 129.525873000000,46.663792000000,0 129.574016000000,46.687414000000,0 129.572903000000,46.702173000000,0 129.589322000000,46.713871000000,0 129.607271000000,46.712080000000,0 129.634403000000,46.721248000000,0 129.672806000000,46.717244000000,0 129.691033000000,46.723144000000,0 129.707591000000,46.738420000000,0 129.701330000000,46.765378000000,0 129.701191000000,46.796638000000,0 129.694651000000,46.806106000000,0 129.654022000000,46.804318000000,0 129.630507000000,46.815363000000,0 129.600453000000,46.856684000000,0 129.593078000000,46.881693000000,0 129.574433000000,46.898079000000,0 129.558432000000,46.899864000000,0 129.555928000000,46.924852000000,0 129.572346000000,46.936922000000,0 129.555510000000,46.950249000000,0 129.539787000000,46.952137000000,0 129.534918000000,46.981086000000,0 129.582921000000,46.970180000000,0 129.595444000000,46.992934000000,0 129.581251000000,47.019031000000,0 129.565807000000,47.032547000000,0 129.584869000000,47.030137000000,0 129.605879000000,47.039460000000,0 129.633290000000,47.042602000000,0 129.643030000000,47.036841000000,0 129.677119000000,47.045954000000,0 129.689642000000,47.059253000000,0 129.708287000000,47.062708000000,0 129.718305000000,47.078934000000,0 129.709261000000,47.102583000000,0 129.691033000000,47.120366000000,0 129.726792000000,47.123294000000,0 129.758516000000,47.148178000000,0 129.750725000000,47.170752000000,0 129.780918000000,47.179841000000,0 129.781753000000,47.210650000000,0 129.788988000000,47.217436000000,0 129.787319000000,47.239876000000,0 129.795806000000,47.264080000000,0 129.812086000000,47.270546000000,0 129.842557000000,47.256152000000,0 129.861759000000,47.261264000000,0 129.886247000000,47.297759000000,0 129.899883000000,47.304846000000,0 129.851323000000,47.320373000000,0 129.858002000000,47.332354000000,0 129.901275000000,47.332979000000,0 129.899327000000,47.352871000000,0 129.914632000000,47.360263000000,0 129.896544000000,47.364219000000,0 129.873586000000,47.385036000000,0 129.839079000000,47.404180000000,0 129.837966000000,47.426333000000,0 129.858002000000,47.429764000000,0 129.886387000000,47.443279000000,0 129.903223000000,47.440992000000,0 129.884856000000,47.467909000000,0 129.901553000000,47.482661000000,0 129.872612000000,47.496889000000,0 129.879569000000,47.528552000000,0 129.869272000000,47.538202000000,0 129.895152000000,47.559054000000,0 129.909484000000,47.562788000000,0 129.928407000000,47.555631000000,0 129.934808000000,47.565070000000,0 129.901275000000,47.571914000000,0 129.895570000000,47.609438000000,0 129.913936000000,47.617312000000,0 129.917137000000,47.641136000000,0 129.929659000000,47.654286000000,0 129.898492000000,47.678817000000,0 129.898631000000,47.699095000000,0 129.912962000000,47.717091000000,0 129.908927000000,47.725880000000,0 129.875255000000,47.744487000000,0 129.813338000000,47.760400000000,0 129.797615000000,47.781164000000,0 129.773126000000,47.782506000000,0 129.772987000000,47.816679000000,0 129.754481000000,47.820085000000,0 129.751281000000,47.851655000000,0 129.737506000000,47.859596000000,0 129.750446000000,47.875372000000,0 129.712878000000,47.871351000000,0 129.699799000000,47.887226000000,0 129.715522000000,47.910102000000,0 129.711904000000,47.924523000000,0 129.686720000000,47.928643000000,0 129.688390000000,47.947795000000,0 129.678371000000,47.954897000000,0 129.675032000000,47.978978000000,0 129.741959000000,47.976303000000,0 129.780918000000,47.999140000000,0 129.779666000000,48.007161000000,0 129.737506000000,48.026489000000,0 129.745437000000,48.035123000000,0 129.740846000000,48.081659000000,0 129.748498000000,48.093055000000,0 129.733471000000,48.104038000000,0 129.741402000000,48.119226000000,0 129.761856000000,48.122817000000,0 129.799285000000,48.151229000000,0 129.793997000000,48.164045000000,0 129.809303000000,48.173681000000,0 129.803737000000,48.190897000000,0 129.809998000000,48.219169000000,0 129.783423000000,48.240977000000,0 129.804015000000,48.257659000000,0 129.841583000000,48.260115000000,0 129.864820000000,48.286405000000,0 129.863428000000,48.309411000000,0 129.879708000000,48.316771000000,0 129.900718000000,48.310229000000,0 129.913936000000,48.297552000000,0 129.955122000000,48.272495000000,0 129.981976000000,48.250393000000,0 129.986429000000,48.225927000000,0 130.036241000000,48.197557000000,0 130.049042000000,48.194995000000,0 130.071026000000,48.173476000000,0 130.088280000000,48.165685000000,0 130.100385000000,48.143230000000,0 130.129883000000,48.145896000000,0 130.180947000000,48.174603000000,0 130.191522000000,48.169888000000,0 130.239525000000,48.169888000000,0 130.251352000000,48.165480000000,0 130.266101000000,48.181060000000,0 130.246761000000,48.194791000000,0 130.259144000000,48.222958000000,0 130.261231000000,48.244969000000,0 130.246900000000,48.249472000000,0 130.267632000000,48.259501000000,0 130.277232000000,48.272495000000,0 130.263458000000,48.283337000000,0 130.290173000000,48.293666000000,0 130.331358000000,48.297756000000,0 130.373100000000,48.293768000000,0 130.378109000000,48.308082000000,0 130.406077000000,48.309002000000,0 130.413590000000,48.325867000000,0 130.435574000000,48.314931000000,0 130.455332000000,48.329648000000,0 130.476621000000,48.320655000000,0 130.489283000000,48.301437000000,0 130.521842000000,48.289576000000,0 130.567480000000,48.297245000000,0 130.586681000000,48.306651000000,0 130.610613000000,48.300721000000,0 130.642894000000,48.305629000000,0 130.656808000000,48.313500000000,0 130.675035000000,48.306140000000,0 130.684775000000,48.320246000000,0 130.725265000000,48.326582000000,0 130.727770000000,48.336698000000,0 130.763668000000,48.334859000000,0 130.763111000000,48.345280000000,0 130.785096000000,48.357332000000,0 130.767007000000,48.375406000000,0 130.747667000000,48.404392000000,0 130.740710000000,48.425305000000,0 130.746275000000,48.449064000000,0 130.776330000000,48.480249000000,0 130.778695000000,48.494307000000,0 130.767425000000,48.507852000000,0 130.744188000000,48.515081000000,0 130.711768000000,48.511619000000,0 130.677818000000,48.493696000000,0 130.647346000000,48.485038000000,0 130.621188000000,48.496039000000,0 130.616179000000,48.510092000000,0 130.615761000000,48.575420000000,0 130.605743000000,48.594026000000,0 130.553705000000,48.604495000000,0 130.538538000000,48.611914000000,0 130.538678000000,48.635585000000,0 130.576802000000,48.688780000000,0 130.599065000000,48.741108000000,0 130.622023000000,48.783964000000,0 130.646929000000,48.813121000000,0 130.689784000000,48.849747000000,0 130.693680000000,48.863601000000,0 130.680462000000,48.880989000000,0 130.643033000000,48.886244000000,0 130.609222000000,48.880989000000,0 130.559131000000,48.860871000000,0 130.519894000000,48.858646000000,0 130.501805000000,48.865926000000,0 130.486917000000,48.893319000000,0 130.471194000000,48.905443000000,0 130.444619000000,48.909989000000,0 130.412060000000,48.905039000000,0 130.279737000000,48.867140000000,0 130.245369000000,48.866533000000,0 130.230203000000,48.876744000000,0 130.211419000000,48.901099000000,0 130.194583000000,48.907565000000,0 130.113047000000,48.956637000000,0 130.059199000000,48.978936000000,0 130.031371000000,49.014835000000,0 130.020936000000,49.021084000000,0 129.937312000000,49.040433000000,0 129.919224000000,49.055644000000,0 129.934668000000,49.078805000000,0 129.929659000000,49.097325000000,0 129.912823000000,49.108394000000,0 129.867046000000,49.114028000000,0 129.855080000000,49.133642000000,0 129.864402000000,49.158576000000,0 129.861620000000,49.172846000000,0 129.847566000000,49.181286000000,0 129.784675000000,49.183999000000,0 129.753925000000,49.208706000000,0 129.752673000000,49.227279000000,0 129.761856000000,49.257382000000,0 129.730410000000,49.288268000000,0 129.697295000000,49.298392000000,0 129.674754000000,49.295987000000,0 129.604627000000,49.279044000000,0 129.584452000000,49.282253000000,0 129.562467000000,49.299595000000,0 129.556067000000,49.324946000000,0 129.545910000000,49.395118000000,0 129.518499000000,49.423719000000,0 129.448650000000,49.441312000000,0 129.422353000000,49.442111000000,0 129.390351000000,49.432716000000,0 129.375045000000,49.414121000000,0 129.380611000000,49.371705000000,0 129.358070000000,49.356090000000,0 129.320363000000,49.358593000000,0 129.301440000000,49.370604000000,0 129.289891000000,49.362097000000,0 129.261645000000,49.375708000000,0 129.241888000000,49.378710000000,0 129.219208000000,49.358393000000,0 129.202928000000,49.351585000000,0 129.185536000000,49.333260000000,0 129.171204000000,49.284158000000,0 129.193606000000,49.243135000000,0 129.203763000000,49.237415000000,0 129.207659000000,49.216437000000,0 129.241192000000,49.177669000000,0 129.232287000000,49.158073000000,0 129.234096000000,49.101250000000,0 129.222686000000,49.086657000000,0 129.245505000000,49.089475000000,0 129.266655000000,49.064607000000,0 129.294761000000,49.052219000000,0 129.341373000000,49.045470000000,0 129.396334000000,49.047082000000,0 129.410108000000,49.052119000000,0 129.444476000000,49.037108000000,0 129.449903000000,49.018363000000,0 129.441137000000,49.013525000000,0 129.437658000000,48.992552000000,0 129.459643000000,48.965315000000,0 129.460199000000,48.950278000000,0 129.480792000000,48.950076000000,0 129.497767000000,48.940285000000,0 129.526569000000,48.935035000000,0 129.507089000000,48.925038000000,0 129.526708000000,48.909383000000,0 129.502220000000,48.903423000000,0 129.522117000000,48.892510000000,0 129.511542000000,48.877249000000,0 129.526291000000,48.869768000000,0 129.496932000000,48.858242000000,0 129.484131000000,48.841857000000,0 129.463538000000,48.839531000000,0 129.435571000000,48.804720000000,0 129.394107000000,48.815854000000,0 129.386872000000,48.808972000000,0 129.365723000000,48.813121000000,0 129.361270000000,48.802291000000,0 129.324537000000,48.801379000000,0 129.322172000000,48.790647000000,0 129.290865000000,48.796520000000,0 129.259976000000,48.774140000000,0 129.266794000000,48.754181000000,0 129.238826000000,48.747088000000,0 129.182753000000,48.766643000000,0 129.185257000000,48.753472000000,0 129.168560000000,48.749925000000,0 129.165499000000,48.737966000000,0 129.230061000000,48.682185000000,0 129.192493000000,48.650616000000,0 129.200841000000,48.641781000000,0 129.199728000000,48.623396000000,0 129.142124000000,48.614353000000,0 129.134888000000,48.607138000000,0 129.107478000000,48.614454000000,0 129.086885000000,48.605410000000,0 129.065736000000,48.578471000000,0 129.033177000000,48.570437000000,0 129.032481000000,48.556909000000,0 128.998948000000,48.528112000000,0 129.004235000000,48.511721000000,0 128.987678000000,48.496752000000,0 128.995470000000,48.483306000000,0 128.988513000000,48.452734000000,0 128.954980000000,48.421327000000,0 128.979468000000,48.413064000000,0 128.966389000000,48.408269000000,0 128.923534000000,48.375814000000,0 128.921308000000,48.342624000000,0 128.933552000000,48.332815000000,0 128.904472000000,48.323516000000,0 128.904472000000,48.307060000000,0 128.914629000000,48.302459000000,0 128.912681000000,48.280064000000,0 128.863286000000,48.273108000000,0 128.850346000000,48.251007000000,0 128.815283000000,48.258785000000,0 128.796638000000,48.289882000000,0 128.787733000000,48.293462000000,0 128.774236000000,48.340376000000,0 128.772984000000,48.366217000000,0 128.756009000000,48.382042000000,0 128.755591000000,48.397453000000,0 128.741677000000,48.409698000000,0 128.722476000000,48.404290000000,0 128.675864000000,48.413472000000,0 128.649288000000,48.403168000000,0 128.622851000000,48.401535000000,0 128.615338000000,48.392759000000,0 128.559960000000,48.380612000000,0 128.537419000000,48.385002000000,0 128.526566000000,48.373977000000,0 128.497903000000,48.377652000000,0 128.456856000000,48.363051000000,0 128.437377000000,48.332713000000,0 128.411218000000,48.314113000000,0 128.396887000000,48.296631000000,0 128.391321000000,48.266254000000,0 128.371981000000,48.260422000000,0 128.341648000000,48.201757000000,0 128.344013000000,48.181675000000,0 128.356119000000,48.171733000000,0 128.334413000000,48.147947000000,0 128.302271000000,48.147435000000,0 128.276809000000,48.157586000000,0 128.231170000000,48.135845000000,0 128.211552000000,48.134922000000,0 128.174123000000,48.119123000000,0 128.170923000000,48.095519000000,0 128.132102000000,48.078270000000,0 128.157426000000,48.070362000000,0 128.163687000000,48.055776000000,0 128.174540000000,48.057831000000,0 128.155617000000,48.035329000000,0 128.163687000000,48.016004000000,0 128.156313000000,48.008909000000,0 128.166331000000,47.993997000000,0 128.163966000000,47.944397000000,0 128.184558000000,47.953353000000,0 128.227553000000,47.946765000000,0 128.250789000000,47.925450000000,0 128.287244000000,47.928437000000,0 128.316046000000,47.913399000000,0 128.339004000000,47.892482000000,0 128.350831000000,47.854749000000,0 128.340257000000,47.824626000000,0 128.320081000000,47.839483000000,0 128.292253000000,47.836801000000,0 128.275974000000,47.817299000000,0 128.282931000000,47.798821000000,0 128.266234000000,47.783952000000,0 128.262755000000,47.754511000000,0 128.273191000000,47.757404000000,0 128.316742000000,47.738388000000,0 128.322168000000,47.716678000000,0 128.294758000000,47.698992000000,0 128.289470000000,47.675919000000,0 128.273469000000,47.658530000000,0 128.275695000000,47.645692000000,0 128.291001000000,47.632125000000,0 128.283348000000,47.622078000000,0 128.295314000000,47.603531000000,0 128.268182000000,47.599386000000,0 128.249676000000,47.583319000000,0 128.256494000000,47.563307000000,0 128.228248000000,47.541626000000,0 128.238267000000,47.524919000000,0 128.258164000000,47.527306000000,0 128.298654000000,47.500835000000,0 128.311872000000,47.473312000000,0 128.347492000000,47.463649000000,0 128.350831000000,47.437042000000,0 128.340117000000,47.429244000000,0 128.378799000000,47.403660000000,0 128.387147000000,47.412294000000,0 128.400922000000,47.404388000000,0 128.449899000000,47.400123000000,0 128.459361000000,47.379000000000,0 128.454630000000,47.347039000000,0 128.471605000000,47.344436000000,0 128.494146000000,47.363282000000,0 128.512234000000,47.396690000000,0 128.523922000000,47.399395000000,0 128.522253000000,47.416870000000,0 128.537836000000,47.428413000000,0 128.552585000000,47.407821000000,0 128.541036000000,47.396898000000,0 128.546741000000,47.376294000000,0 128.536723000000,47.356411000000,0 128.496790000000,47.326728000000,0 128.492616000000,47.299010000000,0 128.504025000000,47.284832000000,0 128.500268000000,47.271589000000,0 128.484963000000,47.261889000000,0 128.485519000000,47.244363000000,0 128.458387000000,47.225161000000,0 128.407740000000,47.211172000000,0 128.403287000000,47.204908000000,0 128.352223000000,47.182139000000,0 128.358762000000,47.162706000000,0 128.343318000000,47.157062000000,0 128.308115000000,47.163228000000,0 128.284879000000,47.153300000000,0 128.248980000000,47.130823000000,0 128.242580000000,47.106140000000,0 128.198612000000,47.097980000000,0 128.184141000000,47.104885000000,0 128.173288000000,47.094318000000,0 128.109979000000,47.078097000000,0 128.069211000000,47.076736000000,0 128.063367000000,47.086783000000,0 128.012441000000,47.074747000000,0 128.002145000000,47.085318000000,0 127.963325000000,47.093376000000,0 127.943706000000,47.085632000000,0 127.927148000000,47.068571000000,0 127.871631000000,47.080713000000,0 127.857300000000,47.068990000000,0 127.821819000000,47.062289000000,0 127.748909000000,47.015678000000,0 127.729986000000,47.017774000000,0 127.702715000000,47.004988000000,0 127.696175000000,47.013477000000,0 127.684209000000,47.000481000000,0 127.656520000000,47.007294000000,0 127.632866000000,47.000376000000,0 127.633840000000,46.988321000000,0 127.647893000000,46.988216000000,0 127.671130000000,46.969760000000,0 127.686992000000,46.966089000000,0 127.678365000000,46.948255000000,0 127.701741000000,46.933774000000,0 127.723168000000,46.934928000000,0 127.728038000000,46.926217000000,0 127.747935000000,46.926217000000,0 127.770754000000,46.896923000000,0 127.830724000000,46.868770000000,0 127.847699000000,46.844491000000,0 127.874275000000,46.819255000000,0 127.893337000000,46.810104000000,0 127.900294000000,46.794533000000,0 127.926870000000,46.778537000000,0 127.960959000000,46.741369000000,0 128.006458000000,46.697008000000,0 128.028443000000,46.691210000000,0 128.056827000000,46.654826000000,0 128.054740000000,46.638049000000,0 128.077420000000,46.628762000000,0 128.082290000000,46.617150000000,0 128.116379000000,46.599200000000,0 128.147686000000,46.591596000000,0 128.179688000000,46.589695000000,0 128.209047000000,46.574589000000,0 128.238962000000,46.577230000000,0</coordinates></LinearRing></outerBoundaryIs></Polygon>
    </Placemark>
  </Document>
</kml>
