<?xml version="1.0" encoding="UTF-8"?>
<kml xmlns="http://www.opengis.net/kml/2.2">
  <Document>
    <name>双鸭山市</name>
    <Placemark>
      <name>双鸭山市</name>
      <Polygon><outerBoundaryIs><LinearRing><coordinates>134.498201000000,47.449308000000,0 134.504740000000,47.551793000000,0 134.505436000000,47.652733000000,0 134.510584000000,47.666294000000,0 134.511837000000,47.739525000000,0 134.551770000000,47.738492000000,0 134.551770000000,47.784572000000,0 134.513367000000,47.784572000000,0 134.517402000000,47.883825000000,0 134.465224000000,47.887123000000,0 134.466755000000,47.867639000000,0 134.454371000000,47.865680000000,0 134.452702000000,47.849180000000,0 134.437953000000,47.838039000000,0 134.416804000000,47.839174000000,0 134.396489000000,47.824213000000,0 134.384384000000,47.828031000000,0 134.359478000000,47.778995000000,0 134.377009000000,47.772487000000,0 134.379931000000,47.758644000000,0 134.369078000000,47.743866000000,0 134.374783000000,47.731152000000,0 134.345703000000,47.709852000000,0 134.345564000000,47.692061000000,0 134.318292000000,47.680369000000,0 134.327754000000,47.673021000000,0 134.294916000000,47.647038000000,0 134.250948000000,47.645796000000,0 134.252200000000,47.639582000000,0 134.217972000000,47.629432000000,0 134.223676000000,47.621042000000,0 134.201553000000,47.613686000000,0 134.191813000000,47.588502000000,0 134.171638000000,47.589435000000,0 134.152297000000,47.605189000000,0 134.108746000000,47.617312000000,0 134.094693000000,47.600111000000,0 134.101789000000,47.570981000000,0 134.052116000000,47.572225000000,0 134.052673000000,47.527929000000,0 134.034028000000,47.538099000000,0 133.974476000000,47.520664000000,0 133.935934000000,47.541938000000,0 133.885982000000,47.535712000000,0 133.847997000000,47.547748000000,0 133.808064000000,47.533326000000,0 133.768826000000,47.537476000000,0 133.721379000000,47.538202000000,0 133.721379000000,47.545361000000,0 133.693273000000,47.544013000000,0 133.634416000000,47.522947000000,0 133.613267000000,47.482038000000,0 133.608536000000,47.462299000000,0 133.593370000000,47.441616000000,0 133.562202000000,47.434131000000,0 133.517538000000,47.448477000000,0 133.489988000000,47.451491000000,0 133.455064000000,47.465520000000,0 133.400938000000,47.407821000000,0 133.353213000000,47.331833000000,0 133.292826000000,47.302449000000,0 133.296305000000,47.201357000000,0 133.277799000000,47.199269000000,0 133.274181000000,47.181617000000,0 133.258458000000,47.174304000000,0 133.255954000000,47.144415000000,0 133.242318000000,47.134378000000,0 133.240231000000,47.115764000000,0 133.228126000000,47.113776000000,0 133.227987000000,47.086260000000,0 133.210872000000,47.074538000000,0 133.239396000000,47.060509000000,0 133.236892000000,47.040089000000,0 133.217829000000,47.045221000000,0 133.204333000000,47.038517000000,0 133.222003000000,47.023746000000,0 133.183740000000,47.014735000000,0 133.189445000000,46.999328000000,0 133.210177000000,47.003102000000,0 133.213238000000,46.979828000000,0 133.182488000000,46.982344000000,0 133.201272000000,46.973326000000,0 133.178592000000,46.974270000000,0 133.169408000000,46.961998000000,0 133.151737000000,46.959586000000,0 133.163843000000,46.951088000000,0 133.139493000000,46.939231000000,0 133.150624000000,46.926532000000,0 133.138519000000,46.921913000000,0 133.148955000000,46.899129000000,0 133.129336000000,46.894718000000,0 133.113056000000,46.899864000000,0 133.106656000000,46.886630000000,0 133.062131000000,46.878016000000,0 133.026789000000,46.863516000000,0 133.031520000000,46.855423000000,0 133.008005000000,46.852375000000,0 133.002301000000,46.833872000000,0 132.970020000000,46.839235000000,0 132.956523000000,46.807684000000,0 132.905737000000,46.802635000000,0 132.880274000000,46.793376000000,0 132.891127000000,46.786956000000,0 132.877909000000,46.767694000000,0 132.843680000000,46.774432000000,0 132.812235000000,46.753901000000,0 132.811539000000,46.779063000000,0 132.779954000000,46.776853000000,0 132.740577000000,46.794954000000,0 132.719706000000,46.817151000000,0 132.672120000000,46.811471000000,0 132.649718000000,46.800846000000,0 132.628291000000,46.810104000000,0 132.595593000000,46.797479000000,0 132.549537000000,46.789166000000,0 132.513917000000,46.791797000000,0 132.493046000000,46.824093000000,0 132.452417000000,46.821148000000,0 132.432520000000,46.828194000000,0 132.390221000000,46.814312000000,0 132.400657000000,46.762851000000,0 132.364202000000,46.767589000000,0 132.328721000000,46.777379000000,0 132.333452000000,46.783063000000,0 132.306319000000,46.797269000000,0 132.257342000000,46.809894000000,0 132.237862000000,46.802424000000,0 132.207808000000,46.815679000000,0 132.222418000000,46.820727000000,0 132.216574000000,46.846489000000,0 132.200016000000,46.856684000000,0 132.195285000000,46.877911000000,0 132.220609000000,46.886525000000,0 132.253307000000,46.909105000000,0 132.246211000000,46.930520000000,0 132.267221000000,46.943743000000,0 132.241897000000,46.954445000000,0 132.205582000000,46.952347000000,0 132.118480000000,46.969970000000,0 132.060041000000,46.976577000000,0 132.059067000000,46.989474000000,0 131.929805000000,46.987272000000,0 131.915195000000,46.975528000000,0 131.839642000000,46.958222000000,0 131.837555000000,46.903749000000,0 131.863296000000,46.900914000000,0 131.864687000000,46.886630000000,0 131.801657000000,46.885790000000,0 131.788160000000,46.882848000000,0 131.789412000000,46.903224000000,0 131.763949000000,46.903434000000,0 131.763115000000,46.889676000000,0 131.726521000000,46.864777000000,0 131.728886000000,46.886735000000,0 131.529080000000,46.891042000000,0 131.533950000000,47.012534000000,0 131.554125000000,47.073805000000,0 131.539237000000,47.076317000000,0 131.461875000000,47.068362000000,0 131.408306000000,47.068885000000,0 131.404967000000,47.026261000000,0 131.212675000000,46.965355000000,0 131.182342000000,46.965250000000,0 131.085639000000,46.955599000000,0 131.073812000000,46.978779000000,0 131.059759000000,46.990522000000,0 131.030540000000,46.970494000000,0 131.013286000000,46.989055000000,0 130.942881000000,46.948990000000,0 130.910183000000,46.941225000000,0 130.836438000000,46.939651000000,0 130.844787000000,46.910050000000,0 130.861623000000,46.911205000000,0 130.849796000000,46.898919000000,0 130.864823000000,46.890307000000,0 130.837552000000,46.888311000000,0 130.839500000000,46.877806000000,0 130.823498000000,46.876230000000,0 130.828507000000,46.854793000000,0 130.798453000000,46.850903000000,0 130.791496000000,46.864461000000,0 130.764920000000,46.849642000000,0 130.751702000000,46.832821000000,0 130.713577000000,46.822305000000,0 130.682271000000,46.835239000000,0 130.666130000000,46.830928000000,0 130.668357000000,46.789061000000,0 130.657225000000,46.780958000000,0 130.668496000000,46.743265000000,0 130.709542000000,46.742738000000,0 130.713021000000,46.727464000000,0 130.730552000000,46.714925000000,0 130.723039000000,46.700276000000,0 130.728604000000,46.684989000000,0 130.745162000000,46.678452000000,0 130.727352000000,46.650289000000,0 130.719839000000,46.624962000000,0 130.744049000000,46.597933000000,0 130.757267000000,46.606592000000,0 130.797479000000,46.607859000000,0 130.821550000000,46.587477000000,0 130.836299000000,46.584942000000,0 130.864267000000,46.594870000000,0 130.912409000000,46.595293000000,0 130.945107000000,46.579554000000,0 130.972240000000,46.531254000000,0 130.965839000000,46.525015000000,0 130.975301000000,46.507564000000,0 131.023026000000,46.491694000000,0 131.030818000000,46.483122000000,0 131.018713000000,46.447233000000,0 131.064212000000,46.426261000000,0 131.062681000000,46.400829000000,0 131.089535000000,46.389699000000,0 131.095796000000,46.396377000000,0 131.132390000000,46.388215000000,0 131.152288000000,46.391607000000,0 131.167593000000,46.372416000000,0 131.205439000000,46.364144000000,0 131.229371000000,46.373477000000,0 131.247738000000,46.366053000000,0 131.295602000000,46.331785000000,0 131.283080000000,46.311193000000,0 131.340823000000,46.297602000000,0 131.358911000000,46.277847000000,0 131.410393000000,46.249158000000,0 131.435578000000,46.241611000000,0 131.454501000000,46.248733000000,0 131.505983000000,46.249264000000,0 131.515444000000,46.238741000000,0 131.538959000000,46.234914000000,0 131.550925000000,46.221729000000,0 131.571379000000,46.230448000000,0 131.586824000000,46.221198000000,0 131.628148000000,46.224069000000,0 131.630375000000,46.217901000000,0 131.631070000000,46.203862000000,0 131.657229000000,46.214179000000,0 131.705650000000,46.200883000000,0 131.721233000000,46.201628000000,0 131.727355000000,46.176198000000,0 131.698414000000,46.159699000000,0 131.699249000000,46.118591000000,0 131.707180000000,46.092056000000,0 131.772159000000,46.070308000000,0 131.778003000000,46.059217000000,0 131.801796000000,46.067429000000,0 131.838946000000,46.064016000000,0 131.893211000000,46.088219000000,0 131.910047000000,46.088326000000,0 131.929109000000,46.075319000000,0 131.912969000000,46.059964000000,0 131.902951000000,46.024544000000,0 131.925909000000,46.003623000000,0 131.905734000000,46.003410000000,0 131.874984000000,45.987073000000,0 131.868305000000,45.971906000000,0 131.836859000000,45.940599000000,0 131.808057000000,45.934934000000,0 131.807500000000,45.921678000000,0 131.788856000000,45.904033000000,0 131.785934000000,45.876112000000,0 131.797204000000,45.856526000000,0 131.785099000000,45.837576000000,0 131.799848000000,45.821619000000,0 131.801239000000,45.804372000000,0 131.788716000000,45.789262000000,0 131.815292000000,45.791513000000,0 131.827954000000,45.810800000000,0 131.845347000000,45.794406000000,0 131.867609000000,45.799121000000,0 131.872757000000,45.833935000000,0 131.890289000000,45.842181000000,0 131.894185000000,45.870333000000,0 131.927440000000,45.884351000000,0 131.943163000000,45.865196000000,0 131.940241000000,45.849033000000,0 131.971965000000,45.829438000000,0 131.971130000000,45.820119000000,0 132.027064000000,45.816370000000,0 132.083138000000,45.833079000000,0 132.086060000000,45.841217000000,0 132.134620000000,45.842716000000,0 132.168153000000,45.857918000000,0 132.197511000000,45.843572000000,0 132.212539000000,45.846356000000,0 132.222418000000,45.873865000000,0 132.257481000000,45.868193000000,0 132.277656000000,45.892053000000,0 132.279465000000,45.914941000000,0 132.287675000000,45.922319000000,0 132.265551000000,45.946904000000,0 132.282944000000,45.960689000000,0 132.267917000000,45.988888000000,0 132.307154000000,46.005758000000,0 132.309102000000,46.029346000000,0 132.346531000000,46.031587000000,0 132.390360000000,46.027319000000,0 132.451026000000,45.988141000000,0 132.485254000000,45.992412000000,0 132.509743000000,46.007360000000,0 132.544945000000,46.046951000000,0 132.559416000000,46.051538000000,0 132.571382000000,46.074573000000,0 132.607976000000,46.072121000000,0 132.626204000000,46.120402000000,0 132.647909000000,46.120721000000,0 132.672398000000,46.132972000000,0 132.664885000000,46.143302000000,0 132.679077000000,46.165022000000,0 132.712332000000,46.173537000000,0 132.728750000000,46.185243000000,0 132.746143000000,46.183541000000,0 132.789415000000,46.150011000000,0 132.793311000000,46.133930000000,0 132.818078000000,46.130628000000,0 132.823227000000,46.141705000000,0 132.851611000000,46.137764000000,0 132.865943000000,46.126474000000,0 132.878883000000,46.136806000000,0 132.901563000000,46.140107000000,0 132.897806000000,46.156292000000,0 132.953184000000,46.169599000000,0 132.947479000000,46.181199000000,0 132.973220000000,46.203117000000,0 132.968489000000,46.211733000000,0 132.972246000000,46.242674000000,0 132.983934000000,46.268073000000,0 133.028459000000,46.308539000000,0 133.021084000000,46.322976000000,0 133.029989000000,46.338365000000,0 132.995204000000,46.344943000000,0 133.034025000000,46.373052000000,0 133.053643000000,46.371886000000,0 133.061435000000,46.386306000000,0 133.083698000000,46.400935000000,0 133.066583000000,46.416831000000,0 133.078132000000,46.432723000000,0 133.098447000000,46.443950000000,0 133.090516000000,46.467986000000,0 133.119318000000,46.483122000000,0 133.149650000000,46.462799000000,0 133.207394000000,46.471162000000,0 133.223534000000,46.492011000000,0 133.210594000000,46.504390000000,0 133.215325000000,46.520362000000,0 133.227291000000,46.521842000000,0 133.234248000000,46.549015000000,0 133.222977000000,46.560007000000,0 133.232300000000,46.576808000000,0 133.278355000000,46.584308000000,0 133.287678000000,46.597511000000,0 133.320932000000,46.610288000000,0 133.347230000000,46.598884000000,0 133.359892000000,46.582512000000,0 133.349456000000,46.566770000000,0 133.385633000000,46.553454000000,0 133.403721000000,46.556519000000,0 133.427932000000,46.540558000000,0 133.456455000000,46.558633000000,0 133.482753000000,46.563177000000,0 133.492771000000,46.545315000000,0 133.490684000000,46.531042000000,0 133.507659000000,46.516977000000,0 133.537435000000,46.537175000000,0 133.575699000000,46.542038000000,0 133.627181000000,46.534426000000,0 133.663079000000,46.547112000000,0 133.683950000000,46.536646000000,0 133.710109000000,46.533580000000,0 133.732789000000,46.519304000000,0 133.744755000000,46.532311000000,0 133.799576000000,46.535589000000,0 133.824760000000,46.530302000000,0 133.839231000000,46.520045000000,0 133.863859000000,46.527447000000,0 133.870677000000,46.508304000000,0 133.890852000000,46.525226000000,0 133.911167000000,46.581350000000,0 133.932038000000,46.604269000000,0 133.976145000000,46.620212000000,0 134.011209000000,46.638155000000,0 134.028184000000,46.693529000000,0 134.024427000000,46.724198000000,0 134.033193000000,46.759061000000,0 134.052812000000,46.780116000000,0 134.021505000000,46.826406000000,0 134.041402000000,46.848486000000,0 134.042655000000,46.886735000000,0 134.055873000000,46.896608000000,0 134.058377000000,46.914039000000,0 134.076327000000,46.938496000000,0 134.064082000000,46.980037000000,0 134.101928000000,47.005827000000,0 134.103320000000,47.022698000000,0 134.120573000000,47.046687000000,0 134.118208000000,47.061766000000,0 134.141444000000,47.091492000000,0 134.156332000000,47.097666000000,0 134.200857000000,47.096096000000,0 134.222285000000,47.105303000000,0 134.232860000000,47.134796000000,0 134.228546000000,47.148073000000,0 134.230216000000,47.182244000000,0 134.210736000000,47.210337000000,0 134.157306000000,47.248432000000,0 134.177621000000,47.326416000000,0 134.203084000000,47.347456000000,0 134.235364000000,47.352246000000,0 134.263331000000,47.371194000000,0 134.266532000000,47.392008000000,0 134.314953000000,47.433299000000,0 134.334015000000,47.439329000000,0 134.415551000000,47.440265000000,0 134.454511000000,47.448892000000,0 134.498201000000,47.449308000000,0</coordinates></LinearRing></outerBoundaryIs></Polygon>
    </Placemark>
  </Document>
</kml>
