<?xml version="1.0" encoding="UTF-8"?>
<kml xmlns="http://www.opengis.net/kml/2.2">
<Document>
<name>哈尔滨市</name>
<Placemark><name>哈尔滨市</name><MultiGeometry><Polygon><outerBoundaryIs><LinearRing><coordinates>125.761285999999998,45.531345999999999,0 125.743615000000005,45.519069999999999,0 125.687959000000006,45.514009000000001,0 125.702011999999996,45.501837000000002,0 125.691716,45.487724,0 125.709804000000005,45.484383000000001,0 125.697141999999999,45.453986999999998,0 125.706603999999999,45.446007999999999,0 125.707160999999999,45.424222,0 125.715925999999996,45.421740999999997,0 125.712309000000005,45.389369000000002,0 125.696308000000002,45.365400999999999,0 125.695751000000001,45.350712999999999,0 125.726223000000005,45.336454000000003,0 125.716205000000002,45.326512999999998,0 125.731232000000006,45.322946999999999,0 125.753215999999995,45.297978000000001,0 125.751824999999997,45.287273999999996,0 125.774225999999999,45.293112999999998,0 125.787723,45.279162999999997,0 125.814854999999994,45.267806999999998,0 125.813463999999996,45.246817,0 125.823759999999993,45.238052000000003,0 125.849639999999994,45.239026000000003,0 125.871903000000003,45.221165999999997,0 125.888461000000007,45.221490000000003,0 125.919766999999993,45.196044000000001,0 125.957474000000005,45.201351000000003,0 125.966657999999995,45.193010999999998,0 125.992677,45.192686000000002,0 125.982241000000002,45.178820000000002,0 125.996989999999997,45.162675,0 126.029409999999999,45.164516999999996,0 126.044854999999998,45.171019000000001,0 126.085345000000004,45.162675,0 126.095363000000006,45.147176000000002,0 126.114007999999998,45.14284,0 126.145036000000005,45.147067999999997,0 126.166184999999999,45.133516,0 126.170916000000005,45.146309000000002,0 126.192064999999999,45.155088999999997,0 126.217111000000003,45.146633999999999,0 126.225459000000001,45.153896000000003,0 126.235615999999993,45.140237999999997,0 126.262471000000005,45.152161999999997,0 126.264696999999998,45.168202000000001,0 126.285150000000002,45.162458000000001,0 126.280698000000001,45.172319000000002,0 126.297117,45.192143999999999,0 126.304213000000004,45.178061999999997,0 126.341920000000002,45.192686000000002,0 126.359729999999999,45.188028000000003,0 126.389088000000001,45.213586999999997,0 126.432083000000006,45.234696,0 126.439875000000001,45.223979999999997,0 126.460468000000006,45.234588000000002,0 126.512923999999998,45.239891,0 126.519463000000002,45.247900000000001,0 126.540056000000007,45.238809000000003,0 126.569553999999997,45.252661000000003,0 126.623540000000006,45.235453999999997,0 126.646499000000006,45.224305000000001,0 126.649838000000003,45.211205,0 126.685736000000006,45.187702999999999,0 126.732208999999997,45.187269999999998,0 126.731791999999999,45.178170000000001,0 126.765185000000002,45.17492,0 126.787030000000001,45.158990000000003,0 126.792596000000003,45.135359000000001,0 126.812770999999998,45.136552000000002,0 126.825571999999994,45.147826000000002,0 126.838930000000005,45.132756999999998,0 126.856461999999993,45.14555,0 126.874132000000003,45.137526999999999,0 126.922135999999995,45.142623,0 126.931736999999998,45.130153999999997,0 126.944119999999998,45.138827999999997,0 126.964296000000004,45.132215000000002,0 126.956643,45.121912999999999,0 126.969583,45.116923999999997,0 126.970973999999998,45.071027999999998,0 126.987392999999997,45.066251999999999,0 127.009099000000006,45.043776000000001,0 127.018421000000004,45.024334000000003,0 127.050284000000005,45.003906999999998,0 127.039292000000003,44.997929999999997,0 127.057241000000005,44.991734999999998,0 127.075468999999998,44.958463999999999,0 127.087574000000004,44.956724000000001,0 127.088965999999999,44.929962000000003,0 127.072547,44.906889,0 127.045415000000006,44.907107000000003,0 127.021900000000002,44.898941999999998,0 126.999081000000004,44.872698,0 127.003116000000006,44.854505000000003,0 126.984193000000005,44.824534,0 126.997550000000004,44.764873999999999,0 127.041100999999998,44.712251000000002,0 127.030525999999995,44.673901000000001,0 127.043188000000001,44.654879999999999,0 127.041518999999994,44.611787,0 127.028717999999998,44.597341999999998,0 127.041518999999994,44.591104000000001,0 127.053484999999995,44.566909000000003,0 127.089243999999994,44.593620999999999,0 127.094669999999994,44.615834999999997,0 127.138917000000006,44.607629000000003,0 127.181910999999999,44.644272999999998,0 127.210435000000004,44.648209999999999,0 127.229496999999995,44.642524000000002,0 127.214053000000007,44.625461999999999,0 127.262196000000003,44.612881000000002,0 127.275692000000006,44.640227000000003,0 127.321887000000004,44.635525000000001,0 127.392708999999996,44.632243000000003,0 127.436678000000001,44.613427999999999,0 127.451426999999995,44.615068999999998,0 127.506805,44.594496999999997,0 127.513204999999999,44.582566,0 127.557034000000002,44.575558999999998,0 127.570252999999994,44.550700999999997,0 127.549520999999999,44.539090000000002,0 127.536997999999997,44.522655,0 127.508195999999998,44.529777000000003,0 127.485516000000004,44.528682000000003,0 127.465619000000004,44.516517999999998,0 127.475498000000002,44.498761000000002,0 127.464645000000004,44.486700999999996,0 127.480784999999997,44.456868999999998,0 127.500961000000004,44.449846999999998,0 127.508195999999998,44.437227999999998,0 127.485516000000004,44.408687999999998,0 127.487881999999999,44.397488000000003,0 127.506525999999994,44.393205000000002,0 127.520579999999995,44.380574000000003,0 127.522527999999994,44.361016999999997,0 127.556755999999993,44.340245000000003,0 127.579713999999996,44.310118000000003,0 127.609211999999999,44.294719000000001,0 127.623543999999995,44.277884999999998,0 127.623265000000004,44.258293999999999,0 127.590566999999993,44.227905,0 127.626604999999998,44.187911999999997,0 127.641214000000005,44.193533000000002,0 127.681703999999996,44.166969000000002,0 127.699235999999999,44.176119,0 127.719829000000004,44.202348000000001,0 127.720524999999995,44.162779,0 127.734855999999994,44.129913000000002,0 127.728872999999993,44.099457999999998,0 127.783833999999999,44.071857000000001,0 127.808322000000004,44.086432000000002,0 127.845889999999997,44.081904999999999,0 127.864952000000002,44.062249999999999,0 127.888885000000002,44.069538000000001,0 127.908085999999997,44.064458000000002,0 127.949550000000002,44.088087999999999,0 128.007293000000004,44.094270000000002,0 128.027607999999987,44.108396999999997,0 128.052514000000002,44.106963,0 128.10149100000001,44.135759999999998,0 128.084934000000004,44.147562000000001,0 128.087855999999988,44.158479,0 128.060444999999987,44.168621999999999,0 128.070879999999988,44.181739999999998,0 128.092725999999999,44.182290999999999,0 128.092029999999994,44.215789000000001,0 128.103578999999996,44.213254999999997,0 128.104412999999994,44.229336000000004,0 128.087995000000006,44.238917000000001,0 128.092308000000003,44.248055999999998,0 128.064480000000003,44.251029000000003,0 128.063922999999988,44.261595999999997,0 128.088272999999987,44.274804000000003,0 128.101351999999991,44.289878000000002,0 128.080759,44.307257999999997,0 128.06503699999999,44.307367999999997,0 128.05627100000001,44.329251999999997,0 128.063783999999998,44.341783999999997,0 128.050287999999995,44.350467000000002,0 128.066984999999988,44.371015999999997,0 128.09453400000001,44.354973000000001,0 128.126258000000007,44.349257999999999,0 128.154087000000004,44.356181999999997,0 128.164800000000014,44.343542999999997,0 128.188733000000013,44.364314,0 128.211969000000011,44.432290000000002,0 128.22769199999999,44.445349,0 128.253016000000002,44.446665000000003,0 128.254546000000005,44.453468000000001,0 128.232144000000005,44.467618999999999,0 128.235206000000005,44.480451000000002,0 128.271659999999997,44.530653999999998,0 128.296426999999994,44.538214000000004,0 128.293644999999998,44.546320000000001,0 128.348327000000012,44.586177999999997,0 128.371841999999987,44.608066000000001,0 128.368640999999997,44.631478000000001,0 128.39382599999999,44.643836,0 128.408435999999995,44.675868000000001,0 128.438072000000005,44.680021000000004,0 128.472858000000002,44.666139999999999,0 128.535471000000001,44.682862,0 128.562185999999997,44.669856000000003,0 128.579160999999999,44.674774999999997,0 128.600170999999989,44.670403,0 128.630086000000006,44.655208000000002,0 128.691586999999998,44.663187999999998,0 128.728736999999995,44.694991000000002,0 128.747798999999986,44.699688999999999,0 128.755869999999987,44.725138000000001,0 128.727206999999993,44.734746999999999,0 128.748494999999991,44.739877999999997,0 128.782444999999996,44.767164999999999,0 128.788846000000007,44.783422000000002,0 128.836432000000002,44.789858000000002,0 128.85772,44.799455999999999,0 128.847981000000004,44.806108000000002,0 128.867182000000014,44.830094000000003,0 128.851737000000014,44.831729000000003,0 128.876504000000011,44.844588999999999,0 128.88179199999999,44.863329999999998,0 128.904610999999989,44.883370999999997,0 128.925898999999987,44.874876,0 128.951222999999999,44.885331000000001,0 128.967223999999987,44.884787000000003,0 128.993939000000012,44.907868999999998,0 129.022185000000007,44.913093000000003,0 129.041385999999989,44.900683999999998,0 129.061561000000012,44.903731999999998,0 129.043333999999987,44.929962000000003,0 129.054604000000012,44.935293999999999,0 129.046256,44.951611999999997,0 129.033593999999994,44.949001000000003,0 129.023298000000011,44.973471000000004,0 129.042360000000002,44.977167000000001,0 129.051821999999987,44.999234000000001,0 129.040690000000012,45.013469999999998,0 129.035681000000011,45.041496000000002,0 129.00980100000001,45.048228999999999,0 128.99741800000001,45.064515,0 129.017176000000006,45.080252999999999,0 129.056135000000012,45.077106000000001,0 129.074641000000014,45.069074000000001,0 129.080344999999994,45.085028000000001,0 129.104834000000011,45.100760999999999,0 129.133357999999987,45.101412000000003,0 129.150332999999989,45.112259999999999,0 129.125427000000002,45.119309999999999,0 129.122086999999993,45.134816999999998,0 129.102050999999989,45.139262000000002,0 129.105807999999996,45.163325,0 129.133218999999997,45.181961999999999,0 129.141289,45.195718999999997,0 129.16229899999999,45.194419000000003,0 129.187343999999996,45.204923999999998,0 129.209885000000014,45.223438999999999,0 129.200979999999987,45.235562000000002,0 129.210858999999999,45.259152,0 129.187065999999987,45.262830000000001,0 129.189709999999991,45.276891999999997,0 129.174543,45.292031999999999,0 129.127653000000009,45.275486000000001,0 129.094120000000004,45.291598999999998,0 129.097181000000006,45.309328999999998,0 129.084240999999992,45.327378000000003,0 129.062396000000007,45.338830000000002,0 129.087581,45.358381999999999,0 129.137393000000003,45.371772,0 129.156594000000013,45.369827999999998,0 129.194162000000006,45.389584999999997,0 129.198196999999993,45.426918999999998,0 129.146715,45.444606999999998,0 129.142402000000004,45.458731,0 129.117773999999997,45.474037000000003,0 129.134610000000009,45.498173999999999,0 129.131409999999988,45.524993000000002,0 129.140314999999987,45.535975000000001,0 129.123896000000002,45.566434999999998,0 129.102050999999989,45.567188000000002,0 129.092590000000001,45.604942000000001,0 129.109286999999995,45.625368999999999,0 129.138924000000003,45.619242,0 129.150472000000008,45.623756,0 129.179969999999997,45.604405,0 129.220738000000011,45.593974000000003,0 129.254966999999994,45.617198999999999,0 129.298935,45.619779000000001,0 129.310901000000001,45.625154000000002,0 129.311180000000007,45.645035999999998,0 129.300744000000009,45.656961000000003,0 129.308257999999995,45.673073000000002,0 129.341790000000003,45.678657000000001,0 129.354452000000009,45.688535999999999,0 129.341929999999991,45.696910000000003,0 129.338729000000001,45.721165999999997,0 129.344294999999988,45.735757,0 129.405378000000013,45.738439,0 129.415535000000006,45.746591000000002,0 129.402038000000005,45.768574000000001,0 129.431675000000013,45.779936999999997,0 129.454772999999989,45.763855999999997,0 129.473277999999993,45.786261000000003,0 129.468547999999998,45.791834000000001,0 129.508620000000008,45.789262000000001,0 129.511403000000001,45.802121999999997,0 129.528795000000002,45.802979000000001,0 129.556623000000002,45.817120000000003,0 129.564555000000013,45.828474,0 129.549249000000003,45.847641000000003,0 129.574294000000009,45.859416000000003,0 129.564136999999988,45.875577,0 129.585982000000001,45.887132000000001,0 129.607826999999986,45.876004999999999,0 129.626055000000008,45.893337000000002,0 129.666962000000012,45.873116000000003,0 129.723036000000008,45.896653000000001,0 129.77131700000001,45.885955000000003,0 129.79399699999999,45.897081,0 129.783005000000003,45.925632999999998,0 129.797475999999989,45.933436999999998,0 129.785091999999992,45.970945,0 129.808189999999996,45.987073000000002,0 129.846314000000007,45.987499999999997,0 129.857445000000013,45.970196999999999,0 129.875115999999991,45.961756999999999,0 129.902388000000002,45.935468,0 129.900718000000012,45.925525999999998,0 129.920614999999998,45.921143000000001,0 129.932719999999989,45.927022999999998,0 129.949277999999993,45.908417999999998,0 129.975019000000003,45.920394999999999,0 130.027614,45.923709000000002,0 130.044589000000002,45.909914999999998,0 130.06184300000001,45.918469999999999,0 130.088558000000006,45.915689999999998,0 130.102749999999986,45.927664999999998,0 130.116246999999987,45.926488999999997,0 130.10511600000001,45.981413000000003,0 130.118472999999994,46.003303000000002,0 130.114576999999997,46.022730000000003,0 130.125012999999996,46.027959000000003,0 130.125429999999994,46.049830999999998,0 130.111655000000013,46.055270999999998,0 130.115828999999991,46.069561,0 130.13976199999999,46.069561,0 130.182339000000013,46.083421999999999,0 130.213088999999997,46.111772000000002,0 130.240082000000001,46.122318999999997,0 130.221993999999995,46.139681000000003,0 130.207800999999989,46.144047,0 130.188183000000009,46.172685000000001,0 130.158963,46.188116000000001,0 130.155205999999993,46.209605000000003,0 130.139622000000003,46.230128999999998,0 130.111237999999986,46.245013,0 130.096350000000001,46.243312000000003,0 130.061425000000014,46.274341999999997,0 130.059895000000012,46.294204000000001,0 130.030536000000012,46.303443000000001,0 130.014952999999991,46.335075000000003,0 130.009525999999994,46.330406000000004,0 129.968896999999998,46.345261999999998,0 129.952060999999986,46.346429000000001,0 129.948581999999988,46.358415999999998,0 129.923814999999991,46.376021999999999,0 129.973209999999995,46.389699,0 129.988516000000004,46.381853999999997,0 130.014952999999991,46.381216999999999,0 130.030954000000008,46.387155,0 130.066016999999988,46.364144000000003,0 130.077427,46.371780000000001,0 130.083131000000009,46.390441000000003,0 130.115411999999992,46.386730999999997,0 130.139205000000004,46.407718000000003,0 130.14491000000001,46.431452,0 130.161745999999994,46.433146999999998,0 130.170929000000001,46.463327999999997,0 130.146579000000003,46.491059,0 130.154092999999989,46.502591000000002,0 130.153119000000004,46.538654999999999,0 130.177607999999992,46.589061000000001,0 130.197782999999987,46.617150000000002,0 130.191103999999996,46.624961999999996,0 130.163275999999996,46.614089,0 130.155901999999998,46.603107999999999,0 130.126542999999998,46.598143999999998,0 130.114576999999997,46.574165999999998,0 130.12946500000001,46.549332,0 130.129187000000002,46.529032999999998,0 130.138926999999995,46.504178000000003,0 130.092036000000007,46.523851999999998,0 130.074644000000006,46.516660000000002,0 130.072417999999999,46.525967000000001,0 130.041807000000006,46.526283999999997,0 130.035823999999991,46.541086999999997,0 130.057530000000014,46.548062999999999,0 130.066574000000003,46.558633,0 130.069913000000014,46.583568999999997,0 130.086748999999998,46.604058000000002,0 130.071444000000014,46.601629000000003,0 130.054468000000014,46.586314999999999,0 130.029979999999995,46.598356000000003,0 130.030675000000002,46.584201999999998,0 129.988794000000013,46.565078999999997,0 129.958461,46.601840000000003,0 129.94079099999999,46.608915000000003,0 129.921172000000013,46.629395000000002,0 129.904336000000001,46.609971000000002,0 129.86287200000001,46.594341999999997,0 129.821965000000006,46.559584000000001,0 129.76115999999999,46.531782999999997,0 129.712877999999989,46.538549000000003,0 129.683380999999997,46.536645999999998,0 129.642612000000014,46.558104,0 129.640386000000007,46.580716000000002,0 129.592800000000011,46.608915000000003,0 129.550780000000003,46.618839000000001,0 129.540065999999996,46.613878,0 129.502359000000013,46.619366999999997,0 129.501384999999999,46.619366999999997,0 129.479399999999998,46.623694999999998,0 129.439327999999989,46.604374999999997,0 129.419986999999992,46.613878,0 129.425553000000008,46.620634000000003,0 129.406630000000007,46.643008999999999,0 129.355705,46.652821000000003,0 129.281542999999999,46.641953999999998,0 129.258584000000013,46.620528,0 129.242304999999988,46.620317,0 129.220738000000011,46.585152999999998,0 129.199450000000013,46.576808,0 129.207101999999992,46.558633,0 129.197362999999996,46.536011999999999,0 129.156594000000013,46.545209,0 129.128766000000013,46.530513999999997,0 129.108034000000004,46.535165999999997,0 129.096485999999999,46.555779000000001,0 129.082154000000003,46.557893,0 129.066988000000009,46.534954999999997,0 129.043333999999987,46.520995999999997,0 129.020654000000007,46.487777999999999,0 128.956787999999989,46.512957999999998,0 128.916158999999993,46.518352,0 128.913655000000006,46.526178000000002,0 128.879843999999991,46.524275000000003,0 128.848815000000002,46.509996000000001,0 128.839214999999996,46.487461000000003,0 128.786758999999989,46.501109999999997,0 128.764914000000005,46.486614000000003,0 128.704248000000007,46.483756999999997,0 128.699377999999996,46.511899999999997,0 128.708978999999999,46.537809000000003,0 128.702300000000008,46.557786999999998,0 128.679899000000006,46.565396,0 128.67948100000001,46.575750999999997,0 128.622154999999992,46.573427000000002,0 128.598501999999996,46.586737999999997,0 128.565804000000014,46.578919999999997,0 128.545767000000012,46.599412000000001,0 128.507643000000002,46.607120000000002,0 128.467291999999986,46.625489999999999,0 128.428471999999999,46.620739999999998,0 128.391459999999995,46.597932999999998,0 128.401339000000007,46.581139,0 128.380051000000009,46.565078999999997,0 128.368920000000003,46.570996999999998,0 128.320220000000006,46.574694999999998,0 128.291417999999993,46.570785000000001,0 128.249120000000005,46.582512000000001,0 128.238961999999987,46.57723,0 128.194298000000003,46.565078999999997,0 128.191375999999991,46.538972000000001,0 128.200559999999996,46.534742999999999,0 128.172035999999991,46.522053999999997,0 128.152834000000013,46.539288999999997,0 128.137111000000004,46.526389999999999,0 128.117353000000008,46.5229,0 128.121109999999987,46.508516,0 128.085489999999993,46.508409999999998,0 128.080759,46.519198000000003,0 128.059888000000001,46.518563999999998,0 128.04806099999999,46.530619000000002,0 128.014946000000009,46.531148000000002,0 127.965551000000005,46.548698000000002,0 127.928261000000006,46.575116999999999,0 127.903076999999996,46.578181000000001,0 127.869821999999999,46.575116999999999,0 127.860221999999993,46.584097,0 127.844221000000005,46.576279,0 127.814723000000001,46.605853000000003,0 127.790512000000007,46.598989000000003,0 127.776876000000001,46.583039999999997,0 127.696453000000005,46.554194000000003,0 127.681565000000006,46.564022999999999,0 127.626326000000006,46.538443999999998,0 127.589454000000003,46.514651000000001,0 127.569695999999993,46.512535,0 127.549937999999997,46.526283999999997,0 127.517936000000006,46.529879000000001,0 127.509726999999998,46.539923999999999,0 127.505831000000001,46.599200000000003,0 127.481758999999997,46.628444999999999,0 127.463114000000004,46.632983000000003,0 127.446973999999997,46.647123999999998,0 127.422484999999995,46.648072999999997,0 127.408432000000005,46.666851000000001,0 127.356115000000003,46.673706000000003,0 127.321468999999993,46.670648,0 127.290163000000007,46.657674,0 127.275692000000006,46.644697000000001,0 127.241185000000002,46.651977000000002,0 127.187337999999997,46.642586999999999,0 127.168831999999995,46.620423000000002,0 127.151021999999998,46.610709999999997,0 127.122219999999999,46.606380999999999,0 127.125141999999997,46.595398000000003,0 127.089243999999994,46.592123999999998,0 127.050979999999996,46.578074999999998,0 127.052092999999999,46.566347,0 127.037205,46.563071000000001,0 127.031779,46.547745999999997,0 126.998801999999998,46.537174999999998,0 126.989896999999999,46.526494999999997,0 126.972644000000003,46.527552999999997,0 126.918239999999997,46.506610999999999,0 126.906830999999997,46.509044000000003,0 126.873853999999994,46.495184999999999,0 126.878445999999997,46.487037999999998,0 126.851870000000005,46.477088999999999,0 126.853121999999999,46.468514999999996,0 126.836008000000007,46.452105000000003,0 126.837539000000007,46.438442999999999,0 126.803309999999996,46.422235000000001,0 126.778125000000003,46.427214999999997,0 126.768246000000005,46.408777999999998,0 126.742784,46.417149000000002,0 126.712590000000006,46.388851000000003,0 126.682118000000003,46.375915999999997,0 126.688102000000001,46.363295000000001,0 126.661804000000004,46.354598000000003,0 126.656795000000002,46.340381000000001,0 126.635227999999998,46.324781000000002,0 126.641907000000003,46.293142000000003,0 126.617278999999996,46.257340999999997,0 126.615609000000006,46.235764000000003,0 126.587502999999998,46.208222999999997,0 126.526837999999998,46.188861000000003,0 126.457545999999994,46.139788000000003,0 126.454763,46.116140000000001,0 126.423177999999993,46.084808000000002,0 126.393263000000005,46.084808000000002,0 126.382688000000002,46.092376000000002,0 126.350547000000006,46.095787000000001,0 126.328840999999997,46.065508999999999,0 126.277497999999994,46.065403000000003,0 126.258435000000006,46.078091000000001,0 126.228658999999993,46.074039999999997,0 126.242991000000004,46.064335999999997,0 126.224068000000003,46.060070000000003,0 126.223928999999998,46.048870999999998,0 126.189977999999996,46.069668,0 126.170777000000001,46.061456999999997,0 126.199995999999999,46.028066000000003,0 126.221007,46.011735999999999,0 126.235477000000003,45.990062999999999,0 126.231025000000002,45.963574000000001,0 126.247721999999996,45.962184999999998,0 126.262052999999995,45.973295,0 126.310751999999994,45.970410999999999,0 126.319378999999998,45.941240000000001,0 126.311725999999993,45.934505999999999,0 126.328145000000006,45.901893999999999,0 126.357085999999995,45.889378999999998,0 126.365435000000005,45.877074999999998,0 126.354442000000006,45.866908000000002,0 126.342754999999997,45.831257999999998,0 126.360982000000007,45.822155000000002,0 126.364321000000004,45.807156999999997,0 126.348737999999997,45.796657000000003,0 126.360007999999993,45.774898999999998,0 126.355556000000007,45.747878,0 126.358059999999995,45.725028999999999,0 126.340806999999998,45.733504000000003,0 126.329119000000006,45.725994,0 126.320214000000007,45.745947999999999,0 126.298647000000003,45.741549999999997,0 126.306717000000006,45.702598999999999,0 126.283480999999995,45.694763000000002,0 126.265113999999997,45.703029000000001,0 126.223371999999998,45.704101999999999,0 126.207509999999999,45.690683,0 126.184413000000006,45.686174000000001,0 126.165490000000005,45.703136000000001,0 126.152967000000004,45.681235000000001,0 126.124026000000001,45.673825000000001,0 126.075326000000004,45.692723000000001,0 126.060995000000005,45.709789999999998,0 126.026627000000005,45.711508000000002,0 126.011739000000006,45.703673000000002,0 126.009652000000003,45.683919000000003,0 125.981824000000003,45.669635999999997,0 125.980850000000004,45.658036000000003,0 125.996015999999997,45.633966999999998,0 125.969161999999997,45.626229000000002,0 125.952743999999996,45.633215,0 125.927698000000007,45.630313000000001,0 125.935073000000003,45.608060999999999,0 125.934099000000003,45.585799000000002,0 125.902792000000005,45.564821000000002,0 125.894305000000003,45.545017999999999,0 125.863555000000005,45.525424000000001,0 125.848248999999996,45.509700000000002,0 125.833500000000001,45.520147000000001,0 125.792871000000005,45.509377000000001,0 125.777009000000007,45.511208000000003,0 125.761285999999998,45.531345999999999,0</coordinates></LinearRing></outerBoundaryIs></Polygon></MultiGeometry></Placemark>
</Document>
</kml>