<?xml version="1.0" encoding="UTF-8"?>
<kml xmlns="http://www.opengis.net/kml/2.2">
<Document>
<name>鹤岗市</name>
<Placemark><name>鹤岗市</name><MultiGeometry><Polygon><outerBoundaryIs><LinearRing><coordinates>130.78509600000001,48.357332,0 130.763111000000009,48.345280000000002,0 130.763667999999996,48.334859000000002,0 130.727769999999992,48.336697999999998,0 130.725265000000007,48.326582000000002,0 130.684775000000002,48.320245999999997,0 130.675035000000008,48.306139999999999,0 130.656808000000012,48.313499999999998,0 130.642894000000013,48.305629000000003,0 130.610613000000001,48.300721000000003,0 130.586680999999999,48.306651000000002,0 130.567479999999989,48.297244999999997,0 130.521841999999992,48.289575999999997,0 130.489283,48.301437,0 130.476620999999994,48.320655000000002,0 130.455331999999999,48.329647999999999,0 130.435574000000003,48.314931000000001,0 130.413589999999999,48.325867000000002,0 130.40607700000001,48.309002,0 130.378108999999995,48.308081999999999,0 130.373099999999994,48.293768,0 130.331357999999994,48.297756,0 130.29017300000001,48.293666000000002,0 130.263458000000014,48.283337000000003,0 130.277231999999998,48.272494999999999,0 130.267631999999992,48.259501,0 130.246900000000011,48.249471999999997,0 130.261231000000009,48.244968999999998,0 130.259143999999992,48.222957999999998,0 130.246760999999992,48.194791000000002,0 130.266100999999992,48.181060000000002,0 130.251351999999997,48.165480000000002,0 130.239524999999986,48.169888,0 130.191521999999992,48.169888,0 130.180947000000003,48.174602999999998,0 130.129883000000007,48.145896,0 130.100384999999989,48.143230000000003,0 130.088279999999997,48.165685000000003,0 130.071025999999989,48.173476000000001,0 130.049041999999986,48.194994999999999,0 130.03624099999999,48.197557000000003,0 129.986428999999987,48.225926999999999,0 129.981976000000003,48.250393000000003,0 129.955121999999989,48.272494999999999,0 129.913936000000007,48.297552000000003,0 129.900718000000012,48.310229,0 129.879707999999994,48.316771000000003,0 129.863427999999999,48.309410999999997,0 129.864820000000009,48.286405000000002,0 129.841583000000014,48.260114999999999,0 129.804014999999993,48.257658999999997,0 129.783422999999999,48.240977000000001,0 129.809998000000007,48.219169000000001,0 129.803737000000012,48.190897,0 129.809303,48.173681000000002,0 129.79399699999999,48.164045000000002,0 129.799284999999998,48.151229000000001,0 129.761855999999995,48.122816999999998,0 129.741401999999994,48.119225999999998,0 129.733471000000009,48.104038000000003,0 129.748498000000012,48.093055,0 129.740846000000005,48.081659000000002,0 129.74543700000001,48.035122999999999,0 129.737505999999996,48.026488999999998,0 129.779665999999992,48.007161000000004,0 129.780918000000014,47.999139999999997,0 129.741959000000008,47.976303000000001,0 129.675031999999987,47.978977999999998,0 129.678370999999999,47.954897000000003,0 129.688389999999998,47.947794999999999,0 129.686720000000008,47.928643000000001,0 129.711904000000004,47.924523000000001,0 129.715521999999993,47.910102000000002,0 129.699799000000013,47.887225999999998,0 129.712877999999989,47.871350999999997,0 129.750446000000011,47.875371999999999,0 129.737505999999996,47.859596000000003,0 129.751281000000006,47.851655000000001,0 129.754480999999998,47.820084999999999,0 129.772987000000001,47.816679000000001,0 129.773125999999991,47.782505999999998,0 129.797615000000008,47.781163999999997,0 129.813337999999987,47.760399999999997,0 129.87525500000001,47.744486999999999,0 129.908927000000006,47.725879999999997,0 129.912961999999993,47.717091000000003,0 129.898630999999995,47.699095,0 129.898492000000005,47.678817000000002,0 129.929658999999987,47.654285999999999,0 129.917136999999997,47.641136000000003,0 129.913936000000007,47.617311999999998,0 129.895569999999992,47.609437999999997,0 129.901274999999998,47.571914,0 129.934808000000004,47.565069999999999,0 129.928406999999993,47.555630999999998,0 129.909483999999992,47.562787999999998,0 129.895151999999996,47.559054000000003,0 129.869271999999995,47.538201999999998,0 129.879569000000004,47.528551999999998,0 129.872612000000004,47.496889000000003,0 129.901553000000007,47.482661,0 129.884856000000013,47.467908999999999,0 129.903222999999997,47.440992000000001,0 129.886387000000013,47.443278999999997,0 129.858001999999999,47.429763999999999,0 129.837965999999994,47.426333,0 129.839078999999998,47.404179999999997,0 129.873585999999989,47.385035999999999,0 129.896544000000006,47.364218999999999,0 129.914632000000012,47.360263000000003,0 129.899327,47.352871,0 129.901274999999998,47.332979000000002,0 129.858001999999999,47.332354000000002,0 129.851323000000008,47.320372999999996,0 129.899882999999988,47.304845999999998,0 129.931885999999992,47.294319000000002,0 129.937311999999991,47.259177000000001,0 129.962774999999993,47.262098000000002,0 129.991994000000005,47.252291999999997,0 130.00117800000001,47.233092999999997,0 130.018013999999994,47.225892000000002,0 130.059478000000013,47.225057,0 130.126404000000008,47.207414,0 130.143935999999997,47.185273000000002,0 130.145049,47.136574000000003,0 130.171485999999987,47.122875999999998,0 130.189017000000007,47.103211000000002,0 130.209331999999989,47.091805999999998,0 130.230760000000004,47.092120000000001,0 130.239665000000002,47.082177999999999,0 130.270832000000013,47.077992000000002,0 130.309096000000011,47.066476999999999,0 130.356124999999992,47.061661000000001,0 130.383675000000011,47.065116000000003,0 130.369203999999996,47.092329999999997,0 130.378526999999991,47.112417000000001,0 130.416234000000003,47.106662999999998,0 130.412476999999996,47.128731999999999,0 130.444618999999989,47.130195999999998,0 130.45658499999999,47.135947000000002,0 130.482742999999999,47.128104,0 130.506258000000003,47.130822999999999,0 130.538678000000004,47.122456999999997,0 130.570540999999992,47.139187999999997,0 130.587794000000002,47.139710000000001,0 130.60727399999999,47.157375999999999,0 130.626336000000009,47.153194999999997,0 130.657364999999999,47.183497000000003,0 130.649573000000004,47.197284000000003,0 130.692845000000005,47.204908000000003,0 130.673782999999986,47.224429999999998,0 130.662790999999999,47.223595000000003,0 130.64846,47.246346000000003,0 130.619935999999996,47.261681000000003,0 130.62438800000001,47.269815999999999,0 130.593916000000007,47.281703999999998,0 130.57916800000001,47.303283,0 130.560662000000008,47.314746,0 130.562052999999992,47.327666000000001,0 130.624944999999997,47.338498999999999,0 130.682270999999986,47.330894999999998,0 130.70898600000001,47.315372000000004,0 130.79233099999999,47.290669999999999,0 130.852022000000005,47.296194999999997,0 130.983509999999995,47.318289,0 130.974604999999997,47.307868999999997,0 130.984901000000008,47.291921000000002,0 130.970570000000009,47.281078000000001,0 130.984901000000008,47.272005999999998,0 130.988518999999997,47.250936000000003,0 130.959577999999993,47.241024000000003,0 130.968064999999996,47.220672,0 131.05015800000001,47.215452999999997,0 131.09496200000001,47.192898,0 131.120424000000014,47.199269000000001,0 131.128354999999999,47.215870000000002,0 131.158271000000013,47.223804000000001,0 131.195977999999997,47.224429999999998,0 131.237441999999987,47.201774999999998,0 131.272504999999995,47.190390999999998,0 131.33915300000001,47.181826000000001,0 131.364338000000004,47.190390999999998,0 131.390356999999995,47.217748999999998,0 131.464935999999994,47.237580999999999,0 131.481772000000007,47.253649000000003,0 131.524766999999997,47.246450000000003,0 131.525741000000011,47.254691999999999,0 131.554959999999994,47.242381000000002,0 131.593363000000011,47.236536999999998,0 131.635523000000006,47.237267000000003,0 131.678100000000001,47.248015000000002,0 131.720816000000013,47.240814999999998,0 131.735007999999993,47.242381000000002,0 131.777167999999989,47.271380000000001,0 131.816405000000003,47.268565000000002,0 131.888202000000007,47.277742000000003,0 131.929804999999988,47.245092999999997,0 131.967650999999989,47.254691999999999,0 132.004244999999997,47.252605000000003,0 132.019411999999988,47.256987000000002,0 132.037081999999998,47.278159000000002,0 132.045152999999999,47.311515999999997,0 132.058649000000003,47.322040000000001,0 132.044038999999998,47.329436999999999,0 132.047934999999995,47.366092999999999,0 132.104008999999991,47.387534000000002,0 132.127244999999988,47.393464999999999,0 132.140602999999999,47.404076000000003,0 132.176780000000008,47.409381000000003,0 132.209059999999994,47.406989000000003,0 132.269307999999995,47.450139999999998,0 132.291988000000003,47.453049999999998,0 132.29769300000001,47.471649999999997,0 132.34444400000001,47.494813000000001,0 132.359053999999986,47.505611000000002,0 132.375055000000003,47.531872999999997,0 132.411788000000001,47.540380999999996,0 132.439199000000002,47.592545000000001,0 132.437389999999994,47.608297999999998,0 132.461043999999987,47.620108999999999,0 132.473705999999993,47.641342999999999,0 132.456035000000014,47.669089,0 132.456312999999994,47.681092999999997,0 132.506821000000002,47.690922999999998,0 132.523934999999994,47.716160000000002,0 132.46911399999999,47.726190000000003,0 132.417075000000011,47.745313000000003,0 132.372132999999991,47.765256000000001,0 132.344583,47.767218999999997,0 132.325381999999991,47.762157000000002,0 132.288788000000011,47.742006000000003,0 132.272090999999989,47.718642000000003,0 132.242592999999999,47.710059000000001,0 132.207251000000014,47.715539999999997,0 132.157161000000002,47.705612000000002,0 132.086060000000003,47.703128999999997,0 132.058927000000011,47.705404999999999,0 132.02442099999999,47.715229999999998,0 132.00048799999999,47.712231000000003,0 131.989496000000003,47.685129000000003,0 131.970573000000002,47.671573000000002,0 131.947057999999998,47.673848999999997,0 131.900724999999994,47.685645999999998,0 131.846181999999999,47.676437,0 131.825727999999998,47.677264999999998,0 131.741687000000013,47.706543000000003,0 131.713859000000014,47.711196999999999,0 131.689927000000012,47.706853000000002,0 131.664047000000011,47.679747999999996,0 131.641505999999993,47.663913000000001,0 131.622444000000002,47.659151000000001,0 131.590440999999998,47.660808000000003,0 131.568039999999996,47.682541999999998,0 131.559413000000006,47.724639000000003,0 131.543828999999988,47.736010999999998,0 131.456030999999996,47.747174000000001,0 131.436690999999996,47.746554000000003,0 131.397175000000004,47.733530000000002,0 131.359884999999991,47.730946000000003,0 131.322178000000008,47.736320999999997,0 131.273617999999999,47.738905000000003,0 131.23716300000001,47.733117,0 131.183315999999991,47.702716000000002,0 131.115554000000003,47.689888000000003,0 131.079656,47.689785000000001,0 131.030122000000006,47.694750999999997,0 130.983788000000004,47.713161999999997,0 130.966674000000012,47.733220000000003,0 130.961665000000011,47.827928,0 130.929522999999989,47.868876999999998,0 130.891399000000007,47.927200999999997,0 130.871224000000012,47.943162000000001,0 130.797201000000001,47.986488000000001,0 130.770486000000005,47.998213999999997,0 130.737369999999999,48.034095000000001,0 130.693958000000009,48.048276000000001,0 130.686306000000002,48.079296999999997,0 130.668774000000013,48.099214000000003,0 130.673782999999986,48.128253999999998,0 130.710099000000014,48.156663000000002,0 130.765894000000003,48.189258000000002,0 130.765615999999994,48.221626999999998,0 130.787738999999988,48.256839999999997,0 130.817654000000005,48.265639999999998,0 130.8459,48.300721000000003,0 130.831011999999987,48.330261,0 130.819602000000003,48.341602000000002,0 130.78509600000001,48.357332,0</coordinates></LinearRing></outerBoundaryIs></Polygon></MultiGeometry></Placemark>
</Document>
</kml>