<?xml version="1.0" encoding="UTF-8"?>
<kml xmlns="http://www.opengis.net/kml/2.2">
  <Document>
    <name>黑河市</name>
    <Placemark>
      <name>黑河市</name>
      <Polygon><outerBoundaryIs><LinearRing><coordinates>126.019949000000,50.920830000000,0 126.029828000000,50.907845000000,0 125.996573000000,50.906682000000,0 125.996295000000,50.871584000000,0 125.973893000000,50.878858000000,0 125.975284000000,50.895535000000,0 125.958866000000,50.900188000000,0 125.942586000000,50.870129000000,0 125.956222000000,50.865376000000,0 125.939664000000,50.854122000000,0 125.904740000000,50.855577000000,0 125.924776000000,50.844903000000,0 125.920463000000,50.831315000000,0 125.878443000000,50.816654000000,0 125.889435000000,50.804902000000,0 125.856876000000,50.790622000000,0 125.841014000000,50.794508000000,0 125.832109000000,50.785764000000,0 125.846440000000,50.769631000000,0 125.839901000000,50.756312000000,0 125.796071000000,50.773519000000,0 125.777983000000,50.767200000000,0 125.758921000000,50.746782000000,0 125.778122000000,50.747852000000,0 125.795654000000,50.738709000000,0 125.782296000000,50.724020000000,0 125.803307000000,50.718570000000,0 125.825152000000,50.704945000000,0 125.819169000000,50.689855000000,0 125.787584000000,50.677195000000,0 125.804142000000,50.662876000000,0 125.792871000000,50.645628000000,0 125.814299000000,50.624669000000,0 125.808037000000,50.603701000000,0 125.816803000000,50.595506000000,0 125.829326000000,50.561639000000,0 125.786192000000,50.529994000000,0 125.769356000000,50.531362000000,0 125.772974000000,50.519539000000,0 125.752103000000,50.507029000000,0 125.740554000000,50.523350000000,0 125.722883000000,50.516119000000,0 125.704517000000,50.498426000000,0 125.681976000000,50.488551000000,0 125.699230000000,50.486888000000,0 125.654565000000,50.471239000000,0 125.646495000000,50.451475000000,0 125.632164000000,50.443841000000,0 125.590700000000,50.452258000000,0 125.562037000000,50.438164000000,0 125.583604000000,50.408003000000,0 125.574838000000,50.401244000000,0 125.536574000000,50.420050000000,0 125.513199000000,50.409375000000,0 125.524191000000,50.403791000000,0 125.537131000000,50.381254000000,0 125.520573000000,50.371453000000,0 125.546731000000,50.360374000000,0 125.522521000000,50.351058000000,0 125.517651000000,50.340171000000,0 125.530452000000,50.331047000000,0 125.506102000000,50.324670000000,0 125.519599000000,50.315936000000,0 125.488571000000,50.307887000000,0 125.479527000000,50.297186000000,0 125.463386000000,50.295812000000,0 125.466030000000,50.267035000000,0 125.442237000000,50.260255000000,0 125.449194000000,50.239420000000,0 125.464639000000,50.229884000000,0 125.436254000000,50.231260000000,0 125.448637000000,50.216412000000,0 125.443489000000,50.206674000000,0 125.409956000000,50.195262000000,0 125.383520000000,50.193294000000,0 125.382824000000,50.172331000000,0 125.370719000000,50.174792000000,0 125.337881000000,50.159040000000,0 125.376006000000,50.137470000000,0 125.329533000000,50.135993000000,0 125.327724000000,50.119341000000,0 125.314367000000,50.136485000000,0 125.302401000000,50.139539000000,0 125.277494000000,50.124662000000,0 125.282921000000,50.112146000000,0 125.257458000000,50.102979000000,0 125.288904000000,50.090457000000,0 125.271929000000,50.081483000000,0 125.283756000000,50.070238000000,0 125.328142000000,50.065996000000,0 125.337325000000,50.055932000000,0 125.315897000000,50.045668000000,0 125.287095000000,50.058695000000,0 125.262885000000,50.046161000000,0 125.259406000000,50.037574000000,0 125.294052000000,50.029281000000,0 125.296557000000,50.009530000000,0 125.278190000000,49.996391000000,0 125.242014000000,49.987794000000,0 125.242153000000,49.968916000000,0 125.231578000000,49.957645000000,0 125.209455000000,49.961798000000,0 125.183575000000,49.952701000000,0 125.199437000000,49.934996000000,0 125.226152000000,49.922628000000,0 125.212933000000,49.907288000000,0 125.229352000000,49.896200000000,0 125.244240000000,49.875602000000,0 125.223925000000,49.859653000000,0 125.239370000000,49.844689000000,0 125.224204000000,49.835768000000,0 125.177870000000,49.829423000000,0 125.188027000000,49.815441000000,0 125.208898000000,49.807904000000,0 125.227265000000,49.792229000000,0 125.221282000000,49.754809000000,0 125.204167000000,49.734250000000,0 125.225038000000,49.723619000000,0 125.216968000000,49.705930000000,0 125.220864000000,49.672222000000,0 125.185523000000,49.634709000000,0 125.189836000000,49.649936000000,0 125.164651000000,49.669437000000,0 125.132093000000,49.672023000000,0 125.127362000000,49.655011000000,0 125.139606000000,49.626247000000,0 125.154216000000,49.616788000000,0 125.168130000000,49.629930000000,0 125.205420000000,49.594078000000,0 125.234639000000,49.591986000000,0 125.232969000000,49.574547000000,0 125.216829000000,49.567770000000,0 125.231300000000,49.562088000000,0 125.235613000000,49.540948000000,0 125.211264000000,49.539951000000,0 125.224760000000,49.506128000000,0 125.241040000000,49.503733000000,0 125.228378000000,49.486962000000,0 125.270120000000,49.455101000000,0 125.256067000000,49.435715000000,0 125.257041000000,49.394018000000,0 125.272764000000,49.387816000000,0 125.273738000000,49.360795000000,0 125.256902000000,49.359594000000,0 125.264137000000,49.339069000000,0 125.251893000000,49.331557000000,0 125.261772000000,49.322441000000,0 125.226708000000,49.285561000000,0 125.214881000000,49.280147000000,0 125.237144000000,49.257683000000,0 125.227404000000,49.248854000000,0 125.226291000000,49.217040000000,0 125.217107000000,49.207802000000,0 125.221003000000,49.191031000000,0 125.185383000000,49.185305000000,0 125.159921000000,49.159480000000,0 125.160199000000,49.146412000000,0 125.130701000000,49.139173000000,0 125.120544000000,49.127206000000,0 125.062244000000,49.141787000000,0 125.039564000000,49.151841000000,0 125.039842000000,49.176263000000,0 125.004222000000,49.172846000000,0 124.982934000000,49.162495000000,0 124.955801000000,49.164606000000,0 124.906546000000,49.183898000000,0 124.860908000000,49.166515000000,0 124.847550000000,49.129720000000,0 124.833775000000,49.120567000000,0 124.809426000000,49.115940000000,0 124.807617000000,49.108696000000,0 124.829044000000,49.071958000000,0 124.816522000000,49.060277000000,0 124.823340000000,49.046578000000,0 124.808034000000,49.020581000000,0 124.765596000000,48.981256000000,0 124.749456000000,48.950581000000,0 124.750152000000,48.924028000000,0 124.798851000000,48.932612000000,0 124.832940000000,48.929380000000,0 124.834332000000,48.920696000000,0 124.868282000000,48.903220000000,0 124.924912000000,48.893015000000,0 124.941609000000,48.897562000000,0 124.991421000000,48.885335000000,0 125.013127000000,48.891500000000,0 125.022589000000,48.861680000000,0 125.012432000000,48.847320000000,0 125.015493000000,48.825063000000,0 124.992813000000,48.813425000000,0 125.040955000000,48.789230000000,0 125.045965000000,48.746480000000,0 125.067531000000,48.738878000000,0 125.096055000000,48.749824000000,0 125.128753000000,48.725801000000,0 125.212238000000,48.734519000000,0 125.229630000000,48.715965000000,0 125.250362000000,48.712416000000,0 125.250223000000,48.726307000000,0 125.309079000000,48.726814000000,0 125.413713000000,48.792672000000,0 125.452255000000,48.783559000000,0 125.462551000000,48.798848000000,0 125.468117000000,48.826480000000,0 125.493997000000,48.834877000000,0 125.513894000000,48.859152000000,0 125.541166000000,48.868858000000,0 125.603779000000,48.882808000000,0 125.622563000000,48.890994000000,0 125.631746000000,48.856118000000,0 125.640373000000,48.853084000000,0 125.697838000000,48.803202000000,0 125.722327000000,48.803708000000,0 125.758782000000,48.821926000000,0 125.789671000000,48.826378000000,0 125.799967000000,48.849646000000,0 125.816525000000,48.868555000000,0 125.838788000000,48.867342000000,0 125.857154000000,48.837912000000,0 125.911697000000,48.806542000000,0 125.921715000000,48.795102000000,0 125.959701000000,48.780723000000,0 126.007843000000,48.738168000000,0 125.989894000000,48.711503000000,0 125.973336000000,48.706026000000,0 125.955805000000,48.710489000000,0 125.873712000000,48.668483000000,0 125.892496000000,48.636906000000,0 125.866894000000,48.637414000000,0 125.861050000000,48.625427000000,0 125.840179000000,48.622786000000,0 125.841709000000,48.612524000000,0 125.816108000000,48.600227000000,0 125.781879000000,48.606325000000,0 125.767130000000,48.588842000000,0 125.726501000000,48.598295000000,0 125.729840000000,48.610796000000,0 125.715370000000,48.609577000000,0 125.707021000000,48.562402000000,0 125.723579000000,48.565962000000,0 125.737493000000,48.556909000000,0 125.755721000000,48.560876000000,0 125.799689000000,48.556299000000,0 125.800385000000,48.508667000000,0 125.805672000000,48.492576000000,0 125.788836000000,48.490233000000,0 125.801359000000,48.477091000000,0 125.820282000000,48.393473000000,0 125.843379000000,48.357945000000,0 125.879695000000,48.353043000000,0 125.912254000000,48.339763000000,0 125.948709000000,48.341602000000,0 125.947178000000,48.318611000000,0 125.980015000000,48.307060000000,0 126.001443000000,48.307264000000,0 126.051116000000,48.282826000000,0 126.155332000000,48.291212000000,0 126.199022000000,48.274541000000,0 126.212380000000,48.281292000000,0 126.244661000000,48.283849000000,0 126.289742000000,48.271472000000,0 126.303795000000,48.249370000000,0 126.322579000000,48.240670000000,0 126.329258000000,48.205547000000,0 126.318266000000,48.201655000000,0 126.318683000000,48.178293000000,0 126.347346000000,48.174808000000,0 126.362234000000,48.189975000000,0 126.392289000000,48.197249000000,0 126.429996000000,48.193356000000,0 126.520437000000,48.219271000000,0 126.556475000000,48.212000000000,0 126.573032000000,48.215585000000,0 126.594877000000,48.196225000000,0 126.599191000000,48.174193000000,0 126.615470000000,48.152459000000,0 126.666535000000,48.131229000000,0 126.654708000000,48.118610000000,0 126.615748000000,48.113172000000,0 126.621453000000,48.096750000000,0 126.600304000000,48.086895000000,0 126.605591000000,48.068719000000,0 126.590147000000,48.063892000000,0 126.601000000000,48.053311000000,0 126.616862000000,48.053722000000,0 126.630080000000,47.989060000000,0 126.623123000000,47.958603000000,0 126.631193000000,47.949339000000,0 126.605869000000,47.935336000000,0 126.580407000000,47.912059000000,0 126.576233000000,47.884443000000,0 126.566632000000,47.880423000000,0 126.587503000000,47.842578000000,0 126.597660000000,47.835047000000,0 126.590842000000,47.821117000000,0 126.564545000000,47.795930000000,0 126.560092000000,47.777549000000,0 126.567328000000,47.756577000000,0 126.566354000000,47.726707000000,0 126.518628000000,47.725570000000,0 126.524055000000,47.693406000000,0 126.526281000000,47.603116000000,0 126.540056000000,47.588606000000,0 126.557031000000,47.585703000000,0 126.574841000000,47.595758000000,0 126.584720000000,47.614100000000,0 126.587364000000,47.638547000000,0 126.617836000000,47.650766000000,0 126.624375000000,47.660187000000,0 126.652342000000,47.673125000000,0 126.685736000000,47.682439000000,0 126.715791000000,47.699716000000,0 126.711338000000,47.713472000000,0 126.756559000000,47.733737000000,0 126.796770000000,47.729498000000,0 126.803449000000,47.742730000000,0 126.843939000000,47.743246000000,0 126.844496000000,47.732290000000,0 126.888881000000,47.729395000000,0 126.903909000000,47.716678000000,0 126.931458000000,47.713162000000,0 126.981827000000,47.723709000000,0 126.997133000000,47.740869000000,0 127.033448000000,47.749344000000,0 127.052093000000,47.762053000000,0 127.085348000000,47.763603000000,0 127.116933000000,47.780441000000,0 127.136412000000,47.776103000000,0 127.148657000000,47.788393000000,0 127.190816000000,47.781164000000,0 127.230750000000,47.781060000000,0 127.246194000000,47.772487000000,0 127.280562000000,47.781783000000,0 127.284597000000,47.789528000000,0 127.325783000000,47.786534000000,0 127.405789000000,47.784675000000,0 127.424294000000,47.795311000000,0 127.462697000000,47.804603000000,0 127.513205000000,47.828857000000,0 127.541590000000,47.832674000000,0 127.581941000000,47.826174000000,0 127.629109000000,47.837523000000,0 127.660694000000,47.839380000000,0 127.663755000000,47.814718000000,0 127.677391000000,47.803054000000,0 127.692975000000,47.777136000000,0 127.708280000000,47.795621000000,0 127.722055000000,47.797479000000,0 127.765467000000,47.822459000000,0 127.763241000000,47.840721000000,0 127.784807000000,47.844745000000,0 127.804844000000,47.864340000000,0 127.802896000000,47.894543000000,0 127.815975000000,47.912678000000,0 127.851038000000,47.923184000000,0 127.849369000000,47.940485000000,0 127.865509000000,47.940691000000,0 127.871214000000,47.951192000000,0 127.891946000000,47.955000000000,0 127.892920000000,47.982785000000,0 127.876640000000,47.997083000000,0 127.889441000000,48.010040000000,0 127.876362000000,48.028956000000,0 127.861335000000,48.030704000000,0 127.879980000000,48.060707000000,0 127.980717000000,48.097674000000,0 128.005067000000,48.076319000000,0 128.049731000000,48.071389000000,0 128.059610000000,48.077654000000,0 128.087995000000,48.061735000000,0 128.112762000000,48.085355000000,0 128.132102000000,48.078270000000,0 128.170923000000,48.095519000000,0 128.174123000000,48.119123000000,0 128.211552000000,48.134922000000,0 128.231170000000,48.135845000000,0 128.276809000000,48.157586000000,0 128.302271000000,48.147435000000,0 128.334413000000,48.147947000000,0 128.356119000000,48.171733000000,0 128.344013000000,48.181675000000,0 128.341648000000,48.201757000000,0 128.371981000000,48.260422000000,0 128.391321000000,48.266254000000,0 128.396887000000,48.296631000000,0 128.411218000000,48.314113000000,0 128.437377000000,48.332713000000,0 128.456856000000,48.363051000000,0 128.497903000000,48.377652000000,0 128.526566000000,48.373977000000,0 128.537419000000,48.385002000000,0 128.559960000000,48.380612000000,0 128.615338000000,48.392759000000,0 128.622851000000,48.401535000000,0 128.649288000000,48.403168000000,0 128.675864000000,48.413472000000,0 128.722476000000,48.404290000000,0 128.741677000000,48.409698000000,0 128.755591000000,48.397453000000,0 128.756009000000,48.382042000000,0 128.772984000000,48.366217000000,0 128.774236000000,48.340376000000,0 128.787733000000,48.293462000000,0 128.796638000000,48.289882000000,0 128.815283000000,48.258785000000,0 128.850346000000,48.251007000000,0 128.863286000000,48.273108000000,0 128.912681000000,48.280064000000,0 128.914629000000,48.302459000000,0 128.904472000000,48.307060000000,0 128.904472000000,48.323516000000,0 128.933552000000,48.332815000000,0 128.921308000000,48.342624000000,0 128.923534000000,48.375814000000,0 128.966389000000,48.408269000000,0 128.979468000000,48.413064000000,0 128.954980000000,48.421327000000,0 128.988513000000,48.452734000000,0 128.995470000000,48.483306000000,0 128.987678000000,48.496752000000,0 129.004235000000,48.511721000000,0 128.998948000000,48.528112000000,0 129.032481000000,48.556909000000,0 129.033177000000,48.570437000000,0 129.065736000000,48.578471000000,0 129.086885000000,48.605410000000,0 129.107478000000,48.614454000000,0 129.134888000000,48.607138000000,0 129.142124000000,48.614353000000,0 129.199728000000,48.623396000000,0 129.200841000000,48.641781000000,0 129.192493000000,48.650616000000,0 129.230061000000,48.682185000000,0 129.165499000000,48.737966000000,0 129.168560000000,48.749925000000,0 129.185257000000,48.753472000000,0 129.182753000000,48.766643000000,0 129.238826000000,48.747088000000,0 129.266794000000,48.754181000000,0 129.259976000000,48.774140000000,0 129.290865000000,48.796520000000,0 129.322172000000,48.790647000000,0 129.324537000000,48.801379000000,0 129.361270000000,48.802291000000,0 129.365723000000,48.813121000000,0 129.386872000000,48.808972000000,0 129.394107000000,48.815854000000,0 129.435571000000,48.804720000000,0 129.463538000000,48.839531000000,0 129.484131000000,48.841857000000,0 129.496932000000,48.858242000000,0 129.526291000000,48.869768000000,0 129.511542000000,48.877249000000,0 129.522117000000,48.892510000000,0 129.502220000000,48.903423000000,0 129.526708000000,48.909383000000,0 129.507089000000,48.925038000000,0 129.526569000000,48.935035000000,0 129.497767000000,48.940285000000,0 129.480792000000,48.950076000000,0 129.460199000000,48.950278000000,0 129.459643000000,48.965315000000,0 129.437658000000,48.992552000000,0 129.441137000000,49.013525000000,0 129.449903000000,49.018363000000,0 129.444476000000,49.037108000000,0 129.410108000000,49.052119000000,0 129.396334000000,49.047082000000,0 129.341373000000,49.045470000000,0 129.294761000000,49.052219000000,0 129.266655000000,49.064607000000,0 129.245505000000,49.089475000000,0 129.222686000000,49.086657000000,0 129.234096000000,49.101250000000,0 129.232287000000,49.158073000000,0 129.241192000000,49.177669000000,0 129.207659000000,49.216437000000,0 129.203763000000,49.237415000000,0 129.193606000000,49.243135000000,0 129.171204000000,49.284158000000,0 129.185536000000,49.333260000000,0 129.202928000000,49.351585000000,0 129.219208000000,49.358393000000,0 129.241888000000,49.378710000000,0 129.261645000000,49.375708000000,0 129.289891000000,49.362097000000,0 129.301440000000,49.370604000000,0 129.266515000000,49.396019000000,0 129.215173000000,49.399120000000,0 129.181083000000,49.386515000000,0 129.144072000000,49.357392000000,0 129.122644000000,49.354489000000,0 129.084937000000,49.359895000000,0 129.055857000000,49.382313000000,0 129.047369000000,49.408921000000,0 129.013558000000,49.457299000000,0 128.998531000000,49.460896000000,0 128.948579000000,49.461894000000,0 128.896401000000,49.488559000000,0 128.871356000000,49.492353000000,0 128.827805000000,49.484066000000,0 128.792046000000,49.473281000000,0 128.761435000000,49.482069000000,0 128.752808000000,49.495149000000,0 128.763105000000,49.515709000000,0 128.812778000000,49.558199000000,0 128.802760000000,49.582121000000,0 128.784115000000,49.589794000000,0 128.744321000000,49.594975000000,0 128.727207000000,49.567969000000,0 128.714962000000,49.564879000000,0 128.645809000000,49.581424000000,0 128.619651000000,49.593480000000,0 128.585979000000,49.596668000000,0 128.553698000000,49.604538000000,0 128.531297000000,49.603243000000,0 128.499990000000,49.593978000000,0 128.468962000000,49.591189000000,0 128.414697000000,49.591986000000,0 128.377407000000,49.586705000000,0 128.360015000000,49.555507000000,0 128.343179000000,49.545037000000,0 128.326064000000,49.546533000000,0 128.291836000000,49.564779000000,0 128.243276000000,49.563084000000,0 128.219204000000,49.546234000000,0 128.185811000000,49.539353000000,0 128.140312000000,49.550921000000,0 128.085490000000,49.551220000000,0 128.037348000000,49.572155000000,0 128.001449000000,49.592285000000,0 127.981691000000,49.587801000000,0 127.949689000000,49.596270000000,0 127.921304000000,49.581922000000,0 127.897511000000,49.578932000000,0 127.815140000000,49.593879000000,0 127.776042000000,49.635903000000,0 127.705219000000,49.665159000000,0 127.677948000000,49.697778000000,0 127.674886000000,49.764142000000,0 127.654154000000,49.779924000000,0 127.582915000000,49.786375000000,0 127.563991000000,49.793420000000,0 127.532267000000,49.825953000000,0 127.529345000000,49.864309000000,0 127.547434000000,49.928763000000,0 127.543538000000,49.944294000000,0 127.500543000000,49.983743000000,0 127.495813000000,49.994514000000,0 127.496508000000,50.041127000000,0 127.501796000000,50.056721000000,0 127.542703000000,50.099134000000,0 127.587089000000,50.137766000000,0 127.606847000000,50.178828000000,0 127.608516000000,50.229785000000,0 127.603229000000,50.239420000000,0 127.446278000000,50.270768000000,0 127.393683000000,50.284814000000,0 127.371838000000,50.296499000000,0 127.332322000000,50.340563000000,0 127.338862000000,50.363413000000,0 127.369890000000,50.403889000000,0 127.364603000000,50.438359000000,0 127.349715000000,50.446581000000,0 127.305051000000,50.454411000000,0 127.293780000000,50.465761000000,0 127.323000000000,50.525695000000,0 127.361124000000,50.547577000000,0 127.370725000000,50.581260000000,0 127.336218000000,50.625937000000,0 127.325504000000,50.630812000000,0 127.294615000000,50.663558000000,0 127.288493000000,50.699396000000,0 127.304216000000,50.728301000000,0 127.302825000000,50.748241000000,0 127.266370000000,50.763117000000,0 127.236176000000,50.781391000000,0 127.144204000000,50.910268000000,0 127.114011000000,50.937686000000,0 127.051815000000,50.962958000000,0 127.030944000000,50.981250000000,0 127.018560000000,50.977766000000,0 127.001446000000,50.950662000000,0 127.006038000000,50.932358000000,0 126.994767000000,50.926740000000,0 126.975983000000,50.932068000000,0 126.958869000000,50.924608000000,0 126.916431000000,50.923349000000,0 126.867732000000,50.915210000000,0 126.785222000000,50.915597000000,0 126.743201000000,50.913078000000,0 126.687823000000,50.904162000000,0 126.670848000000,50.914338000000,0 126.639541000000,50.902805000000,0 126.610183000000,50.908426000000,0 126.569136000000,50.904646000000,0 126.476330000000,50.902126000000,0 126.443214000000,50.931099000000,0 126.420534000000,50.929452000000,0 126.371000000000,50.964119000000,0 126.310057000000,50.995278000000,0 126.276106000000,50.994891000000,0 126.243687000000,51.003210000000,0 126.225042000000,51.001856000000,0 126.208206000000,50.985991000000,0 126.181491000000,50.970314000000,0 126.129870000000,50.974863000000,0 126.135992000000,50.957052000000,0 126.131261000000,50.945821000000,0 126.103711000000,50.923058000000,0 126.056542000000,50.918892000000,0 126.029410000000,50.924802000000,0 126.019949000000,50.920830000000,0</coordinates></LinearRing></outerBoundaryIs></Polygon>
    </Placemark>
  </Document>
</kml>
