<?xml version="1.0" encoding="UTF-8"?>
<kml xmlns="http://www.opengis.net/kml/2.2">
  <Document>
    <name>齐齐哈尔市</name>
    <Placemark>
      <name>齐齐哈尔市</name>
      <Polygon><outerBoundaryIs><LinearRing><coordinates>124.750152000000,48.924028000000,0 124.709244000000,48.920393000000,0 124.713140000000,48.901806000000,0 124.698391000000,48.894632000000,0 124.714810000000,48.886750000000,0 124.708966000000,48.866533000000,0 124.695330000000,48.854096000000,0 124.694356000000,48.840037000000,0 124.680581000000,48.842464000000,0 124.654145000000,48.834372000000,0 124.644127000000,48.808061000000,0 124.653588000000,48.777077000000,0 124.613933000000,48.751141000000,0 124.624925000000,48.700244000000,0 124.615185000000,48.668585000000,0 124.605306000000,48.660972000000,0 124.601828000000,48.632437000000,0 124.582070000000,48.617503000000,0 124.579148000000,48.596466000000,0 124.566625000000,48.591180000000,0 124.568017000000,48.575318000000,0 124.548120000000,48.577759000000,0 124.518622000000,48.554264000000,0 124.548954000000,48.531267000000,0 124.533510000000,48.515387000000,0 124.540467000000,48.480046000000,0 124.555355000000,48.469245000000,0 124.508047000000,48.446923000000,0 124.524605000000,48.426733000000,0 124.518761000000,48.377958000000,0 124.547006000000,48.357639000000,0 124.541163000000,48.335370000000,0 124.559112000000,48.324232000000,0 124.579565000000,48.297449000000,0 124.563842000000,48.290905000000,0 124.556468000000,48.276689000000,0 124.580400000000,48.253873000000,0 124.563703000000,48.243843000000,0 124.569130000000,48.230637000000,0 124.557164000000,48.224801000000,0 124.547146000000,48.201040000000,0 124.521683000000,48.186901000000,0 124.526970000000,48.172963000000,0 124.512360000000,48.164558000000,0 124.529892000000,48.159944000000,0 124.529614000000,48.146922000000,0 124.497751000000,48.123022000000,0 124.481750000000,48.125587000000,0 124.464079000000,48.097674000000,0 124.437642000000,48.095519000000,0 124.431102000000,48.085560000000,0 124.416214000000,48.087922000000,0 124.424145000000,48.106501000000,0 124.438616000000,48.114301000000,0 124.436668000000,48.127331000000,0 124.468949000000,48.132358000000,0 124.464774000000,48.159432000000,0 124.475766000000,48.172963000000,0 124.420806000000,48.181060000000,0 124.419554000000,48.214048000000,0 124.428180000000,48.223163000000,0 124.399239000000,48.259296000000,0 124.405083000000,48.264208000000,0 124.365150000000,48.284667000000,0 124.356245000000,48.312785000000,0 124.338574000000,48.323108000000,0 124.318816000000,48.347118000000,0 124.325216000000,48.358047000000,0 124.314503000000,48.371628000000,0 124.332313000000,48.379285000000,0 124.320625000000,48.393575000000,0 124.314085000000,48.419185000000,0 124.326330000000,48.417349000000,0 124.329947000000,48.435707000000,0 124.302815000000,48.456709000000,0 124.302397000000,48.474034000000,0 124.314224000000,48.503881000000,0 124.298501000000,48.521495000000,0 124.259125000000,48.536559000000,0 124.242428000000,48.522208000000,0 124.178562000000,48.488094000000,0 124.137098000000,48.463334000000,0 124.081860000000,48.437849000000,0 123.979870000000,48.363766000000,0 123.907377000000,48.306651000000,0 123.897220000000,48.302868000000,0 123.866053000000,48.274745000000,0 123.775194000000,48.213331000000,0 123.746531000000,48.197762000000,0 123.705206000000,48.152049000000,0 123.656785000000,48.114095000000,0 123.618939000000,48.077859000000,0 123.571214000000,48.040775000000,0 123.537542000000,48.021864000000,0 123.421220000000,47.988854000000,0 123.349702000000,47.964881000000,0 123.316030000000,47.958809000000,0 123.289037000000,47.943162000000,0 123.255225000000,47.875784000000,0 123.214179000000,47.824523000000,0 123.181481000000,47.793659000000,0 123.164923000000,47.783126000000,0 123.082274000000,47.759987000000,0 123.030653000000,47.741489000000,0 122.980979000000,47.717195000000,0 122.937011000000,47.701164000000,0 122.848796000000,47.674574000000,0 122.763224000000,47.613479000000,0 122.688645000000,47.582697000000,0 122.652886000000,47.571084000000,0 122.593195000000,47.547125000000,0 122.574689000000,47.535401000000,0 122.544078000000,47.496370000000,0 122.537260000000,47.469572000000,0 122.519868000000,47.443903000000,0 122.506510000000,47.401059000000,0 122.469081000000,47.381602000000,0 122.418156000000,47.350476000000,0 122.419825000000,47.330270000000,0 122.436522000000,47.313183000000,0 122.456976000000,47.303074000000,0 122.462820000000,47.278472000000,0 122.498440000000,47.254796000000,0 122.535173000000,47.201775000000,0 122.531277000000,47.198642000000,0 122.557435000000,47.171692000000,0 122.600291000000,47.151627000000,0 122.621440000000,47.121725000000,0 122.650660000000,47.112940000000,0 122.679879000000,47.094213000000,0 122.699359000000,47.098398000000,0 122.711603000000,47.090655000000,0 122.738736000000,47.088562000000,0 122.763224000000,47.076317000000,0 122.805384000000,47.075270000000,0 122.821942000000,47.065640000000,0 122.851996000000,47.072340000000,0 122.856170000000,47.059148000000,0 122.846013000000,47.046896000000,0 122.812341000000,47.030137000000,0 122.778252000000,47.002892000000,0 122.782426000000,46.989474000000,0 122.774773000000,46.974060000000,0 122.798705000000,46.957488000000,0 122.791052000000,46.941645000000,0 122.802462000000,46.937342000000,0 122.848657000000,46.939651000000,0 122.878572000000,46.957068000000,0 122.895269000000,46.960320000000,0 122.899443000000,46.918134000000,0 122.893738000000,46.895243000000,0 122.879824000000,46.892617000000,0 122.900000000000,46.862570000000,0 122.899026000000,46.826827000000,0 122.906957000000,46.807369000000,0 122.918644000000,46.803897000000,0 122.926436000000,46.783273000000,0 122.938959000000,46.788851000000,0 122.969570000000,46.770958000000,0 122.996563000000,46.761588000000,0 122.992945000000,46.747478000000,0 123.004494000000,46.729360000000,0 123.026617000000,46.718824000000,0 123.030096000000,46.727359000000,0 123.066551000000,46.737156000000,0 123.076291000000,46.744634000000,0 123.104954000000,46.734733000000,0 123.142382000000,46.743265000000,0 123.163671000000,46.740105000000,0 123.178142000000,46.753901000000,0 123.186351000000,46.786851000000,0 123.210561000000,46.816205000000,0 123.223223000000,46.821464000000,0 123.217518000000,46.852690000000,0 123.237276000000,46.862149000000,0 123.253556000000,46.855528000000,0 123.263435000000,46.862149000000,0 123.308795000000,46.862044000000,0 123.332866000000,46.842178000000,0 123.341771000000,46.826932000000,0 123.374608000000,46.837658000000,0 123.406750000000,46.906375000000,0 123.404662000000,46.935453000000,0 123.390192000000,46.938496000000,0 123.386992000000,46.952137000000,0 123.360277000000,46.970914000000,0 123.304064000000,46.964830000000,0 123.301698000000,46.999852000000,0 123.343997000000,46.984966000000,0 123.387826000000,46.954865000000,0 123.392696000000,46.940805000000,0 123.427481000000,46.934509000000,0 123.453640000000,46.942169000000,0 123.487868000000,46.959061000000,0 123.516253000000,46.951298000000,0 123.527106000000,46.959166000000,0 123.520845000000,46.920024000000,0 123.510966000000,46.907740000000,0 123.483416000000,46.845963000000,0 123.514166000000,46.826091000000,0 123.562726000000,46.825986000000,0 123.575527000000,46.845227000000,0 123.568848000000,46.861098000000,0 123.577197000000,46.891147000000,0 123.605581000000,46.891252000000,0 123.600851000000,46.861624000000,0 123.625618000000,46.847645000000,0 123.617269000000,46.838288000000,0 123.580119000000,46.827984000000,0 123.594868000000,46.814522000000,0 123.629096000000,46.813575000000,0 123.625478000000,46.806106000000,0 123.631183000000,46.764220000000,0 123.624504000000,46.763588000000,0 123.631322000000,46.731889000000,0 123.619635000000,46.722091000000,0 123.604329000000,46.689734000000,0 123.474094000000,46.686993000000,0 123.366399000000,46.677819000000,0 123.317978000000,46.662210000000,0 123.277349000000,46.661577000000,0 123.271366000000,46.650500000000,0 123.279158000000,46.616939000000,0 123.243120000000,46.603952000000,0 123.228371000000,46.588216000000,0 123.205691000000,46.591596000000,0 123.180646000000,46.613983000000,0 123.098553000000,46.603108000000,0 123.101893000000,46.592864000000,0 123.086030000000,46.591491000000,0 123.077682000000,46.622217000000,0 123.045819000000,46.617784000000,0 123.052915000000,46.580083000000,0 123.002546000000,46.574483000000,0 123.010338000000,46.524803000000,0 123.010616000000,46.435795000000,0 123.094796000000,46.342291000000,0 123.140434000000,46.300257000000,0 123.178559000000,46.248095000000,0 123.219466000000,46.269455000000,0 123.248129000000,46.273279000000,0 123.253277000000,46.265523000000,0 123.279297000000,46.262017000000,0 123.287367000000,46.250114000000,0 123.320065000000,46.251390000000,0 123.347336000000,46.245863000000,0 123.373634000000,46.223005000000,0 123.396036000000,46.244268000000,0 123.431517000000,46.243843000000,0 123.453362000000,46.232468000000,0 123.477155000000,46.242249000000,0 123.499974000000,46.259573000000,0 123.526410000000,46.249264000000,0 123.544638000000,46.235020000000,0 123.562448000000,46.236296000000,0 123.566483000000,46.225770000000,0 123.596676000000,46.234063000000,0 123.605025000000,46.251815000000,0 123.668195000000,46.258510000000,0 123.678769000000,46.254047000000,0 123.724964000000,46.255641000000,0 123.744583000000,46.264142000000,0 123.757105000000,46.259998000000,0 123.787160000000,46.267542000000,0 123.849912000000,46.302381000000,0 123.845599000000,46.313423000000,0 123.859513000000,46.345156000000,0 123.843929000000,46.363826000000,0 123.844068000000,46.375491000000,0 123.870088000000,46.390653000000,0 123.860069000000,46.408142000000,0 123.866331000000,46.418633000000,0 123.848938000000,46.438125000000,0 123.824310000000,46.450940000000,0 123.838503000000,46.471268000000,0 123.810118000000,46.484815000000,0 123.823754000000,46.498254000000,0 123.823058000000,46.512112000000,0 123.802048000000,46.515814000000,0 123.797735000000,46.525438000000,0 123.824589000000,46.556942000000,0 123.824171000000,46.573849000000,0 123.812344000000,46.582301000000,0 123.806640000000,46.600573000000,0 123.791751000000,46.604692000000,0 123.784655000000,46.623906000000,0 123.754462000000,46.642376000000,0 123.767124000000,46.664425000000,0 123.758219000000,46.695005000000,0 123.785212000000,46.713134000000,0 123.766428000000,46.741790000000,0 123.814014000000,46.743581000000,0 123.818884000000,46.737366000000,0 123.855478000000,46.744318000000,0 123.859235000000,46.696164000000,0 123.887341000000,46.684778000000,0 123.914334000000,46.704492000000,0 123.940075000000,46.712185000000,0 123.958164000000,46.707759000000,0 123.980426000000,46.730835000000,0 124.003663000000,46.737050000000,0 124.003384000000,46.767063000000,0 123.985853000000,46.800741000000,0 123.995314000000,46.805370000000,0 123.952737000000,46.821253000000,0 123.948980000000,46.842599000000,0 123.929361000000,46.846068000000,0 123.927970000000,46.862465000000,0 123.940214000000,46.869610000000,0 123.943971000000,46.893563000000,0 123.970408000000,46.925167000000,0 123.984600000000,46.928421000000,0 124.007698000000,46.949514000000,0 124.013959000000,46.971962000000,0 124.000601000000,47.002473000000,0 124.072955000000,47.004988000000,0 124.089234000000,47.039146000000,0 124.070728000000,47.048153000000,0 124.112192000000,47.064697000000,0 124.153795000000,47.107814000000,0 124.195955000000,47.131346000000,0 124.305458000000,47.141801000000,0 124.347061000000,47.138665000000,0 124.418858000000,47.183915000000,0 124.423032000000,47.224221000000,0 124.397569000000,47.259073000000,0 124.409953000000,47.271380000000,0 124.400631000000,47.285562000000,0 124.425676000000,47.318706000000,0 124.434720000000,47.323499000000,0 124.428737000000,47.345373000000,0 124.446408000000,47.352766000000,0 124.464774000000,47.348081000000,0 124.481332000000,47.360263000000,0 124.479802000000,47.340061000000,0 124.522100000000,47.341520000000,0 124.587914000000,47.339749000000,0 124.586383000000,47.328603000000,0 124.617690000000,47.311203000000,0 124.633691000000,47.307764000000,0 124.685869000000,47.333708000000,0 124.757387000000,47.360055000000,0 124.810956000000,47.386181000000,0 124.824592000000,47.411150000000,0 124.878718000000,47.418846000000,0 124.891797000000,47.430700000000,0 124.964706000000,47.456895000000,0 125.007840000000,47.466143000000,0 125.047356000000,47.478818000000,0 125.079776000000,47.393256000000,0 125.169521000000,47.392632000000,0 125.169521000000,47.381290000000,0 125.314923000000,47.381290000000,0 125.324107000000,47.335687000000,0 125.337047000000,47.294215000000,0 125.332872000000,47.286500000000,0 125.407452000000,47.285457000000,0 125.475352000000,47.292442000000,0 125.521547000000,47.294527000000,0 125.681698000000,47.312454000000,0 125.716483000000,47.311308000000,0 125.828909000000,47.320477000000,0 125.971806000000,47.336520000000,0 126.189978000000,47.355265000000,0 126.446275000000,47.379937000000,0 126.451980000000,47.400643000000,0 126.466451000000,47.403868000000,0 126.508471000000,47.457518000000,0 126.501514000000,47.467390000000,0 126.533377000000,47.482557000000,0 126.518907000000,47.495020000000,0 126.540613000000,47.530835000000,0 126.542978000000,47.571395000000,0 126.557031000000,47.585703000000,0 126.540056000000,47.588606000000,0 126.526281000000,47.603116000000,0 126.524055000000,47.693406000000,0 126.518628000000,47.725570000000,0 126.566354000000,47.726707000000,0 126.567328000000,47.756577000000,0 126.560092000000,47.777549000000,0 126.564545000000,47.795930000000,0 126.590842000000,47.821117000000,0 126.597660000000,47.835047000000,0 126.587503000000,47.842578000000,0 126.566632000000,47.880423000000,0 126.576233000000,47.884443000000,0 126.580407000000,47.912059000000,0 126.605869000000,47.935336000000,0 126.631193000000,47.949339000000,0 126.623123000000,47.958603000000,0 126.630080000000,47.989060000000,0 126.616862000000,48.053722000000,0 126.601000000000,48.053311000000,0 126.590147000000,48.063892000000,0 126.605591000000,48.068719000000,0 126.600304000000,48.086895000000,0 126.621453000000,48.096750000000,0 126.615748000000,48.113172000000,0 126.654708000000,48.118610000000,0 126.666535000000,48.131229000000,0 126.615470000000,48.152459000000,0 126.599191000000,48.174193000000,0 126.594877000000,48.196225000000,0 126.573032000000,48.215585000000,0 126.556475000000,48.212000000000,0 126.520437000000,48.219271000000,0 126.429996000000,48.193356000000,0 126.392289000000,48.197249000000,0 126.362234000000,48.189975000000,0 126.347346000000,48.174808000000,0 126.318683000000,48.178293000000,0 126.318266000000,48.201655000000,0 126.329258000000,48.205547000000,0 126.322579000000,48.240670000000,0 126.303795000000,48.249370000000,0 126.289742000000,48.271472000000,0 126.244661000000,48.283849000000,0 126.212380000000,48.281292000000,0 126.199022000000,48.274541000000,0 126.155332000000,48.291212000000,0 126.051116000000,48.282826000000,0 126.001443000000,48.307264000000,0 125.980015000000,48.307060000000,0 125.947178000000,48.318611000000,0 125.948709000000,48.341602000000,0 125.912254000000,48.339763000000,0 125.879695000000,48.353043000000,0 125.843379000000,48.357945000000,0 125.820282000000,48.393473000000,0 125.801359000000,48.477091000000,0 125.788836000000,48.490233000000,0 125.805672000000,48.492576000000,0 125.800385000000,48.508667000000,0 125.799689000000,48.556299000000,0 125.755721000000,48.560876000000,0 125.737493000000,48.556909000000,0 125.723579000000,48.565962000000,0 125.707021000000,48.562402000000,0 125.715370000000,48.609577000000,0 125.729840000000,48.610796000000,0 125.726501000000,48.598295000000,0 125.767130000000,48.588842000000,0 125.781879000000,48.606325000000,0 125.816108000000,48.600227000000,0 125.841709000000,48.612524000000,0 125.840179000000,48.622786000000,0 125.861050000000,48.625427000000,0 125.866894000000,48.637414000000,0 125.892496000000,48.636906000000,0 125.873712000000,48.668483000000,0 125.955805000000,48.710489000000,0 125.973336000000,48.706026000000,0 125.989894000000,48.711503000000,0 126.007843000000,48.738168000000,0 125.959701000000,48.780723000000,0 125.921715000000,48.795102000000,0 125.911697000000,48.806542000000,0 125.857154000000,48.837912000000,0 125.838788000000,48.867342000000,0 125.816525000000,48.868555000000,0 125.799967000000,48.849646000000,0 125.789671000000,48.826378000000,0 125.758782000000,48.821926000000,0 125.722327000000,48.803708000000,0 125.697838000000,48.803202000000,0 125.640373000000,48.853084000000,0 125.631746000000,48.856118000000,0 125.622563000000,48.890994000000,0 125.603779000000,48.882808000000,0 125.541166000000,48.868858000000,0 125.513894000000,48.859152000000,0 125.493997000000,48.834877000000,0 125.468117000000,48.826480000000,0 125.462551000000,48.798848000000,0 125.452255000000,48.783559000000,0 125.413713000000,48.792672000000,0 125.309079000000,48.726814000000,0 125.250223000000,48.726307000000,0 125.250362000000,48.712416000000,0 125.229630000000,48.715965000000,0 125.212238000000,48.734519000000,0 125.128753000000,48.725801000000,0 125.096055000000,48.749824000000,0 125.067531000000,48.738878000000,0 125.045965000000,48.746480000000,0 125.040955000000,48.789230000000,0 124.992813000000,48.813425000000,0 125.015493000000,48.825063000000,0 125.012432000000,48.847320000000,0 125.022589000000,48.861680000000,0 125.013127000000,48.891500000000,0 124.991421000000,48.885335000000,0 124.941609000000,48.897562000000,0 124.924912000000,48.893015000000,0 124.868282000000,48.903220000000,0 124.834332000000,48.920696000000,0 124.832940000000,48.929380000000,0 124.798851000000,48.932612000000,0 124.750152000000,48.924028000000,0</coordinates></LinearRing></outerBoundaryIs></Polygon>
    </Placemark>
  </Document>
</kml>
