<?xml version="1.0" encoding="UTF-8"?>
<kml xmlns="http://www.opengis.net/kml/2.2">
  <Document>
    <name><![CDATA[信阳市]]></name>
    <Placemark>
      <name><![CDATA[信阳市]]></name>
      <description><![CDATA[省级目录：河南省]]></description>
      <ExtendedData>
        <Data name="adcode"><value>411500</value></Data>
      </ExtendedData>
      <MultiGeometry>
      <Polygon>
        <outerBoundaryIs><LinearRing><coordinates>113.749057,32.272684,0 113.749812,32.260291,0 113.739369,32.257598,0 113.740438,32.242815,0 113.748365,32.234788,0 113.752643,32.216189,0 113.764659,32.204195,0 113.777934,32.207956,0 113.783344,32.189657,0 113.763716,32.161694,0 113.766169,32.13835,0 113.750315,32.116324,0 113.739872,32.113067,0 113.736978,32.121564,0 113.722445,32.12426,0 113.728359,32.09938,0 113.728485,32.083197,0 113.744905,32.076784,0 113.747421,32.06976,0 113.763779,32.054743,0 113.781331,32.048786,0 113.791271,32.036006,0 113.779255,32.018895,0 113.769881,32.01701,0 113.758934,32.000915,0 113.759438,31.986447,0 113.768623,31.979466,0 113.776109,31.980434,0 113.788189,31.974014,0 113.798506,31.974116,0 113.816247,31.96688,0 113.807314,31.94889,0 113.805112,31.931508,0 113.81631,31.923249,0 113.832479,31.91866,0 113.835876,31.910961,0 113.83531,31.892858,0 113.831221,31.878985,0 113.838204,31.868681,0 113.838644,31.854702,0 113.858902,31.841078,0 113.867206,31.845058,0 113.872931,31.84067,0 113.896398,31.849344,0 113.906589,31.868528,0 113.914957,31.876995,0 113.93144,31.880974,0 113.933516,31.869395,0 113.954906,31.856334,0 113.956416,31.840262,0 113.946979,31.826483,0 113.953019,31.813518,0 113.952578,31.793864,0 113.96535,31.785644,0 113.972333,31.771653,0 113.972459,31.763124,0 113.978939,31.753778,0 113.988753,31.750202,0 114.015805,31.770274,0 114.038328,31.768844,0 114.048079,31.773389,0 114.059089,31.772266,0 114.063744,31.781917,0 114.0723,31.784878,0 114.086644,31.782223,0 114.089853,31.794834,0 114.099164,31.803411,0 114.119233,31.805759,0 114.127915,31.82633,0 114.12716,31.835363,0 114.13408,31.842813,0 114.15006,31.839241,0 114.162768,31.841078,0 114.166983,31.851028,0 114.180258,31.854039,0 114.194979,31.850161,0 114.208883,31.842762,0 114.221277,31.832403,0 114.236439,31.841895,0 114.235432,31.833372,0 114.248518,31.810507,0 114.262044,31.796315,0 114.264372,31.788503,0 114.287523,31.762052,0 114.292808,31.752296,0 114.313946,31.75199,0 114.321496,31.755106,0 114.350373,31.755412,0 114.373839,31.744277,0 114.390007,31.741007,0 114.399822,31.746933,0 114.416305,31.74208,0 114.419136,31.73314,0 114.4309,31.734928,0 114.446566,31.728031,0 114.450844,31.737636,0 114.46135,31.733242,0 114.471982,31.740956,0 114.488843,31.735694,0 114.50866,31.740701,0 114.504319,31.756433,0 114.509667,31.766852,0 114.521305,31.766903,0 114.530679,31.742897,0 114.545275,31.746167,0 114.550308,31.753165,0 114.54949,31.765422,0 114.554963,31.768538,0 114.572768,31.762562,0 114.582519,31.764758,0 114.587615,31.754033,0 114.581575,31.74254,0 114.584092,31.731863,0 114.579751,31.724659,0 114.579122,31.708154,0 114.59139,31.700335,0 114.586168,31.692567,0 114.574215,31.689142,0 114.570817,31.660106,0 114.559179,31.656067,0 114.549679,31.642465,0 114.55295,31.635203,0 114.548295,31.625127,0 114.548924,31.609782,0 114.561066,31.560966,0 114.572453,31.554056,0 114.57497,31.559533,0 114.587363,31.560607,0 114.595605,31.576319,0 114.612025,31.578469,0 114.616743,31.585326,0 114.641719,31.582153,0 114.644425,31.574682,0 114.653044,31.572686,0 114.656944,31.562859,0 114.670093,31.547043,0 114.678523,31.544023,0 114.69985,31.546121,0 114.696579,31.525847,0 114.717214,31.527947,0 114.723317,31.520625,0 114.739485,31.527179,0 114.747223,31.524004,0 114.757038,31.52723,0 114.771004,31.520522,0 114.778868,31.520727,0 114.774024,31.512431,0 114.774653,31.500909,0 114.783083,31.494814,0 114.78302,31.48462,0 114.789438,31.480522,0 114.81303,31.478832,0 114.824165,31.469969,0 114.829827,31.458902,0 114.841529,31.461976,0 114.850651,31.476168,0 114.875313,31.478268,0 114.87676,31.470584,0 114.8867,31.469457,0 114.896388,31.474375,0 114.925265,31.480471,0 114.936464,31.469764,0 114.939924,31.477141,0 114.964019,31.495377,0 114.976098,31.495889,0 114.985346,31.477705,0 114.998306,31.471608,0 115.002018,31.485286,0 115.010826,31.488206,0 115.001704,31.499987,0 115.010008,31.504903,0 115.023094,31.527588,0 115.030329,31.527691,0 115.038444,31.51704,0 115.048951,31.517552,0 115.066314,31.510537,0 115.096198,31.508437,0 115.092801,31.519088,0 115.102112,31.520573,0 115.113373,31.528971,0 115.105949,31.540029,0 115.110479,31.55078,0 115.103055,31.555745,0 115.106767,31.567466,0 115.127276,31.579083,0 115.125389,31.599089,0 115.134826,31.602415,0 115.164395,31.604564,0 115.176851,31.598834,0 115.180374,31.577752,0 115.192831,31.569564,0 115.192957,31.564037,0 115.207238,31.564241,0 115.212586,31.55554,0 115.235611,31.556206,0 115.230578,31.538238,0 115.218248,31.515299,0 115.219506,31.506901,0 115.212334,31.490101,0 115.216926,31.481598,0 115.217052,31.462898,0 115.210509,31.445476,0 115.220512,31.426718,0 115.232969,31.427077,0 115.252598,31.421695,0 115.260273,31.41216,0 115.250459,31.391755,0 115.260399,31.387396,0 115.281349,31.399856,0 115.294057,31.395036,0 115.301103,31.384063,0 115.31356,31.383448,0 115.327212,31.391139,0 115.335957,31.403394,0 115.355271,31.399958,0 115.373641,31.405752,0 115.383392,31.418671,0 115.385657,31.443324,0 115.389809,31.450293,0 115.377667,31.470532,0 115.371565,31.495838,0 115.377164,31.502957,0 115.389621,31.507566,0 115.398366,31.516067,0 115.415918,31.52595,0 115.428563,31.547196,0 115.431583,31.559021,0 115.428249,31.563371,0 115.438881,31.579953,0 115.440013,31.588703,0 115.47537,31.606712,0 115.486569,31.610089,0 115.490658,31.623593,0 115.477132,31.645431,0 115.484241,31.649061,0 115.486128,31.66118,0 115.495376,31.672938,0 115.515068,31.682855,0 115.531865,31.698547,0 115.553507,31.695276,0 115.564894,31.709023,0 115.582636,31.713929,0 115.586977,31.721696,0 115.601446,31.731659,0 115.619125,31.738351,0 115.637243,31.755616,0 115.65964,31.760213,0 115.676564,31.778393,0 115.689775,31.776555,0 115.697136,31.76864,0 115.710851,31.770887,0 115.719407,31.76578,0 115.736456,31.763277,0 115.734254,31.776044,0 115.741992,31.782121,0 115.762691,31.782325,0 115.767912,31.78784,0 115.787226,31.780436,0 115.793769,31.773593,0 115.808428,31.772572,0 115.815348,31.762358,0 115.831013,31.777576,0 115.837493,31.773593,0 115.850264,31.786767,0 115.858317,31.773695,0 115.885244,31.776096,0 115.900783,31.792026,0 115.91022,31.792333,0 115.915001,31.811885,0 115.913114,31.820103,0 115.904054,31.829392,0 115.892982,31.83327,0 115.895687,31.867507,0 115.898329,31.88026,0 115.910597,31.894949,0 115.92016,31.920445,0 115.916134,31.935994,0 115.909025,31.943232,0 115.911352,31.958013,0 115.92318,31.985479,0 115.924564,31.995617,0 115.931107,31.994496,0 115.927835,32.02358,0 115.919531,32.027858,0 115.927709,32.036311,0 115.922236,32.049652,0 115.925382,32.057543,0 115.9396,32.065841,0 115.942557,32.07765,0 115.932491,32.084266,0 115.926577,32.105283,0 115.93916,32.138961,0 115.937901,32.151777,0 115.94155,32.166423,0 115.933686,32.180456,0 115.923369,32.191691,0 115.922865,32.203636,0 115.912736,32.227623,0 115.914687,32.254855,0 115.921481,32.268519,0 115.911038,32.284161,0 115.90827,32.299243,0 115.90028,32.301426,0 115.906948,32.31158,0 115.904558,32.34102,0 115.89921,32.344978,0 115.897889,32.373596,0 115.899084,32.390792,0 115.88927,32.413462,0 115.889396,32.424263,0 115.87933,32.432324,0 115.883356,32.438814,0 115.882727,32.456099,0 115.864231,32.458937,0 115.873479,32.470594,0 115.88128,32.472469,0 115.883545,32.489241,0 115.874486,32.497804,0 115.873165,32.504694,0 115.853033,32.50444,0 115.845735,32.501806,0 115.84737,32.509557,0 115.856996,32.517965,0 115.873039,32.525816,0 115.87587,32.542477,0 115.899399,32.556198,0 115.91022,32.566982,0 115.929282,32.567235,0 115.911856,32.577561,0 115.891535,32.576245,0 115.887571,32.56764,0 115.8614,32.537413,0 115.845986,32.53164,0 115.839947,32.524803,0 115.841457,32.501198,0 115.823841,32.502262,0 115.80415,32.485441,0 115.788736,32.468922,0 115.781313,32.468466,0 115.787415,32.480121,0 115.785654,32.489393,0 115.771498,32.505301,0 115.760237,32.481996,0 115.741992,32.476371,0 115.719344,32.485644,0 115.701225,32.495321,0 115.692103,32.487519,0 115.692229,32.480628,0 115.700785,32.472874,0 115.698772,32.468212,0 115.675872,32.466438,0 115.68166,32.450473,0 115.68059,32.43998,0 115.674425,32.430854,0 115.666938,32.409405,0 115.656306,32.408746,0 115.657816,32.428826,0 115.645611,32.417519,0 115.627115,32.40545,0 115.604529,32.425936,0 115.586096,32.419243,0 115.563888,32.403015,0 115.553633,32.407478,0 115.569109,32.414629,0 115.5676,32.421626,0 115.547279,32.424719,0 115.537465,32.438966,0 115.523183,32.442007,0 115.524127,32.447837,0 115.515571,32.450625,0 115.502863,32.48306,0 115.497515,32.492535,0 115.484996,32.503934,0 115.485059,32.512292,0 115.477635,32.511836,0 115.477761,32.51989,0 115.465745,32.520143,0 115.438944,32.532551,0 115.443725,32.543287,0 115.434666,32.545211,0 115.431646,32.5523,0 115.418057,32.552958,0 115.410004,32.548097,0 115.412772,32.559793,0 115.411577,32.574777,0 115.403273,32.576701,0 115.391948,32.566324,0 115.38767,32.57088,0 115.329602,32.561211,0 115.32048,32.562628,0 115.324003,32.554831,0 115.304186,32.553768,0 115.296511,32.562729,0 115.300348,32.568399,0 115.310855,32.570576,0 115.297769,32.576347,0 115.30557,32.58318,0 115.299404,32.58814,0 115.294812,32.581054,0 115.289213,32.589861,0 115.267193,32.578068,0 115.254737,32.585002,0 115.26128,32.591683,0 115.2548,32.595225,0 115.243538,32.593505,0 115.227118,32.578624,0 115.229509,32.590569,0 115.212145,32.588494,0 115.201136,32.591834,0 115.192013,32.603018,0 115.175341,32.605346,0 115.152127,32.590012,0 115.145647,32.580143,0 115.137028,32.587026,0 115.140362,32.599223,0 115.12476,32.607573,0 115.111548,32.607421,0 115.099532,32.619868,0 115.098022,32.63378,0 115.090599,32.637017,0 115.065182,32.629075,0 115.05002,32.640153,0 115.030077,32.6486,0 114.985472,32.659322,0 114.957791,32.659979,0 114.93357,32.649308,0 114.919351,32.648903,0 114.911047,32.653405,0 114.901296,32.648954,0 114.901799,32.634741,0 114.89167,32.61749,0 114.884875,32.616225,0 114.862856,32.624117,0 114.856565,32.61926,0 114.822404,32.622853,0 114.813785,32.611165,0 114.806172,32.609495,0 114.79403,32.613695,0 114.788997,32.607168,0 114.791325,32.584141,0 114.802649,32.583433,0 114.810136,32.569007,0 114.808877,32.558882,0 114.785789,32.545616,0 114.781133,32.535539,0 114.786858,32.52384,0 114.793527,32.521764,0 114.789689,32.50824,0 114.774024,32.508696,0 114.752319,32.523942,0 114.736088,32.516901,0 114.729545,32.519333,0 114.724512,32.541464,0 114.713062,32.543743,0 114.702115,32.535134,0 114.701927,32.517357,0 114.676699,32.514977,0 114.666067,32.527183,0 114.650338,32.527842,0 114.615737,32.509911,0 114.606866,32.512697,0 114.582393,32.51371,0 114.571258,32.508088,0 114.569559,32.495119,0 114.574781,32.486353,0 114.571509,32.466793,0 114.585665,32.455136,0 114.582142,32.445657,0 114.570125,32.435721,0 114.576542,32.425733,0 114.603595,32.41833,0 114.634673,32.39982,0 114.647759,32.387597,0 114.644551,32.375879,0 114.623727,32.370602,0 114.620141,32.363398,0 114.623349,32.352539,0 114.610767,32.350002,0 114.607998,32.33701,0 114.5929,32.321326,0 114.575976,32.316402,0 114.582519,32.308432,0 114.563645,32.306401,0 114.550685,32.289036,0 114.535083,32.286091,0 114.521934,32.298684,0 114.498342,32.301527,0 114.492177,32.299953,0 114.490856,32.28665,0 114.483621,32.285177,0 114.468333,32.294165,0 114.452479,32.281368,0 114.438324,32.288478,0 114.429328,32.289341,0 114.421589,32.279134,0 114.397054,32.293353,0 114.376607,32.292032,0 114.369813,32.298735,0 114.368177,32.313407,0 114.349303,32.323002,0 114.348422,32.347566,0 114.34276,32.365021,0 114.315142,32.37324,0 114.293877,32.36492,0 114.286894,32.369892,0 114.28098,32.407428,0 114.288467,32.418939,0 114.277961,32.418888,0 114.269027,32.409253,0 114.254117,32.424516,0 114.247511,32.436583,0 114.249084,32.450625,0 114.243485,32.458583,0 114.226876,32.454122,0 114.221214,32.445961,0 114.204479,32.445252,0 114.201522,32.453514,0 114.210078,32.45838,0 114.209135,32.468719,0 114.198314,32.46877,0 114.197433,32.486353,0 114.192274,32.492585,0 114.167675,32.487012,0 114.163397,32.469986,0 114.16497,32.461877,0 114.157421,32.458279,0 114.136723,32.461978,0 114.112564,32.447786,0 114.097654,32.451639,0 114.085512,32.450777,0 114.080731,32.454832,0 114.078529,32.479614,0 114.087336,32.481236,0 114.07639,32.493548,0 114.071357,32.505909,0 114.072992,32.517205,0 114.066638,32.527031,0 114.067204,32.534881,0 114.056258,32.539033,0 114.053867,32.523233,0 114.014861,32.51599,0 114.007375,32.507784,0 113.982147,32.503579,0 113.962204,32.505403,0 113.95434,32.514268,0 113.953837,32.526575,0 113.938046,32.555996,0 113.940373,32.576195,0 113.932824,32.578219,0 113.92238,32.59396,0 113.919738,32.605295,0 113.911811,32.607775,0 113.893315,32.604891,0 113.886646,32.607016,0 113.87268,32.622751,0 113.86513,32.623814,0 113.850409,32.617338,0 113.843614,32.622245,0 113.826691,32.622397,0 113.820337,32.619109,0 113.820211,32.601804,0 113.814423,32.600842,0 113.805301,32.597705,0 113.789698,32.586368,0 113.782023,32.566172,0 113.769126,32.559287,0 113.763212,32.547895,0 113.774285,32.537362,0 113.768245,32.534425,0 113.759375,32.508797,0 113.764219,32.489951,0 113.761828,32.470645,0 113.753398,32.465425,0 113.741319,32.465374,0 113.73767,32.453362,0 113.730498,32.46061,0 113.730875,32.449307,0 113.725339,32.436025,0 113.710555,32.421221,0 113.718608,32.417215,0 113.735279,32.410876,0 113.740753,32.393125,0 113.751699,32.390031,0 113.753209,32.38435,0 113.743835,32.369435,0 113.751448,32.36081,0 113.760381,32.369182,0 113.768874,32.369486,0 113.770699,32.358628,0 113.758494,32.352235,0 113.753838,32.342085,0 113.753838,32.32823,0 113.7651,32.319448,0 113.773907,32.306147,0 113.769063,32.301324,0 113.768182,32.28406,0 113.769944,32.275985,0 113.758305,32.276747,0 113.749057,32.272684,0</coordinates></LinearRing></outerBoundaryIs>
      </Polygon>
      <Polygon>
        <outerBoundaryIs><LinearRing><coordinates>113.768182,32.28406,0 113.769063,32.301324,0 113.748491,32.291931,0 113.743898,32.283603,0 113.749057,32.272684,0 113.758305,32.276747,0 113.754027,32.288275,0 113.758494,32.291931,0 113.768182,32.28406,0</coordinates></LinearRing></outerBoundaryIs>
      </Polygon>
    </MultiGeometry>
    </Placemark>
  </Document>
</kml>
