<?xml version="1.0" encoding="UTF-8"?>
<kml xmlns="http://www.opengis.net/kml/2.2">
  <Document>
    <name><![CDATA[南阳市]]></name>
    <Placemark>
      <name><![CDATA[南阳市]]></name>
      <description><![CDATA[省级目录：河南省]]></description>
      <ExtendedData>
        <Data name="adcode"><value>411300</value></Data>
      </ExtendedData>
      <MultiGeometry>
      <Polygon>
        <outerBoundaryIs><LinearRing><coordinates>111.009982,33.56054,0 111.003691,33.548075,0 111.003565,33.533105,0 111.019482,33.520837,0 111.027346,33.493139,0 111.027346,33.469542,0 111.020866,33.45085,0 110.996708,33.435963,0 111.011429,33.407336,0 111.011052,33.398861,0 111.017406,33.385019,0 111.026151,33.375338,0 111.02722,33.365506,0 111.023005,33.35487,0 111.029988,33.339415,0 111.026025,33.330382,0 111.000356,33.323957,0 110.999476,33.313416,0 111.007969,33.303678,0 110.998469,33.301418,0 110.997903,33.290975,0 110.991297,33.276112,0 110.982867,33.270085,0 110.997022,33.254766,0 110.985006,33.255419,0 110.997274,33.238941,0 111.01231,33.233113,0 111.016714,33.223968,0 111.030366,33.214571,0 111.032442,33.209345,0 111.051441,33.20065,0 111.057858,33.183609,0 111.037223,33.160984,0 111.045527,33.158168,0 111.061885,33.174006,0 111.073272,33.180643,0 111.088811,33.182051,0 111.0985,33.176923,0 111.106678,33.164453,0 111.128257,33.154547,0 111.132032,33.137749,0 111.139267,33.134379,0 111.146313,33.123815,0 111.162544,33.124268,0 111.179531,33.115463,0 111.177014,33.101174,0 111.190918,33.086731,0 111.192868,33.071631,0 111.167829,33.06398,0 111.15078,33.053206,0 111.148263,33.042381,0 111.152982,33.039712,0 111.179845,33.043942,0 111.189345,33.038655,0 111.221682,33.042633,0 111.24043,33.037194,0 111.240556,33.019971,0 111.2588,33.006472,0 111.269495,32.987831,0 111.273647,32.971858,0 111.267797,32.963744,0 111.253138,32.955781,0 111.245526,32.944188,0 111.24282,32.930627,0 111.24993,32.91424,0 111.246344,32.888518,0 111.2549,32.884029,0 111.269621,32.898455,0 111.280127,32.904355,0 111.290697,32.892554,0 111.289879,32.86506,0 111.293528,32.859409,0 111.316365,32.85078,0 111.331275,32.841142,0 111.358642,32.837003,0 111.380032,32.828827,0 111.385065,32.821305,0 111.396138,32.794547,0 111.405637,32.782529,0 111.404128,32.77561,0 111.41023,32.769347,0 111.413564,32.757174,0 111.422938,32.751011,0 111.437597,32.750253,0 111.447285,32.754951,0 111.448229,32.761467,0 111.46295,32.764296,0 111.461063,32.771671,0 111.468172,32.770862,0 111.475659,32.758437,0 111.469808,32.753638,0 111.46899,32.738633,0 111.456974,32.72696,0 111.444391,32.736713,0 111.441749,32.726758,0 111.431494,32.735045,0 111.425455,32.73267,0 111.44112,32.722816,0 111.464649,32.722362,0 111.472639,32.717763,0 111.467858,32.707351,0 111.479874,32.694664,0 111.513029,32.673986,0 111.526555,32.654163,0 111.524793,32.647285,0 111.530267,32.628316,0 111.55908,32.601095,0 111.57764,32.593505,0 111.603685,32.610254,0 111.618344,32.627608,0 111.634009,32.635145,0 111.640804,32.634741,0 111.640804,32.617338,0 111.646403,32.606206,0 111.673015,32.61496,0 111.69214,32.605953,0 111.713593,32.60656,0 111.729258,32.594011,0 111.740331,32.589253,0 111.747377,32.577612,0 111.766817,32.56521,0 111.785061,32.557312,0 111.809157,32.536704,0 111.827024,32.538071,0 111.828219,32.531285,0 111.858291,32.528702,0 111.862758,32.513609,0 111.870245,32.506315,0 111.889936,32.503174,0 111.915353,32.507733,0 111.932339,32.51523,0 111.948696,32.517003,0 111.956434,32.512292,0 111.966815,32.494916,0 111.977384,32.471151,0 111.992861,32.467351,0 111.990407,32.457468,0 112.001102,32.459444,0 112.007079,32.45103,0 112.014377,32.450321,0 112.032495,32.462435,0 112.038095,32.470087,0 112.047972,32.473736,0 112.064014,32.474243,0 112.069865,32.460002,0 112.065965,32.444643,0 112.07515,32.436887,0 112.086034,32.435316,0 112.081315,32.425682,0 112.084398,32.419699,0 112.093646,32.418888,0 112.108431,32.40474,0 112.12441,32.398755,0 112.130261,32.403117,0 112.13737,32.390589,0 112.156873,32.377096,0 112.164485,32.385314,0 112.150645,32.384198,0 112.161717,32.399313,0 112.146555,32.403117,0 112.150204,32.411637,0 112.164674,32.411282,0 112.172475,32.405906,0 112.172161,32.39835,0 112.178829,32.392111,0 112.17279,32.385162,0 112.205882,32.392973,0 112.229033,32.385365,0 112.230921,32.377451,0 112.251619,32.368116,0 112.255394,32.359745,0 112.261999,32.358882,0 112.288297,32.345587,0 112.299495,32.334929,0 112.32812,32.321682,0 112.329819,32.338178,0 112.338627,32.34853,0 112.351146,32.350459,0 112.360017,32.36563,0 112.368195,32.367913,0 112.38795,32.363702,0 112.39097,32.37116,0 112.414184,32.363195,0 112.417519,32.357005,0 112.450422,32.342847,0 112.445515,32.355584,0 112.460236,32.368269,0 112.472756,32.371769,0 112.477222,32.380799,0 112.495656,32.374915,0 112.506539,32.380749,0 112.521638,32.383082,0 112.531201,32.377147,0 112.544727,32.395509,0 112.545231,32.403878,0 112.561714,32.398907,0 112.577819,32.387952,0 112.57719,32.382524,0 112.58908,32.381307,0 112.59663,32.385568,0 112.61198,32.387039,0 112.630477,32.379937,0 112.645513,32.368472,0 112.672062,32.368116,0 112.685651,32.357715,0 112.713647,32.35259,0 112.719183,32.361774,0 112.73359,32.366239,0 112.734911,32.351677,0 112.754099,32.342847,0 112.767877,32.344166,0 112.77637,32.358375,0 112.804052,32.372277,0 112.835634,32.381611,0 112.860736,32.395814,0 112.870487,32.397842,0 112.878603,32.392567,0 112.877219,32.379531,0 112.888857,32.376792,0 112.902384,32.388662,0 112.911883,32.390741,0 112.948184,32.388256,0 112.960389,32.385314,0 112.969888,32.37116,0 112.98807,32.372327,0 112.991908,32.378314,0 112.988636,32.399567,0 113.00059,32.416758,0 113.012543,32.417164,0 113.025314,32.424618,0 113.05029,32.417925,0 113.058846,32.404638,0 113.078915,32.394393,0 113.107981,32.398502,0 113.118739,32.375828,0 113.150258,32.376284,0 113.155606,32.380749,0 113.159695,32.400784,0 113.159129,32.410673,0 113.172718,32.42117,0 113.185678,32.42188,0 113.211786,32.431969,0 113.226508,32.42548,0 113.236322,32.406971,0 113.259537,32.390589,0 113.273189,32.384756,0 113.295397,32.367406,0 113.298731,32.35396,0 113.325217,32.346602,0 113.333333,32.335945,0 113.31773,32.327012,0 113.31836,32.319042,0 113.332074,32.316098,0 113.347677,32.298633,0 113.365166,32.294774,0 113.376679,32.298379,0 113.394106,32.288072,0 113.397944,32.279286,0 113.410023,32.278017,0 113.420466,32.269535,0 113.428834,32.270551,0 113.471048,32.299141,0 113.480296,32.298989,0 113.500239,32.312697,0 113.511689,32.316809,0 113.528738,32.330362,0 113.542013,32.326809,0 113.550066,32.328737,0 113.547675,32.316047,0 113.55082,32.302543,0 113.561516,32.307366,0 113.556608,32.324169,0 113.551261,32.329245,0 113.565227,32.340208,0 113.583032,32.34305,0 113.579194,32.355229,0 113.589637,32.349495,0 113.605617,32.35056,0 113.593286,32.358578,0 113.593727,32.365275,0 113.604233,32.365174,0 113.611845,32.35873,0 113.624994,32.363601,0 113.624617,32.37948,0 113.63657,32.385923,0 113.643302,32.402559,0 113.651228,32.413412,0 113.662741,32.410115,0 113.665006,32.422235,0 113.67199,32.41762,0 113.683817,32.420206,0 113.6908,32.415846,0 113.702187,32.420206,0 113.70785,32.410318,0 113.718608,32.417215,0 113.710555,32.421221,0 113.725339,32.436025,0 113.730875,32.449307,0 113.730498,32.46061,0 113.73767,32.453362,0 113.741319,32.465374,0 113.753398,32.465425,0 113.761828,32.470645,0 113.764219,32.489951,0 113.759375,32.508797,0 113.768245,32.534425,0 113.774285,32.537362,0 113.763212,32.547895,0 113.769126,32.559287,0 113.782023,32.566172,0 113.789698,32.586368,0 113.805301,32.597705,0 113.814423,32.600842,0 113.809264,32.603828,0 113.799072,32.620879,0 113.785169,32.631402,0 113.791963,32.642075,0 113.781079,32.652595,0 113.771894,32.655276,0 113.761199,32.652697,0 113.729114,32.669688,0 113.717727,32.683694,0 113.696274,32.695624,0 113.668404,32.692389,0 113.649089,32.708261,0 113.642987,32.703106,0 113.623358,32.706138,0 113.614676,32.711344,0 113.609832,32.696484,0 113.616941,32.69158,0 113.619332,32.667362,0 113.594041,32.661092,0 113.596243,32.649763,0 113.588882,32.650421,0 113.583535,32.633577,0 113.571582,32.624775,0 113.565416,32.602715,0 113.542264,32.589152,0 113.524397,32.593505,0 113.513513,32.579384,0 113.512759,32.571538,0 113.492752,32.567741,0 113.472621,32.578574,0 113.458843,32.575689,0 113.458528,32.585508,0 113.447393,32.584698,0 113.437893,32.589203,0 113.422354,32.605245,0 113.400712,32.61324,0 113.382216,32.593353,0 113.372024,32.576245,0 113.364537,32.569462,0 113.351577,32.573664,0 113.342832,32.567893,0 113.326349,32.577561,0 113.321631,32.58733,0 113.315717,32.587988,0 113.31037,32.579536,0 113.303135,32.586723,0 113.282311,32.591986,0 113.280486,32.595984,0 113.249785,32.593555,0 113.243871,32.578827,0 113.221286,32.570424,0 113.205432,32.569969,0 113.198575,32.579536,0 113.200651,32.585103,0 113.196121,32.606156,0 113.201783,32.614504,0 113.20279,32.632262,0 113.19222,32.635398,0 113.186181,32.646476,0 113.18788,32.652241,0 113.20172,32.660333,0 113.210276,32.678941,0 113.220594,32.684452,0 113.236196,32.679143,0 113.243305,32.66984,0 113.252679,32.666907,0 113.258467,32.653961,0 113.269351,32.662053,0 113.259914,32.677778,0 113.236259,32.682581,0 113.241103,32.691429,0 113.231226,32.701488,0 113.213736,32.703055,0 113.207697,32.717257,0 113.191528,32.717712,0 113.193982,32.733378,0 113.201343,32.738835,0 113.199959,32.750253,0 113.177247,32.775307,0 113.185237,32.788286,0 113.184294,32.801364,0 113.17838,32.806665,0 113.187062,32.819943,0 113.175737,32.83241,0 113.165797,32.838063,0 113.167999,32.847046,0 113.177059,32.852446,0 113.187062,32.866422,0 113.195681,32.871871,0 113.205558,32.884937,0 113.201154,32.888821,0 113.208137,32.916408,0 113.199015,32.920291,0 113.181714,32.920644,0 113.161897,32.92745,0 113.15592,32.936122,0 113.145854,32.940306,0 113.140129,32.930627,0 113.11553,32.932996,0 113.109805,32.94202,0 113.097789,32.946406,0 113.108799,32.97332,0 113.116097,32.986421,0 113.120312,33.001182,0 113.127358,33.010552,0 113.142016,33.016647,0 113.161456,33.038906,0 113.165546,33.048977,0 113.18574,33.056932,0 113.190019,33.067202,0 113.206124,33.070826,0 113.219273,33.064584,0 113.237077,33.077017,0 113.250477,33.077822,0 113.257335,33.083409,0 113.271427,33.08049,0 113.301436,33.080138,0 113.313138,33.075608,0 113.325469,33.079181,0 113.333836,33.085976,0 113.357239,33.091613,0 113.386619,33.113451,0 113.388821,33.128393,0 113.379888,33.135485,0 113.385424,33.145595,0 113.382467,33.156156,0 113.385802,33.169381,0 113.370136,33.182855,0 113.377875,33.184313,0 113.384417,33.196679,0 113.384103,33.206128,0 113.391212,33.225928,0 113.402851,33.235224,0 113.400146,33.261044,0 113.384732,33.29203,0 113.388318,33.299059,0 113.403857,33.302724,0 113.400838,33.314722,0 113.40738,33.323004,0 113.400397,33.335852,0 113.363908,33.342476,0 113.335472,33.35201,0 113.312194,33.341121,0 113.302632,33.348999,0 113.289923,33.351709,0 113.277089,33.350254,0 113.270609,33.358834,0 113.257964,33.366158,0 113.245004,33.365356,0 113.241418,33.373733,0 113.230534,33.374937,0 113.230912,33.38848,0 113.216316,33.398861,0 113.198134,33.420523,0 113.192975,33.429797,0 113.176052,33.435713,0 113.156109,33.433607,0 113.141765,33.425987,0 113.128742,33.427642,0 113.125659,33.439723,0 113.110309,33.446138,0 113.074826,33.448444,0 113.045698,33.439472,0 113.041357,33.44659,0 113.037897,33.464331,0 113.041168,33.473701,0 113.053373,33.485725,0 113.049221,33.492087,0 113.048214,33.508317,0 113.04381,33.517532,0 113.047333,33.532204,0 113.036261,33.539865,0 113.036701,33.546974,0 113.027642,33.546874,0 113.022861,33.56119,0 112.997255,33.569399,0 112.990775,33.567797,0 112.986497,33.575805,0 112.972908,33.584613,0 112.963597,33.583662,0 112.950134,33.590968,0 112.94271,33.607629,0 112.917545,33.605627,0 112.893513,33.616133,0 112.887914,33.608329,0 112.869669,33.611531,0 112.854822,33.603626,0 112.85262,33.584413,0 112.845637,33.578107,0 112.82022,33.574804,0 112.81179,33.580309,0 112.783668,33.567747,0 112.773413,33.56079,0 112.760076,33.571751,0 112.750387,33.571151,0 112.743215,33.578858,0 112.725411,33.586765,0 112.70572,33.585263,0 112.689174,33.587165,0 112.683889,33.591718,0 112.664386,33.597673,0 112.660234,33.605377,0 112.646205,33.602876,0 112.63444,33.594821,0 112.617705,33.597272,0 112.611351,33.601875,0 112.610785,33.611431,0 112.599775,33.618084,0 112.588388,33.616883,0 112.575995,33.602275,0 112.556869,33.588166,0 112.548502,33.59367,0 112.529943,33.587915,0 112.522771,33.595521,0 112.524721,33.603826,0 112.503394,33.622185,0 112.493202,33.63899,0 112.477159,33.63764,0 112.461683,33.63994,0 112.453756,33.645291,0 112.420727,33.676389,0 112.408019,33.675439,0 112.392479,33.666991,0 112.375116,33.666891,0 112.361086,33.661242,0 112.353285,33.669941,0 112.332839,33.668391,0 112.312455,33.684887,0 112.306541,33.69978,0 112.278168,33.712373,0 112.258854,33.710624,0 112.249354,33.719018,0 112.239917,33.715321,0 112.230103,33.71702,0 112.214752,33.713972,0 112.184995,33.698731,0 112.179207,33.703278,0 112.17776,33.715621,0 112.168638,33.721766,0 112.158509,33.720117,0 112.15033,33.713672,0 112.141774,33.691634,0 112.13089,33.676939,0 112.120573,33.668841,0 112.104719,33.661392,0 112.074018,33.653142,0 112.071312,33.648192,0 112.076345,33.633689,0 112.084146,33.628988,0 112.092199,33.607228,0 112.087481,33.603076,0 112.065713,33.607479,0 112.059044,33.605227,0 112.038535,33.622386,0 112.024757,33.622436,0 112.014943,33.613632,0 112.012301,33.602626,0 112.018655,33.59437,0 112.024191,33.600024,0 112.028343,33.593019,0 112.020353,33.587715,0 111.994182,33.584913,0 111.930137,33.571051,0 111.916359,33.572102,0 111.899184,33.588666,0 111.884526,33.596121,0 111.863953,33.599174,0 111.843444,33.595821,0 111.832749,33.598723,0 111.827716,33.606228,0 111.82759,33.634189,0 111.819411,33.652892,0 111.778078,33.666091,0 111.728629,33.688086,0 111.719003,33.688885,0 111.684968,33.677489,0 111.665151,33.695582,0 111.645207,33.720517,0 111.619476,33.730059,0 111.59148,33.727711,0 111.567699,33.735005,0 111.541402,33.733406,0 111.523975,33.742847,0 111.516048,33.7405,0 111.495476,33.725663,0 111.484529,33.726462,0 111.469808,33.738052,0 111.4342,33.747742,0 111.398906,33.768168,0 111.390035,33.771264,0 111.348387,33.764822,0 111.336245,33.768317,0 111.322467,33.762974,0 111.315044,33.764073,0 111.304223,33.775008,0 111.288558,33.779702,0 111.270816,33.781699,0 111.260813,33.796775,0 111.240367,33.796925,0 111.234831,33.801268,0 111.222437,33.797574,0 111.208533,33.781948,0 111.196077,33.757731,0 111.194441,33.745494,0 111.197209,33.732207,0 111.195196,33.713272,0 111.186199,33.704128,0 111.181292,33.686886,0 111.170471,33.682138,0 111.151598,33.684787,0 111.141406,33.678739,0 111.133164,33.678939,0 111.140273,33.661292,0 111.146439,33.658592,0 111.152101,33.645441,0 111.143922,33.633189,0 111.134674,33.627437,0 111.133982,33.612381,0 111.123224,33.598623,0 111.114542,33.578758,0 111.102903,33.573903,0 111.089126,33.563743,0 111.070063,33.566346,0 111.058425,33.555534,0 111.025144,33.550578,0 111.009982,33.56054,0</coordinates></LinearRing></outerBoundaryIs>
      </Polygon>
      <Polygon>
        <outerBoundaryIs><LinearRing><coordinates>111.033889,33.178029,0 111.037789,33.184816,0 111.032064,33.188686,0 111.015833,33.174057,0 111.033889,33.178029,0</coordinates></LinearRing></outerBoundaryIs>
      </Polygon>
      <Polygon>
        <outerBoundaryIs><LinearRing><coordinates>112.734093,32.356751,0 112.730885,32.363144,0 112.723021,32.360962,0 112.734093,32.356751,0</coordinates></LinearRing></outerBoundaryIs>
      </Polygon>
    </MultiGeometry>
    </Placemark>
  </Document>
</kml>
