<?xml version="1.0" encoding="UTF-8"?>
<kml xmlns="http://www.opengis.net/kml/2.2">
  <Document>
    <name><![CDATA[周口市]]></name>
    <Placemark>
      <name><![CDATA[周口市]]></name>
      <description><![CDATA[省级目录：河南省]]></description>
      <ExtendedData>
        <Data name="adcode"><value>411600</value></Data>
      </ExtendedData>
      <MultiGeometry>
      <Polygon>
        <outerBoundaryIs><LinearRing><coordinates>114.897269,33.08658,0 114.897206,33.093676,0 114.906266,33.11657,0 114.902931,33.12955,0 114.910229,33.136592,0 114.926649,33.138503,0 114.93445,33.15329,0 114.966095,33.147104,0 114.968863,33.133674,0 114.981446,33.129097,0 114.99233,33.120947,0 114.990505,33.102885,0 115.012021,33.097651,0 115.023345,33.090757,0 115.041275,33.08663,0 115.05153,33.092468,0 115.057444,33.083762,0 115.067636,33.086228,0 115.111108,33.082956,0 115.153259,33.084416,0 115.167918,33.088744,0 115.172448,33.108067,0 115.197109,33.12145,0 115.209817,33.113501,0 115.22435,33.126229,0 115.236996,33.126733,0 115.246307,33.136391,0 115.266501,33.132719,0 115.269584,33.137849,0 115.290345,33.132417,0 115.292862,33.143382,0 115.301481,33.141622,0 115.300159,33.162995,0 115.294372,33.177878,0 115.296762,33.201303,0 115.326394,33.211355,0 115.316265,33.218391,0 115.316328,33.223818,0 115.331741,33.235625,0 115.329728,33.250546,0 115.340109,33.261145,0 115.340927,33.271391,0 115.333818,33.284749,0 115.335013,33.298055,0 115.346966,33.301017,0 115.360178,33.298105,0 115.358794,33.311459,0 115.365022,33.336003,0 115.34835,33.338963,0 115.34684,33.358683,0 115.338536,33.362998,0 115.341619,33.371175,0 115.316139,33.370974,0 115.313245,33.377094,0 115.329414,33.40167,0 115.317334,33.418216,0 115.315636,33.431452,0 115.319033,33.441477,0 115.316391,33.448895,0 115.323877,33.449045,0 115.324569,33.457615,0 115.335957,33.447291,0 115.345771,33.449747,0 115.348854,33.478962,0 115.343821,33.480866,0 115.351244,33.490384,0 115.345393,33.502707,0 115.366595,33.523441,0 115.395094,33.506463,0 115.396793,33.502006,0 115.405349,33.51668,0 115.401763,33.524342,0 115.41466,33.541617,0 115.421958,33.556786,0 115.463731,33.567197,0 115.47191,33.558037,0 115.484933,33.558638,0 115.500598,33.564794,0 115.511293,33.553331,0 115.528594,33.562692,0 115.552752,33.565545,0 115.559358,33.561941,0 115.56609,33.576356,0 115.601132,33.578157,0 115.63976,33.585113,0 115.625038,33.625637,0 115.6173,33.633189,0 115.601635,33.657692,0 115.602516,33.67259,0 115.599622,33.688285,0 115.607171,33.689035,0 115.596288,33.70033,0 115.601572,33.71692,0 115.595281,33.732957,0 115.583516,33.747243,0 115.574834,33.752237,0 115.56999,33.765321,0 115.563133,33.771663,0 115.565209,33.780201,0 115.582258,33.788738,0 115.590563,33.783696,0 115.614218,33.775658,0 115.621201,33.796775,0 115.62334,33.811949,0 115.616608,33.820034,0 115.625605,33.823627,0 115.626297,33.836201,0 115.636111,33.84119,0 115.633532,33.86733,0 115.620886,33.876108,0 115.605724,33.867429,0 115.591632,33.868327,0 115.579553,33.877005,0 115.564202,33.87132,0 115.557974,33.876108,0 115.546146,33.875509,0 115.546587,33.888425,0 115.555332,33.888574,0 115.55464,33.900342,0 115.568543,33.910013,0 115.559798,33.91455,0 115.562629,33.92721,0 115.56999,33.932842,0 115.569172,33.9455,0 115.57754,33.950134,0 115.57905,33.973949,0 115.588361,33.976987,0 115.591066,33.986202,0 115.584083,33.988643,0 115.592702,34.009857,0 115.606605,34.013243,0 115.600943,34.023798,0 115.615035,34.033356,0 115.62139,34.030121,0 115.642214,34.032261,0 115.649889,34.036194,0 115.648001,34.046298,0 115.653601,34.060084,0 115.641962,34.084166,0 115.627555,34.087499,0 115.619754,34.083171,0 115.573702,34.086404,0 115.543693,34.084564,0 115.547593,34.074414,0 115.549921,34.047542,0 115.547782,34.037737,0 115.53564,34.021757,0 115.53023,34.018819,0 115.513369,34.019367,0 115.502989,34.015434,0 115.489274,34.017575,0 115.462599,34.006023,0 115.458824,33.987099,0 115.439573,33.986053,0 115.402581,33.993374,0 115.375403,34.00677,0 115.361813,34.01628,0 115.349042,34.018222,0 115.33539,34.006969,0 115.32092,34.004828,0 115.312742,33.995715,0 115.292484,33.996163,0 115.28959,34.003981,0 115.295441,34.018172,0 115.288395,34.019516,0 115.258449,34.015334,0 115.252975,34.008861,0 115.254548,33.995117,0 115.252283,33.982467,0 115.240959,33.975144,0 115.23039,33.974148,0 115.203778,33.988942,0 115.195473,33.987398,0 115.204722,33.974447,0 115.189497,33.958106,0 115.176474,33.950732,0 115.148541,33.950184,0 115.142375,33.958306,0 115.124257,33.963089,0 115.115009,33.961096,0 115.106453,33.94844,0 115.107207,33.936331,0 115.085251,33.93354,0 115.070026,33.935583,0 115.050398,33.941962,0 115.049957,33.950035,0 115.05801,33.95721,0 115.065748,33.97355,0 115.062351,33.979329,0 115.070089,33.990635,0 115.083238,34.003185,0 115.074871,34.014438,0 115.074241,34.022802,0 115.083364,34.024893,0 115.107962,34.022703,0 115.121363,34.02569,0 115.13967,34.050628,0 115.140048,34.055854,0 115.128661,34.064164,0 115.116707,34.066353,0 115.120608,34.078196,0 115.118217,34.098642,0 115.126144,34.105207,0 115.119538,34.120475,0 115.12671,34.133652,0 115.127906,34.146777,0 115.133442,34.154234,0 115.133127,34.170835,0 115.11872,34.189966,0 115.12627,34.209441,0 115.107207,34.208845,0 115.093556,34.219277,0 115.082609,34.222555,0 115.052474,34.224641,0 115.041087,34.246342,0 115.012965,34.253393,0 114.998558,34.250116,0 114.986605,34.253393,0 114.98088,34.262975,0 114.962258,34.261883,0 114.940804,34.274243,0 114.933695,34.282135,0 114.912179,34.281837,0 114.901988,34.284567,0 114.896514,34.265804,0 114.867763,34.271066,0 114.845492,34.280696,0 114.832847,34.281937,0 114.8314,34.268138,0 114.812778,34.259003,0 114.788242,34.261138,0 114.781196,34.255627,0 114.76465,34.254436,0 114.758736,34.238397,0 114.752697,34.23363,0 114.730426,34.225237,0 114.723946,34.228018,0 114.71388,34.241327,0 114.702241,34.244505,0 114.679341,34.244307,0 114.667514,34.250265,0 114.647319,34.250315,0 114.634044,34.261883,0 114.611459,34.261088,0 114.602085,34.271017,0 114.58988,34.273747,0 114.556662,34.267989,0 114.551189,34.272059,0 114.551629,34.284964,0 114.528603,34.282234,0 114.524703,34.306253,0 114.519355,34.313448,0 114.509855,34.309727,0 114.493876,34.31191,0 114.485949,34.325057,0 114.479343,34.32962,0 114.462042,34.330166,0 114.46179,34.319947,0 114.452857,34.319997,0 114.438576,34.328033,0 114.439897,34.336366,0 114.427692,34.333837,0 114.436059,34.330265,0 114.434486,34.313894,0 114.424546,34.309032,0 114.430649,34.302284,0 114.442539,34.300696,0 114.455688,34.294096,0 114.440652,34.270719,0 114.434927,34.267145,0 114.417689,34.265308,0 114.405798,34.248031,0 114.385729,34.24386,0 114.356412,34.247186,0 114.344207,34.251804,0 114.328857,34.267294,0 114.301175,34.26774,0 114.287901,34.276527,0 114.274626,34.274889,0 114.267517,34.256968,0 114.259905,34.251854,0 114.272676,34.24237,0 114.273053,34.227869,0 114.286013,34.218234,0 114.287649,34.206958,0 114.276199,34.190811,0 114.275255,34.174661,0 114.28746,34.137033,0 114.285133,34.120873,0 114.273808,34.107545,0 114.273431,34.102571,0 114.262107,34.095856,0 114.270411,34.063219,0 114.271103,34.053813,0 114.281987,34.046597,0 114.287523,34.022902,0 114.295324,34.007467,0 114.311745,34.001492,0 114.312248,33.98162,0 114.307026,33.978233,0 114.31036,33.96,0 114.299917,33.953024,0 114.305642,33.889572,0 114.3164,33.880446,0 114.311304,33.87142,0 114.315834,33.865734,0 114.312122,33.853263,0 114.301112,33.852365,0 114.301301,33.842188,0 114.310738,33.842637,0 114.316085,33.833207,0 114.323383,33.832908,0 114.325082,33.818337,0 114.313066,33.80012,0 114.309983,33.781349,0 114.290354,33.771813,0 114.249776,33.779252,0 114.242604,33.790785,0 114.217565,33.793131,0 114.211525,33.798123,0 114.19888,33.797374,0 114.190638,33.801917,0 114.179503,33.799321,0 114.178308,33.806409,0 114.161447,33.79982,0 114.15503,33.809304,0 114.145404,33.810551,0 114.134772,33.806409,0 114.133703,33.791484,0 114.139931,33.783097,0 114.142007,33.765921,0 114.133262,33.768118,0 114.098032,33.765072,0 114.10319,33.756832,0 114.106839,33.739051,0 114.095263,33.728061,0 114.091489,33.71642,0 114.097717,33.683187,0 114.115836,33.684587,0 114.118226,33.67159,0 114.116402,33.651392,0 114.125398,33.652842,0 114.149745,33.650442,0 114.152639,33.662242,0 114.162265,33.669941,0 114.169563,33.664791,0 114.186235,33.67219,0 114.186549,33.682538,0 114.196489,33.690934,0 114.214231,33.691334,0 114.249084,33.704328,0 114.250783,33.693233,0 114.259842,33.680588,0 114.260849,33.661942,0 114.264183,33.654742,0 114.264938,33.635239,0 114.277332,33.621735,0 114.279659,33.604427,0 114.265881,33.597923,0 114.265378,33.593219,0 114.278653,33.57015,0 114.282868,33.558688,0 114.295324,33.553782,0 114.289348,33.522089,0 114.281106,33.513976,0 114.283371,33.500353,0 114.279785,33.489282,0 114.284629,33.472548,0 114.307907,33.481316,0 114.347227,33.462376,0 114.349429,33.452604,0 114.362137,33.454057,0 114.368932,33.44659,0 114.382143,33.454508,0 114.402967,33.457064,0 114.407937,33.460873,0 114.446628,33.464581,0 114.459777,33.454458,0 114.464118,33.437467,0 114.480098,33.443131,0 114.490415,33.43481,0 114.488654,33.417565,0 114.52313,33.418969,0 114.537663,33.426589,0 114.554146,33.42714,0 114.563016,33.42333,0 114.57239,33.406835,0 114.572013,33.396053,0 114.577423,33.390035,0 114.575536,33.376392,0 114.585728,33.374837,0 114.589314,33.362847,0 114.605293,33.35778,0 114.615925,33.344383,0 114.623664,33.341723,0 114.645557,33.34624,0 114.654491,33.341924,0 114.662481,33.322954,0 114.669715,33.31944,0 114.665563,33.313416,0 114.684122,33.314671,0 114.685255,33.298205,0 114.705764,33.302171,0 114.722373,33.301117,0 114.728853,33.289368,0 114.73074,33.261597,0 114.717529,33.221808,0 114.69897,33.208139,0 114.697648,33.197081,0 114.681354,33.170487,0 114.704003,33.160531,0 114.705764,33.14821,0 114.717592,33.144036,0 114.720863,33.125626,0 114.731621,33.120746,0 114.742757,33.106709,0 114.761756,33.10535,0 114.765845,33.090858,0 114.77069,33.087184,0 114.77157,33.069517,0 114.7951,33.068561,0 114.800447,33.05819,0 114.817937,33.060456,0 114.833917,33.059449,0 114.850022,33.052753,0 114.854552,33.055421,0 114.857446,33.075306,0 114.897206,33.080591,0 114.897269,33.08658,0</coordinates></LinearRing></outerBoundaryIs>
      </Polygon>
    </MultiGeometry>
    </Placemark>
  </Document>
</kml>
