<?xml version="1.0" encoding="UTF-8"?>
<kml xmlns="http://www.opengis.net/kml/2.2">
  <Document>
    <name><![CDATA[安阳市]]></name>
    <Placemark>
      <name><![CDATA[安阳市]]></name>
      <description><![CDATA[省级目录：河南省]]></description>
      <ExtendedData>
        <Data name="adcode"><value>410500</value></Data>
      </ExtendedData>
      <MultiGeometry>
      <Polygon>
        <outerBoundaryIs><LinearRing><coordinates>114.419073,35.474181,0 114.428573,35.468947,0 114.429139,35.449523,0 114.412027,35.43582,0 114.405043,35.426325,0 114.407686,35.418004,0 114.415172,35.413255,0 114.423666,35.380155,0 114.413474,35.370163,0 114.411083,35.358064,0 114.429076,35.342876,0 114.423414,35.324842,0 114.404226,35.326313,0 114.403659,35.316805,0 114.412782,35.313521,0 114.416493,35.302785,0 114.408189,35.29249,0 114.395732,35.293078,0 114.407497,35.269738,0 114.395481,35.26449,0 114.391266,35.258114,0 114.396299,35.241828,0 114.407497,35.236627,0 114.392146,35.226912,0 114.394348,35.219797,0 114.399696,35.225097,0 114.415298,35.228188,0 114.431404,35.222055,0 114.431781,35.208755,0 114.442602,35.205958,0 114.4499,35.214448,0 114.465376,35.216706,0 114.487836,35.206645,0 114.494756,35.220141,0 114.50413,35.228286,0 114.527093,35.235646,0 114.541437,35.242809,0 114.549364,35.261891,0 114.562198,35.276064,0 114.5968,35.286116,0 114.607495,35.292686,0 114.627313,35.298275,0 114.642915,35.297148,0 114.663173,35.291559,0 114.679907,35.291166,0 114.688715,35.295138,0 114.698341,35.306756,0 114.701675,35.329008,0 114.697397,35.337486,0 114.718598,35.343611,0 114.73722,35.344689,0 114.754521,35.341308,0 114.76163,35.345228,0 114.783964,35.343023,0 114.808877,35.346942,0 114.809632,35.354242,0 114.856942,35.387794,0 114.879339,35.387452,0 114.898087,35.390781,0 114.951248,35.380791,0 114.967605,35.399204,0 114.985787,35.414332,0 114.981509,35.434107,0 114.96383,35.440665,0 114.96188,35.446146,0 114.967668,35.456716,0 114.970751,35.480785,0 114.947347,35.478144,0 114.93942,35.481225,0 114.940616,35.491448,0 114.953324,35.501815,0 114.964334,35.504749,0 114.969492,35.518,0 114.968423,35.537554,0 114.962006,35.571421,0 114.952884,35.581094,0 114.90853,35.585979,0 114.884813,35.599852,0 114.883051,35.616065,0 114.874432,35.623878,0 114.875502,35.628907,0 114.890034,35.646823,0 114.905888,35.649606,0 114.911047,35.660685,0 114.919226,35.664785,0 114.918408,35.687962,0 114.910544,35.700939,0 114.915514,35.706743,0 114.907776,35.722594,0 114.889594,35.738978,0 114.887832,35.753506,0 114.893746,35.764132,0 114.908405,35.765741,0 114.921365,35.780118,0 114.943573,35.799754,0 114.948669,35.819629,0 114.94546,35.82523,0 114.93401,35.828055,0 114.933003,35.84505,0 114.935646,35.853814,0 114.953009,35.85766,0 114.959112,35.862723,0 114.969996,35.881366,0 114.970814,35.890223,0 114.97786,35.904723,0 114.972324,35.923259,0 114.98025,35.949814,0 114.988366,35.964741,0 114.983333,35.982922,0 114.986164,35.991865,0 114.980376,36.003334,0 114.974274,35.999009,0 114.974211,36.012226,0 114.983396,36.019417,0 114.983962,36.02583,0 114.968926,36.032971,0 114.94244,36.03812,0 114.920798,36.048319,0 114.914696,36.05201,0 114.92646,36.089444,0 114.922057,36.103132,0 114.913249,36.107645,0 114.907083,36.119971,0 114.912431,36.140444,0 114.893432,36.140056,0 114.89211,36.143792,0 114.868518,36.146653,0 114.858641,36.144325,0 114.857509,36.127734,0 114.841655,36.131712,0 114.831589,36.130354,0 114.825172,36.123707,0 114.802775,36.130936,0 114.790885,36.130014,0 114.778617,36.133168,0 114.777987,36.128025,0 114.76421,36.125551,0 114.762889,36.134914,0 114.751564,36.138698,0 114.751564,36.146605,0 114.734389,36.155772,0 114.720674,36.140056,0 114.711678,36.145441,0 114.692364,36.146217,0 114.691106,36.138407,0 114.655183,36.14025,0 114.63719,36.135642,0 114.630395,36.124241,0 114.619449,36.123513,0 114.61083,36.128316,0 114.604664,36.121426,0 114.582582,36.121329,0 114.58686,36.14093,0 114.575473,36.143258,0 114.568049,36.152328,0 114.558046,36.150776,0 114.543639,36.161786,0 114.531686,36.161931,0 114.532881,36.171533,0 114.504948,36.172406,0 114.505577,36.177497,0 114.489598,36.178467,0 114.483873,36.183848,0 114.480287,36.177788,0 114.466194,36.197713,0 114.452291,36.202367,0 114.431152,36.202609,0 114.4175,36.205905,0 114.408441,36.224563,0 114.392335,36.221123,0 114.367548,36.225533,0 114.356098,36.23033,0 114.353833,36.242636,0 114.346787,36.245494,0 114.345151,36.255812,0 114.329234,36.255909,0 114.328353,36.248159,0 114.312814,36.251646,0 114.309983,36.246754,0 114.298973,36.24593,0 114.273871,36.254747,0 114.256445,36.263998,0 114.241031,36.251356,0 114.235558,36.252761,0 114.22373,36.270875,0 114.210645,36.272764,0 114.203095,36.245736,0 114.185165,36.248449,0 114.181139,36.243314,0 114.168871,36.243411,0 114.176672,36.263126,0 114.164844,36.269567,0 114.162831,36.26516,0 114.131438,36.281674,0 114.121435,36.272715,0 114.097528,36.275233,0 114.092621,36.2778,0 114.085386,36.2701,0 114.060536,36.276493,0 114.058271,36.285354,0 114.042606,36.297313,0 114.047953,36.310334,0 114.061542,36.317982,0 114.055692,36.329984,0 114.045185,36.325919,0 114.029017,36.326548,0 114.025997,36.330516,0 114.03254,36.339904,0 114.030841,36.350742,0 114.024676,36.354854,0 114.015176,36.352967,0 114.008507,36.342517,0 113.985859,36.357563,0 113.977932,36.358579,0 113.979819,36.344113,0 113.994478,36.34421,0 113.994352,36.337049,0 114.001964,36.331339,0 113.991647,36.326839,0 113.993849,36.314594,0 113.98221,36.317692,0 113.977869,36.329258,0 113.968495,36.33971,0 113.964217,36.35258,0 113.953207,36.358192,0 113.946727,36.354805,0 113.948804,36.346097,0 113.960317,36.344742,0 113.956101,36.335597,0 113.93446,36.33613,0 113.931629,36.319482,0 113.911182,36.314788,0 113.901116,36.337001,0 113.881487,36.353886,0 113.853617,36.350113,0 113.849339,36.346823,0 113.853995,36.329742,0 113.834177,36.334339,0 113.818261,36.331146,0 113.801274,36.338355,0 113.796808,36.347548,0 113.777431,36.349822,0 113.778626,36.359788,0 113.763401,36.356015,0 113.75516,36.365931,0 113.7422,36.364432,0 113.743269,36.357563,0 113.73314,36.357079,0 113.731442,36.363367,0 113.728736,36.341452,0 113.736412,36.324709,0 113.723326,36.304865,0 113.709045,36.299733,0 113.716217,36.262593,0 113.709108,36.261528,0 113.700552,36.252276,0 113.703886,36.23784,0 113.695204,36.228779,0 113.677274,36.222528,0 113.672178,36.211963,0 113.682055,36.216277,0 113.698476,36.21429,0 113.705396,36.20067,0 113.691492,36.20193,0 113.686334,36.195483,0 113.697909,36.181861,0 113.672304,36.175606,0 113.664503,36.177449,0 113.651669,36.172212,0 113.659973,36.164162,0 113.679287,36.159943,0 113.681363,36.150728,0 113.695582,36.153201,0 113.706843,36.147381,0 113.702628,36.143209,0 113.705648,36.134138,0 113.713763,36.132974,0 113.693191,36.124192,0 113.673499,36.125357,0 113.668529,36.129675,0 113.655507,36.125114,0 113.673814,36.111625,0 113.669284,36.104005,0 113.679539,36.094007,0 113.684069,36.078328,0 113.68237,36.066821,0 113.685767,36.055992,0 113.668655,36.049096,0 113.66142,36.04288,0 113.660414,36.034671,0 113.670165,36.029522,0 113.695141,36.026753,0 113.695204,36.018202,0 113.680734,36.014801,0 113.695896,35.999884,0 113.686459,35.986421,0 113.678784,35.98579,0 113.648901,35.994149,0 113.637828,35.988463,0 113.636884,35.975874,0 113.647831,35.967123,0 113.653997,35.93143,0 113.654437,35.917227,0 113.648712,35.908518,0 113.637388,35.869928,0 113.644056,35.854885,0 113.658212,35.853911,0 113.661043,35.837259,0 113.700552,35.837308,0 113.709108,35.833655,0 113.705962,35.826594,0 113.711813,35.81807,0 113.726786,35.823185,0 113.731819,35.818752,0 113.742892,35.819093,0 113.756229,35.793713,0 113.751888,35.788304,0 113.757865,35.782798,0 113.759752,35.767398,0 113.778563,35.763206,0 113.776613,35.759404,0 113.800205,35.740782,0 113.808006,35.742488,0 113.801652,35.733517,0 113.799953,35.713572,0 113.794228,35.695329,0 113.777556,35.684644,0 113.785546,35.674447,0 113.806244,35.672983,0 113.811529,35.676838,0 113.843677,35.677814,0 113.859216,35.682351,0 113.868402,35.680741,0 113.886332,35.684401,0 113.901619,35.677423,0 113.923072,35.681815,0 113.927476,35.686011,0 113.931691,35.703963,0 113.949055,35.70089,0 113.956227,35.691426,0 113.969565,35.689572,0 113.98523,35.700743,0 113.995988,35.704792,0 113.998316,35.719814,0 114.002468,35.724788,0 114.017567,35.72591,0 114.032854,35.737028,0 114.042983,35.748095,0 114.055377,35.749216,0 114.067267,35.759112,0 114.066575,35.775391,0 114.071357,35.779679,0 114.078151,35.803018,0 114.069155,35.805259,0 114.051414,35.797513,0 114.037132,35.80331,0 114.025179,35.797074,0 114.022537,35.804285,0 114.035685,35.818411,0 114.035937,35.824548,0 114.025619,35.829419,0 114.014987,35.845001,0 114.013981,35.852548,0 114.019957,35.858634,0 114.038642,35.859461,0 114.056698,35.870268,0 114.070287,35.873189,0 114.075131,35.880928,0 114.07488,35.904383,0 114.081611,35.915086,0 114.052735,35.93109,0 114.040467,35.935662,0 114.038768,35.944319,0 114.028828,35.950494,0 114.030464,35.97179,0 114.044619,35.972276,0 114.065506,35.964109,0 114.073055,35.974512,0 114.084002,35.974415,0 114.094571,35.981075,0 114.108035,35.981852,0 114.103505,35.995267,0 114.111306,36.017085,0 114.121687,36.027044,0 114.135716,36.031562,0 114.158931,36.047299,0 114.175225,36.052107,0 114.179251,36.039431,0 114.174847,36.031319,0 114.178245,36.013198,0 114.169877,36.000856,0 114.174847,35.988803,0 114.181768,35.982873,0 114.191771,35.981415,0 114.197559,35.990115,0 114.205045,35.988657,0 114.218005,35.997648,0 114.223604,35.981707,0 114.251412,35.971936,0 114.279974,35.972811,0 114.279974,35.947382,0 114.296897,35.957885,0 114.309291,35.952731,0 114.293626,35.938288,0 114.303,35.930604,0 114.295576,35.924621,0 114.290166,35.928853,0 114.277206,35.924475,0 114.270789,35.899858,0 114.280855,35.892315,0 114.274626,35.882242,0 114.250908,35.876791,0 114.244303,35.871875,0 114.243044,35.863259,0 114.234425,35.855956,0 114.229204,35.841057,0 114.237005,35.809156,0 114.241786,35.806526,0 114.24317,35.793079,0 114.250845,35.793566,0 114.263365,35.774416,0 114.25569,35.774416,0 114.255249,35.767349,0 114.270411,35.76072,0 114.284315,35.783285,0 114.294632,35.794346,0 114.328353,35.802141,0 114.350373,35.816025,0 114.364717,35.818947,0 114.396802,35.816804,0 114.408441,35.820749,0 114.43845,35.817437,0 114.445811,35.819191,0 114.451347,35.828737,0 114.47085,35.827471,0 114.478273,35.834824,0 114.509478,35.836723,0 114.55295,35.828201,0 114.566476,35.843735,0 114.57044,35.835993,0 114.587552,35.840083,0 114.597618,35.825181,0 114.611647,35.82221,0 114.613849,35.808085,0 114.636561,35.794054,0 114.658706,35.791471,0 114.675252,35.782067,0 114.695572,35.78733,0 114.709224,35.787427,0 114.719857,35.778363,0 114.751439,35.763352,0 114.753389,35.753018,0 114.751439,35.737661,0 114.735648,35.708645,0 114.727029,35.697865,0 114.707903,35.694304,0 114.705638,35.689523,0 114.687897,35.684157,0 114.677454,35.671031,0 114.672924,35.65395,0 114.660719,35.651119,0 114.645243,35.654828,0 114.618694,35.647458,0 114.615611,35.636572,0 114.591704,35.629054,0 114.576857,35.616798,0 114.558361,35.613477,0 114.549301,35.614796,0 114.54345,35.602635,0 114.502558,35.609277,0 114.495008,35.600047,0 114.500167,35.593404,0 114.497587,35.584123,0 114.482677,35.584416,0 114.486137,35.573033,0 114.476071,35.565215,0 114.455499,35.557641,0 114.426182,35.54425,0 114.416871,35.533839,0 114.402275,35.526018,0 114.39504,35.508857,0 114.409259,35.489149,0 114.420394,35.483769,0 114.419073,35.474181,0</coordinates></LinearRing></outerBoundaryIs>
      </Polygon>
    </MultiGeometry>
    </Placemark>
  </Document>
</kml>
