<?xml version="1.0" encoding="UTF-8"?>
<kml xmlns="http://www.opengis.net/kml/2.2">
  <Document>
    <name><![CDATA[洛阳市]]></name>
    <Placemark>
      <name><![CDATA[洛阳市]]></name>
      <description><![CDATA[省级目录：河南省]]></description>
      <ExtendedData>
        <Data name="adcode"><value>410300</value></Data>
      </ExtendedData>
      <MultiGeometry>
      <Polygon>
        <outerBoundaryIs><LinearRing><coordinates>111.260813,33.796775,0 111.270816,33.781699,0 111.288558,33.779702,0 111.304223,33.775008,0 111.315044,33.764073,0 111.322467,33.762974,0 111.336245,33.768317,0 111.348387,33.764822,0 111.390035,33.771264,0 111.398906,33.768168,0 111.4342,33.747742,0 111.469808,33.738052,0 111.484529,33.726462,0 111.495476,33.725663,0 111.516048,33.7405,0 111.523975,33.742847,0 111.541402,33.733406,0 111.567699,33.735005,0 111.59148,33.727711,0 111.619476,33.730059,0 111.645207,33.720517,0 111.665151,33.695582,0 111.684968,33.677489,0 111.719003,33.688885,0 111.728629,33.688086,0 111.778078,33.666091,0 111.819411,33.652892,0 111.82759,33.634189,0 111.827716,33.606228,0 111.832749,33.598723,0 111.843444,33.595821,0 111.863953,33.599174,0 111.884526,33.596121,0 111.899184,33.588666,0 111.916359,33.572102,0 111.930137,33.571051,0 111.994182,33.584913,0 112.020353,33.587715,0 112.028343,33.593019,0 112.024191,33.600024,0 112.018655,33.59437,0 112.012301,33.602626,0 112.014943,33.613632,0 112.024757,33.622436,0 112.038535,33.622386,0 112.059044,33.605227,0 112.065713,33.607479,0 112.087481,33.603076,0 112.092199,33.607228,0 112.084146,33.628988,0 112.076345,33.633689,0 112.071312,33.648192,0 112.074018,33.653142,0 112.104719,33.661392,0 112.120573,33.668841,0 112.13089,33.676939,0 112.141774,33.691634,0 112.15033,33.713672,0 112.158509,33.720117,0 112.168638,33.721766,0 112.17776,33.715621,0 112.179207,33.703278,0 112.184995,33.698731,0 112.214752,33.713972,0 112.230103,33.71702,0 112.239917,33.715321,0 112.249354,33.719018,0 112.24797,33.72871,0 112.263446,33.743596,0 112.266907,33.769766,0 112.259168,33.776007,0 112.260049,33.781849,0 112.277413,33.791684,0 112.273953,33.801667,0 112.285906,33.808755,0 112.301383,33.811001,0 112.323402,33.828467,0 112.351461,33.834605,0 112.363854,33.840143,0 112.372222,33.838297,0 112.40978,33.80591,0 112.42381,33.806559,0 112.433687,33.810951,0 112.45665,33.836451,0 112.462312,33.84583,0 112.474643,33.855458,0 112.48559,33.859848,0 112.512768,33.85895,0 112.534095,33.880247,0 112.541393,33.892165,0 112.536423,33.902236,0 112.51497,33.906374,0 112.502576,33.913004,0 112.497858,33.926064,0 112.530761,33.937975,0 112.538121,33.947344,0 112.539065,33.968071,0 112.546803,33.979777,0 112.547118,33.998304,0 112.56964,34.003035,0 112.549383,34.016529,0 112.533718,34.018122,0 112.538625,34.027084,0 112.572346,34.043162,0 112.577253,34.062373,0 112.601222,34.071827,0 112.602544,34.088792,0 112.608206,34.114209,0 112.616196,34.128928,0 112.620285,34.143148,0 112.611666,34.15816,0 112.595623,34.163529,0 112.589395,34.18614,0 112.583544,34.19096,0 112.559763,34.224988,0 112.577819,34.246988,0 112.575617,34.254336,0 112.557876,34.263719,0 112.553724,34.27608,0 112.569703,34.284815,0 112.573226,34.298314,0 112.597133,34.317962,0 112.613994,34.322328,0 112.607262,34.327934,0 112.623682,34.337854,0 112.650168,34.341078,0 112.659605,34.333936,0 112.65734,34.320592,0 112.669294,34.324908,0 112.688356,34.326743,0 112.701001,34.335077,0 112.73057,34.330414,0 112.741265,34.333738,0 112.75693,34.330662,0 112.776622,34.345046,0 112.760076,34.346584,0 112.756805,34.357394,0 112.732898,34.350898,0 112.728117,34.361163,0 112.730318,34.377426,0 112.721825,34.380152,0 112.72409,34.388877,0 112.733653,34.39309,0 112.735918,34.404242,0 112.729626,34.416978,0 112.736673,34.422578,0 112.741894,34.433973,0 112.744285,34.4683,0 112.740384,34.491077,0 112.767374,34.49479,0 112.774609,34.500137,0 112.798012,34.487166,0 112.806002,34.479243,0 112.838024,34.477164,0 112.856017,34.478402,0 112.862371,34.473648,0 112.896155,34.475827,0 112.905215,34.468201,0 112.922956,34.47657,0 112.920125,34.482016,0 112.927297,34.499691,0 112.925598,34.509789,0 112.929813,34.526023,0 112.947995,34.531467,0 112.976683,34.53117,0 112.984736,34.539038,0 112.967749,34.541264,0 112.952273,34.547647,0 112.929562,34.547548,0 112.910751,34.545173,0 112.890682,34.547102,0 112.87898,34.560015,0 112.877722,34.567731,0 112.864133,34.580146,0 112.862183,34.590284,0 112.846329,34.58885,0 112.839408,34.596514,0 112.845574,34.609913,0 112.840226,34.623161,0 112.82475,34.625188,0 112.825001,34.628698,0 112.841799,34.628648,0 112.847147,34.640362,0 112.831041,34.656669,0 112.835885,34.667785,0 112.829217,34.683346,0 112.830223,34.694163,0 112.8496,34.699694,0 112.867782,34.708089,0 112.879735,34.705077,0 112.893827,34.694953,0 112.901692,34.693521,0 112.91635,34.710953,0 112.931764,34.711694,0 112.939502,34.72384,0 112.909933,34.737465,0 112.902258,34.753161,0 112.908486,34.757405,0 112.909367,34.771123,0 112.89993,34.780596,0 112.887914,34.782718,0 112.875017,34.779659,0 112.846329,34.780054,0 112.837144,34.782915,0 112.817263,34.778278,0 112.810595,34.784938,0 112.80984,34.7951,0 112.814118,34.811475,0 112.827266,34.819218,0 112.813363,34.832877,0 112.78782,34.83761,0 112.773288,34.835884,0 112.753281,34.828587,0 112.72214,34.828833,0 112.696723,34.840617,0 112.676088,34.853188,0 112.656648,34.859645,0 112.638215,34.854174,0 112.636328,34.88266,0 112.642115,34.895717,0 112.638152,34.896998,0 112.638404,34.919756,0 112.618209,34.920298,0 112.585369,34.926503,0 112.579329,34.933398,0 112.578134,34.944083,0 112.571654,34.948761,0 112.5692,34.958608,0 112.563853,34.949696,0 112.551207,34.938569,0 112.527867,34.932019,0 112.519436,34.940341,0 112.505155,34.942459,0 112.496914,34.921726,0 112.511447,34.92084,0 112.515976,34.929212,0 112.527426,34.929163,0 112.537304,34.916013,0 112.534221,34.893746,0 112.521072,34.892761,0 112.505659,34.898821,0 112.496536,34.895717,0 112.489616,34.90286,0 112.462501,34.915668,0 112.433247,34.920987,0 112.39097,34.918574,0 112.384993,34.924533,0 112.360268,34.931428,0 112.334537,34.941425,0 112.3212,34.941375,0 112.301068,34.945462,0 112.28188,34.960232,0 112.267284,34.953537,0 112.258099,34.942212,0 112.247844,34.940735,0 112.226831,34.956589,0 112.212047,34.965007,0 112.1877,34.972981,0 112.169896,35.00241,0 112.1514,35.015399,0 112.125857,35.021204,0 112.108242,35.029222,0 112.09352,35.029911,0 112.042436,35.027845,0 112.035075,35.033845,0 112.038912,35.045501,0 112.035264,35.053714,0 112.023814,35.060843,0 112.021171,35.067973,0 112.006009,35.065367,0 111.973358,35.070234,0 111.958699,35.062908,0 111.958573,35.0486,0 111.939511,35.0366,0 111.940203,35.030599,0 111.967067,35.014169,0 111.991917,35.005018,0 111.978139,34.997195,0 111.981033,34.990059,0 111.967192,34.989912,0 111.95763,34.986221,0 111.961153,34.975689,0 111.983235,34.970471,0 111.981914,34.960626,0 111.950835,34.947776,0 111.933975,34.947678,0 111.921707,34.934038,0 111.906168,34.929606,0 111.890062,34.920347,0 111.88396,34.911974,0 111.883267,34.894239,0 111.898744,34.885912,0 111.922336,34.883941,0 111.949829,34.863391,0 111.948948,34.852301,0 111.957944,34.851167,0 111.981411,34.857624,0 111.990722,34.853779,0 111.982858,34.846139,0 111.986003,34.837856,0 112.01444,34.817985,0 112.020731,34.811327,0 112.012804,34.803781,0 112.016327,34.797073,0 112.030105,34.792584,0 112.031992,34.782965,0 112.031174,34.777735,0 112.017459,34.769939,0 112.019347,34.762587,0 112.011042,34.750644,0 111.997831,34.750693,0 112.000536,34.745017,0 111.995692,34.736823,0 112.014125,34.731048,0 112.01488,34.724235,0 111.997642,34.717125,0 111.993238,34.693866,0 111.982921,34.695052,0 111.984997,34.686013,0 111.972855,34.66739,0 111.980089,34.654,0 111.971408,34.65069,0 111.967444,34.64308,0 111.953666,34.639521,0 111.943223,34.629637,0 111.94165,34.620492,0 111.928879,34.600272,0 111.905664,34.6198,0 111.888867,34.61891,0 111.863953,34.647082,0 111.830736,34.649207,0 111.823752,34.646242,0 111.821362,34.634431,0 111.811296,34.633887,0 111.797078,34.626028,0 111.778393,34.608331,0 111.764112,34.609171,0 111.758764,34.597454,0 111.740079,34.600272,0 111.702835,34.584943,0 111.696292,34.575744,0 111.687044,34.571886,0 111.672008,34.572232,0 111.681445,34.547647,0 111.692643,34.535673,0 111.683584,34.533298,0 111.670058,34.540571,0 111.619099,34.55576,0 111.608089,34.56229,0 111.594437,34.565308,0 111.584434,34.556057,0 111.574305,34.564467,0 111.562037,34.558728,0 111.544736,34.544925,0 111.538634,34.543342,0 111.525045,34.54829,0 111.5029,34.545074,0 111.489437,34.533842,0 111.484655,34.525528,0 111.45754,34.512561,0 111.451689,34.505928,0 111.418346,34.490829,0 111.394816,34.482016,0 111.385065,34.473103,0 111.370595,34.473301,0 111.358642,34.480333,0 111.344424,34.472955,0 111.324732,34.471717,0 111.306676,34.474193,0 111.300008,34.488948,0 111.289313,34.485581,0 111.271383,34.470677,0 111.272012,34.447547,0 111.244708,34.453788,0 111.227533,34.459732,0 111.220235,34.457949,0 111.213252,34.437441,0 111.21344,34.429812,0 111.197712,34.418762,0 111.191232,34.41792,0 111.188967,34.399286,0 111.171415,34.394974,0 111.156819,34.394677,0 111.147949,34.38853,0 111.141217,34.373113,0 111.138449,34.35675,0 111.141217,34.353031,0 111.159839,34.350799,0 111.166634,34.344798,0 111.16915,34.334878,0 111.185444,34.31697,0 111.191547,34.301837,0 111.181921,34.27876,0 111.182488,34.256421,0 111.187772,34.250265,0 111.180915,34.230203,0 111.166571,34.228962,0 111.158958,34.223101,0 111.175819,34.209541,0 111.207401,34.197419,0 111.214699,34.181221,0 111.234516,34.178537,0 111.248671,34.162882,0 111.253201,34.15309,0 111.267922,34.146528,0 111.276856,34.148318,0 111.281889,34.138524,0 111.296925,34.145137,0 111.305292,34.140165,0 111.306362,34.125149,0 111.313408,34.116546,0 111.334735,34.115601,0 111.344738,34.109037,0 111.358768,34.108788,0 111.367198,34.092473,0 111.354301,34.084464,0 111.342096,34.056053,0 111.342285,34.037936,0 111.355119,34.015185,0 111.353609,33.996263,0 111.356,33.984509,0 111.344109,33.973351,0 111.324795,33.963039,0 111.305921,33.941364,0 111.303342,33.928207,0 111.29013,33.926662,0 111.276793,33.935533,0 111.259366,33.929852,0 111.239989,33.933141,0 111.230049,33.924768,0 111.226652,33.913104,0 111.234768,33.901738,0 111.234516,33.894857,0 111.212811,33.884087,0 111.206017,33.891616,0 111.203689,33.883438,0 111.21948,33.872766,0 111.216397,33.865135,0 111.232062,33.856805,0 111.240304,33.842488,0 111.261568,33.822878,0 111.260813,33.796775,0</coordinates></LinearRing></outerBoundaryIs>
      </Polygon>
      <Polygon>
        <outerBoundaryIs><LinearRing><coordinates>112.028784,34.778968,0 112.030231,34.782668,0 112.018466,34.785678,0 112.021171,34.777537,0 112.028784,34.778968,0</coordinates></LinearRing></outerBoundaryIs>
      </Polygon>
    </MultiGeometry>
    </Placemark>
  </Document>
</kml>
