<?xml version="1.0" encoding="UTF-8"?>
<kml xmlns="http://www.opengis.net/kml/2.2">
  <Document>
    <name><![CDATA[济源市]]></name>
    <Placemark>
      <name><![CDATA[济源市]]></name>
      <description><![CDATA[省级目录：河南省]]></description>
      <ExtendedData>
        <Data name="adcode"><value>419001</value></Data>
      </ExtendedData>
      <MultiGeometry>
      <Polygon>
        <outerBoundaryIs><LinearRing><coordinates>112.758,35.204436,0 112.744662,35.205123,0 112.735351,35.210424,0 112.720315,35.206448,0 112.71264,35.18701,0 112.703077,35.20154,0 112.707418,35.216951,0 112.695339,35.218718,0 112.684267,35.227256,0 112.682694,35.233733,0 112.67288,35.234272,0 112.655012,35.244232,0 112.651426,35.259242,0 112.645009,35.260566,0 112.639159,35.247862,0 112.633056,35.265569,0 112.618335,35.254043,0 112.617643,35.244575,0 112.634188,35.239326,0 112.637208,35.225686,0 112.619027,35.220043,0 112.602544,35.22284,0 112.574988,35.221122,0 112.567879,35.211749,0 112.559071,35.21278,0 112.536234,35.223429,0 112.513523,35.21857,0 112.489805,35.229955,0 112.482444,35.224655,0 112.472378,35.230298,0 112.45772,35.226373,0 112.423999,35.23805,0 112.401413,35.241877,0 112.390718,35.238786,0 112.376751,35.224115,0 112.367315,35.22019,0 112.320697,35.21911,0 112.306667,35.220975,0 112.288548,35.21754,0 112.304465,35.251884,0 112.294462,35.252816,0 112.282823,35.242024,0 112.261307,35.24119,0 112.242748,35.234812,0 112.21664,35.240209,0 112.220792,35.247028,0 112.217269,35.253258,0 112.191097,35.256348,0 112.173545,35.263803,0 112.134287,35.271258,0 112.120006,35.265275,0 112.110947,35.27013,0 112.115665,35.273072,0 112.093961,35.279202,0 112.075842,35.277143,0 112.058793,35.279889,0 112.055018,35.271454,0 112.067978,35.265275,0 112.079617,35.242367,0 112.08119,35.221613,0 112.058919,35.206301,0 112.042058,35.200264,0 112.041492,35.189808,0 112.051935,35.177044,0 112.066279,35.153522,0 112.060177,35.140752,0 112.067223,35.136233,0 112.056276,35.098449,0 112.056591,35.089061,0 112.062756,35.078591,0 112.062127,35.055779,0 112.053571,35.044223,0 112.038912,35.045501,0 112.035075,35.033845,0 112.042436,35.027845,0 112.09352,35.029911,0 112.108242,35.029222,0 112.125857,35.021204,0 112.1514,35.015399,0 112.169896,35.00241,0 112.1877,34.972981,0 112.212047,34.965007,0 112.226831,34.956589,0 112.247844,34.940735,0 112.258099,34.942212,0 112.267284,34.953537,0 112.28188,34.960232,0 112.301068,34.945462,0 112.3212,34.941375,0 112.334537,34.941425,0 112.360268,34.931428,0 112.384993,34.924533,0 112.39097,34.918574,0 112.433247,34.920987,0 112.462501,34.915668,0 112.489616,34.90286,0 112.496536,34.895717,0 112.505659,34.898821,0 112.521072,34.892761,0 112.534221,34.893746,0 112.537304,34.916013,0 112.527426,34.929163,0 112.515976,34.929212,0 112.511447,34.92084,0 112.496914,34.921726,0 112.505155,34.942459,0 112.519436,34.940341,0 112.527867,34.932019,0 112.551207,34.938569,0 112.563853,34.949696,0 112.5692,34.958608,0 112.579392,34.971751,0 112.596001,34.971013,0 112.614182,34.98002,0 112.624752,34.977903,0 112.644695,34.978888,0 112.653062,34.988681,0 112.666462,34.9875,0 112.675962,34.993504,0 112.684581,35.012497,0 112.698988,35.023221,0 112.72711,35.035026,0 112.735289,35.043338,0 112.736043,35.060008,0 112.743341,35.06458,0 112.753219,35.08508,0 112.754288,35.098891,0 112.766304,35.107196,0 112.761963,35.158041,0 112.76687,35.182985,0 112.758,35.204436,0</coordinates></LinearRing></outerBoundaryIs>
      </Polygon>
    </MultiGeometry>
    </Placemark>
  </Document>
</kml>
