<?xml version="1.0" encoding="UTF-8"?>
<kml xmlns="http://www.opengis.net/kml/2.2">
  <Document>
    <name><![CDATA[漯河市]]></name>
    <Placemark>
      <name><![CDATA[漯河市]]></name>
      <description><![CDATA[省级目录：河南省]]></description>
      <ExtendedData>
        <Data name="adcode"><value>411100</value></Data>
      </ExtendedData>
      <MultiGeometry>
      <Polygon>
        <outerBoundaryIs><LinearRing><coordinates>113.688347,33.407737,0 113.693065,33.418216,0 113.710429,33.417013,0 113.713197,33.430249,0 113.721187,33.432705,0 113.766861,33.432154,0 113.771139,33.435713,0 113.799513,33.43481,0 113.805804,33.446189,0 113.825999,33.460723,0 113.847515,33.466836,0 113.856134,33.47796,0 113.865508,33.479362,0 113.914139,33.478511,0 113.933768,33.465884,0 113.94528,33.465633,0 113.95434,33.473901,0 113.967929,33.477408,0 113.9712,33.482619,0 113.981329,33.482268,0 113.998693,33.500904,0 114.001084,33.510671,0 114.01354,33.511071,0 114.014924,33.522039,0 114.033735,33.523892,0 114.038579,33.5296,0 114.052168,33.528999,0 114.055692,33.523942,0 114.075572,33.517782,0 114.099101,33.503108,0 114.116276,33.51027,0 114.118101,33.502406,0 114.104071,33.499351,0 114.103505,33.491586,0 114.115836,33.488631,0 114.130683,33.495093,0 114.131501,33.472298,0 114.151507,33.468139,0 114.150312,33.460372,0 114.159937,33.456713,0 114.171639,33.459019,0 114.180384,33.453656,0 114.171324,33.440926,0 114.190575,33.426489,0 114.195294,33.447692,0 114.211399,33.453757,0 114.230714,33.451551,0 114.247574,33.45967,0 114.266636,33.461625,0 114.284629,33.472548,0 114.279785,33.489282,0 114.283371,33.500353,0 114.281106,33.513976,0 114.289348,33.522089,0 114.295324,33.553782,0 114.282868,33.558688,0 114.278653,33.57015,0 114.265378,33.593219,0 114.265881,33.597923,0 114.279659,33.604427,0 114.277332,33.621735,0 114.264938,33.635239,0 114.264183,33.654742,0 114.260849,33.661942,0 114.259842,33.680588,0 114.250783,33.693233,0 114.249084,33.704328,0 114.214231,33.691334,0 114.196489,33.690934,0 114.186549,33.682538,0 114.186235,33.67219,0 114.169563,33.664791,0 114.162265,33.669941,0 114.152639,33.662242,0 114.149745,33.650442,0 114.125398,33.652842,0 114.116402,33.651392,0 114.118226,33.67159,0 114.115836,33.684587,0 114.097717,33.683187,0 114.091489,33.71642,0 114.095263,33.728061,0 114.106839,33.739051,0 114.10319,33.756832,0 114.098032,33.765072,0 114.133262,33.768118,0 114.142007,33.765921,0 114.139931,33.783097,0 114.133703,33.791484,0 114.134772,33.806409,0 114.145404,33.810551,0 114.15503,33.809304,0 114.159623,33.816191,0 114.145971,33.841939,0 114.132445,33.853613,0 114.115081,33.863788,0 114.116465,33.872068,0 114.128418,33.885433,0 114.125902,33.915547,0 114.114515,33.928058,0 114.103757,33.925815,0 114.103882,33.934736,0 114.087336,33.934686,0 114.076704,33.952676,0 114.064877,33.949237,0 114.057453,33.952875,0 114.059152,33.96538,0 114.053867,33.978781,0 114.037762,33.986053,0 114.021971,33.987248,0 113.99907,33.981819,0 113.977492,33.98152,0 113.951949,33.97365,0 113.922066,33.957409,0 113.916341,33.945849,0 113.901305,33.94849,0 113.90055,33.943009,0 113.88803,33.943407,0 113.885765,33.948988,0 113.870226,33.945401,0 113.859783,33.94859,0 113.857455,33.939769,0 113.871296,33.909615,0 113.860097,33.907222,0 113.861481,33.884486,0 113.853051,33.873315,0 113.826565,33.875808,0 113.811718,33.879449,0 113.811969,33.885782,0 113.806936,33.880995,0 113.797814,33.883887,0 113.78303,33.880945,0 113.77806,33.884934,0 113.76554,33.883638,0 113.773719,33.877654,0 113.760318,33.868477,0 113.738802,33.868627,0 113.735908,33.859199,0 113.725528,33.856406,0 113.722445,33.848624,0 113.729554,33.845032,0 113.731127,33.835652,0 113.759312,33.827918,0 113.761262,33.807756,0 113.752958,33.791484,0 113.752895,33.771463,0 113.742703,33.76672,0 113.734399,33.752337,0 113.737167,33.741948,0 113.750378,33.7398,0 113.762206,33.731808,0 113.75906,33.717519,0 113.74371,33.713422,0 113.741822,33.702329,0 113.724018,33.695632,0 113.716406,33.710624,0 113.710303,33.707876,0 113.70678,33.693683,0 113.701936,33.691234,0 113.684257,33.693833,0 113.670983,33.699081,0 113.645063,33.695932,0 113.637388,33.702679,0 113.637954,33.695532,0 113.629335,33.688885,0 113.612475,33.695732,0 113.598256,33.687536,0 113.596746,33.698081,0 113.6087,33.709175,0 113.585485,33.711024,0 113.576677,33.706327,0 113.584101,33.698131,0 113.580515,33.681738,0 113.587624,33.654642,0 113.596746,33.651892,0 113.619143,33.63799,0 113.628203,33.629038,0 113.621534,33.619885,0 113.604673,33.613131,0 113.579383,33.597222,0 113.576803,33.592619,0 113.552267,33.586715,0 113.554281,33.5706,0 113.563151,33.57055,0 113.557363,33.553582,0 113.545536,33.548626,0 113.537672,33.51633,0 113.533708,33.514978,0 113.537609,33.498499,0 113.532073,33.497347,0 113.525278,33.505061,0 113.510808,33.505011,0 113.50307,33.500252,0 113.483001,33.500152,0 113.478597,33.50431,0 113.484322,33.483721,0 113.471803,33.463378,0 113.473501,33.443683,0 113.466518,33.437367,0 113.468846,33.422077,0 113.483945,33.421124,0 113.506341,33.414607,0 113.51754,33.407186,0 113.526662,33.419269,0 113.539811,33.419019,0 113.54736,33.406433,0 113.574727,33.407537,0 113.589008,33.404728,0 113.596809,33.41215,0 113.620842,33.410946,0 113.645252,33.421776,0 113.651669,33.418417,0 113.659407,33.424283,0 113.683125,33.41952,0 113.688347,33.407737,0</coordinates></LinearRing></outerBoundaryIs>
      </Polygon>
    </MultiGeometry>
    </Placemark>
  </Document>
</kml>
