<?xml version="1.0" encoding="UTF-8"?>
<kml xmlns="http://www.opengis.net/kml/2.2">
  <Document>
    <name><![CDATA[焦作市]]></name>
    <Placemark>
      <name><![CDATA[焦作市]]></name>
      <description><![CDATA[省级目录：河南省]]></description>
      <ExtendedData>
        <Data name="adcode"><value>410800</value></Data>
      </ExtendedData>
      <MultiGeometry>
      <Polygon>
        <outerBoundaryIs><LinearRing><coordinates>112.827266,34.819218,0 112.838653,34.812116,0 112.853501,34.810736,0 112.866461,34.829524,0 112.873192,34.832827,0 112.879106,34.849688,0 112.884516,34.853089,0 112.902321,34.852301,0 112.914148,34.84747,0 112.938181,34.831595,0 112.943025,34.831102,0 112.976117,34.847765,0 112.989077,34.856343,0 112.992851,34.863539,0 113.004364,34.864081,0 113.025063,34.854913,0 113.039595,34.841948,0 113.06023,34.83756,0 113.107666,34.844709,0 113.119431,34.853977,0 113.14793,34.856096,0 113.139815,34.884631,0 113.179512,34.893697,0 113.197631,34.900299,0 113.227703,34.908427,0 113.236951,34.925174,0 113.239342,34.939504,0 113.243934,34.946201,0 113.260543,34.953586,0 113.28986,34.952601,0 113.315277,34.942212,0 113.333018,34.944871,0 113.343462,34.950533,0 113.362587,34.970323,0 113.37561,34.98002,0 113.407821,34.989518,0 113.427198,34.983563,0 113.429463,34.964761,0 113.449658,34.960232,0 113.477339,34.957278,0 113.495835,34.959937,0 113.515086,34.965992,0 113.543271,34.96801,0 113.552582,34.965155,0 113.57479,34.950583,0 113.592091,34.933743,0 113.595299,34.961857,0 113.60763,34.982382,0 113.617696,34.992175,0 113.634494,34.997687,0 113.644371,35.004379,0 113.634431,35.008167,0 113.629964,35.016777,0 113.645503,35.019236,0 113.645503,35.038075,0 113.620464,35.068513,0 113.607064,35.099284,0 113.60027,35.120709,0 113.593852,35.131173,0 113.564598,35.127685,0 113.565102,35.137461,0 113.542642,35.144632,0 113.534967,35.151803,0 113.532828,35.164572,0 113.521063,35.192901,0 113.52144,35.211504,0 113.528172,35.220141,0 113.54044,35.228384,0 113.538804,35.243201,0 113.523265,35.263656,0 113.518798,35.288813,0 113.511878,35.293961,0 113.486461,35.294108,0 113.485014,35.316265,0 113.478157,35.327195,0 113.480044,35.33974,0 113.466581,35.349686,0 113.469978,35.353214,0 113.465952,35.363844,0 113.476207,35.363942,0 113.482246,35.369967,0 113.462366,35.396853,0 113.458843,35.413304,0 113.447707,35.432443,0 113.427638,35.448887,0 113.404046,35.46151,0 113.392093,35.472225,0 113.390772,35.485774,0 113.383159,35.495067,0 113.370766,35.4801,0 113.357743,35.479415,0 113.34818,35.46836,0 113.325909,35.469289,0 113.31232,35.481274,0 113.295522,35.47154,0 113.294705,35.467284,0 113.309426,35.466158,0 113.322197,35.461559,0 113.323959,35.453339,0 113.315151,35.451871,0 113.306406,35.460777,0 113.299486,35.450208,0 113.297347,35.438512,0 113.304393,35.42701,0 113.27841,35.435135,0 113.265387,35.434597,0 113.262116,35.440763,0 113.253497,35.440274,0 113.244815,35.448446,0 113.230031,35.453242,0 113.208515,35.447272,0 113.190019,35.449082,0 113.190962,35.434107,0 113.184482,35.424759,0 113.188572,35.415654,0 113.185237,35.409045,0 113.175737,35.414528,0 113.164224,35.408555,0 113.167056,35.400232,0 113.177247,35.397833,0 113.170138,35.386717,0 113.154662,35.380889,0 113.154159,35.36933,0 113.148748,35.370163,0 113.148874,35.351205,0 113.136669,35.347334,0 113.13799,35.336261,0 113.12654,35.332242,0 113.107603,35.340818,0 113.096216,35.337388,0 113.084074,35.340524,0 113.067151,35.353557,0 113.060608,35.352283,0 113.039658,35.360219,0 113.020218,35.356006,0 112.998199,35.362472,0 112.990838,35.355712,0 112.994047,35.345424,0 112.985302,35.338123,0 112.986309,35.316608,0 112.99153,35.302344,0 112.988951,35.28999,0 112.982785,35.287244,0 112.964667,35.293127,0 112.948184,35.285969,0 112.936042,35.2844,0 112.936671,35.271895,0 112.929687,35.256888,0 112.907102,35.245801,0 112.893639,35.248647,0 112.884705,35.244232,0 112.868096,35.243888,0 112.857087,35.247371,0 112.855136,35.253307,0 112.822233,35.258114,0 112.798264,35.238688,0 112.784423,35.234567,0 112.784926,35.222938,0 112.767248,35.204093,0 112.758,35.204436,0 112.76687,35.182985,0 112.761963,35.158041,0 112.766304,35.107196,0 112.754288,35.098891,0 112.753219,35.08508,0 112.743341,35.06458,0 112.736043,35.060008,0 112.735289,35.043338,0 112.72711,35.035026,0 112.698988,35.023221,0 112.684581,35.012497,0 112.675962,34.993504,0 112.666462,34.9875,0 112.653062,34.988681,0 112.644695,34.978888,0 112.624752,34.977903,0 112.614182,34.98002,0 112.596001,34.971013,0 112.579392,34.971751,0 112.5692,34.958608,0 112.571654,34.948761,0 112.578134,34.944083,0 112.579329,34.933398,0 112.585369,34.926503,0 112.618209,34.920298,0 112.638404,34.919756,0 112.638152,34.896998,0 112.642115,34.895717,0 112.636328,34.88266,0 112.638215,34.854174,0 112.656648,34.859645,0 112.676088,34.853188,0 112.696723,34.840617,0 112.72214,34.828833,0 112.753281,34.828587,0 112.773288,34.835884,0 112.78782,34.83761,0 112.813363,34.832877,0 112.827266,34.819218,0</coordinates></LinearRing></outerBoundaryIs>
      </Polygon>
    </MultiGeometry>
    </Placemark>
  </Document>
</kml>
