<?xml version="1.0" encoding="UTF-8"?>
<kml xmlns="http://www.opengis.net/kml/2.2">
  <Document>
    <name><![CDATA[郑州市]]></name>
    <Placemark>
      <name><![CDATA[郑州市]]></name>
      <description><![CDATA[省级目录：河南省]]></description>
      <ExtendedData>
        <Data name="adcode"><value>410100</value></Data>
      </ExtendedData>
      <MultiGeometry>
      <Polygon>
        <outerBoundaryIs><LinearRing><coordinates>114.22071,34.919066,0 114.208505,34.926602,0 114.200704,34.939504,0 114.172834,34.931871,0 114.160566,34.933496,0 114.120491,34.956638,0 114.101869,34.954768,0 114.080542,34.944527,0 114.051225,34.944527,0 114.028451,34.959346,0 114.018385,34.958608,0 113.985293,34.928276,0 113.973654,34.910447,0 113.953585,34.898082,0 113.905331,34.901333,0 113.870163,34.885666,0 113.826062,34.877683,0 113.800456,34.87995,0 113.78649,34.890445,0 113.777116,34.905028,0 113.766106,34.91488,0 113.749057,34.919017,0 113.725528,34.917392,0 113.716846,34.913402,0 113.684824,34.906358,0 113.670731,34.910299,0 113.665069,34.918525,0 113.650348,34.928769,0 113.631348,34.929311,0 113.592091,34.933743,0 113.57479,34.950583,0 113.552582,34.965155,0 113.543271,34.96801,0 113.515086,34.965992,0 113.495835,34.959937,0 113.477339,34.957278,0 113.449658,34.960232,0 113.429463,34.964761,0 113.427198,34.983563,0 113.407821,34.989518,0 113.37561,34.98002,0 113.362587,34.970323,0 113.343462,34.950533,0 113.333018,34.944871,0 113.315277,34.942212,0 113.28986,34.952601,0 113.260543,34.953586,0 113.243934,34.946201,0 113.239342,34.939504,0 113.236951,34.925174,0 113.227703,34.908427,0 113.197631,34.900299,0 113.179512,34.893697,0 113.139815,34.884631,0 113.14793,34.856096,0 113.119431,34.853977,0 113.107666,34.844709,0 113.06023,34.83756,0 113.039595,34.841948,0 113.025063,34.854913,0 113.004364,34.864081,0 112.992851,34.863539,0 112.989077,34.856343,0 112.976117,34.847765,0 112.943025,34.831102,0 112.938181,34.831595,0 112.914148,34.84747,0 112.902321,34.852301,0 112.884516,34.853089,0 112.879106,34.849688,0 112.873192,34.832827,0 112.866461,34.829524,0 112.853501,34.810736,0 112.838653,34.812116,0 112.827266,34.819218,0 112.814118,34.811475,0 112.80984,34.7951,0 112.810595,34.784938,0 112.817263,34.778278,0 112.837144,34.782915,0 112.846329,34.780054,0 112.875017,34.779659,0 112.887914,34.782718,0 112.89993,34.780596,0 112.909367,34.771123,0 112.908486,34.757405,0 112.902258,34.753161,0 112.909933,34.737465,0 112.939502,34.72384,0 112.931764,34.711694,0 112.91635,34.710953,0 112.901692,34.693521,0 112.893827,34.694953,0 112.879735,34.705077,0 112.867782,34.708089,0 112.8496,34.699694,0 112.830223,34.694163,0 112.829217,34.683346,0 112.835885,34.667785,0 112.831041,34.656669,0 112.847147,34.640362,0 112.841799,34.628648,0 112.825001,34.628698,0 112.82475,34.625188,0 112.840226,34.623161,0 112.845574,34.609913,0 112.839408,34.596514,0 112.846329,34.58885,0 112.862183,34.590284,0 112.864133,34.580146,0 112.877722,34.567731,0 112.87898,34.560015,0 112.890682,34.547102,0 112.910751,34.545173,0 112.929562,34.547548,0 112.952273,34.547647,0 112.967749,34.541264,0 112.984736,34.539038,0 112.976683,34.53117,0 112.947995,34.531467,0 112.929813,34.526023,0 112.925598,34.509789,0 112.927297,34.499691,0 112.920125,34.482016,0 112.922956,34.47657,0 112.905215,34.468201,0 112.896155,34.475827,0 112.862371,34.473648,0 112.856017,34.478402,0 112.838024,34.477164,0 112.806002,34.479243,0 112.798012,34.487166,0 112.774609,34.500137,0 112.767374,34.49479,0 112.740384,34.491077,0 112.744285,34.4683,0 112.741894,34.433973,0 112.736673,34.422578,0 112.729626,34.416978,0 112.735918,34.404242,0 112.733653,34.39309,0 112.72409,34.388877,0 112.721825,34.380152,0 112.730318,34.377426,0 112.728117,34.361163,0 112.732898,34.350898,0 112.756805,34.357394,0 112.760076,34.346584,0 112.776622,34.345046,0 112.787002,34.343261,0 112.788953,34.331158,0 112.81223,34.340037,0 112.824184,34.33344,0 112.83318,34.333638,0 112.854633,34.316325,0 112.842114,34.311612,0 112.84117,34.297818,0 112.856458,34.302185,0 112.87357,34.298016,0 112.884516,34.30144,0 112.91245,34.293749,0 112.936293,34.295535,0 112.954097,34.302135,0 112.960829,34.297867,0 112.992977,34.296478,0 113.013235,34.300398,0 113.020847,34.290424,0 113.027642,34.289282,0 113.037142,34.280299,0 113.059476,34.280944,0 113.075518,34.276527,0 113.082439,34.26645,0 113.097726,34.26223,0 113.109365,34.263471,0 113.142583,34.272804,0 113.15202,34.266351,0 113.175297,34.281639,0 113.184356,34.290225,0 113.18379,34.295634,0 113.196436,34.312257,0 113.210276,34.312009,0 113.223362,34.325057,0 113.224557,34.33473,0 113.235567,34.339045,0 113.267904,34.337805,0 113.276334,34.342814,0 113.276586,34.351444,0 113.314648,34.352287,0 113.314019,34.373856,0 113.320436,34.383375,0 113.315969,34.391157,0 113.32528,34.404986,0 113.348809,34.404738,0 113.353968,34.396411,0 113.370388,34.389918,0 113.366991,34.379805,0 113.389828,34.375988,0 113.401655,34.377525,0 113.414867,34.374947,0 113.406751,34.355213,0 113.414175,34.349361,0 113.429085,34.350303,0 113.459409,34.334432,0 113.471425,34.330811,0 113.482875,34.342864,0 113.498729,34.338598,0 113.510871,34.342715,0 113.518169,34.335771,0 113.516848,34.328579,0 113.529619,34.317913,0 113.556608,34.311513,0 113.566737,34.318359,0 113.579697,34.319897,0 113.600836,34.313299,0 113.608951,34.3132,0 113.624805,34.303375,0 113.634494,34.290026,0 113.643994,34.288488,0 113.658589,34.275037,0 113.669851,34.275385,0 113.679728,34.282532,0 113.70332,34.276725,0 113.7003,34.289381,0 113.71326,34.29092,0 113.713386,34.301391,0 113.727227,34.305757,0 113.736852,34.317863,0 113.756732,34.313795,0 113.777242,34.314589,0 113.793159,34.328083,0 113.791208,34.331803,0 113.803791,34.33721,0 113.832353,34.32342,0 113.848584,34.322725,0 113.85022,34.32719,0 113.880481,34.32972,0 113.885451,34.327785,0 113.888093,34.348369,0 113.879978,34.356056,0 113.885199,34.370485,0 113.878531,34.394577,0 113.878153,34.411478,0 113.891616,34.437342,0 113.903507,34.454185,0 113.912126,34.452352,0 113.915586,34.444922,0 113.929993,34.443485,0 113.938108,34.454729,0 113.948929,34.452699,0 113.948615,34.435063,0 113.968495,34.439324,0 113.990326,34.435707,0 114.006557,34.439225,0 114.019894,34.445368,0 114.021719,34.458989,0 114.01851,34.46721,0 114.008256,34.470082,0 114.009577,34.480135,0 114.0226,34.488552,0 114.035119,34.503998,0 114.062486,34.490532,0 114.07035,34.481472,0 114.083373,34.480927,0 114.094383,34.492265,0 114.093942,34.50182,0 114.100296,34.535178,0 114.107217,34.557887,0 114.118478,34.570155,0 114.129802,34.575348,0 114.127852,34.584943,0 114.133451,34.591025,0 114.136848,34.605711,0 114.125461,34.607886,0 114.127726,34.61718,0 114.14553,34.61456,0 114.145153,34.604277,0 114.15459,34.60576,0 114.15157,34.618268,0 114.157547,34.625979,0 114.150375,34.656669,0 114.160441,34.665611,0 114.157547,34.686507,0 114.158113,34.704336,0 114.141189,34.7191,0 114.138484,34.73475,0 114.158364,34.759379,0 114.172331,34.768311,0 114.161762,34.781238,0 114.134143,34.802154,0 114.122504,34.81833,0 114.133703,34.825628,0 114.162517,34.828883,0 114.185354,34.825628,0 114.199824,34.832729,0 114.211085,34.860877,0 114.220522,34.906801,0 114.22071,34.919066,0</coordinates></LinearRing></outerBoundaryIs>
      </Polygon>
    </MultiGeometry>
    </Placemark>
  </Document>
</kml>
