<?xml version="1.0" encoding="UTF-8"?>
<kml xmlns="http://www.opengis.net/kml/2.2">
  <Document>
    <name><![CDATA[鹤壁市]]></name>
    <Placemark>
      <name><![CDATA[鹤壁市]]></name>
      <description><![CDATA[省级目录：河南省]]></description>
      <ExtendedData>
        <Data name="adcode"><value>410600</value></Data>
      </ExtendedData>
      <MultiGeometry>
      <Polygon>
        <outerBoundaryIs><LinearRing><coordinates>113.995988,35.704792,0 114.019769,35.695621,0 114.026815,35.683766,0 114.039838,35.681522,0 114.050218,35.675667,0 114.059026,35.657366,0 114.064311,35.637793,0 114.058523,35.62671,0 114.060284,35.611377,0 114.056195,35.594528,0 114.072804,35.579629,0 114.080102,35.567316,0 114.104889,35.554269,0 114.120114,35.551142,0 114.139176,35.538336,0 114.17145,35.523965,0 114.19196,35.521862,0 114.202214,35.524845,0 114.215615,35.51756,0 114.224863,35.516533,0 114.259842,35.504945,0 114.276325,35.501277,0 114.289914,35.501815,0 114.283686,35.492181,0 114.275822,35.490176,0 114.27255,35.476187,0 114.275444,35.465376,0 114.29803,35.458722,0 114.312374,35.446978,0 114.324012,35.444531,0 114.339426,35.450648,0 114.343704,35.462147,0 114.360439,35.4688,0 114.370001,35.461755,0 114.382018,35.46655,0 114.38466,35.475355,0 114.39504,35.478192,0 114.409699,35.469191,0 114.419073,35.474181,0 114.420394,35.483769,0 114.409259,35.489149,0 114.39504,35.508857,0 114.402275,35.526018,0 114.416871,35.533839,0 114.426182,35.54425,0 114.455499,35.557641,0 114.476071,35.565215,0 114.486137,35.573033,0 114.482677,35.584416,0 114.497587,35.584123,0 114.500167,35.593404,0 114.495008,35.600047,0 114.502558,35.609277,0 114.54345,35.602635,0 114.549301,35.614796,0 114.558361,35.613477,0 114.576857,35.616798,0 114.591704,35.629054,0 114.615611,35.636572,0 114.618694,35.647458,0 114.645243,35.654828,0 114.660719,35.651119,0 114.672924,35.65395,0 114.677454,35.671031,0 114.687897,35.684157,0 114.705638,35.689523,0 114.707903,35.694304,0 114.727029,35.697865,0 114.735648,35.708645,0 114.751439,35.737661,0 114.753389,35.753018,0 114.751439,35.763352,0 114.719857,35.778363,0 114.709224,35.787427,0 114.695572,35.78733,0 114.675252,35.782067,0 114.658706,35.791471,0 114.636561,35.794054,0 114.613849,35.808085,0 114.611647,35.82221,0 114.597618,35.825181,0 114.587552,35.840083,0 114.57044,35.835993,0 114.566476,35.843735,0 114.55295,35.828201,0 114.509478,35.836723,0 114.478273,35.834824,0 114.47085,35.827471,0 114.451347,35.828737,0 114.445811,35.819191,0 114.43845,35.817437,0 114.408441,35.820749,0 114.396802,35.816804,0 114.364717,35.818947,0 114.350373,35.816025,0 114.328353,35.802141,0 114.294632,35.794346,0 114.284315,35.783285,0 114.270411,35.76072,0 114.255249,35.767349,0 114.25569,35.774416,0 114.263365,35.774416,0 114.250845,35.793566,0 114.24317,35.793079,0 114.241786,35.806526,0 114.237005,35.809156,0 114.229204,35.841057,0 114.234425,35.855956,0 114.243044,35.863259,0 114.244303,35.871875,0 114.250908,35.876791,0 114.274626,35.882242,0 114.280855,35.892315,0 114.270789,35.899858,0 114.277206,35.924475,0 114.290166,35.928853,0 114.295576,35.924621,0 114.303,35.930604,0 114.293626,35.938288,0 114.309291,35.952731,0 114.296897,35.957885,0 114.279974,35.947382,0 114.279974,35.972811,0 114.251412,35.971936,0 114.223604,35.981707,0 114.218005,35.997648,0 114.205045,35.988657,0 114.197559,35.990115,0 114.191771,35.981415,0 114.181768,35.982873,0 114.174847,35.988803,0 114.169877,36.000856,0 114.178245,36.013198,0 114.174847,36.031319,0 114.179251,36.039431,0 114.175225,36.052107,0 114.158931,36.047299,0 114.135716,36.031562,0 114.121687,36.027044,0 114.111306,36.017085,0 114.103505,35.995267,0 114.108035,35.981852,0 114.094571,35.981075,0 114.084002,35.974415,0 114.073055,35.974512,0 114.065506,35.964109,0 114.044619,35.972276,0 114.030464,35.97179,0 114.028828,35.950494,0 114.038768,35.944319,0 114.040467,35.935662,0 114.052735,35.93109,0 114.081611,35.915086,0 114.07488,35.904383,0 114.075131,35.880928,0 114.070287,35.873189,0 114.056698,35.870268,0 114.038642,35.859461,0 114.019957,35.858634,0 114.013981,35.852548,0 114.014987,35.845001,0 114.025619,35.829419,0 114.035937,35.824548,0 114.035685,35.818411,0 114.022537,35.804285,0 114.025179,35.797074,0 114.037132,35.80331,0 114.051414,35.797513,0 114.069155,35.805259,0 114.078151,35.803018,0 114.071357,35.779679,0 114.066575,35.775391,0 114.067267,35.759112,0 114.055377,35.749216,0 114.042983,35.748095,0 114.032854,35.737028,0 114.017567,35.72591,0 114.002468,35.724788,0 113.998316,35.719814,0 113.995988,35.704792,0</coordinates></LinearRing></outerBoundaryIs>
      </Polygon>
    </MultiGeometry>
    </Placemark>
  </Document>
</kml>
